{"type":"Feature","bbox":[126.89894342885245,37.43570336132188,126.98860431056904,37.495078097443184],"properties":{"regionCode":"11620","version":"vworld-20260909-3f8952dfda77-p2","name":"서울특별시 관악구","attribution":"국토교통부/K-Geo플랫폼 · VWorld 법정구역정보, CC BY 2.0 KR; 공공주택 복덕방 가공"},"geometry":{"type":"Polygon","coordinates":[[[126.9279134603656,37.495078097443184],[126.9274611184647,37.49499434415811],[126.92716751656008,37.49455707571586],[126.92663750780116,37.49414500960753],[126.92650660845969,37.493480837542364],[126.92557701217716,37.49279830503252],[126.92540605930645,37.49246515996494],[126.9253399577652,37.49193892425741],[126.92511781199836,37.491661527353195],[126.92481951928852,37.4909233483994],[126.92413808782142,37.49034880148463],[126.92419819387318,37.4903217869636],[126.9241550303548,37.489963682260026],[126.92280638508548,37.49005495573927],[126.92129904123804,37.49033350449391],[126.91945233223235,37.49027587896192],[126.91870223620977,37.49013098049895],[126.91665149825612,37.489547973909886],[126.91468314542391,37.488593312463294],[126.91357284958956,37.48800729342272],[126.91306549486374,37.48737812229416],[126.91231304699494,37.486774471459505],[126.91192104586727,37.48651156018168],[126.91125060706362,37.486257616964906],[126.90988923761554,37.485902521063345],[126.90939287671135,37.485898259695624],[126.90609770226165,37.484960587410264],[126.90552745881918,37.48491273459193],[126.90319891682243,37.48500276719931],[126.89969617189126,37.48068368947328],[126.8992243943891,37.479838052460664],[126.89894342885245,37.47894013937585],[126.90523851601422,37.48011268485193],[126.90551537208279,37.47998196811112],[126.90978586541497,37.480766140969166],[126.90993384096383,37.480253667169016],[126.90898008888404,37.480079030320546],[126.90909830748083,37.479624486718734],[126.90881170490816,37.4795519287055],[126.90863001278788,37.479083465603416],[126.90948101762491,37.478004649119555],[126.90984311762772,37.478194086693044],[126.9104708554514,37.4783551942142],[126.91064472273133,37.477964650716295],[126.91183397822601,37.477821041608365],[126.91180794592255,37.47685411035702],[126.91162152118822,37.47629527773482],[126.91138914907556,37.47599557801672],[126.91130458164359,37.475425512921376],[126.91118311389177,37.47521679492339],[126.91133676515577,37.47490112978642],[126.9113716139572,37.47446223926749],[126.91108289727588,37.47417013063212],[126.91104299833283,37.47386276692958],[126.91075699762632,37.4735803984766],[126.91052576102479,37.47359609868548],[126.91002260449791,37.47341757380196],[126.90994248516233,37.47329840716526],[126.90865767928827,37.472968969779025],[126.90819970594673,37.472686336455375],[126.90962073928145,37.47065665272737],[126.90955487865573,37.47045477625078],[126.9102533267839,37.469250467013026],[126.90996256455229,37.46877422468147],[126.91104136083344,37.46808378995219],[126.91106649314646,37.46770565627194],[126.91158203355644,37.467103585673236],[126.91160854312436,37.466788696226985],[126.91235684366698,37.466231711343035],[126.91234813689898,37.465862375683116],[126.9125447372196,37.4657238336053],[126.91305692209343,37.4656446128633],[126.91351164727223,37.465393671545385],[126.91370264173395,37.46537798204669],[126.9129359187614,37.46418244634008],[126.91290314462188,37.46400273986371],[126.91296867416668,37.463621757781844],[126.91329818563356,37.46311603681488],[126.91373397968272,37.462850526446644],[126.9139517366433,37.461998437773275],[126.9144117464537,37.46161325685455],[126.91419383677263,37.4609772226265],[126.91426634089628,37.45993109185229],[126.9140395660202,37.45947004122398],[126.91427840886651,37.45891273869162],[126.91402509288503,37.458457426075725],[126.914029975257,37.457905323605694],[126.91457691350479,37.45745669144824],[126.91498141336164,37.45731264979746],[126.91557718572669,37.457403680409016],[126.91641569318112,37.45738588505473],[126.9168986375581,37.45752172628656],[126.91728958078856,37.457337624557056],[126.91748043604443,37.45711265198278],[126.91831575473049,37.456927123784666],[126.91914097438585,37.456897752210814],[126.91967851163372,37.456755676862926],[126.92088561419824,37.456828811958225],[126.92218668368088,37.45662740872965],[126.92252960510982,37.456329225452755],[126.92280880281136,37.455208156508995],[126.9230862031143,37.45452458080544],[126.92332239265116,37.454216306943025],[126.92418350603464,37.45368016555477],[126.92425654155018,37.45339005484277],[126.92477931599427,37.45284411279077],[126.9254236528524,37.45301004400438],[126.92570062089256,37.45291350956307],[126.92627509369552,37.45253748801756],[126.92669256798378,37.451732524459125],[126.92730595802871,37.45100977024394],[126.92786892768295,37.45109931618625],[126.92836602887385,37.45101192072105],[126.9285100013229,37.450544684634096],[126.92839836690003,37.450212622744786],[126.92891053525906,37.44986562609554],[126.92899164400725,37.44963375849914],[126.92928605144704,37.44947199247056],[126.93017402325235,37.448365654039875],[126.9303860498257,37.44760538501961],[126.93029455235204,37.44662175523441],[126.9301748231616,37.446380789900864],[126.93056688649078,37.44546297356592],[126.93175260157005,37.44497452054277],[126.93457097666358,37.44319815824619],[126.93488974212418,37.44321680690614],[126.93564310835177,37.44217805313344],[126.93598570320925,37.442141445421534],[126.93665819484603,37.4417394804749],[126.93679461257159,37.44144795341979],[126.93785085672171,37.44020289592662],[126.9376904462959,37.43967772627625],[126.93724715874599,37.43921296416027],[126.93727272818583,37.43863229705527],[126.9375625746516,37.43832684851912],[126.93774426849045,37.43787911096802],[126.93775352261935,37.43738070567864],[126.93800584631595,37.43720292886706],[126.93832610544243,37.436652709485756],[126.93857459111729,37.43642045271486],[126.93862161899585,37.436028539031646],[126.93936557253359,37.43602823924249],[126.94024408155109,37.43570336132188],[126.94046833405932,37.43581810507594],[126.94055555775847,37.43627352705774],[126.94145544071404,37.43739440107097],[126.94203236594944,37.437494208345555],[126.94512521671814,37.43707543140798],[126.94572572060174,37.4372917769151],[126.9466087050999,37.43793922396557],[126.94679700177123,37.438169376627854],[126.94836291876081,37.43871258747923],[126.94876557319432,37.43864576759295],[126.94928388893314,37.43825012377445],[126.94984276813928,37.43837963595575],[126.95003243826805,37.438621487792254],[126.95092497574352,37.43873374983431],[126.95109401366663,37.43849997091259],[126.95152708298052,37.43866172844489],[126.9523939149255,37.43923851385131],[126.95389857202578,37.43906017816557],[126.9551493019913,37.438735068120224],[126.956367966597,37.43875400440763],[126.95891370952953,37.439122918619155],[126.9591546165171,37.43954651459811],[126.96005557511195,37.44040066997407],[126.96176239848188,37.44027909272454],[126.96294255514167,37.44028056805493],[126.96380315335982,37.440786962191375],[126.96378401974711,37.4412868933613],[126.96463375018983,37.442039659948755],[126.96438129690614,37.442577057489565],[126.96430265574237,37.44377041027927],[126.96441904335639,37.444312748162226],[126.96393325050597,37.44521468762368],[126.96428943455481,37.44626733339553],[126.96766264759864,37.44838044403893],[126.97056907394806,37.449452553974275],[126.97184626917951,37.45165714817069],[126.97292625092882,37.45233590867448],[126.97344190817178,37.45314063028456],[126.9746584059071,37.45432298730549],[126.97779253211925,37.455117613873206],[126.97855200020636,37.455650739363115],[126.97983128383731,37.455563323055586],[126.98242034467415,37.455831256594664],[126.98190342714534,37.45693557676761],[126.98288792007865,37.45682705246313],[126.98438765324839,37.457105663993225],[126.98490301508151,37.457042524705464],[126.98526359303824,37.45718175837683],[126.98661238465367,37.457212364383174],[126.98678071365683,37.45740320845217],[126.98860431056904,37.458153428412345],[126.98770483304082,37.45960350849232],[126.98754310948057,37.46022966853241],[126.98757931422398,37.46090926051161],[126.98834401879354,37.46399856585723],[126.98822800780964,37.464226257881734],[126.98793469873665,37.465939042615446],[126.98736431623604,37.46703185546068],[126.98723669417075,37.46722821692811],[126.98710539803366,37.46722832854298],[126.98730280270458,37.46761444272735],[126.98661061410417,37.46827978928269],[126.98553202529091,37.46904588253537],[126.98607468102738,37.46896299132927],[126.98533566881184,37.46928325649594],[126.98465799952514,37.469932123589444],[126.98468332234044,37.4698742908912],[126.98451592525693,37.469824623108835],[126.98274646334023,37.47200694119609],[126.98321137788024,37.471573288937385],[126.9821449832581,37.47381211624308],[126.98184388079183,37.47509208074425],[126.98168083231818,37.47705734677826],[126.98168696450895,37.47653038331851],[126.97842294111878,37.47665025230121],[126.97428556242595,37.47620102795197],[126.97052261027508,37.47537649117312],[126.97030553313873,37.47587529005228],[126.97025184188925,37.47653597802272],[126.96887754340166,37.47658953158265],[126.96776429005537,37.477871630783845],[126.96725702728497,37.47805744134405],[126.96632553365939,37.47895967561898],[126.96479461738951,37.47951153964029],[126.96442749428739,37.47981861061399],[126.96394604813462,37.48103215999647],[126.96325189659663,37.48140630578438],[126.96269094276035,37.48208582439509],[126.96204346735098,37.482464960541336],[126.9618275275304,37.48295462552775],[126.96107000553552,37.483575236397385],[126.9610784075129,37.48370369580746],[126.96163250942286,37.48420508980315],[126.9617031571102,37.48450503143293],[126.96163657848261,37.48469304171137],[126.96198724669719,37.48517747435264],[126.96167476096974,37.48597782010072],[126.96181433085904,37.48631502228377],[126.96185144084066,37.48713594294631],[126.96172294758993,37.48722392053508],[126.96196688629736,37.48862776034837],[126.96183829616677,37.48868159955902],[126.96176481488297,37.48900537060277],[126.96139705960516,37.48915213381599],[126.96086845992936,37.49017918063464],[126.96078117928883,37.49082520086939],[126.96139990753925,37.491482663087965],[126.96137766135801,37.49287407187889],[126.9609471457918,37.492922486006826],[126.96105234926075,37.493258235758],[126.96028903207501,37.49374369670668],[126.95931459767445,37.49380570520515],[126.95894334591597,37.49361590576533],[126.95869622145652,37.492916467050215],[126.95845292434555,37.49262463545848],[126.95760024989309,37.492355192848336],[126.95747835131004,37.49197726636621],[126.95695891797057,37.49172118381394],[126.95622541832401,37.491493229501074],[126.9553899422981,37.49143018883572],[126.95516494845154,37.49130658484747],[126.95488034354769,37.490992420736276],[126.95417654097105,37.490945586004756],[126.95372726387991,37.49064161869299],[126.95284710171121,37.491350516486776],[126.95280546792749,37.49149190343947],[126.95223859146174,37.49168697829791],[126.95206585472299,37.49195392178973],[126.95169736564942,37.49220547724608],[126.9499599744657,37.492613240092695],[126.94956546859842,37.49277703057401],[126.94942448668881,37.49300071502965],[126.94882262834818,37.493179143453986],[126.94879323777995,37.493855645823544],[126.94833694383108,37.493720688405695],[126.94755044858016,37.493760678389904],[126.94696417272793,37.49412566354077],[126.94678399632407,37.49390305195773],[126.94609100234631,37.493533778216914],[126.94587351013345,37.49355865242682],[126.9454246665468,37.49334632012941],[126.9447056422534,37.49319876788159],[126.9445440454972,37.49310378938499],[126.94436364645071,37.49311623064732],[126.94436315504224,37.49249388751737],[126.94394410242367,37.49249366717351],[126.94352894153543,37.49236380261143],[126.94337851937195,37.49223750433449],[126.94262180238248,37.492143461952615],[126.94254541873684,37.492216134874916],[126.94229628635453,37.49224502288436],[126.94158863999544,37.492202112352494],[126.94153855717968,37.492274642133566],[126.94108216530465,37.492417292137524],[126.94084863699581,37.49289364915555],[126.94057879364308,37.4928591170086],[126.94038765620425,37.49297172407942],[126.93992646688864,37.49290368632669],[126.93973438197341,37.492792862303915],[126.93973568779514,37.49263470837154],[126.93948904297316,37.4924702693858],[126.93946097716349,37.492292292265674],[126.9392110166598,37.4922166052625],[126.93888948847865,37.49233002314877],[126.93830365265774,37.49239168076629],[126.9381097547286,37.492263339338315],[126.9378245971442,37.49224948090096],[126.93725878954814,37.491911406728775],[126.9363323892205,37.492040048497124],[126.93613496289578,37.492292544353695],[126.9358229631484,37.49239250064013],[126.9353710939465,37.49272896879042],[126.93436585680263,37.4930432671954],[126.93384263261471,37.49311685695219],[126.93384899085216,37.493188995018215],[126.93240445658792,37.49297123446226],[126.93135634597125,37.49322137792139],[126.93007081296254,37.49399801434742],[126.92985919143058,37.494003345072116],[126.9284164273583,37.49486467181195],[126.9279134603656,37.495078097443184]]]}}
