{"type":"Feature","bbox":[126.90715348908202,35.07246799276643,127.00431802113022,35.165489018031025],"properties":{"regionCode":"12210","version":"vworld-20260909-3f8952dfda77-p2","name":"전남광주통합특별시 동구","attribution":"국토교통부/K-Geo플랫폼 · VWorld 법정구역정보, CC BY 2.0 KR; 공공주택 복덕방 가공"},"geometry":{"type":"Polygon","coordinates":[[[126.93017605478272,35.16114527228786],[126.92975064865695,35.16159219626516],[126.92921807607912,35.16199104425953],[126.92820605345696,35.16248103640869],[126.92271639209775,35.164024242762096],[126.91632055316262,35.165489018031025],[126.91247328458016,35.15578620793475],[126.9125381834047,35.155712173291654],[126.90715348908202,35.15144018843504],[126.90817526749987,35.15073130606038],[126.908943026934,35.15007193123597],[126.91347475881835,35.144946868506594],[126.91597652449244,35.14287272886992],[126.9165897100655,35.14249754645544],[126.9176676146506,35.1413763867853],[126.9194378971679,35.13931391384659],[126.91947638214963,35.138895376603266],[126.92053602367058,35.13777938820645],[126.92199342383617,35.13521683749991],[126.92328182395654,35.13430209393408],[126.92381697245256,35.1340352664212],[126.92460834587023,35.1333059501917],[126.92477049581842,35.132973262297234],[126.92523995322972,35.13254061818551],[126.92571554324807,35.13158124926937],[126.92582669751648,35.13114430404272],[126.92631528527563,35.130029600454456],[126.92644399226525,35.12987489890046],[126.92711776040126,35.12945097227761],[126.92745161042387,35.12933371106357],[126.92735305575948,35.12785049223835],[126.92848611536013,35.12737481864138],[126.92962848364415,35.126436072247124],[126.92900383542013,35.12616989707922],[126.92886536257132,35.12592898898623],[126.92866164184919,35.1258163323054],[126.92831456252594,35.12575330778072],[126.92768756172738,35.12550308907218],[126.9271270105252,35.12550020507861],[126.92443516615617,35.1247691267086],[126.9245915902947,35.12376378673238],[126.92454590103335,35.12367771435997],[126.92434961188533,35.12368857721809],[126.92338379806472,35.123022494746735],[126.9227797590988,35.12244326911361],[126.92276820859782,35.12180315215706],[126.92267212153693,35.12153648557394],[126.92270440335723,35.120947945699285],[126.9217856134244,35.12008640272711],[126.92185988340404,35.11985970534512],[126.92081743799797,35.11960973644013],[126.92043358521974,35.11933724278742],[126.92005499205229,35.11928262815973],[126.91975903545169,35.11904342458104],[126.91966407010663,35.118534939340776],[126.91950293630997,35.1183755422119],[126.91950399248671,35.11799936038887],[126.91940066095118,35.117807751465534],[126.91885398179,35.117362198347756],[126.91829076259336,35.11716787678531],[126.91773549494847,35.1170855250462],[126.91758290080679,35.11695979690408],[126.9170252380916,35.116883497368875],[126.91608476908418,35.11685114716391],[126.91585222320766,35.117141112980974],[126.91540203467419,35.11705234396074],[126.9147590369346,35.116614167241124],[126.91379303208971,35.11643052366129],[126.9135758851184,35.116092779946044],[126.91273057777371,35.11588991505155],[126.912206286905,35.1155505397659],[126.9118367048576,35.11558195894862],[126.91218203586472,35.11515547359159],[126.91264111719896,35.114769063508525],[126.91322050966764,35.11455471958084],[126.91355509858471,35.113741619848646],[126.91285177731449,35.1130153771931],[126.91281922382807,35.11284986367322],[126.9123026538785,35.11220754259352],[126.91233542242182,35.11169999434034],[126.91248896500981,35.11141082429847],[126.91249620989592,35.110427074508806],[126.91295632491686,35.109698156248086],[126.91418374987062,35.10878839118966],[126.91399889593221,35.1079232303608],[126.91396649075801,35.10728957456929],[126.91385389963474,35.10712471749601],[126.91391860923346,35.106543953592166],[126.91386176284145,35.10618237642195],[126.9144358519746,35.10557183748429],[126.91448472489435,35.105057393076976],[126.91534354262741,35.10421170801853],[126.91627537080426,35.10366929527091],[126.91709485160298,35.10288287040533],[126.91780138026017,35.101923408686616],[126.91793985830984,35.101409303801226],[126.91766344701647,35.10039142047755],[126.91784850095603,35.099578058820114],[126.91828412711331,35.09890304850864],[126.91903492429083,35.09868779282699],[126.91977665208269,35.09880871655252],[126.92024447744768,35.09863354435609],[126.9204483958459,35.098122301267765],[126.92083643228445,35.097710321461705],[126.92111705867993,35.09725686951335],[126.9213238406998,35.09713898183376],[126.92112046616316,35.09710364000329],[126.92072384385207,35.09615004071974],[126.92059247707057,35.09486395924256],[126.92006305327357,35.09427420383497],[126.91968319554151,35.09354792687085],[126.91970959656416,35.092839815036506],[126.91925721840913,35.0921661545404],[126.91922340855471,35.09153166129017],[126.92057624541972,35.09168622635624],[126.9210485328322,35.09146964517694],[126.92160504992226,35.0909728562791],[126.92227990588914,35.09053599280189],[126.92261310250835,35.08990272185832],[126.92316198553364,35.08931803766922],[126.92407181315168,35.0886135831481],[126.92466935237753,35.08799582493894],[126.92445966907404,35.086854338830335],[126.92502230196772,35.08563517483723],[126.9256498834395,35.08509911221389],[126.92595012902045,35.08467312491277],[126.92632302174037,35.084411681014984],[126.92616498975275,35.083549228811435],[126.92609306757905,35.08239220033274],[126.92684621014415,35.0820495791401],[126.9271513277471,35.08113051750236],[126.92768735050059,35.08044213761192],[126.92859894159855,35.080300588531955],[126.92929786889214,35.07943104390494],[126.93064138483209,35.0786663773828],[126.93252838568804,35.07780709169102],[126.9326253405739,35.07761770630843],[126.932653483886,35.07694100373076],[126.93232570935707,35.07637237942782],[126.93240895745993,35.0751784048822],[126.93229620516131,35.07439232177648],[126.93322172558673,35.07451030293012],[126.93370507418652,35.07442748562171],[126.93495620774745,35.074402254098494],[126.93599501261492,35.07448168855745],[126.93650344058291,35.07430676354585],[126.93788899125661,35.074140464944755],[126.93860727888567,35.07397844891529],[126.93907146188657,35.07407150217101],[126.94005716551257,35.07390440481095],[126.9404617493811,35.073745887060504],[126.94100948060057,35.073689681562975],[126.9414491090676,35.07341893070155],[126.94232092202888,35.07246799276643],[126.94279323326099,35.07293257023068],[126.94379328952799,35.0735130163319],[126.9453274709594,35.07315924597271],[126.94674300373943,35.07269878901119],[126.94715709125164,35.07266461477556],[126.94859530725233,35.07282199764986],[126.94945295696404,35.07272997806175],[126.95188207287143,35.07315661115535],[126.9525289633688,35.07342855466073],[126.95318679975584,35.07403779980065],[126.95389908136171,35.07410032946848],[126.95498651336266,35.07484269279128],[126.95651279165531,35.07698274276357],[126.95710083831526,35.077496593350006],[126.95731716552677,35.07791229272084],[126.9582968829596,35.07869711332537],[126.95947348687373,35.079131588063206],[126.95968472806338,35.079835150219836],[126.95958298770235,35.08045184785812],[126.9586500276211,35.08190737253046],[126.95855516571562,35.082120989802384],[126.9586010078344,35.08258802174485],[126.95926420987102,35.08297232593753],[126.95969461423928,35.08363300462612],[126.960007294114,35.083956187895936],[126.96022255756439,35.08452342775935],[126.9606483738227,35.085112695201296],[126.96131762697534,35.085450227322326],[126.96243030190632,35.08690376219143],[126.96263485494325,35.08695903641357],[126.96280642166867,35.08720301870318],[126.96304572562657,35.08733069197346],[126.96355943083358,35.0872924007754],[126.96401464009428,35.0874053573938],[126.96454733151592,35.08779536094357],[126.96553317088366,35.088753356994516],[126.96572952519446,35.08876468201855],[126.96611770488371,35.088963943167364],[126.9665129976016,35.08938558980742],[126.96755713428665,35.0894872894864],[126.96803952936892,35.08977712202604],[126.9688350934429,35.08978790243836],[126.9705644983735,35.09026988195526],[126.97112980945639,35.09018735138398],[126.97201870296857,35.09034447061347],[126.97239819600665,35.090953821585956],[126.97283644807564,35.09113757873784],[126.97308329421412,35.0913531163921],[126.97403360893554,35.09186204732629],[126.97462015458004,35.091825988508496],[126.97494809760553,35.09189154482574],[126.97659488513143,35.09157162942078],[126.97679655086814,35.09163434245177],[126.9775621594568,35.09218348062388],[126.97873347703514,35.09174752579035],[126.97961505287539,35.09187374382178],[126.98040108810487,35.09234822569158],[126.98113836254933,35.092610305915684],[126.98170980062174,35.09270180746795],[126.9826601871644,35.09319953844594],[126.98346995331627,35.09341796243275],[126.98473662538213,35.09340475774962],[126.98517661415974,35.09366395972743],[126.98765179825901,35.09395271211713],[126.988441626181,35.0947237450504],[126.98895069188573,35.094987582816444],[126.98895932259407,35.09570952207278],[126.98882687372901,35.09670311727348],[126.98872571680552,35.097029292655726],[126.98782657100635,35.098144497215095],[126.98783535954647,35.09884586723471],[126.98758128120285,35.09953411059748],[126.98777860003986,35.10011691790082],[126.98779258597591,35.10049521308473],[126.98875590283302,35.101328375378216],[126.98749087228497,35.10316138331426],[126.98724943735401,35.10389272994182],[126.98710962758187,35.10376342210289],[126.9870651855174,35.10407185407336],[126.98656407002667,35.10505005149501],[126.98635174525705,35.10594533054436],[126.98670042640981,35.10633859271338],[126.98788281712494,35.10725967037016],[126.98816457996253,35.107182238518426],[126.98885403982547,35.107270059472135],[126.9890412848422,35.10893985187937],[126.98932928263349,35.10960026385143],[126.98920533695788,35.109877420159755],[126.98864384884564,35.10993792468109],[126.9884571879244,35.11009423697466],[126.98873417761779,35.10994455024909],[126.9893359812465,35.11073964865003],[126.98991887814402,35.110727032204146],[126.9904170730491,35.11103508294421],[126.99180190827681,35.11114632072544],[126.99439896933157,35.11175083501341],[126.99529035503537,35.112237618617385],[126.99634731825373,35.11261581571169],[126.99779696132512,35.11299388063965],[126.99993185329637,35.11405020411064],[126.99868658181565,35.11575558439747],[127.00013045736465,35.116694718182025],[127.00097256604239,35.117357224399164],[127.00255088669385,35.11882812340863],[127.00394978144952,35.11968848674684],[127.00431802113022,35.12129063688357],[127.00293882808863,35.1214768562105],[127.0016912871647,35.121905849168414],[126.99721180341949,35.12314613771668],[126.99611009413923,35.123265803999026],[126.9952613915799,35.1235051918483],[126.99445334316738,35.12333557532405],[126.99325448501719,35.12286326851079],[126.99248089815009,35.12277013074241],[126.99170916607441,35.12434293517614],[126.9910103695971,35.12499129702799],[126.99087866009586,35.12544027090802],[126.98954390823825,35.12706949841513],[126.98923391755513,35.12734874481456],[126.98875800784158,35.12761812115994],[126.98774918010628,35.12849585396381],[126.98772880000597,35.129380445406376],[126.98737019337123,35.130218388505625],[126.98695077212994,35.13082027549438],[126.9868878994461,35.13152515742111],[126.98621337787247,35.1320239223789],[126.98586891721155,35.1331645205472],[126.98559540522801,35.133506865908245],[126.98545144443712,35.134162017316946],[126.98511312656768,35.13449772812042],[126.98518800408446,35.134704058615114],[126.98466124452418,35.13514622058405],[126.98408804427683,35.13548372552383],[126.98389314823852,35.136119857848634],[126.98340879873179,35.13698100704252],[126.98236558204535,35.137542924549955],[126.98171539506927,35.137781401351596],[126.98084941314399,35.13776280661362],[126.97838330266563,35.13839092422607],[126.97591444587056,35.13777863315784],[126.97406260021413,35.1379031483267],[126.97359182927428,35.13831753020526],[126.97306838949697,35.13833627440371],[126.97228074126092,35.13787991942373],[126.97191396287982,35.137527733458235],[126.97132317238523,35.136547505837456],[126.97108092750118,35.136530400820355],[126.9696893694425,35.13681960550739],[126.96921880104725,35.13667766165318],[126.96873429628589,35.136683165394004],[126.96805152394472,35.13685874401239],[126.96764292709315,35.137365364970826],[126.96683287934152,35.13768892205888],[126.96573139703901,35.13869741985501],[126.96520647469582,35.13895865772153],[126.96461096620185,35.13908269436327],[126.96393550074379,35.13936739736498],[126.96332252598242,35.13980633833917],[126.96205047798068,35.14025674502794],[126.96102499267259,35.14028288977443],[126.96010281934889,35.14015554158328],[126.95971056649535,35.14041469148845],[126.95887210657436,35.1405201652601],[126.958375690437,35.1403031052669],[126.9581630884851,35.13996966274921],[126.95767287843324,35.14001709626661],[126.95726646080473,35.14015989514594],[126.95650400859235,35.14078803197099],[126.9552784500754,35.14049054722789],[126.9548426177508,35.140788107760834],[126.95470130208743,35.14144857679947],[126.95441342499156,35.142052095078505],[126.95392042805719,35.14184614104165],[126.95372633944622,35.14185592558652],[126.95270400790335,35.14261068462029],[126.95227904728794,35.14274994382328],[126.95165964559416,35.143182901164806],[126.9514709568426,35.14417318904371],[126.95123637512458,35.14447687630158],[126.95173483218122,35.14445187082548],[126.95215610417937,35.14474921099964],[126.95300236438631,35.14488405252223],[126.95339164369845,35.14508926604065],[126.95375259469141,35.14564458059737],[126.95384378941957,35.14626078398079],[126.95395461244435,35.14647222253879],[126.9536094244225,35.147681598374234],[126.95411111046157,35.148329221279944],[126.9549186344134,35.148820908198246],[126.95485655563199,35.14912565967929],[126.9552727110744,35.15005364753033],[126.95536655124263,35.15058182347785],[126.95563557476562,35.15092007790685],[126.95563509607612,35.151460043777064],[126.95522913084027,35.152209988526764],[126.95291872215846,35.1532267697228],[126.95245597734049,35.15336305767162],[126.95131306701298,35.154201129997574],[126.94924481047185,35.15446968079747],[126.94843040398521,35.1542511635357],[126.94759045872553,35.15455782164675],[126.94692473502755,35.155110306943726],[126.94609906640753,35.15531667601552],[126.94571750898432,35.155573396634],[126.94549332018721,35.157162345680156],[126.94515484434291,35.15758921442772],[126.94506395200163,35.15809054176212],[126.94462455159743,35.15840708139752],[126.94439369061752,35.1586951268405],[126.94322759596837,35.158623725972014],[126.94273539381943,35.158647716826735],[126.9421558246563,35.158781087509766],[126.94157963924555,35.15851841961226],[126.94115220521108,35.15861454490471],[126.94054587155763,35.15853213729373],[126.9398380251121,35.15867162477191],[126.93942755283156,35.15901900453443],[126.93909016333724,35.159092490045964],[126.93885767330208,35.15902955488013],[126.93837043366342,35.159379544706056],[126.93850195492578,35.160125175507524],[126.93857555592956,35.1602651507936],[126.93887252462072,35.16034324102469],[126.93886033469354,35.161785402594994],[126.93551576067216,35.16178488898037],[126.93073216482912,35.16021051865651],[126.93017605478272,35.16114527228786]]]}}
