{"type":"Feature","bbox":[126.8006304219432,35.09072074771159,126.90974273854181,35.17860731013016],"properties":{"regionCode":"12240","version":"vworld-20260909-3f8952dfda77-p2","name":"전남광주통합특별시 서구","attribution":"국토교통부/K-Geo플랫폼 · VWorld 법정구역정보, CC BY 2.0 KR; 두꺼비집 가공"},"geometry":{"type":"Polygon","coordinates":[[[126.85958258245994,35.108444006076596],[126.86128008251427,35.110242540449875],[126.86157150387314,35.110102715382936],[126.86155467854358,35.10990308061352],[126.86167407567923,35.10965873319797],[126.86209963089561,35.10943619928636],[126.86204172840307,35.10923337335939],[126.86322769542707,35.10962406837057],[126.86370122444518,35.10923208942697],[126.86369525927869,35.10900927529178],[126.86390927571362,35.10903275534912],[126.86388859355318,35.10920638800826],[126.86424625041163,35.10922157733081],[126.86489990489069,35.10943906377231],[126.86547788880914,35.10940563276707],[126.8659721651347,35.110653590415815],[126.86629406317795,35.110533525778756],[126.86746055065193,35.11042736182516],[126.86760563251043,35.11026907917632],[126.86804006718553,35.110190409387606],[126.86905585604042,35.11043010388437],[126.87026267409652,35.11039043070268],[126.86980317960321,35.11092483839855],[126.86884730344809,35.111795402544324],[126.86909972349562,35.11196682867832],[126.86800703881885,35.113049003283805],[126.86894549928662,35.11370011159976],[126.86967991890232,35.11401082667561],[126.87016113377359,35.11387740654517],[126.87093956779084,35.11382679374925],[126.87079960615975,35.114068561541806],[126.87031265095912,35.11449815810451],[126.8704456550176,35.114609275256775],[126.87003187510747,35.115474836299995],[126.86964869911368,35.11543062321316],[126.86951490263995,35.11581102504231],[126.86969678311023,35.1160143060931],[126.87011015981489,35.11603954198386],[126.8710379979078,35.116449391452946],[126.87180308984787,35.11723749569511],[126.87180138958875,35.11744523024721],[126.87233645579774,35.117593678358205],[126.87271818798283,35.117803370935654],[126.87284497414076,35.11816953873722],[126.87354485535857,35.11858857511754],[126.87386818319567,35.1193236569871],[126.87364494864573,35.1195848161363],[126.87358085775115,35.11990262411387],[126.87433856842254,35.11995580579214],[126.87452447017284,35.11979375584704],[126.87481598555925,35.11926705583296],[126.87488056433486,35.11874418835712],[126.87532773586354,35.11843311915925],[126.87596491947863,35.11827688792926],[126.87647482558546,35.117963768469345],[126.87666616811079,35.117702438069756],[126.87780400346041,35.117334602975696],[126.87786791803083,35.117230031389354],[126.87850500170136,35.117021669636316],[126.87882330408772,35.1170219919789],[126.87926943135713,35.11681329978231],[126.88221078860997,35.11594895949473],[126.88265692704341,35.115609557562415],[126.88377149459683,35.11553218801498],[126.8838983529841,35.11587215093452],[126.88498194074332,35.116606545307775],[126.88549132083938,35.11663309177521],[126.88619540484405,35.117025140632855],[126.8879785985598,35.11697443761424],[126.88826384876398,35.11794211590847],[126.88835921165395,35.11802065027346],[126.88755104725038,35.118621828754804],[126.88751864038416,35.119000939365925],[126.88756902792451,35.11925209438989],[126.88829032176858,35.11986822718202],[126.88838511029554,35.12011844290518],[126.88833672081466,35.1207773838003],[126.88862546054743,35.121589856688345],[126.88832830990137,35.12239376571396],[126.88837535219787,35.12283815262444],[126.88808037218409,35.12405864876675],[126.88814244021256,35.124791207272125],[126.88788605317504,35.12523882346003],[126.88763114771831,35.125369281443895],[126.8872804575142,35.12570880202555],[126.88724766343745,35.126362389326125],[126.88696019757778,35.12696617479034],[126.8868942991713,35.128482501770016],[126.88674915764017,35.12881150664979],[126.88695987043269,35.12916027906635],[126.88671149314008,35.130485464290665],[126.88683573886257,35.13063233197294],[126.88677193160548,35.13090323577025],[126.88684509478777,35.13130060553374],[126.88757961295923,35.131970422782345],[126.88756662621952,35.13280303980004],[126.88726056641082,35.133327089626924],[126.88718165828996,35.13385120882746],[126.88691425813406,35.13442922922575],[126.88651624941481,35.13437660085047],[126.88617464361415,35.1348103452067],[126.88582280957097,35.13653160243445],[126.88435285144294,35.13747703983791],[126.88411113341543,35.1375858051447],[126.88363294672068,35.13760013469788],[126.88315720694581,35.13840313879566],[126.88322631294434,35.13887445559971],[126.88339655168191,35.13899883754142],[126.88422764232357,35.139192732721234],[126.88485352840283,35.13960458036112],[126.88480219990923,35.139656773241576],[126.88487607754728,35.1397898037677],[126.88508566876806,35.139853656865064],[126.8852316291025,35.13981633866669],[126.88517542839242,35.14015401401284],[126.88539009470365,35.140268852228246],[126.88528220014466,35.140420852785816],[126.88513742504796,35.140473111897705],[126.88518086509578,35.14066722249284],[126.88538949554132,35.14080670907877],[126.88539832506532,35.14099529930192],[126.88558741912433,35.141130830001735],[126.88562630735791,35.141394658050864],[126.88572234113884,35.14125700245387],[126.88586864950506,35.14121573379554],[126.887759849385,35.14204311070148],[126.88779372259405,35.142099199964434],[126.88756405321486,35.14240600226616],[126.88830560211436,35.14279019674974],[126.88540757472883,35.14655554807404],[126.89015214654765,35.149002671091246],[126.89217980406077,35.14938744963867],[126.89235938511686,35.14947888298221],[126.89330907479172,35.150067165257],[126.89337762393093,35.1504878958368],[126.89457282098377,35.150866265008744],[126.89429769782092,35.15144795500364],[126.89736501587129,35.152441559528164],[126.8987010200907,35.15228791891898],[126.9005189471123,35.152499011517776],[126.90107370470052,35.15233821092328],[126.90173696984749,35.15179667408672],[126.90273370200046,35.15000534198663],[126.90302752947473,35.149639828973875],[126.90385738229983,35.148986460631825],[126.905369232406,35.148264186632304],[126.90758914943007,35.14880730714122],[126.90940899183832,35.14894544705516],[126.90974273854181,35.149189487976145],[126.908943026934,35.15007193123597],[126.90817526749987,35.15073130606038],[126.90220781024439,35.15506969069349],[126.90026640473663,35.15703359674288],[126.89925215538561,35.15777382996456],[126.89822894933128,35.15839630319932],[126.89722786674957,35.15873317463532],[126.89610773384322,35.15922442432268],[126.89569725369029,35.15929603262622],[126.89357184995107,35.160408322949266],[126.89272934557634,35.16075318497334],[126.8918405170754,35.160851386832796],[126.8906136390116,35.16075671165914],[126.88993789061361,35.16079976229104],[126.88915899168722,35.160930343200164],[126.88844908823334,35.1614310521324],[126.88778040716826,35.16139906865373],[126.88716136518433,35.16261865737377],[126.88720033042935,35.162743973198886],[126.88709871089384,35.16279353289361],[126.88711090774167,35.163082013468696],[126.88689431706503,35.16394318697092],[126.88681357121797,35.16405630251907],[126.8867227438998,35.16404795115225],[126.8865798375129,35.164716781890796],[126.8860812890423,35.16585560917817],[126.88588086387871,35.16597524779723],[126.88573331794389,35.165847517647855],[126.88555537025223,35.16615493418561],[126.88562620662238,35.166151342371464],[126.88537111839047,35.16630996167834],[126.88561828361534,35.166537086658494],[126.88575629075481,35.16685638318331],[126.88533970901275,35.16692967371826],[126.88502967614296,35.16717559870542],[126.88486561009036,35.167366870201384],[126.88485342326237,35.16757647700248],[126.88401685869925,35.168515328960986],[126.88416646431814,35.169727822323075],[126.88348394553763,35.1700462091167],[126.88141458828049,35.170647244700504],[126.87931522707413,35.17098033034854],[126.8773837623952,35.17098400145862],[126.87564118518524,35.17062153072796],[126.87564807968576,35.17136834396065],[126.85986213479075,35.172312234298985],[126.84287214130501,35.17618806367384],[126.84330856108926,35.17690351833247],[126.84262909185489,35.17692108011645],[126.84251205186366,35.17704204119725],[126.84237792305365,35.17747592117649],[126.84144737557254,35.177911993185056],[126.84144781616155,35.17803424435419],[126.84018094572627,35.17860731013016],[126.83990844521783,35.178485688409275],[126.83973448890997,35.17850095048482],[126.83945250567528,35.17831777140952],[126.83930071278007,35.17839418310858],[126.83874984974987,35.17843443057917],[126.83806060270152,35.17741750781606],[126.83770619953513,35.17665679440589],[126.83768007814619,35.17548190280476],[126.83776422229722,35.175005427355046],[126.83754761600073,35.17328538420568],[126.83742336636207,35.17305904044742],[126.83743717722912,35.17250077990022],[126.83765294923077,35.1714762084784],[126.83763153972626,35.17120450333252],[126.83743131178048,35.17080778200809],[126.83692914230734,35.170453457744514],[126.83615861825356,35.170068918221],[126.83496713864038,35.17021586574959],[126.83405680260094,35.170430232706934],[126.83309315495521,35.169964143174795],[126.83066783732811,35.169353598126115],[126.82907346749106,35.16844675289746],[126.82791854090428,35.16802512860356],[126.82513399055495,35.16583138448719],[126.82451365516158,35.16471717357932],[126.8241704432361,35.16386503118119],[126.82464081839771,35.1622253997987],[126.82519623548693,35.16137978485982],[126.8259100248975,35.160737056980174],[126.8260725371367,35.16044815635949],[126.82553291943142,35.1581013244249],[126.82522497314396,35.157835826701216],[126.82573340290091,35.157536574641284],[126.82541068052933,35.156967550673045],[126.82524972393456,35.15590061926991],[126.82542326219703,35.15518711663791],[126.82534228658567,35.15456661591425],[126.82538074785033,35.15367278085646],[126.8262401496295,35.15273633957617],[126.82712124962771,35.15199623895341],[126.82836177865887,35.150510366920585],[126.8291298594322,35.14861734592309],[126.82927705962274,35.14719777746201],[126.82912899350863,35.145612453326045],[126.82926761069042,35.145332383067775],[126.82911616294551,35.14421265772583],[126.8291811309936,35.14356968726809],[126.82956862044257,35.14259564693331],[126.82969404721038,35.141492655601],[126.82944066441543,35.14082529310012],[126.8293230048168,35.14059893991795],[126.82875066352963,35.14013069216391],[126.8281909213491,35.13937401591212],[126.82515495081982,35.136633039991295],[126.82415380321024,35.13555684932878],[126.82373206708199,35.13523469989629],[126.82226665518628,35.13496608176526],[126.82061774734478,35.13425776322168],[126.81977019898136,35.133695536185876],[126.81920603393485,35.13313937240859],[126.81900889552007,35.13282106870237],[126.818680020276,35.131161652543966],[126.81876715776751,35.13052280298216],[126.81902976444016,35.12976535539656],[126.8193425934143,35.12931852724084],[126.8197714463746,35.128963981832705],[126.82091588707482,35.128354743087364],[126.82158148317956,35.12783336879366],[126.82224903391165,35.12665075729271],[126.82153061247473,35.125087532389415],[126.82101813177532,35.124273709412485],[126.82041751374263,35.12387058296884],[126.81858989562794,35.12292972449507],[126.81799935988236,35.12239942850743],[126.81706801279803,35.121049782349594],[126.8169449671396,35.12072904459639],[126.81711338616871,35.11977864698709],[126.81686157215887,35.11894817598402],[126.81685993729951,35.11853480993973],[126.81703243955866,35.11835085449727],[126.81790371598943,35.11780686169509],[126.81752018979516,35.11723772177108],[126.8167540846803,35.11659588910235],[126.81645004828444,35.116584996442725],[126.81595966061225,35.116809163331745],[126.81562674216185,35.116758375697124],[126.8150268868761,35.11688491592979],[126.81431689719528,35.11674988968323],[126.81394745592122,35.11677818944986],[126.81343581578523,35.11700048345461],[126.81310905471226,35.11702997299036],[126.81258623582187,35.11689916572426],[126.81228214129689,35.11690826417381],[126.81203741415372,35.11666648908283],[126.810981862919,35.11668596321729],[126.81034528186044,35.11661171891296],[126.80994789058838,35.11671405222368],[126.80976444643979,35.11637039869247],[126.80958141182886,35.11628771602325],[126.80967346343265,35.11606097324346],[126.8095468778153,35.11581093243178],[126.80933542753354,35.11563694179662],[126.80942749788754,35.11562709150025],[126.80955595842366,35.115372093180646],[126.80941986521094,35.115078801188254],[126.80949751985993,35.114419102120365],[126.80936749394034,35.11416820068459],[126.8096091527775,35.11388225755966],[126.80961175268034,35.11350791804528],[126.80966484879453,35.11351997212371],[126.809386878143,35.112849434827005],[126.80941193284812,35.112395269944194],[126.80928789734068,35.11229972758108],[126.80894389880602,35.112450294964994],[126.8084652524767,35.112423484640765],[126.80791529480948,35.11262442257997],[126.80768421405095,35.11263884473779],[126.80691356180229,35.11252113704777],[126.80683286330148,35.112293982557816],[126.80674371711325,35.11230285302969],[126.80665098677181,35.112158197723645],[126.80593665684898,35.11193002241384],[126.80581697983207,35.11194490008007],[126.80515465047773,35.11240197266172],[126.804905773886,35.11240903276495],[126.80455251093866,35.11255873423039],[126.80440428872049,35.11240145861088],[126.80386927999133,35.11271704632998],[126.80336192729457,35.11265862149522],[126.80329645202393,35.112517956565654],[126.80280840628475,35.11226942880151],[126.8029403781373,35.11184853828715],[126.80289408148496,35.111783250898256],[126.80298441182076,35.11171143251207],[126.80292774872012,35.11146994658258],[126.80305192616338,35.11101017749057],[126.80386579764749,35.10897865118954],[126.80414726866378,35.10845942132578],[126.80479855832847,35.107806290159616],[126.80494377821003,35.10749753024104],[126.8047840688736,35.10706208605055],[126.80477452678639,35.10675110125857],[126.80494924414816,35.10579114683599],[126.8052726142781,35.10515931187126],[126.8055541326971,35.10496865148],[126.80554616247512,35.104504014244114],[126.80582577523998,35.103888304928965],[126.80625832907124,35.1033849424422],[126.80640681620677,35.10284999831607],[126.80602889737845,35.10243434019243],[126.80538450895475,35.10222866398928],[126.80443793430587,35.10233416642812],[126.80344624879305,35.10281083145979],[126.80258168891469,35.10216438463494],[126.80170114198648,35.10168352156041],[126.8010124761583,35.10087989435184],[126.8008287355086,35.09991682899231],[126.80065180377895,35.09869209027999],[126.8006304219432,35.09727663825175],[126.80077357346102,35.09669169317822],[126.8010995244954,35.09605197638361],[126.80215204466869,35.09456435406444],[126.80242741804155,35.0939975087199],[126.80252481603877,35.09347727430127],[126.80317027623275,35.0935574799911],[126.80318274441271,35.09350821427627],[126.80348240854083,35.093590384818995],[126.80351261595074,35.09385633599861],[126.80370607926803,35.093784263145615],[126.80408011136252,35.0941528806507],[126.80444382478227,35.09432656064871],[126.80449994667885,35.0946487539994],[126.80499562826115,35.0948863003293],[126.80514827810381,35.095041329392785],[126.80532838513211,35.09539526127581],[126.80533092978418,35.09561934386451],[126.80516566646456,35.09579413954681],[126.80538857917855,35.0963771400913],[126.8055310403896,35.096565818453065],[126.80589596972293,35.0968101894334],[126.80622622904102,35.09722704244138],[126.80632264426643,35.097248884432716],[126.80642980040544,35.09751819614926],[126.80654845631241,35.09755923481446],[126.80679089059598,35.09663966737832],[126.80798670322372,35.09451296024101],[126.80802248101743,35.094167822626346],[126.8083383182052,35.09393819909192],[126.80891579031001,35.093716733152284],[126.80896484993347,35.093476399674266],[126.80884301315785,35.093260302867485],[126.80901757582251,35.093206498228675],[126.80940778037278,35.09275291124795],[126.80959706575665,35.092415344009545],[126.80961372790388,35.09217946577094],[126.81025746096904,35.09145699626177],[126.81064832057484,35.09072074771159],[126.81109381373005,35.091095376348655],[126.8113561433552,35.09095255231875],[126.81171977481294,35.091309025256194],[126.81259358384209,35.091787687204366],[126.81380211612662,35.09276345898483],[126.81427123438215,35.093239363862985],[126.81420461912157,35.09329376639746],[126.81423236317771,35.09345281851483],[126.8143947883559,35.09323321788818],[126.81455382634168,35.0932240258415],[126.8150167215966,35.093497689310425],[126.81627365131345,35.093706217613196],[126.8167422837401,35.093185268676045],[126.81814955616831,35.092065207239344],[126.81985704614338,35.091075436643635],[126.82094138382627,35.09144802036528],[126.82332422381147,35.092061090164734],[126.82361395571947,35.092386005986924],[126.82489494417088,35.093203331447775],[126.82543245580499,35.09313636641581],[126.82576282024885,35.093221627676925],[126.82638718571881,35.09364279092161],[126.82667231936364,35.093726156261226],[126.82662304067965,35.093851571269596],[126.82700542171449,35.094293367623024],[126.82777582463265,35.09446728089266],[126.82834013466957,35.09445203438293],[126.8282435421412,35.094828775947505],[126.8286333632616,35.09516579985208],[126.8293418646907,35.09560241788626],[126.8305209315487,35.09678359932935],[126.83081206929788,35.097524118288305],[126.83137146538036,35.098237682746095],[126.83149007568223,35.09805883865245],[126.83190621783217,35.097943514921155],[126.83258716602465,35.09797108226457],[126.83361546856692,35.097829139034296],[126.83407657892745,35.09784484706495],[126.83511020869075,35.09795062897318],[126.83628655601792,35.09849320043096],[126.83664997087938,35.09894605934286],[126.83666999327777,35.09989674398979],[126.83677453231032,35.100318831632315],[126.83698184057907,35.10051079650314],[126.83716461450393,35.10055019990711],[126.83763376829619,35.10169626655804],[126.8381002151466,35.102226159117905],[126.83830173732787,35.10197391216791],[126.83946842679543,35.10128945157834],[126.84041615277037,35.10117733883532],[126.84106980679981,35.100982863622974],[126.84220056819929,35.10174459671564],[126.84235599959658,35.10201239689515],[126.84240458193379,35.10250116270094],[126.84297771553281,35.10282189641539],[126.84354480392251,35.1037037170786],[126.84381397922067,35.10436122105589],[126.84544764751988,35.104671763397995],[126.84581502986867,35.10460717340365],[126.84631581310907,35.10469019966598],[126.84672364530464,35.105352094600335],[126.84724914236637,35.10559965576759],[126.84778016193412,35.10574144704297],[126.84856979822891,35.105787794341595],[126.84899289448643,35.10553341134555],[126.84980315274154,35.10554865085514],[126.85071112998506,35.10592047878126],[126.85150281822317,35.10596793458278],[126.85308094121626,35.1064159032457],[126.8536077028217,35.106360914638984],[126.8544816475849,35.10661140166492],[126.85475544571682,35.10703241645896],[126.85531288267197,35.1071712502031],[126.8559221860867,35.10705423993365],[126.85670128094354,35.10618592497309],[126.85720956018307,35.105823869694504],[126.85757067046865,35.10620541048427],[126.85872534278053,35.10616621377797],[126.86063217028848,35.1063456147629],[126.86127033291287,35.10728349039965],[126.8611869573547,35.10763126745964],[126.86083752312176,35.10801802441675],[126.85983793916064,35.10815628330299],[126.8594756683479,35.108331488093086],[126.85958258245994,35.108444006076596]]]}}
