{"type":"Feature","bbox":[126.75313643527116,35.05089542783741,126.92962392430705,35.152499011517776],"properties":{"regionCode":"12270","version":"vworld-20260909-3f8952dfda77-p2","name":"전남광주통합특별시 남구","attribution":"국토교통부/K-Geo플랫폼 · VWorld 법정구역정보, CC BY 2.0 KR; 두꺼비집 가공"},"geometry":{"type":"Polygon","coordinates":[[[126.85958258245994,35.108444006076596],[126.8594756683479,35.108331488093086],[126.85983793916064,35.10815628330299],[126.86083752312176,35.108018024416666],[126.8611869573547,35.10763126745964],[126.86127033291284,35.10728349039965],[126.86063217028848,35.1063456147629],[126.8587253427805,35.10616621377788],[126.85757067046865,35.10620541048427],[126.85720956018307,35.105823869694504],[126.85670128094354,35.10618592497309],[126.8559221860867,35.10705423993365],[126.85531288267197,35.1071712502031],[126.85475544571682,35.10703241645896],[126.8544816475849,35.10661140166492],[126.8536077028217,35.106360914638984],[126.85308094121629,35.10641590324561],[126.85150281822317,35.10596793458278],[126.85071112998506,35.10592047878126],[126.84980315274154,35.10554865085514],[126.84899289448643,35.10553341134555],[126.84856979822891,35.105787794341595],[126.84778016193407,35.10574144704297],[126.84724914236642,35.10559965576759],[126.84672364530464,35.105352094600335],[126.84631581310907,35.10469019966598],[126.84581502986867,35.10460717340365],[126.84544764751985,35.104671763397995],[126.84381397922067,35.10436122105589],[126.84354480392251,35.1037037170786],[126.84297771553281,35.10282189641539],[126.84240458193379,35.10250116270094],[126.84235599959658,35.10201239689515],[126.84220056819929,35.10174459671564],[126.84106980679981,35.100982863622974],[126.84041615277037,35.10117733883532],[126.83946842679543,35.10128945157834],[126.83830173732787,35.10197391216791],[126.8381002151466,35.102226159117905],[126.83763376829619,35.10169626655804],[126.83716461450393,35.10055019990711],[126.83698184057901,35.10051079650314],[126.83677453231032,35.100318831632315],[126.8366699932778,35.09989674398979],[126.83664997087936,35.09894605934286],[126.8362865560179,35.09849320043096],[126.83511020869075,35.09795062897318],[126.83407657892745,35.09784484706495],[126.83361546856692,35.097829139034296],[126.83258716602462,35.09797108226457],[126.83190621783217,35.09794351492106],[126.83149007568223,35.09805883865245],[126.83137146538036,35.098237682746095],[126.83081206929788,35.097524118288305],[126.8305209315487,35.09678359932935],[126.8293418646907,35.095602417886184],[126.8286333632616,35.09516579985208],[126.8282435421412,35.094828775947505],[126.82834013466957,35.09445203438293],[126.82777582463265,35.09446728089266],[126.82700542171449,35.094293367623024],[126.82662304067965,35.093851571269596],[126.82667231936361,35.093726156261226],[126.82638718571881,35.09364279092161],[126.82576282024885,35.093221627676925],[126.82543245580499,35.09313636641581],[126.82489494417088,35.093203331447775],[126.82361395571947,35.092386005986924],[126.82332422381147,35.092061090164734],[126.82094138382624,35.09144802036528],[126.81985704614338,35.09107543664353],[126.81814955616831,35.092065207239344],[126.8167422837401,35.09318526867595],[126.81627365131345,35.09370621761311],[126.8150167215966,35.093497689310425],[126.81455382634164,35.0932240258415],[126.81439478835584,35.09323321788818],[126.81423236317771,35.09345281851483],[126.81420461912157,35.09329376639746],[126.81427123438212,35.093239363862985],[126.8138021161266,35.09276345898483],[126.81259358384209,35.091787687204366],[126.81171977481294,35.091309025256116],[126.8113561433552,35.09095255231875],[126.81109381373005,35.091095376348655],[126.81064832057484,35.09072074771159],[126.81025746096904,35.09145699626177],[126.80961372790388,35.09217946577094],[126.80959706575673,35.09241534400946],[126.80940778037278,35.09275291124795],[126.80901757582251,35.093206498228675],[126.80884301315783,35.09326030286758],[126.80896484993347,35.093476399674266],[126.80891579031001,35.093716733152284],[126.80833831820514,35.09393819909192],[126.80802248101743,35.094167822626346],[126.80798670322366,35.09451296024101],[126.806790890596,35.09663966737832],[126.80654845631241,35.09755923481446],[126.80642980040541,35.09751819614926],[126.80632264426643,35.097248884432716],[126.80538857917855,35.0963771400913],[126.80516566646456,35.09579413954681],[126.80533092978423,35.09561934386451],[126.80532838513211,35.09539526127581],[126.80514827810381,35.095041329392785],[126.80499562826112,35.09488630032922],[126.80449994667882,35.0946487539994],[126.80444382478227,35.09432656064871],[126.80408011136252,35.09415288065078],[126.80370607926803,35.093784263145615],[126.80351261595074,35.09385633599861],[126.80348240854083,35.093590384818995],[126.80318274441271,35.09350821427627],[126.80317027623275,35.0935574799911],[126.80252481603877,35.09347727430127],[126.80267024069097,35.092719809967264],[126.80252784379265,35.092158054193746],[126.80221370184613,35.09161432345977],[126.80125680857866,35.09080335113844],[126.80058292217772,35.090437752762455],[126.80025913620044,35.090064836185036],[126.79960277653946,35.08961827409231],[126.79876078829423,35.08940674405158],[126.79783573603046,35.089318717854525],[126.79715655300453,35.08889393516378],[126.79598543412233,35.08799031442032],[126.79402528076183,35.08439673111526],[126.79419678090882,35.084331819573],[126.79387770817402,35.08428367287743],[126.793721016225,35.08418678751418],[126.79138547138113,35.08207216792287],[126.79070369920908,35.080490218325494],[126.79058366325607,35.080533951202575],[126.79026223920702,35.0799410246113],[126.78971468053165,35.08013766702489],[126.78905408779394,35.078863758867556],[126.78809742141323,35.078005081342354],[126.78771674554648,35.07701910226319],[126.78702527631629,35.076307633741244],[126.78662294056856,35.07561569228005],[126.78445305308882,35.07379868120125],[126.78284238106042,35.07282583003023],[126.78123822172758,35.07212000796988],[126.77965331019941,35.07160066536758],[126.77537289351305,35.07125503120659],[126.773325205405,35.07090080141752],[126.77236826107585,35.0705985817438],[126.7713530997362,35.070170207030905],[126.77046674564434,35.06969248415031],[126.76934717533672,35.06893602216617],[126.76858320107263,35.068618791380985],[126.76699767790555,35.0681812523442],[126.76385993839082,35.06823866685405],[126.7618871027604,35.06857477290053],[126.76064359245483,35.068697799455464],[126.75824895032854,35.06864104920831],[126.75697866908824,35.06837527027017],[126.7541384510793,35.06685156083713],[126.7535905548156,35.06625356707768],[126.75313643527116,35.06523860234099],[126.75317747284988,35.064756032168106],[126.75333359369387,35.06444848108761],[126.75432610854003,35.0637550419986],[126.75537390769485,35.06255554124085],[126.75585051944952,35.061156009535],[126.75584983492016,35.05909258241318],[126.75673721563112,35.05824441391432],[126.75772564637961,35.05900495926955],[126.75813555926464,35.05945731084959],[126.75876524826545,35.06053880551706],[126.75915135622793,35.061806565081525],[126.7596329988089,35.062451434488395],[126.76150530372261,35.063527219059964],[126.76281401572062,35.06398470132237],[126.76510877379076,35.064361854112384],[126.76628591000933,35.063882613903345],[126.76685325689806,35.06351359384801],[126.76746780312789,35.062872412602836],[126.76843185815335,35.06141278384281],[126.76862927679296,35.06065728587738],[126.76863177389433,35.06019829682268],[126.76827998001612,35.05970609695327],[126.7678692038941,35.05887887116496],[126.76753977643739,35.05757364276666],[126.7673440454195,35.0563581147746],[126.76747730116072,35.05569938185394],[126.76834052373303,35.05455645102408],[126.76921070331223,35.05397138362194],[126.7706183598411,35.05367887188749],[126.77210151301892,35.05308664696668],[126.77279601052393,35.05290598914759],[126.77489694384288,35.052669661980865],[126.7761033467189,35.05280303046472],[126.77804197523496,35.05398796562596],[126.77888395460131,35.05423893944655],[126.77977844753268,35.05426592349779],[126.78053799484454,35.05415393471055],[126.78158701306634,35.05384458873916],[126.78245956563853,35.05439022335324],[126.78315432114148,35.05526566662072],[126.7833220353963,35.05531455209375],[126.78367168532972,35.0551546284656],[126.78379891044129,35.0551695039765],[126.78451008358411,35.05547780156768],[126.78506308929623,35.055560049140155],[126.78549217454959,35.05580475833317],[126.78565769964916,35.055969831347475],[126.7857817651675,35.05647003199731],[126.78652521177378,35.05701906673525],[126.78705291981916,35.05728139692206],[126.78707552563618,35.05741467738662],[126.78743316423603,35.057407701271764],[126.78757925210793,35.05747964409649],[126.78780411678775,35.05742370479852],[126.78813293006733,35.05757554186429],[126.78850377852794,35.05796139306952],[126.78869746584904,35.05843029916711],[126.78938339285456,35.05898598556104],[126.78975962033435,35.05902100225155],[126.79019666997729,35.05917359080852],[126.79065461628963,35.05919790351051],[126.79089429401643,35.059513239800545],[126.79105307767952,35.06011292438598],[126.79138605644837,35.06044671834074],[126.79156751951767,35.06048816166263],[126.79189429322341,35.060235641195284],[126.79252685532684,35.06003096800686],[126.7934174259625,35.060075024401954],[126.79378512052102,35.06023114949278],[126.79462273473042,35.061036482077995],[126.7948957216088,35.061122856483124],[126.79522767560961,35.06112215032833],[126.79550050534617,35.06106628767871],[126.79594301572088,35.06076325027179],[126.79635377307054,35.05966342246858],[126.79693818480985,35.059049791896804],[126.79750499950929,35.0589630073714],[126.79803965873113,35.05927501144406],[126.79811156122645,35.059150490867076],[126.79850889023088,35.05930706559853],[126.79853672345348,35.0594797781284],[126.79895931267741,35.05912106391813],[126.79921140213945,35.05941738528233],[126.79976083405364,35.059155217675396],[126.80117450660978,35.05821380062656],[126.80146086325162,35.05815243928613],[126.80142246047704,35.057677048710694],[126.8011916506836,35.05743738193121],[126.8015907211554,35.056738921553055],[126.80177619150463,35.05660500377044],[126.80167545048387,35.056480052634676],[126.80195528710033,35.056419391258586],[126.802451294013,35.05599994300545],[126.80292226926963,35.055948038648886],[126.80318981746636,35.05600889483878],[126.80308240242923,35.055950698115055],[126.80290861660352,35.05592760074399],[126.80244122644484,35.055988515254754],[126.80231193452946,35.05605113040291],[126.80196313807399,35.05635983323739],[126.80190148330527,35.056362408889385],[126.80251294579843,35.0557954065188],[126.80248150139586,35.05569408805275],[126.80265125745524,35.055615639099855],[126.80306270880803,35.05516886617776],[126.80306434813502,35.05484451884327],[126.80341631361551,35.054135690001736],[126.80340897181104,35.05349007300834],[126.8035754545835,35.05242109637462],[126.80367730661258,35.0523709840683],[126.80483465305767,35.052409767451444],[126.80514375936288,35.052350407574245],[126.80468450221078,35.052388819099264],[126.80487706071712,35.05158240634752],[126.8056149125955,35.05149796941333],[126.8061041570455,35.05116383828384],[126.80653947863959,35.05110693907975],[126.80702485879316,35.051175457417465],[126.80743622096134,35.05089542783741],[126.80766332043744,35.05103535875328],[126.80795139884292,35.05161649820656],[126.80856356560895,35.05224617748815],[126.8088466433598,35.05240789092277],[126.80942203824758,35.052217541541225],[126.80972851435388,35.05247984668019],[126.80989621762843,35.05231687547474],[126.81053465806758,35.052927439867304],[126.81095248388908,35.05259121006305],[126.81137971823533,35.05299425055473],[126.81137164971229,35.05322676392235],[126.81177926544379,35.05308106637977],[126.81246026353688,35.052622438707765],[126.81272566069117,35.052583137428236],[126.81287649504196,35.052603500885525],[126.81288930745106,35.0526949268568],[126.81384427223414,35.053232865550115],[126.81458162225,35.053371606744115],[126.81454515114656,35.05329070633017],[126.81512377541026,35.05310879017983],[126.81534864839294,35.053412644076744],[126.81653300385463,35.05279898189082],[126.81671062849854,35.05294657209181],[126.81691272493025,35.052945049811505],[126.81705795764327,35.05286907788279],[126.81736759163978,35.0528791206607],[126.81778093327253,35.05269695140298],[126.81858369681422,35.05276913565398],[126.81880921534813,35.05324607399038],[126.81873166619678,35.053924516560215],[126.81901173352065,35.05436675267879],[126.81914034302352,35.054994244811084],[126.8195033604989,35.055491940775276],[126.81977845868862,35.05563334361948],[126.81983902112367,35.05605482393803],[126.82050354063328,35.0569997110707],[126.82058114199907,35.05754079174179],[126.82052978949082,35.057837176892335],[126.82079999639939,35.05857134711594],[126.8215037229588,35.05914786207808],[126.8218592711094,35.05994821574655],[126.82234898467044,35.060260614565365],[126.82315461252165,35.060457704452595],[126.8238350493459,35.060814183715706],[126.82414417935799,35.060838576241906],[126.82525601919632,35.06146932344818],[126.82652773974142,35.06247140199736],[126.82675513064501,35.06219131436381],[126.8275608943907,35.062343315599314],[126.82758372272195,35.06215617043645],[126.82822390062805,35.06213004513264],[126.82826180569843,35.06218333406075],[126.82863810204574,35.06219556133589],[126.82880041101305,35.06198834311032],[126.82903108363122,35.062015009074265],[126.82909764155693,35.062132839817394],[126.8292418146057,35.06215670543595],[126.8296197145558,35.06197358760835],[126.82984155704243,35.06196615931768],[126.83058968820154,35.06224241120708],[126.83081746189872,35.062424268950494],[126.83096148107796,35.06235912227326],[126.83114257349695,35.06242163225291],[126.83117003861615,35.062647012662374],[126.8314519062323,35.0628438795138],[126.83231049240113,35.06306013628331],[126.83374909803993,35.06317354439833],[126.83437706181391,35.06334594840294],[126.83506929446801,35.063743917231164],[126.83596509549518,35.06385682909823],[126.83621578313044,35.06441080855868],[126.8361254910403,35.06459166209043],[126.83632227149475,35.06529542008048],[126.8366664016689,35.06520645435948],[126.83683232022895,35.065668350761065],[126.83683001154542,35.06621747841661],[126.83691923000342,35.06623337336667],[126.83795408017124,35.06586999821712],[126.83809117841803,35.065928068662615],[126.83873865246797,35.06594048532419],[126.83876264821899,35.06584770376486],[126.83963087819885,35.06580266986075],[126.84041864394327,35.06564302227589],[126.84059818761135,35.06589324733501],[126.84106409542986,35.06590414702558],[126.84193803024142,35.06582825939324],[126.84196238360758,35.065724499404226],[126.8423408074152,35.0655366912021],[126.84296151969505,35.065389625301826],[126.84325320637768,35.065409584213306],[126.84347477872822,35.0655407059574],[126.84373724034184,35.06534261185762],[126.84413616831141,35.06544156938567],[126.84412179647713,35.06552126596123],[126.84469583269126,35.06623113253893],[126.84515300442258,35.066420585843126],[126.84529530520551,35.06662836463602],[126.84586779946402,35.06707373420895],[126.8458704426194,35.06793397470421],[126.8457624980856,35.068309174309526],[126.84663990539917,35.06858296056874],[126.84663232451649,35.069056161279896],[126.84689548842618,35.06985463927918],[126.84760443349548,35.070364945635184],[126.84821025032817,35.07105159814333],[126.84818408198146,35.07194785850807],[126.84843556312713,35.072222252602046],[126.84930399584151,35.07237924701382],[126.84974018289593,35.07254542868101],[126.85019318310647,35.07288822302558],[126.85086742131408,35.07291342742865],[126.85192662895793,35.073208527176085],[126.85214051097762,35.07344554336211],[126.85285255537498,35.07359316912901],[126.85338290760174,35.07380690949734],[126.85381339810905,35.07428981135624],[126.85413079394112,35.074702148546606],[126.85454193826172,35.075572598384205],[126.85492911876456,35.07613853120888],[126.85486422354705,35.07641295509559],[126.85496854631579,35.07661151470516],[126.85509793770107,35.07744670493548],[126.85548141167857,35.077798555407476],[126.85560924811078,35.078359529704514],[126.85727543566068,35.078614327421626],[126.85785256924935,35.078355168539886],[126.8582220718289,35.07827828623052],[126.858651884808,35.078305543449964],[126.85907372942447,35.07867193955345],[126.85986151619164,35.07894327126466],[126.86052047917163,35.078821651210454],[126.86113104394292,35.07894193628373],[126.86149220746195,35.07812928543116],[126.86184729565245,35.07796365441524],[126.86217517398023,35.0769749156302],[126.86236607230008,35.07675191349401],[126.86387583135769,35.07618788170498],[126.86450156503746,35.07563369293287],[126.86499351011666,35.075576361606785],[126.86536703026137,35.07534622041628],[126.86596805989369,35.0757246289943],[126.86620775335255,35.07602277083559],[126.8668209647471,35.07577938103096],[126.8684697878048,35.075318256029654],[126.86899001148569,35.07482941045427],[126.86973775538222,35.07464897101407],[126.87070817778692,35.074703253296974],[126.87109401822427,35.07446960378347],[126.87167669942377,35.074337826585925],[126.8719797762266,35.074431820663804],[126.87282677238537,35.07518549557572],[126.8730421612809,35.07515304923389],[126.87351016015165,35.07528691883097],[126.87355843640357,35.07498472544459],[126.87493134718429,35.0754396676586],[126.87633317824869,35.07603687042835],[126.87644225836455,35.07709003075479],[126.8772095743883,35.077215750425616],[126.8787276656307,35.07766698507628],[126.87908052801583,35.07828505658823],[126.87988721909865,35.078450366911746],[126.8806608115563,35.078748880837516],[126.88126112788811,35.07887200870863],[126.8816032642532,35.07921514564067],[126.88272131640633,35.0798274770428],[126.88310552791947,35.080350367216546],[126.88462773504699,35.08110138003449],[126.88540282228972,35.08159026749234],[126.88625634790064,35.08113040432591],[126.88679040237925,35.08038601074431],[126.88818747641083,35.07996297832529],[126.88944784125623,35.079279824756206],[126.88996419253641,35.078791588950466],[126.89064304645355,35.07861053159027],[126.89197650294167,35.07794529046841],[126.89335766250711,35.078887753267544],[126.89397256985085,35.079780507587074],[126.89510537160459,35.08071413990719],[126.89762255793896,35.08123403574666],[126.8990809710169,35.08119007384141],[126.89989297667468,35.08071486240764],[126.90042873245595,35.080844734719214],[126.9012450792817,35.08087189601929],[126.90204741805134,35.081013673982],[126.90304502471838,35.081329115865756],[126.90453184386527,35.0813905080674],[126.90580723008411,35.08204820119861],[126.90602747617383,35.08300001823879],[126.90685295582486,35.08404723104589],[126.90847524042506,35.08518025692674],[126.90893569668731,35.08572552053454],[126.90968794895743,35.08626944376525],[126.90985053881096,35.08674010616622],[126.91071144715627,35.087431277629285],[126.91064480623125,35.088659337049435],[126.91200890058644,35.0889607683529],[126.91248902853887,35.08926645864889],[126.91343017739709,35.0894713584284],[126.91456693272387,35.089917370804734],[126.91669987794387,35.091246977183324],[126.91732905396164,35.091258826352885],[126.91801539553386,35.091521958055374],[126.9185722126045,35.0915922043151],[126.91922340855471,35.09153166129017],[126.91925721840913,35.0921661545404],[126.91970959656416,35.092839815036506],[126.91968319554154,35.09354792687085],[126.92006305327354,35.094274203834885],[126.92059247707057,35.09486395924256],[126.92072384385207,35.09615004071974],[126.92112046616313,35.09710364000329],[126.9213238406998,35.09713898183376],[126.92111705867993,35.09725686951335],[126.92083643228445,35.097710321461705],[126.9204483958459,35.098122301267765],[126.92024447744765,35.098633544356005],[126.91977665208269,35.09880871655252],[126.91903492429086,35.09868779282699],[126.91828412711331,35.09890304850855],[126.91784850095603,35.099578058820114],[126.91766344701647,35.100391420477465],[126.91793985830984,35.101409303801226],[126.91780138026017,35.101923408686616],[126.91709485160298,35.10288287040533],[126.91627537080426,35.10366929527091],[126.91534354262738,35.10421170801853],[126.91488194785191,35.104605166415226],[126.91448472489432,35.10505739307696],[126.91443585197457,35.10557183748429],[126.91386176284144,35.10618237642195],[126.91391860923343,35.106543953592166],[126.91385389963474,35.10712471749601],[126.91396649075801,35.1072895745692],[126.91399889593215,35.1079232303608],[126.91418374987062,35.10878839118966],[126.91295632491685,35.109698156248086],[126.91249620989592,35.110427074508806],[126.91248896500981,35.11141082429847],[126.91233542242182,35.11169999434034],[126.91230265387847,35.11220754259352],[126.91281922382805,35.11284986367322],[126.91285177731449,35.1130153771931],[126.91355509858471,35.113741619848646],[126.91322050966764,35.11455471958084],[126.91264111719896,35.114769063508525],[126.91218203586472,35.11515547359159],[126.91183670485758,35.11558195894862],[126.91220628690498,35.1155505397659],[126.91273057777371,35.11588991505155],[126.9135758851184,35.116092779946044],[126.91379303208966,35.11643052366129],[126.9147590369346,35.116614167241124],[126.91540203467416,35.11705234396074],[126.9158522232077,35.117141112980896],[126.91608476908418,35.11685114716391],[126.9170252380916,35.116883497368875],[126.91758290080679,35.11695979690408],[126.91773549494847,35.11708552504611],[126.91829076259336,35.11716787678531],[126.91885398179004,35.117362198347756],[126.91940066095113,35.117807751465534],[126.91950399248671,35.11799936038887],[126.91950293630997,35.1183755422119],[126.91966407010663,35.11853493934069],[126.91975903545169,35.11904342458104],[126.92005499205229,35.11928262815973],[126.92043358521974,35.11933724278732],[126.92081743799797,35.11960973644013],[126.92185988340404,35.11985970534512],[126.92178561342435,35.12008640272711],[126.92270440335723,35.120947945699285],[126.92267212153693,35.12153648557394],[126.9227682085978,35.12180315215697],[126.9227797590988,35.12244326911361],[126.92338379806472,35.123022494746735],[126.92434961188533,35.123688577218],[126.92454590103335,35.12367771435997],[126.9245915902947,35.12376378673238],[126.92443516615617,35.1247691267086],[126.92712701052523,35.12550020507861],[126.92768756172738,35.12550308907218],[126.92831456252594,35.12575330778072],[126.92866164184916,35.1258163323054],[126.92886536257129,35.12592898898623],[126.92900383542013,35.12616989707922],[126.92950750138964,35.126340328500795],[126.92962392430705,35.12646565914246],[126.92848611536007,35.12737481864138],[126.92735305575948,35.12785049223827],[126.92745161042387,35.12933371106357],[126.92711776040126,35.12945097227753],[126.92644399226525,35.12987489890038],[126.92631528527563,35.130029600454456],[126.92582669751648,35.13114430404272],[126.92571554324807,35.13158124926937],[126.92523995322972,35.13254061818551],[126.92477049581842,35.132973262297234],[126.9246083458702,35.1333059501917],[126.92381697245256,35.1340352664212],[126.92328182395654,35.13430209393408],[126.92199342383613,35.13521683749991],[126.92053602367058,35.13777938820636],[126.91947638214963,35.138895376603266],[126.9194378971679,35.13931391384659],[126.91792011538216,35.14108897412019],[126.9165897100655,35.14249754645544],[126.91597652449244,35.14287272886992],[126.91347475881835,35.144946868506594],[126.90974273854181,35.149189487976145],[126.90940899183829,35.14894544705516],[126.90758914943007,35.14880730714122],[126.90536923240599,35.14826418663241],[126.90385738229983,35.148986460631825],[126.90302752947473,35.149639828973875],[126.90273370200042,35.15000534198663],[126.90173696984746,35.15179667408663],[126.90107370470052,35.15233821092328],[126.9005189471123,35.152499011517776],[126.8987010200907,35.15228791891898],[126.89736501587129,35.152441559528164],[126.89429769782093,35.15144795500364],[126.89457282098377,35.150866265008744],[126.89337762393093,35.1504878958368],[126.89330907479172,35.150067165257],[126.89235938511686,35.14947888298221],[126.89217980406075,35.14938744963867],[126.89015214654765,35.149002671091246],[126.88540757472883,35.14655554807404],[126.88830560211436,35.14279019674974],[126.8875640532148,35.14240600226616],[126.88779372259408,35.142099199964434],[126.88775984938498,35.14204311070148],[126.88586864950506,35.14121573379554],[126.88572234113884,35.14125700245387],[126.88562630735794,35.141394658050864],[126.8855874191243,35.141130830001735],[126.88539832506532,35.14099529930192],[126.88538949554132,35.14080670907877],[126.88518086509578,35.14066722249284],[126.88513742504796,35.140473111897705],[126.88528220014466,35.140420852785816],[126.88539009470362,35.14026885222833],[126.88517542839242,35.14015401401284],[126.8852316291025,35.13981633866669],[126.88508566876806,35.139853656865064],[126.88487607754728,35.1397898037677],[126.88480219990923,35.139656773241576],[126.88485352840283,35.13960458036112],[126.88422764232357,35.139192732721234],[126.88339655168191,35.13899883754142],[126.88322631294429,35.13887445559971],[126.88315720694581,35.13840313879566],[126.88363294672068,35.13760013469797],[126.88411113341543,35.1375858051447],[126.88435285144291,35.13747703983791],[126.88582280958418,35.13653159308194],[126.88617464361415,35.1348103452067],[126.88651624941481,35.13437660085047],[126.88691425813406,35.13442922922575],[126.88718165828993,35.13385120882746],[126.88726056641079,35.133327089626924],[126.8875666262195,35.13280303980004],[126.88757961295923,35.131970422782345],[126.88684509478772,35.13130060553374],[126.88677193160548,35.13090323577025],[126.88683573886254,35.13063233197294],[126.88671149314006,35.130485464290665],[126.88695987043269,35.12916027906635],[126.88674915764011,35.128811506649775],[126.8868942991713,35.128482501770016],[126.88696019757772,35.12696617479034],[126.88724766343745,35.126362389326125],[126.8872804575142,35.12570880202555],[126.88763114771825,35.125369281443895],[126.88788605317504,35.12523882346003],[126.88814244021256,35.124791207272125],[126.88808037218406,35.12405864876675],[126.88837535219787,35.12283815262444],[126.88832830990137,35.12239376571396],[126.88862546054743,35.121589856688345],[126.88833672081466,35.1207773838003],[126.88838511029554,35.12011844290518],[126.88829032176858,35.11986822718202],[126.88756902792451,35.11925209438989],[126.88751864038416,35.119000939365925],[126.88755104725038,35.118621828754804],[126.88835921165395,35.11802065027346],[126.88826384876398,35.11794211590847],[126.8879785985598,35.11697443761424],[126.88619540484399,35.117025140632855],[126.88549132083938,35.11663309177521],[126.88498194074332,35.116606545307775],[126.8838983529841,35.11587215093452],[126.88377149459683,35.11553218801498],[126.88265692704341,35.115609557562415],[126.88221078860994,35.11594895949473],[126.87926943135713,35.11681329978231],[126.87882330408772,35.1170219919789],[126.87850500170136,35.117021669636316],[126.87786791803083,35.117230031389255],[126.87780400346035,35.117334602975696],[126.87666616811079,35.117702438069756],[126.87647482558543,35.117963768469345],[126.87596491947863,35.11827688792926],[126.87532773586351,35.11843311915925],[126.87488056433486,35.11874418835704],[126.87481598555925,35.11926705583296],[126.87452447017284,35.11979375584704],[126.87433856842254,35.11995580579214],[126.87358085775115,35.11990262411377],[126.87364494864573,35.1195848161363],[126.87386818319567,35.11932365698701],[126.87354485535857,35.11858857511754],[126.87284497414076,35.11816953873722],[126.87271818798283,35.117803370935654],[126.87233645579774,35.117593678358205],[126.87180138958875,35.11744523024721],[126.87180308984787,35.11723749569511],[126.8710379979078,35.116449391452946],[126.87011015981489,35.11603954198386],[126.86969678311023,35.1160143060931],[126.86951490263995,35.11581102504231],[126.86964869911365,35.11543062321316],[126.87003187510747,35.115474836299995],[126.8704456550176,35.114609275256775],[126.8703126509591,35.11449815810451],[126.87079960615975,35.114068561541806],[126.87093956939263,35.11382679462709],[126.87016113464013,35.11387740726355],[126.8696799197789,35.11401082781208],[126.86894550006136,35.11370011277575],[126.86800703973832,35.11304900437634],[126.86909972444715,35.1119668298325],[126.86884730453937,35.11179540336416],[126.86980317960321,35.11092483839847],[126.87026267409652,35.11039043070268],[126.86905585604042,35.110430103884276],[126.86804006718553,35.110190409387606],[126.86760563251043,35.11026907917632],[126.8674605506519,35.11042736182516],[126.86629406317795,35.110533525778756],[126.8659721651347,35.110653590415815],[126.86547788880914,35.10940563276707],[126.86489990489069,35.10943906377231],[126.86424625041163,35.10922157733081],[126.86388859355318,35.10920638800826],[126.86390927571362,35.10903275534902],[126.86369525927871,35.10900927529169],[126.86370122444512,35.10923208942697],[126.86322769542707,35.10962406837057],[126.86204172840307,35.10923337335939],[126.86209963089561,35.10943619928636],[126.86167407567923,35.10965873319797],[126.86155467854358,35.10990308061352],[126.86157150387314,35.110102715382936],[126.86128008251427,35.110242540449875],[126.85958258245994,35.108444006076596]]]}}
