{"type":"Feature","bbox":[126.82387743276074,34.82369773552573,127.20163324911363,35.21429400675858],"properties":{"regionCode":"12760","version":"vworld-20260909-3f8952dfda77-p2","name":"전남광주통합특별시 화순군","attribution":"국토교통부/K-Geo플랫폼 · VWorld 법정구역정보, CC BY 2.0 KR; 공공주택 복덕방 가공"},"geometry":{"type":"Polygon","coordinates":[[[127.18429758743147,35.21429400675858],[127.18284003983757,35.2136321785958],[127.18240545006984,35.21381125009559],[127.17882552678111,35.21277236674658],[127.17865138074106,35.21286672215573],[127.17700412949746,35.21138612079605],[127.17686940558895,35.21091598512876],[127.17633300371703,35.2101962527073],[127.17581764903208,35.2101268352553],[127.17461686524908,35.20958782343072],[127.17397178879617,35.20919460393712],[127.17316346165633,35.208902698509576],[127.1728166601762,35.20863907754888],[127.17231642089641,35.20811983424219],[127.17157975793543,35.20685414717938],[127.17129182155516,35.20659540543501],[127.17124112526726,35.20635091433024],[127.17057836325183,35.205739196968835],[127.17048733093289,35.20542451993849],[127.17020888436728,35.20509342926501],[127.16965883490444,35.20507336451782],[127.16900429424521,35.204817811972816],[127.16824823209741,35.204690999854165],[127.16750799682221,35.20396538789849],[127.16711648052947,35.2037644912875],[127.1668091102852,35.203337943597546],[127.16408767707316,35.20191503201959],[127.16317751288858,35.20206898426691],[127.16218771850463,35.202016140266444],[127.16198412053642,35.201545005968214],[127.16193963339639,35.20103035980537],[127.16173527714511,35.20036130823145],[127.1610834444049,35.19984141600578],[127.16077364020389,35.19978669762603],[127.15881700954908,35.19889694946874],[127.15814096617214,35.19884836019061],[127.15786094190747,35.19862444896282],[127.157286040482,35.198343086463176],[127.1561101096586,35.198223398878746],[127.15562029706481,35.1974893351188],[127.15485950036802,35.19723848283169],[127.15451882252661,35.19690913787791],[127.1533168545992,35.19660396767485],[127.15093555270556,35.19569296394846],[127.15050300244226,35.19580260528641],[127.14924916945336,35.19585960201092],[127.14839506431022,35.19568277844773],[127.1481434836831,35.19519605811706],[127.14703454752278,35.19474387407169],[127.1468493978389,35.19481195901343],[127.14630053943755,35.19444954473195],[127.14536555712641,35.19416307533436],[127.14484752031208,35.19386326148715],[127.14371271614093,35.19482064191915],[127.14323542388873,35.19452416240404],[127.14278377883471,35.19506096545856],[127.14216906216282,35.19522489744734],[127.14129728253454,35.19490302642036],[127.13949058267856,35.19484832344581],[127.13930956797854,35.19507354220374],[127.1383961797808,35.19555284289673],[127.13801598699885,35.195411336968206],[127.13742878286494,35.194888098158835],[127.1373210890399,35.194387754448464],[127.13669430108719,35.194234902380856],[127.13602992910735,35.19434774322327],[127.13545205164772,35.1942026360338],[127.13536408921796,35.1940489723255],[127.13515861313002,35.19397342301586],[127.1342506714272,35.19418372419528],[127.13290592768166,35.194011168091144],[127.13098773440872,35.19394736461029],[127.13055560705284,35.19414115629893],[127.13023485894293,35.194653355531585],[127.129621122798,35.19484751714038],[127.12905751994664,35.194529026036676],[127.12853897842669,35.19436881586368],[127.12787150754497,35.19460149454644],[127.1269536117779,35.19479622118703],[127.12654977814682,35.19473962876063],[127.12617344353984,35.19570557727334],[127.12531448825204,35.19641568471315],[127.12517899310416,35.19683887996353],[127.12394484026719,35.19724960807985],[127.12330748152601,35.19736185604842],[127.12191754455101,35.19813356577797],[127.12122146918475,35.19769732786076],[127.12076082908533,35.19749547504828],[127.12056600608949,35.197493107020215],[127.12021531504712,35.197160836032964],[127.11984899033494,35.19659388627293],[127.11892200088434,35.195748549308284],[127.11868178388218,35.19572742014691],[127.11849087096955,35.19520224493757],[127.11678390151688,35.19447057268276],[127.11622882915422,35.19393430195185],[127.11657900886053,35.192789229702534],[127.1162639265058,35.19229089368338],[127.11599481989923,35.19209687179567],[127.11496335164311,35.19197939678744],[127.11310723116542,35.19139155006796],[127.11226275214268,35.191605702098265],[127.1116650409782,35.19146897211225],[127.11114043453986,35.191445679856955],[127.11049471279065,35.191260639204756],[127.10952139576034,35.19135460304852],[127.10937606346299,35.19112009347464],[127.1082399714197,35.19134903379899],[127.10711520635584,35.191291279518694],[127.10537584442308,35.19074994720427],[127.10493103180895,35.19066392478721],[127.10429267875699,35.190655536214074],[127.10276666518722,35.189992311833926],[127.10145159999283,35.1895665078484],[127.10045891785464,35.18913001581467],[127.0996245346434,35.18893716636464],[127.09861701788739,35.18825437742885],[127.09768961871069,35.1881728067368],[127.09725823482667,35.18799387034709],[127.09626917791228,35.187164253320965],[127.09519212113904,35.1857517301273],[127.09412989978304,35.18465698369565],[127.0937213903642,35.18395435962745],[127.09339425904686,35.18315098248705],[127.09302171681512,35.18256413407437],[127.09271128969148,35.18257966431128],[127.09208724259575,35.18286000227614],[127.09087532594542,35.18318403734256],[127.0907067063268,35.18301645647138],[127.09111038662263,35.18294877332632],[127.0910958442631,35.18287287235607],[127.0902252503148,35.181548275935235],[127.08856611379186,35.18181367563557],[127.08761462849019,35.181290130758995],[127.0864034037496,35.18089176015857],[127.08572420878632,35.18050788967233],[127.08450811457922,35.181140585723604],[127.08390343531104,35.18074398993355],[127.08307461949961,35.18069125449491],[127.08211999084425,35.180215277802475],[127.0810103274173,35.180044304499724],[127.08034460055019,35.18054472838097],[127.07996551201818,35.180643699702934],[127.0793843398988,35.180970192842636],[127.0785466294068,35.18122845226432],[127.07771010557549,35.18178723350445],[127.07666042532699,35.1820305876307],[127.07612274046154,35.18199910267764],[127.07473853238258,35.18170343992494],[127.07393880490275,35.18203283315023],[127.07366846242269,35.18201491357065],[127.07264342044243,35.18225278304665],[127.07160495206583,35.1828559059386],[127.07056683208798,35.183331072968905],[127.07043711748594,35.18399343223384],[127.07007388905194,35.18472119963136],[127.06981784127055,35.1849226971055],[127.0696680136345,35.18495248109256],[127.06874353079178,35.184705739928425],[127.06648177366495,35.18444533166569],[127.06573981979271,35.184129074417726],[127.06566173512863,35.18394423083961],[127.06572076012375,35.18376619181892],[127.06543344693044,35.183350460826034],[127.06552880426489,35.18284123744807],[127.06538639406939,35.1824843688396],[127.06487596201782,35.18187669420104],[127.06395150455168,35.181068194430686],[127.06381026443309,35.18040477378082],[127.06385377953062,35.179883454980605],[127.0639839419068,35.17940041686085],[127.06569609075615,35.17813085074612],[127.06592723324258,35.17772599409625],[127.06649162565994,35.17706479437185],[127.0665216339245,35.176810011243624],[127.06714246887725,35.175951183742875],[127.06729125499213,35.17560209957114],[127.06787562285001,35.17490020430976],[127.06817199420125,35.17363297495653],[127.06799642668797,35.17316954224652],[127.06817972472267,35.17276274230895],[127.06809994865294,35.17257020333454],[127.06757148384186,35.172090595053106],[127.06695473919203,35.171068282877755],[127.06780560119341,35.17029974123057],[127.06807367086594,35.168980185106435],[127.06800643604765,35.16821060201103],[127.06826884105749,35.16662066022915],[127.0682417856467,35.16616648332651],[127.06799296943177,35.164966008771536],[127.06767126203174,35.16453010131803],[127.0681013299468,35.162991318117385],[127.06827960591441,35.162806838993504],[127.06919791642672,35.16241004872769],[127.07126416423966,35.15897684417781],[127.07148099421786,35.158705059873895],[127.07210204600365,35.158430236875304],[127.07270559354775,35.157293645083264],[127.07333719161765,35.15634853523234],[127.07260566695659,35.15447465407461],[127.07306055615697,35.153223152137315],[127.07466978499751,35.15264860390174],[127.07610498343621,35.150950755498975],[127.07760864847977,35.15018665998339],[127.07925022148385,35.14892772118348],[127.0796636191569,35.14819432834251],[127.08068577905689,35.14770915838753],[127.0814292871754,35.14768360314908],[127.0823940000969,35.14743872208249],[127.08262880006745,35.146411947636],[127.08298996375262,35.14553565011617],[127.08374066979789,35.14481019081334],[127.08383383201206,35.14443618183372],[127.08402953941595,35.14431051671403],[127.08415069350713,35.14399109254748],[127.0838529674915,35.14349756842317],[127.08363873786148,35.14271662544295],[127.08388472793759,35.14202085440872],[127.08388409957912,35.14162622285704],[127.08406286256952,35.14091907686627],[127.08388567000422,35.140234499835884],[127.08366696336788,35.13989262854311],[127.0836955704083,35.139271393876264],[127.0839151427677,35.13873245843432],[127.08592831278625,35.137808820952856],[127.08583344681458,35.13752546427003],[127.08589411288845,35.13714135364825],[127.08635308612318,35.13579993020469],[127.08679286035125,35.135021893869286],[127.0868514294177,35.13412778685139],[127.08729820065471,35.13354790707954],[127.08744386679372,35.133506557658684],[127.0880030480276,35.13296644444736],[127.08828765180515,35.13226401984051],[127.08835768840733,35.132266583570726],[127.08837403795404,35.131700095309604],[127.08766790511983,35.13131997422736],[127.0884112507009,35.130932922634656],[127.08874574960426,35.130945905061076],[127.08918447494624,35.13080042447496],[127.08929300003388,35.130374724458946],[127.08958965123698,35.13013945282693],[127.08940566001853,35.12997937005292],[127.08858347944417,35.12990779223456],[127.08869200275856,35.129766606493114],[127.08883191693067,35.12893878817101],[127.08872929357507,35.128243346772464],[127.0887736688596,35.12791072245938],[127.08864256109176,35.12709753885682],[127.08850899215028,35.126783583426004],[127.08768400190264,35.12729381058451],[127.0865299619968,35.12725754437205],[127.08395299431346,35.12622050997238],[127.08306380065737,35.125456047489216],[127.08300967281629,35.12497509163527],[127.08266673340877,35.124800151794254],[127.08160933250863,35.124833710355446],[127.08121383057743,35.12474423198356],[127.08072395251871,35.12444565366823],[127.07992868473646,35.124115110999455],[127.07928957816314,35.12357324733585],[127.07878498294099,35.123277311552535],[127.07924001195131,35.12241923250141],[127.079702277094,35.120706279287184],[127.08035856714697,35.119861991583086],[127.07902875719506,35.119475824133445],[127.07795511886218,35.11889615690351],[127.07543346417462,35.11855420507987],[127.07375201880174,35.117532581507504],[127.07303698176555,35.1172398114506],[127.07208758388647,35.11643257824251],[127.07116956234736,35.11595446930839],[127.07078393745837,35.11612959955661],[127.06983736398334,35.11684852174152],[127.06934281136968,35.11707585250332],[127.06893301682818,35.11785714623738],[127.06847085088292,35.11835324101695],[127.06690246471128,35.11914153552436],[127.06630716771727,35.11999929241444],[127.06570792426724,35.12020617631266],[127.06481314369762,35.120719746627934],[127.06410634571343,35.12156799633588],[127.06385181665122,35.121708712758995],[127.0634517317963,35.12169317135643],[127.06293605558182,35.12121701132328],[127.0623407653742,35.12095140170236],[127.06095779721163,35.12129311822036],[127.0603980180594,35.120805900298684],[127.05765887116017,35.12156979731949],[127.05676731181407,35.12188204203382],[127.05667209100267,35.12227732272241],[127.05607188536833,35.12263269443658],[127.05569102507714,35.12320685135563],[127.05579028637514,35.1238481602862],[127.05557407424686,35.12436308655757],[127.0554128439236,35.12449269283173],[127.05515191987956,35.12503928492735],[127.05453994037553,35.1258893561479],[127.05452108092717,35.126413270431605],[127.053647244749,35.127470349313796],[127.05337477827521,35.12754844294617],[127.05338628641411,35.12749541106411],[127.05307219375824,35.1274854951307],[127.05300823955518,35.12741191738308],[127.05240047424061,35.12725380568194],[127.05205663226131,35.12749810990885],[127.05089611684988,35.12772725480798],[127.05057817312195,35.12793726557224],[127.05061774569222,35.12817263039281],[127.0503921102221,35.12852458521202],[127.05032174008691,35.12896633352476],[127.04999665932316,35.12927000579024],[127.04951340895452,35.12949747605424],[127.04923918338478,35.12928725246167],[127.04867623128327,35.1292642361624],[127.04817424077416,35.129573659926876],[127.04759592333606,35.12968062046267],[127.04692894311624,35.12963029741638],[127.04637916311181,35.12938205201191],[127.04555723490854,35.12817226173456],[127.04553564171081,35.12788455581376],[127.04449543391216,35.12823353942532],[127.04410806431392,35.12894409144361],[127.04376210598748,35.129061398415416],[127.04353097339676,35.12941075544215],[127.04322700877711,35.12950134803993],[127.04260526489014,35.129422151125524],[127.04232033240305,35.12948583843827],[127.0422083427774,35.12983234944531],[127.04198511779235,35.12997218000024],[127.04124299899577,35.12986456943881],[127.04118850752788,35.13034805808372],[127.04074279443248,35.130737428128384],[127.04007862896641,35.130825262779936],[127.03969352252226,35.130970089058856],[127.03882105972171,35.13078060732472],[127.03872313259824,35.13127654693027],[127.03857785724178,35.131450878215375],[127.03815971339532,35.13163004247126],[127.03790690010996,35.13133525741875],[127.03758805877666,35.13133446961686],[127.03715150759115,35.1312235246454],[127.03698383362159,35.130964397311175],[127.03683376736417,35.130926557134664],[127.03656299024257,35.131017069222416],[127.03628126828677,35.13086319850854],[127.03599801016107,35.13083634702479],[127.03574722901563,35.13091513392629],[127.03534794369705,35.131177298278836],[127.03540052574277,35.13121624928277],[127.03504907357465,35.131341338652064],[127.03487262106823,35.131520063755275],[127.0347703210843,35.13146981416057],[127.03403974233122,35.13166950156159],[127.03372380522922,35.131858096248465],[127.03370143058794,35.13198964645432],[127.03346022045997,35.13223218485233],[127.03228203817554,35.13251056852006],[127.03192935439873,35.13242057602192],[127.03179171406057,35.13245802596099],[127.03118557153391,35.132920942639636],[127.03108193212734,35.132866976676134],[127.03095902021742,35.1330705514044],[127.03046758543918,35.13351262408829],[127.02976629215156,35.134019452488474],[127.02832479732038,35.134944222722936],[127.02725410821839,35.136018396453544],[127.02660283909637,35.13612648908225],[127.02512971906829,35.13665145740544],[127.02419869378544,35.13682657137295],[127.02355589717331,35.1372230083682],[127.02275322304384,35.13753668046522],[127.01994053323506,35.138242256613665],[127.01949056816962,35.13851426404367],[127.01770897145443,35.13784619586867],[127.016887094139,35.13778357798615],[127.01652485552438,35.137618945606505],[127.01563886867487,35.13705375724321],[127.01503463612116,35.13623041823989],[127.01458462076936,35.135813004029046],[127.01395600282157,35.13504326587987],[127.01345008463785,35.134624212664995],[127.0127584847473,35.13425321718978],[127.01075713383113,35.13378818774238],[127.00871270135926,35.13374920884641],[127.00868010263414,35.133495983227995],[127.00894453037208,35.132420394297455],[127.00963286888238,35.13079340660041],[127.0101542788658,35.130071003330926],[127.01103174656961,35.12912944070462],[127.01183179849693,35.12781621186069],[127.01156196332096,35.12626210219408],[127.01129993144588,35.12555722474084],[127.01074582158493,35.12482632014263],[127.01060776062046,35.12431397086089],[127.00952076617399,35.12409095275362],[127.00786895458386,35.12398711594617],[127.00678432803154,35.123052999484905],[127.00634701521633,35.12252980566993],[127.00517810970922,35.12215578307697],[127.00458671407821,35.12176116649954],[127.00431774389016,35.1212906362344],[127.0039494927036,35.11968848575813],[127.00255060882468,35.118828122231676],[127.00097228817822,35.11735722332423],[127.00013018007587,35.11669471710519],[126.99868631549951,35.11575559222558],[126.99993157544345,35.11405020295405],[126.99779668347584,35.1129938795838],[126.99634704046943,35.11261582356056],[126.99529007734935,35.11223761747657],[126.99439869155083,35.11175083387053],[126.9918016310702,35.11114632856392],[126.99041679584391,35.11103508179238],[126.98991860090774,35.110727031236],[126.9893356925336,35.11073963861297],[126.98873389987537,35.1099445490404],[126.98845691018145,35.110094235897414],[126.9886435716121,35.10993792355161],[126.98920504821326,35.10987742799112],[126.98932900530602,35.10960025365712],[126.9890410070068,35.108939850829984],[126.9888537735695,35.10727005842337],[126.98816430216525,35.107182237334946],[126.98788253945592,35.10725966923884],[126.98670014861541,35.106338591552884],[126.98635145672051,35.105945329381825],[126.98656379226878,35.105050050360624],[126.98706489682674,35.104071852991616],[126.98710934989258,35.10376342096978],[126.98724916007818,35.10389271984825],[126.98749059459618,35.10316139116926],[126.98875563598982,35.101328383237245],[126.98779230877435,35.10049521190046],[126.98777832223281,35.10011692622736],[126.98758100339937,35.099534109412645],[126.98783508235047,35.098845866129665],[126.98782629327181,35.09814449621562],[126.98872545051859,35.0970292915275],[126.98882659653876,35.09670312560246],[126.98895903390074,35.0957095209164],[126.98895041412844,35.094987590622054],[126.98844134839382,35.094723743973084],[126.9876515205402,35.093952702077296],[126.9851763255058,35.093663959032945],[126.98473634769579,35.09340475705558],[126.983469687011,35.09341795230572],[126.98265990941253,35.09319954628986],[126.98170951187488,35.09270180632073],[126.9811380738992,35.09261030468781],[126.98040081093096,35.092348224569626],[126.97961477516223,35.091873742698006],[126.97873319989529,35.09174752508269],[126.97756188228351,35.09218347944262],[126.97679627372885,35.091634341321594],[126.97659460789866,35.09157161930285],[126.97494782043323,35.09189154366486],[126.97461987680286,35.09182598747886],[126.9740333312547,35.09186204616325],[126.9730830165027,35.09135311567139],[126.97283617093808,35.091137577519355],[126.97239791880551,35.09095382036647],[126.97201842576939,35.09034446955157],[126.971129531717,35.0901873501615],[126.9705642096354,35.090269880755045],[126.96883481627782,35.0897879012108],[126.96803926313805,35.089777120773206],[126.96755686805668,35.08948728836454],[126.96651271992926,35.08938558868001],[126.96611743871973,35.0889639419631],[126.96572924746,35.088764680757244],[126.96553289321349,35.088753355732756],[126.9645470653558,35.087795359683064],[126.96401436249296,35.08740535612863],[126.96355915313606,35.08729239998008],[126.96304544786067,35.08733069971964],[126.96280614393953,35.08720301748806],[126.96263457727915,35.08695903530357],[126.96243002430664,35.086903761081075],[126.96218956781254,35.08666861650147],[126.96131733889595,35.0854502171395],[126.96064809667358,35.085112694007826],[126.96022227984434,35.08452342664392],[126.96000702783313,35.08395619610996],[126.95969432568535,35.08363300342655],[126.95926394372658,35.08297232479751],[126.958600730726,35.082588020467476],[126.95855487701114,35.08212097961277],[126.95864973900899,35.08190737138111],[126.95958271015677,35.08045184663565],[126.959684439555,35.07983514896741],[126.95947320970814,35.079131595801485],[126.95829660583227,35.07869711210012],[126.95731687692879,35.07791229154202],[126.95710054971848,35.07749659258874],[126.95651251450165,35.07698274153425],[126.95498623567548,35.074842691637436],[126.95389879331795,35.074100328202505],[126.95318651123581,35.07403779858556],[126.95252868629677,35.07342854454061],[126.95188180666263,35.07315660997272],[126.94945269078883,35.072729976820916],[126.94859504101268,35.07282199640714],[126.94715681376468,35.07266461365675],[126.94674272615603,35.07269878778569],[126.94532719381272,35.07315925370507],[126.94379301245056,35.07351301502071],[126.94279295619187,35.072932560062014],[126.94232063341826,35.07246799152546],[126.9414488204857,35.073418929484845],[126.94100920342628,35.07368968024543],[126.94046148320275,35.07374588582642],[126.94005687689692,35.073904403485386],[126.93907118481418,35.074071491888226],[126.93860700133031,35.07397844761835],[126.93788871411286,35.074140463725705],[126.93650316285868,35.074306771284185],[126.93599472402188,35.07448169673328],[126.93495593053834,35.07440225326443],[126.9337048080456,35.07442747543836],[126.9332214485061,35.074510301594756],[126.93229591708476,35.07439232048562],[126.93240867974,35.07517840357102],[126.93232544100185,35.07637237851344],[126.9326532176652,35.07694100258517],[126.93262506286986,35.07761771448229],[126.93252810802325,35.077807090591406],[126.93064110722885,35.078666376041284],[126.92929759121417,35.07943105160028],[126.92859866389341,35.08030058729126],[126.92768707279464,35.080442136787276],[126.92715103911434,35.0811305072645],[126.92684593246528,35.08204957784257],[126.92609278997148,35.08239219012559],[126.92616471206878,35.08354922753881],[126.92632275559188,35.08441167977628],[126.92594984036715,35.084673123606365],[126.92564961504779,35.085099119880304],[126.92502202434096,35.085635173562046],[126.92445939188754,35.086854337580554],[126.92466907525142,35.08799582368964],[126.92407153548275,35.08861358187067],[126.92316169696895,35.0893180274218],[126.92261283627789,35.089902720585016],[126.92227962872245,35.09053599146788],[126.92160477275405,35.090972855022706],[126.92104826666093,35.09146964387386],[126.92057596825792,35.09168621613672],[126.9192231313846,35.091531660054834],[126.91857193543413,35.09159220315745],[126.9180151067924,35.09152195667725],[126.91732878766254,35.09125882512074],[126.91669958929972,35.09124697585492],[126.91456666642914,35.08991736964564],[126.91342990016976,35.08947135717976],[126.91248873987934,35.089266448428894],[126.91200862342512,35.088960767153914],[126.91064454000266,35.088659337871256],[126.91071116992369,35.08743128745661],[126.90985027258095,35.086740113878584],[126.90968768273896,35.08626944249002],[126.90893541957931,35.085725510288405],[126.90847496326602,35.085180265072154],[126.90685267813959,35.084047229729016],[126.90602719907541,35.08300000798612],[126.90580695243766,35.082048199984975],[126.90453156617285,35.08139050688608],[126.90304474758065,35.08132911668845],[126.90204714040864,35.081013672654116],[126.9012448131452,35.08087189475199],[126.90042845471477,35.08084473553539],[126.89989269894772,35.08071485208756],[126.89908070425352,35.08119006355513],[126.89762228018515,35.08123404554373],[126.89510509386662,35.08071413858979],[126.89397230371814,35.07978050622449],[126.89335738488356,35.078887742959004],[126.89199877115819,35.07795985753433],[126.89207268973767,35.07738022869542],[126.8912526118037,35.07637979038934],[126.8909335985467,35.07611331773495],[126.8918474495942,35.07573596057911],[126.89237776812261,35.07541063067973],[126.8939757684951,35.07477900024063],[126.89455457680025,35.074412520270286],[126.89535037687973,35.07343156755835],[126.89568509941397,35.07264036971362],[126.89575830056279,35.071980885370344],[126.89562201560987,35.071406433589566],[126.89568352500496,35.07062241509524],[126.8956226738696,35.069808941280044],[126.89569660194809,35.069306781943034],[126.89539186292707,35.06821124642622],[126.89541933785983,35.06719307667927],[126.89560377381567,35.06647820079317],[126.89464469570869,35.06583991304184],[126.89452672597591,35.06501306553193],[126.89495105923491,35.064707478403086],[126.8956383367013,35.06440769883433],[126.89586600909978,35.06364434827639],[126.8950840714326,35.0634228932158],[126.8949234362805,35.06319379576083],[126.89486924524691,35.06328850900758],[126.89471093845982,35.063301097164086],[126.89391214360477,35.06298158690659],[126.89334973144484,35.06262005310665],[126.89379293977466,35.06278634399135],[126.89332188563985,35.06257906110741],[126.89461740107146,35.061965538601804],[126.89515465029788,35.061882516693174],[126.89483763195184,35.061194287126696],[126.89547269173426,35.0607731832642],[126.89573024697242,35.060241528360024],[126.89610939400526,35.05984476014314],[126.89697434400138,35.05917610645794],[126.89728241333746,35.058649422074126],[126.89783671133114,35.05805014378872],[126.8983577013085,35.0558611798871],[126.89853371401631,35.05556357996004],[126.89920019482614,35.054929840711],[126.89902388756126,35.0542195029785],[126.89857069583913,35.053869793822095],[126.89821378656123,35.05381260527352],[126.89724271294175,35.052923808942296],[126.89675186707589,35.051960218713596],[126.89648783677012,35.05181240933634],[126.89515083986254,35.05149764092266],[126.8947567801686,35.05120819871591],[126.89343438228244,35.0509484348176],[126.8923633027845,35.050584594165564],[126.89205645246246,35.050089060150924],[126.89128682977731,35.04959147462819],[126.89114920906856,35.048805625179526],[126.89100892856399,35.04850772089637],[126.89005698188905,35.04726180588696],[126.88993921854636,35.046126610746775],[126.89108365920808,35.04546709637768],[126.89158540625057,35.044938807496216],[126.89213501731052,35.04475884934229],[126.89245218143634,35.04322572220285],[126.89244179854573,35.042031801601475],[126.89216851417605,35.041463953271105],[126.89182952780183,35.041160498326946],[126.89168728090013,35.04071816592747],[126.89053878713473,35.03917365812141],[126.89063035931352,35.03882026883058],[126.89040001838882,35.038363306151396],[126.89046088126479,35.038018740311216],[126.88937773094604,35.036715632014655],[126.88777134761266,35.03574372986278],[126.8873000141046,35.03585200200231],[126.88677609644363,35.035631708525614],[126.88534059895518,35.03548417726985],[126.88494979634642,35.03391989473232],[126.88460395818329,35.03333540080635],[126.88388775255859,35.03270774150017],[126.88370668674956,35.032147471042464],[126.88106146777511,35.0317236918129],[126.88083931158938,35.03004883765659],[126.88126384436336,35.02993724512425],[126.88156847112245,35.02964543840459],[126.88202858982031,35.028744744166964],[126.88187798251066,35.028232516751125],[126.88174022713156,35.02676792864957],[126.88238143210953,35.026006384856814],[126.8827231600415,35.0254374390069],[126.88238627988409,35.024514066253474],[126.88229783417209,35.02379408819823],[126.88228187090837,35.023385038031535],[126.88273851096493,35.02237470256769],[126.88246638846516,35.02148172413352],[126.88220049457964,35.021344192940006],[126.88111834012288,35.021246128208794],[126.88060840275922,35.02075835672869],[126.88004422891693,35.020526483127725],[126.8794752209778,35.020430998020174],[126.87889089589257,35.02071052962721],[126.87688680469321,35.02013906455826],[126.87570737700862,35.01991803045814],[126.87473679286343,35.01912921994286],[126.87428368191014,35.0188766226685],[126.87367041770774,35.01817409632062],[126.87345012052994,35.017155797512274],[126.87311082446357,35.01672410438716],[126.87290652257104,35.01584638169011],[126.87167711477888,35.01537116680638],[126.87143388670121,35.014663777778814],[126.87106589019444,35.01422157406302],[126.87048264047017,35.013808729340106],[126.87032062740163,35.01313923819669],[126.87004627618774,35.01258551507641],[126.86934007811715,35.01173423777186],[126.86811255032818,35.00963767499066],[126.8689592238907,35.00934722309231],[126.86934532991965,35.00899182564689],[126.8694411476588,35.00915465527223],[126.8707876169525,35.00900405866205],[126.8714792595832,35.00868331623806],[126.87168790936327,35.00901381261326],[126.87299411836452,35.008381885752655],[126.8738108101213,35.00814068248807],[126.8748244494991,35.007538110211435],[126.875784550844,35.00733432402117],[126.87669075855146,35.00689974053179],[126.87782286492224,35.005916928891246],[126.87860118729621,35.00545526759833],[126.87953401635394,35.005099478980284],[126.8803058551261,35.0049742841127],[126.88432224606983,35.00322745346308],[126.88483817213154,35.002567880595784],[126.8853194646389,35.00172857376492],[126.88511953631956,35.0016110951807],[126.88513277457565,35.00155317634331],[126.88606102568015,35.00109817235475],[126.88641273184444,35.00075845241441],[126.88671180271142,35.000251701526736],[126.88687483005356,35.00012184977892],[126.88716558987201,35.00009769644436],[126.88720721118187,35.00002238044566],[126.88741825971645,34.99997219181223],[126.88818254559821,34.99988682556334],[126.88864377441547,34.99968669838991],[126.88869914276486,34.99957065237356],[126.8896322759353,34.999369155926615],[126.8898807081569,34.99921380664414],[126.88992820728292,34.9990023870615],[126.89023497134593,34.9989663428773],[126.8903993367944,34.998439908395255],[126.89036390010752,34.99831855052623],[126.89084462762176,34.997781768112276],[126.89085705814853,34.99725402263011],[126.89115434828449,34.99668110670375],[126.89108674391458,34.99620583872919],[126.8911841414395,34.99586511610867],[126.89115497377847,34.99547975041784],[126.89138406183474,34.99544444396324],[126.89146342669235,34.99531733139144],[126.89253373984641,34.99471256978777],[126.89281343981855,34.99433856799134],[126.89387496322857,34.993653383611814],[126.89401845556662,34.993148197778204],[126.89438189983748,34.993138603580725],[126.89469700856283,34.9927817907973],[126.89441289072226,34.99245390757033],[126.8944552819795,34.991736555547725],[126.89419502001199,34.990883008562484],[126.89417193175284,34.99052973772917],[126.89434866070053,34.989728747952434],[126.89455819777832,34.98955370444054],[126.8946371887065,34.98936899119791],[126.89465865043785,34.988867302369464],[126.89421767685516,34.987282559209646],[126.89388784197722,34.98698832767084],[126.89377236423982,34.98669954951435],[126.89386207357421,34.986265939207655],[126.89378362819443,34.9856749431681],[126.89341378343698,34.9851124241573],[126.89298089166032,34.98464149999456],[126.89284605273677,34.984156797633865],[126.89225476763085,34.98319204320406],[126.89179126966545,34.982598805908076],[126.89135955875692,34.982326198543085],[126.89075268224305,34.98218710481066],[126.88891105166248,34.98151929235913],[126.88870461378299,34.98127708028157],[126.88759451705,34.98113804342751],[126.88737838853329,34.980937644052084],[126.88691032704816,34.98083269751772],[126.88586032196591,34.98036504011872],[126.88563115024999,34.98004448019144],[126.88526577774157,34.97973812156152],[126.8851608531962,34.97946529943952],[126.88523452141784,34.979257800016825],[126.88500958821199,34.979018313097136],[126.88496317147109,34.978781656159065],[126.88473511213304,34.97846994709056],[126.88456852848459,34.97780070094957],[126.88442430482745,34.97598759647587],[126.88409699930543,34.97535052701548],[126.88357826064863,34.97505393002543],[126.88323429563229,34.97503615403296],[126.88340574780614,34.974590218159484],[126.88342048382036,34.972981744340146],[126.88332891380058,34.97234127778167],[126.88309844326528,34.97204007309762],[126.88295975095565,34.97207319887552],[126.88152882379397,34.971794673874896],[126.8813194198527,34.97166551529771],[126.88152559984572,34.97145956400214],[126.88128479190395,34.97134473336349],[126.88124816995597,34.97139225403324],[126.8807104272441,34.97104102011948],[126.88044604310879,34.97104699461019],[126.88064791138291,34.970891842369895],[126.88060400207483,34.97065202210777],[126.88072380708853,34.970676244184226],[126.87965960224587,34.97010339928392],[126.87880489176499,34.969205601164035],[126.8786274546144,34.96914017985715],[126.87854023225502,34.968783847402385],[126.87822316394606,34.968584627199725],[126.87774433147978,34.96848791798554],[126.87745468517636,34.96827411228655],[126.87679608927952,34.96683228120735],[126.87668091372424,34.96648171449503],[126.87668486063228,34.96562588289026],[126.8770332406741,34.96520217571813],[126.87737439439249,34.964201863609354],[126.87850378657673,34.962488247963584],[126.8791487053965,34.96186389787949],[126.87962998119805,34.961771764297254],[126.88007973290837,34.96139022625705],[126.88119916430006,34.96112415139288],[126.88145518643931,34.960891288776224],[126.88188675955149,34.9606913728007],[126.88215334432365,34.960269471939405],[126.88155937105464,34.95924136412152],[126.88158943430662,34.957550415952554],[126.87920562482789,34.95573122036142],[126.87895865431715,34.95444132521645],[126.87909196015438,34.952561622322555],[126.87831474328675,34.95195449376208],[126.87853090087106,34.951182090728544],[126.87831396743522,34.95041563088635],[126.87835152058504,34.94979845462613],[126.87811024844748,34.94939544409888],[126.87772160519113,34.94921026504468],[126.8770760218412,34.948680249536906],[126.87658097837542,34.94845713574246],[126.87543606814543,34.94816332810738],[126.87404188978734,34.94802206941088],[126.87345205859008,34.94774724814071],[126.87330253167495,34.94760509532397],[126.87320488066703,34.94676910166055],[126.87302005400684,34.9464778130578],[126.87261562978331,34.946242718258034],[126.87169778617071,34.946003487442525],[126.87130051333234,34.94572879802507],[126.87083327315082,34.94516901400082],[126.87044599102117,34.94485976435988],[126.86980189494267,34.94375102187679],[126.86989603267871,34.94374008185186],[126.8698129867848,34.943619107070866],[126.86953265939724,34.943450135761964],[126.8693520430225,34.94348143397151],[126.86898072661842,34.94332696489084],[126.86873817444652,34.94294330477916],[126.86827806026442,34.94263445531988],[126.86767409005019,34.941502804893496],[126.86650414071279,34.939645989789724],[126.866537047849,34.93896899501223],[126.86685566054254,34.93841713191296],[126.86678001783135,34.937375558990226],[126.86667135156502,34.937178539612525],[126.86767960041041,34.93563359493279],[126.86809093388652,34.93479132225374],[126.86903014209886,34.93427945096031],[126.8695169878689,34.93423800285158],[126.86991695983366,34.93403127959317],[126.87046125810843,34.933362046582396],[126.87169375019555,34.932772211834674],[126.87184871016278,34.93257962448859],[126.87243846881418,34.931107790285786],[126.87250904401877,34.93044922116076],[126.87170069257724,34.929418669476355],[126.87203048801709,34.92866956205784],[126.87274526083306,34.92801542655343],[126.87332433294748,34.927043332304535],[126.87328604282351,34.926476994704345],[126.87249058321075,34.92571030665495],[126.87244107462107,34.92545612565229],[126.87216275559379,34.925117088104734],[126.87184165654035,34.924897212937914],[126.87134733274812,34.92392901703455],[126.87147072886611,34.92294250687575],[126.87114527080786,34.92203177358663],[126.86990630815616,34.92206994695492],[126.86895728721822,34.92140939687929],[126.8691573593697,34.91849113253157],[126.86924436447923,34.91794870784798],[126.8694914048441,34.91737760340209],[126.86972664881446,34.91711245335655],[126.87044687835872,34.916753468993114],[126.8714433773703,34.91606472318911],[126.87192868661717,34.91561540259066],[126.87236522987085,34.91503248730007],[126.87248764064827,34.91472265620626],[126.87193051714925,34.91286773284229],[126.87188477274802,34.91221545598986],[126.87207473482732,34.91041601385962],[126.87174477954629,34.91038820590582],[126.87170385852622,34.910768756454274],[126.87138856778674,34.907233948336795],[126.87150050260904,34.906783002825414],[126.87206874014544,34.906298281746004],[126.87240141511566,34.906164877854884],[126.8732829598155,34.90601065388089],[126.87402061803039,34.90568601795199],[126.87498191433555,34.90506402494293],[126.87536979881884,34.904925496318654],[126.87622837801388,34.90379940061743],[126.8763301255006,34.90356661276137],[126.87565086452071,34.90164715476081],[126.87560339076047,34.901173631368856],[126.87575411788616,34.90058304184983],[126.87605136542474,34.89996998735161],[126.8764341027291,34.89953602752033],[126.87650496405521,34.89925606475846],[126.87643100741074,34.89887092286366],[126.87614559594236,34.898315154891854],[126.87588263637953,34.89800530931897],[126.87549518323793,34.897746884913865],[126.87402858552632,34.89708951247139],[126.87292224450636,34.89685623038107],[126.87208993955699,34.89623716351116],[126.8717817512292,34.89587923464322],[126.87132007570936,34.89495704003387],[126.87084168868552,34.89433545824831],[126.8705169602931,34.89359824710249],[126.87050047697605,34.89313402982901],[126.87064161682332,34.892745942606126],[126.87105012325807,34.89227744946532],[126.87124674669177,34.891875124865656],[126.87115226477593,34.891455569179044],[126.87061401568121,34.89088883490628],[126.86988693824911,34.89055242550055],[126.86953441849855,34.89047634454202],[126.86800570711416,34.89019808387118],[126.86707368520975,34.89011502165115],[126.86555666056783,34.88975752861609],[126.864066009356,34.88961283847901],[126.86322061404245,34.889198654453175],[126.86231046775178,34.88856247629505],[126.86089013943725,34.88734536712126],[126.86024957976473,34.88699320751776],[126.85968628437082,34.88686037170776],[126.8590961913844,34.88683446134812],[126.8573347472876,34.88711128692191],[126.85711083725934,34.8870894419799],[126.85683452749053,34.88698067598882],[126.85639309708158,34.886644308810055],[126.85604759817844,34.88652387555814],[126.85519611146844,34.886563110710355],[126.85453446721785,34.88677794463742],[126.85370577469469,34.886890426135196],[126.85276557551238,34.88683936098187],[126.85136155743598,34.886588581003366],[126.85001640880604,34.8864883458752],[126.84869880961482,34.885843372961894],[126.84766527876072,34.88497789470321],[126.84642159241163,34.88481643525106],[126.84532783692593,34.884459760424875],[126.84437071981631,34.88446390919513],[126.84358272711965,34.88400550329183],[126.84277983220721,34.88334289797193],[126.84173250955315,34.88223065739988],[126.84121674172957,34.88139740577677],[126.84030044490865,34.88074250356737],[126.83952573751117,34.88043889431845],[126.83891618132786,34.88034709438113],[126.83755833731358,34.88080538897961],[126.83673457123383,34.88084115207308],[126.83637487360839,34.880796847551096],[126.83577365934573,34.880434904208485],[126.8352266169901,34.880219625766415],[126.83410478659236,34.879110804811866],[126.83419864670122,34.87859248761725],[126.834130847727,34.87834097726346],[126.83352509479106,34.87745975879083],[126.832803030597,34.87722680361485],[126.83215780529557,34.87685702019011],[126.83109747583697,34.876804132994714],[126.83098176352003,34.87674610128461],[126.83083497543451,34.876334011906835],[126.83069826007424,34.87619292293812],[126.8304400093728,34.8760601090524],[126.83009063412925,34.876023597525034],[126.82967057328858,34.8754693318618],[126.82903378318915,34.8754628330925],[126.82897191833717,34.875274858519475],[126.8288048238234,34.875227622676235],[126.82890362987554,34.875020487023434],[126.82877176947927,34.8747780137938],[126.82864077137504,34.8747772508347],[126.82867745405109,34.874647502004535],[126.82832274226824,34.874566773383876],[126.82799123465786,34.87409827844518],[126.82746128865921,34.87366799745678],[126.82703245058376,34.87314586273665],[126.82655053549027,34.87294571884189],[126.82617796784288,34.8724083562675],[126.82573370056663,34.872112688373576],[126.82498039967939,34.87210135783965],[126.82410500454438,34.87150504609807],[126.82387743276074,34.87108368104212],[126.82461104191344,34.8705615165837],[126.82501023488156,34.87017151241868],[126.82578084764495,34.8698717508789],[126.82603127865094,34.86997636780527],[126.8265148933454,34.8697421424852],[126.8267654629833,34.869740068851364],[126.82800093592242,34.86935805855105],[126.82811100936844,34.869204689661174],[126.82814242751648,34.86872145981141],[126.82859938366457,34.86825353717928],[126.82882117234216,34.867639911024476],[126.82961152117562,34.86764510450662],[126.8307248540196,34.86789260935417],[126.83128512297583,34.8678375709951],[126.83159333351323,34.86791553993271],[126.83379228486076,34.867997832668614],[126.83527266734775,34.867404861354785],[126.83558039959219,34.867771194355925],[126.83597292366412,34.86793169085666],[126.83716407845897,34.86788470227243],[126.83743195221486,34.867933631043485],[126.83841497635379,34.86857623324919],[126.83897369147364,34.86856033208483],[126.83939228388218,34.86865617716098],[126.83959747417452,34.86877642626031],[126.84098809853667,34.86834965473701],[126.84138274669813,34.86841982565624],[126.84241544997862,34.86896573203097],[126.84276669698303,34.8693873773294],[126.84296213551197,34.86992527006635],[126.84344216933242,34.87020004532934],[126.84415888895208,34.869765554771796],[126.84540604135933,34.86949831068554],[126.84666948397346,34.869422486076736],[126.84710032016889,34.869054254208464],[126.84786350143217,34.86883237702077],[126.84946014103366,34.868068240509174],[126.84982154705214,34.86795983890244],[126.851615645176,34.86818464413208],[126.85195908682162,34.86838671819741],[126.8524047602011,34.86837444727023],[126.85272251348063,34.86877126150524],[126.85363621803886,34.86946243956411],[126.8537509484874,34.869773164158254],[126.8542930057423,34.86980985902295],[126.85460023830527,34.86971607947127],[126.8563262409866,34.869634907123555],[126.85707600378734,34.86905711171898],[126.85794790341589,34.86880365216371],[126.85909492084639,34.8697704860643],[126.85974741658644,34.87010358391946],[126.85996202657445,34.87091212508027],[126.86035359990635,34.871134332510536],[126.86050098840501,34.87173707790986],[126.86224711857359,34.872182116193684],[126.86302049272587,34.872782652765714],[126.86393614997128,34.87246463323348],[126.86562857429959,34.87205425425448],[126.8669718844357,34.872203981540316],[126.86715548080763,34.8725047009395],[126.86753522703414,34.872786373332154],[126.86780680025214,34.87383501391972],[126.86800816130169,34.87405050644314],[126.86930623442642,34.87425703639292],[126.87041982408307,34.874956904292155],[126.87153648908378,34.874450535051025],[126.87464749670417,34.874207115124214],[126.87593016648022,34.87388854007984],[126.87606244924422,34.87507441814691],[126.87712896063543,34.8778269338514],[126.8775531211123,34.87753853245148],[126.87856936168029,34.877440391889024],[126.87982566084898,34.876134955148714],[126.88095384763324,34.87615946030884],[126.88192716256151,34.876081052774005],[126.88221795931403,34.876297520001486],[126.88272391884414,34.87644347322393],[126.88310544933175,34.87700293589559],[126.88412685038422,34.877359156568325],[126.88452444096696,34.87730027267099],[126.88664761547976,34.87640436068218],[126.88673090225191,34.874974410348685],[126.88741635350655,34.87424530250643],[126.88830238750954,34.87404174736005],[126.8893030454038,34.87433525836781],[126.88999293573987,34.87425939100104],[126.89058319944905,34.87405780133034],[126.89197490775246,34.87408534663096],[126.89265655550895,34.874418041697034],[126.89315542651671,34.87451167325058],[126.89423493661793,34.87407061183743],[126.89529314371377,34.87397560438454],[126.89549716879242,34.873696700906024],[126.89707995080519,34.873282435382734],[126.8974050002876,34.87325611364803],[126.8977691670349,34.87299026922196],[126.8992012614799,34.87275356685565],[126.90165897931112,34.870003147385596],[126.90219914356457,34.869850441944834],[126.90260411560796,34.869458898277635],[126.90294334330866,34.868818838854324],[126.90383039283203,34.86841473639097],[126.90441200112507,34.86773356498162],[126.90449439384929,34.86736434613494],[126.90425799340878,34.86662475003228],[126.90501628393733,34.86604820658059],[126.90506523053617,34.86555552330271],[126.90522813593093,34.865097994535155],[126.90577502457855,34.864450239615564],[126.90569505641578,34.864301202645024],[126.90589144915391,34.86321355883486],[126.90603536611879,34.86305419642427],[126.90613748010942,34.862718866181176],[126.9067176349588,34.86214732801058],[126.90699000883242,34.86142684471933],[126.9070296811594,34.859974280706794],[126.90804859516153,34.85887541478856],[126.9090468240432,34.858384067326845],[126.90979201643867,34.858180292888576],[126.9096775541603,34.857619933020395],[126.9088575103033,34.85800265866859],[126.9070785423024,34.857531167097456],[126.90631179253559,34.857081889518064],[126.90600035470368,34.85629683337388],[126.90632889647809,34.854942503810214],[126.90611323843547,34.8536796725759],[126.90592596769378,34.85134271882096],[126.90550147366919,34.85081007205098],[126.90565951629121,34.85019043893983],[126.90555043093346,34.84954347217783],[126.90540622177073,34.84923961358624],[126.90556426148433,34.848441322875864],[126.90530438697867,34.84747523114375],[126.90550799524769,34.84693270363257],[126.90615566558944,34.846117661291515],[126.90663411596391,34.846387193310456],[126.90791353054506,34.84669670594828],[126.90877863712423,34.84646751070234],[126.90937505266726,34.84602049009569],[126.9099829890837,34.84588698240262],[126.9106177499504,34.84591738439396],[126.91153886704264,34.846119261153],[126.91174026723115,34.845898314205904],[126.91246314229673,34.845646083172475],[126.91313696302983,34.84590696173682],[126.91411892710033,34.84604186198515],[126.91584156981448,34.845832365622215],[126.91787927144223,34.84525459595959],[126.91852364440967,34.845150879900395],[126.91950617831199,34.84419179671445],[126.92101936342212,34.8447195670502],[126.92148024383201,34.844521580577904],[126.92181393706053,34.84329586670374],[126.92203907019051,34.842883388342734],[126.92248699420155,34.84289009778827],[126.92306791888045,34.8423243571918],[126.9229988063766,34.841382158754804],[126.92315720638908,34.84089718949533],[126.92304780989689,34.83924704897757],[126.92271157891551,34.839040302691394],[126.92210784103668,34.83901936763169],[126.92143782255602,34.83847309400627],[126.92092797818465,34.83758924847707],[126.92048266068736,34.83719404872637],[126.9204518058978,34.836716789787566],[126.92080913376707,34.83626062004144],[126.92097556936758,34.835823423852084],[126.92220019068351,34.83683992762069],[126.92269396157606,34.836357529177306],[126.92343786164592,34.836107057864645],[126.92355185623086,34.83560628464367],[126.92425537437953,34.835062006338994],[126.92555242569904,34.8332950722394],[126.92608767614092,34.83239221715182],[126.92737346490331,34.83217433513996],[126.9279210251825,34.83215076195108],[126.9283611627327,34.8317489291703],[126.92858357882575,34.831084061373105],[126.92871440244069,34.83094463846179],[126.92880548436572,34.8302121584777],[126.92980340237538,34.83038361998095],[126.93031933597322,34.83029591857299],[126.93090758851874,34.82991822136442],[126.93273488910219,34.831427873205975],[126.93331829373538,34.83072081596739],[126.93399690163419,34.83019039355796],[126.93483542987329,34.83040823777687],[126.93556880741947,34.83035434539647],[126.93574423376987,34.829715074788595],[126.93574888028705,34.829149762100364],[126.93618382270294,34.828987815557596],[126.93698215953246,34.828911531542516],[126.93792602111559,34.82912716575015],[126.93818886176325,34.82912494996805],[126.93877348933388,34.82835114500035],[126.93951337586273,34.826904491205894],[126.9393585612524,34.82638747521532],[126.93930937166537,34.82533783722087],[126.93938510079005,34.82507727991704],[126.94000536605004,34.823951461229164],[126.94090811586695,34.82369773552573],[126.94147240108427,34.82396767896995],[126.94209095430287,34.82412651212277],[126.94260383106433,34.824390854548774],[126.94316372398983,34.8240981314449],[126.94429189154636,34.82381538200657],[126.94475701962499,34.824138644789336],[126.94518239674908,34.82484593069674],[126.94560808513852,34.82495669294306],[126.9465564825014,34.82556783461162],[126.94671161452442,34.825868919349574],[126.94721072057672,34.82608492084467],[126.94760856991947,34.826407187136425],[126.94769240613472,34.826585170347876],[126.9482241898095,34.82665257663115],[126.94939106736985,34.82741930157522],[126.9497710906854,34.8277780148925],[126.95003249100387,34.828573767630175],[126.94947949789504,34.82982871029052],[126.94834225078338,34.83133279695009],[126.94850791139524,34.83212053326994],[126.94841352286956,34.83263517533837],[126.94862609942102,34.83299030339086],[126.94804809750126,34.83344820730218],[126.94777191159413,34.83354313877017],[126.94721062562445,34.83437070231964],[126.94746878586497,34.834412570054795],[126.94872366150268,34.83554063066423],[126.94780627941014,34.836583395993266],[126.94826470505582,34.836904712771464],[126.9483788606537,34.83755671990778],[126.9493854075075,34.83874568953609],[126.94967891354302,34.8399646365408],[126.94932803065248,34.8404485396478],[126.94887329080014,34.84170497934496],[126.94929776116122,34.841499930806236],[126.95038407403162,34.8412354243465],[126.95119256729183,34.840451180659905],[126.95194579094782,34.84032313869849],[126.95312755572179,34.840605499985685],[126.95435778701813,34.84072929392204],[126.95492458847335,34.84098936801439],[126.95542613359667,34.84087545922523],[126.9563058692835,34.84089383472493],[126.95726036718824,34.840029983859175],[126.95820850949774,34.84078768227895],[126.95893286916763,34.840645651129925],[126.95968979161668,34.84105395975366],[126.96208597701532,34.84034653564368],[126.9624047155859,34.840795383226315],[126.96297668642836,34.84231455358677],[126.96257290838528,34.84289498206706],[126.96371352632097,34.84365873795776],[126.96373263098576,34.84441790418104],[126.96350184672313,34.84467520959537],[126.96457266918553,34.8452555814099],[126.96507339452722,34.84539364645132],[126.96598969185452,34.84609239455805],[126.96819125990194,34.84658606427794],[126.96888917965734,34.8474790005042],[126.96950296228329,34.84866329737417],[126.9679785693906,34.84948920185745],[126.96868776727311,34.850647027468845],[126.96924973235546,34.85084099652977],[126.97010011798947,34.850517814010196],[126.97097553247254,34.850443562566454],[126.97239484028366,34.849538885315575],[126.97320559621889,34.85030547392044],[126.97394325266065,34.84997338654289],[126.97479052886652,34.85008738583128],[126.97559514766454,34.84972666556534],[126.97619822887746,34.849799994862046],[126.97669165715452,34.850107933502045],[126.97712684600009,34.850549608318595],[126.97821284480453,34.85022549645877],[126.97891163636758,34.85079636755712],[126.97939948628137,34.85002199153457],[126.97914402403501,34.84930318615738],[126.97942413120472,34.848916626355425],[126.98040178491605,34.84790787928053],[126.98006624227862,34.846672549896184],[126.98043967487304,34.84548172868617],[126.98084211359988,34.844689663956736],[126.98098928662114,34.84462028987034],[126.98138157285345,34.84390491277801],[126.98251393252896,34.84368744162964],[126.98301305459037,34.84394893364347],[126.98356041442929,34.84372429583613],[126.984355870758,34.842614351932816],[126.98491321779439,34.84268519789082],[126.98558144313829,34.84251788741897],[126.98592779380222,34.842730644802494],[126.98639741242584,34.842385818388315],[126.98712500255917,34.84176246052109],[126.98702493200955,34.84156528508857],[126.98747519119264,34.84061631451526],[126.9881124500044,34.84020220066637],[126.98905693166978,34.83978012863886],[126.99039504059205,34.83815413657755],[126.9904046878688,34.83787362101783],[126.99157835076075,34.83658394980831],[126.99196862952356,34.83574966044602],[126.99260528818233,34.835582570141845],[126.99337615763984,34.83612991023531],[126.995745018149,34.835908289728486],[126.99681246932306,34.8356443860887],[126.99755568310108,34.83578728431013],[126.99781849920156,34.836548319637636],[126.99831095295471,34.83693603550334],[126.99834522436788,34.837880913538164],[126.99880788603778,34.83825895450281],[127.0000945086222,34.83844369972434],[127.00028004408159,34.838832043760746],[127.00074214987677,34.83939637010563],[127.00287282859082,34.8388555670475],[127.00340967716666,34.83934829297833],[127.00446693381204,34.83988939185081],[127.00555365671545,34.8397483624619],[127.00679318200164,34.84038680420658],[127.00706942919066,34.84088516786749],[127.00796586653078,34.840979238324806],[127.00844686917306,34.84122088637836],[127.00884129756747,34.84113122754852],[127.00942404877487,34.841154545932326],[127.01054223803825,34.840747907892265],[127.0107902106727,34.84044545964757],[127.01238267528669,34.839259523033064],[127.01347003727851,34.83922712295466],[127.01396416836776,34.83898409101677],[127.01477407805272,34.839737586089605],[127.01523144151945,34.83995692729816],[127.01722450633632,34.840346478026284],[127.01919091548213,34.84084879240389],[127.01957924142812,34.84051350364905],[127.01935714989398,34.839973975334765],[127.01947394322923,34.83985505410338],[127.02070574607441,34.83968190402696],[127.0209399510714,34.83990805551713],[127.02164790146523,34.83992951943606],[127.02215673601206,34.84010884884736],[127.02255884007441,34.839715849441326],[127.02305122418399,34.839739758216915],[127.02357262266118,34.839551857252346],[127.02518356738467,34.83976147179119],[127.02567270010725,34.83999093534693],[127.02634450441336,34.83945683597453],[127.02681083904146,34.83938758396575],[127.02767854843393,34.83899220701113],[127.02811868516763,34.83892611955803],[127.029621210162,34.83962425007712],[127.03075846957371,34.83953402120175],[127.0314786037298,34.839569549946745],[127.03300549064191,34.84017086705062],[127.03330879279856,34.83976786118905],[127.03360534995046,34.83954258579657],[127.03459127098319,34.83931851182445],[127.03502165938916,34.83945957132329],[127.03600162174754,34.83914191300196],[127.03654805300168,34.83922981443235],[127.0367944034666,34.83892076039711],[127.03744396888395,34.838492683144494],[127.03744612807218,34.83815376424222],[127.03771922780984,34.83770306299587],[127.03821038077626,34.837827399134675],[127.03877149683314,34.8380792963201],[127.04044112389057,34.83846635723475],[127.04093555701756,34.838367367895806],[127.04161759284622,34.838509998691755],[127.04257718014145,34.83858078045993],[127.04302850636248,34.838748675362766],[127.04376971451792,34.838714382654686],[127.04398869540846,34.8389612814274],[127.04485003991937,34.83916433332537],[127.04515556258508,34.83939645211355],[127.04544576138402,34.83979745335418],[127.04551958807441,34.84005682308694],[127.04594359708771,34.840470980054576],[127.04682761866944,34.84050056182587],[127.0475396818672,34.840720145903],[127.04891522787595,34.840770410653775],[127.05007272094474,34.84151954101321],[127.05129783270824,34.84186493077858],[127.05260393056254,34.84207507289386],[127.05365089116526,34.84248931773514],[127.05446725014438,34.843083619130034],[127.05438637508082,34.84395332652583],[127.05454571613821,34.84493345890036],[127.05486404626645,34.84585799484983],[127.05526509999532,34.84612990591793],[127.05622638590619,34.846566899512624],[127.05776429685554,34.8467826593383],[127.0585853701896,34.84708570585039],[127.05917801949066,34.84692353429074],[127.0607168470773,34.846949114820895],[127.0608959717872,34.847563917995565],[127.06126450696311,34.84794712104541],[127.06167948413045,34.84906722205106],[127.06217110675239,34.85000226171281],[127.06211766804145,34.850892250032516],[127.06196502005102,34.85133612153853],[127.06249433257251,34.852275620726545],[127.06238180684888,34.852694404565916],[127.06253948097587,34.85313233374972],[127.06269077732506,34.85409529529802],[127.06220963500562,34.85594362249402],[127.06214497323018,34.85756262232894],[127.06242908227581,34.85822637876476],[127.06231392675916,34.85893135768721],[127.06242038506102,34.859214163386326],[127.0628795427174,34.85982543234035],[127.06299385562325,34.86028394322252],[127.06322598266445,34.86058414456177],[127.0630534074269,34.86105561866992],[127.06371437531705,34.86158826099821],[127.06437495926659,34.861878504763716],[127.06524727397306,34.862813710885334],[127.06568424870001,34.86311347521802],[127.06583269757824,34.86367790648611],[127.06662409109492,34.86319149579964],[127.06721202125995,34.86352880698003],[127.0678405848181,34.86344525723779],[127.06872609482285,34.863782587492715],[127.06964757360282,34.86542176253944],[127.0700319147035,34.86541319936983],[127.07059308666817,34.865862552937045],[127.0709032581077,34.86591819970423],[127.07110028067741,34.866219361242266],[127.07223150121543,34.86732246057875],[127.07320669427136,34.86709052706729],[127.0735247004676,34.867168688440614],[127.07426668780349,34.86681326676273],[127.07552466127795,34.86663697752653],[127.07625154263916,34.86687294206409],[127.07671686085695,34.86737671652419],[127.07681426209079,34.86777164867977],[127.07705135169746,34.867979084345514],[127.07817409077846,34.867987926733385],[127.0785044460001,34.86809408271347],[127.07925951907647,34.86853608885209],[127.08011112036195,34.86869359184537],[127.08027199929457,34.86898981307019],[127.08047602938011,34.8691301724245],[127.08141472218776,34.868794391944505],[127.08256607289694,34.86863654260029],[127.08304452151756,34.86873225730826],[127.08353187355205,34.86905875793885],[127.0848465597613,34.86911171264426],[127.08497461066383,34.869589491570714],[127.0855576224004,34.8703486070053],[127.08623206135935,34.871047640789286],[127.08691427887047,34.87128337420779],[127.08725178362535,34.87159436184264],[127.08917429877062,34.8722086619117],[127.08940627896506,34.87286625263941],[127.0897339709513,34.87317084948788],[127.08990316596318,34.87373636199198],[127.08964601947477,34.87404787322811],[127.08936506234213,34.87464921817397],[127.08929139099291,34.87529066917135],[127.08899930418015,34.8761403288646],[127.08850954292001,34.8764520589772],[127.08817158680878,34.87713010549912],[127.08831503569827,34.87775184025975],[127.08852544394037,34.877787330922324],[127.08864452352799,34.87819908443522],[127.08865386704012,34.8795370648663],[127.08855383148955,34.879988186063244],[127.08865899038805,34.88035900798858],[127.08831851651944,34.881059591188624],[127.08742223982696,34.88190845971626],[127.08659580562863,34.8830181364554],[127.08725969151801,34.88371695404805],[127.08820682359752,34.88427488533762],[127.08872437675497,34.88429751842479],[127.08884872047373,34.88501165851675],[127.08841934837281,34.88509901422448],[127.08795620909156,34.885439143619344],[127.0876104704065,34.885952895887776],[127.08722128152688,34.886207824234084],[127.08619648724549,34.88658614642771],[127.08601584387372,34.88737158542351],[127.08550193454997,34.88741115257685],[127.08495363419028,34.88832896100275],[127.08438976766716,34.88859576328518],[127.08424548025928,34.888981288955044],[127.08375955283171,34.88937037242754],[127.08297708925028,34.88961283409366],[127.08281774744326,34.88989442832183],[127.08259935657486,34.89089230066036],[127.08197775883751,34.891810549721406],[127.0820315986793,34.89254345556505],[127.08242288336463,34.89256029493716],[127.08312125233941,34.89289657038367],[127.08347227234316,34.89307114130768],[127.0837931973498,34.8934536200729],[127.08416183719997,34.89367430136899],[127.08485949853778,34.89392193318948],[127.08520357318638,34.894499733307754],[127.08520064239241,34.89508285588418],[127.085434613332,34.89535296826808],[127.08552277420124,34.89603279237093],[127.0852431394446,34.89662794120349],[127.08508112535225,34.897430464108425],[127.08455807152603,34.89813175529849],[127.08445812571692,34.898412066729826],[127.0845040912919,34.8987089091339],[127.08387573525789,34.89871532220467],[127.08341261159669,34.89893559337794],[127.08341163929822,34.89978486845885],[127.08304502942933,34.900381035005644],[127.08220225223945,34.90127309343325],[127.08202507552151,34.901971519920075],[127.08187438797066,34.902336647675156],[127.08154631506883,34.90274341041152],[127.0815443134039,34.90296935476435],[127.08146217912267,34.903073411532695],[127.08108606438346,34.90321538453481],[127.08049241419086,34.90377137236938],[127.08022492380397,34.904431085790975],[127.07999368609657,34.905351205336814],[127.0803683850207,34.905809969421846],[127.08099998019294,34.90614463202076],[127.0811704896863,34.90634095160752],[127.08132858731109,34.906758390539295],[127.08120737918068,34.90725081939636],[127.0816149507371,34.90785431239848],[127.081720345303,34.90851870368092],[127.08223420433065,34.90929693106438],[127.0813466774176,34.91028503727461],[127.08149976513037,34.91074056278108],[127.08116578996881,34.911496184256215],[127.08119767128976,34.91195475508905],[127.08074252429685,34.91271430366501],[127.08018034710315,34.91338036448795],[127.07922319998691,34.91416089134052],[127.07987443235844,34.91445059435793],[127.0801490578776,34.91472886538753],[127.0802442711557,34.915105593988194],[127.08056061287944,34.9157011084464],[127.08044439052797,34.91676701519679],[127.08086190916652,34.91729290258524],[127.08087622210516,34.91758731433726],[127.08152475760052,34.91860422462636],[127.08136121227783,34.92052749286096],[127.08164599944132,34.92121319070438],[127.08159798824992,34.921808770542135],[127.08177067912355,34.922804926304345],[127.08205566921099,34.92341798883113],[127.08198195110684,34.92387834120483],[127.08206947089941,34.92490712882935],[127.08239201412887,34.92592589865176],[127.08289382088147,34.926164422333365],[127.08393274049031,34.926194566908826],[127.08509631847134,34.92655937464694],[127.08698649794029,34.927909970360524],[127.08795480633782,34.93073612001458],[127.0885756312364,34.93157478759898],[127.08875379108294,34.931941596748196],[127.08893153535891,34.93347200756706],[127.08920551584309,34.933950383763005],[127.08936307966435,34.93456936994833],[127.08985062023174,34.935593010436286],[127.09048976416057,34.93634558972393],[127.09130384003072,34.93672144567433],[127.0915374365364,34.93691292562128],[127.09251227378532,34.93658519343793],[127.09332253589425,34.93670118677142],[127.09459338794686,34.93641794047982],[127.09668533957556,34.93630636714764],[127.09739809814815,34.937389012316764],[127.09929149261802,34.93718756530865],[127.10079130354616,34.93769936347176],[127.10131871362495,34.93849443209381],[127.10153758916432,34.93921340546363],[127.10246174620715,34.93949432385013],[127.10314094755404,34.93991139667025],[127.10439516248897,34.94118426991984],[127.1054188235353,34.94159656656717],[127.10569195589326,34.94198241431077],[127.10589809986648,34.94209373872063],[127.10630124828228,34.94269408425493],[127.10619695722244,34.9430019345502],[127.10656496946997,34.943324889785785],[127.10662196850063,34.94372739049256],[127.10705186374534,34.94445683374808],[127.10835178322472,34.94414605249303],[127.10941904475068,34.94435582550657],[127.11000305399503,34.945979719522356],[127.10997816531828,34.9464320210673],[127.1102820625463,34.9467257811535],[127.1115753124041,34.947050150894086],[127.11284430991887,34.94861823366481],[127.11347985765697,34.94902539977106],[127.1144706244156,34.94988608893929],[127.1151220944881,34.95019635066629],[127.1160538100421,34.95079925883789],[127.11639671637829,34.951412624694974],[127.11692781590214,34.95171747402725],[127.11668753504887,34.95236029946208],[127.11623269445441,34.95277742229821],[127.11638746481587,34.953380518582925],[127.11581291891419,34.953764266574346],[127.11564509520498,34.95403238807802],[127.11437779791223,34.95443425648601],[127.11456077520802,34.955589841244816],[127.11444093193191,34.956792291146805],[127.11456896568905,34.95750283215614],[127.11523838098367,34.95752393915937],[127.11602777156847,34.95791487534033],[127.1165520280427,34.95787737778738],[127.11910342874953,34.95911439867017],[127.12023899396668,34.95943967525182],[127.12066659371307,34.95988040239673],[127.12170518246432,34.96042545457285],[127.12231368821182,34.96057060419769],[127.12258694838148,34.961936026853515],[127.12325836508057,34.96286943159259],[127.1241619529841,34.96332961538246],[127.12477097072966,34.96344118458035],[127.1251877453937,34.96380354924471],[127.12580709878476,34.963933202470486],[127.12590032928367,34.96470527658129],[127.12554776488105,34.96538794806576],[127.12582891434275,34.96568200693823],[127.12580933952273,34.966118873056196],[127.12566127524232,34.96656737227655],[127.12576059820364,34.96737017706334],[127.12600462502732,34.96768664573125],[127.12696883334138,34.967722366206466],[127.12786476821482,34.96845574787879],[127.12893426585457,34.967809582621655],[127.13055653029771,34.96754786495612],[127.13142619081829,34.967260667218056],[127.13163540452125,34.96691782766917],[127.13221966815149,34.966574458248466],[127.13263979227094,34.96622557571414],[127.13339285256374,34.96606294364728],[127.13419346241756,34.96558679015137],[127.13469897176266,34.9650636509514],[127.1361558561248,34.965523172932414],[127.13663365025194,34.96555336111075],[127.13763188582834,34.965281272156446],[127.13835322526948,34.96551163867579],[127.13932500141391,34.96536436205015],[127.13944828071011,34.964925275756435],[127.13971976243222,34.96465681463904],[127.14061424681198,34.96406423347811],[127.14135304759591,34.96433925277216],[127.14214635624771,34.96381782381671],[127.14452495863165,34.96324633536625],[127.14522282302907,34.96353884817136],[127.14548528527597,34.96392351771128],[127.1461353088163,34.964333928723576],[127.14695957941845,34.9641995572882],[127.14735585661704,34.96421447744039],[127.14755156527343,34.96424396974545],[127.14814226324677,34.96467122508027],[127.15004250976195,34.96462113255288],[127.15198036690886,34.96478131029605],[127.15304450171233,34.964996453586465],[127.15370559084232,34.96522563228845],[127.1541939154146,34.96572364573795],[127.15530224113668,34.966543036269975],[127.15558677781934,34.96756363485252],[127.15632667857116,34.968071532576204],[127.15665309381069,34.968121620263105],[127.15702202927051,34.96831121355974],[127.15737072313475,34.96833498647655],[127.15887692220306,34.96914810865557],[127.15984528231367,34.96925965734041],[127.16079499391371,34.96899080365404],[127.1609362170916,34.96906966042166],[127.1617764833676,34.96883229280475],[127.16217918499937,34.96891687793996],[127.16361179829669,34.969411436290365],[127.16405687455621,34.96978601415864],[127.16512880489844,34.97025507716124],[127.16607712360808,34.97041495321856],[127.16736573968701,34.97104254385875],[127.16771158100751,34.971462880673435],[127.1682608616155,34.97169288095776],[127.16847798331943,34.97251607527077],[127.168636454134,34.972750225271824],[127.16900531026427,34.97269969022218],[127.16930629736238,34.972500456922575],[127.17005220777605,34.97225495999412],[127.1707447085092,34.97253122526264],[127.17117610049698,34.97289975660259],[127.17227241030375,34.97303595933758],[127.17259689040452,34.97323664558698],[127.17268500983312,34.97339416385583],[127.17266445182945,34.974334369051455],[127.17321105345067,34.97503302342586],[127.17321879470401,34.97531050248537],[127.17306547624881,34.97579626591477],[127.17385828432866,34.97699718764937],[127.17420083312835,34.976953533686604],[127.17468738818154,34.97717970889041],[127.17470530720098,34.977253857904245],[127.17486819972491,34.9772350659515],[127.17526002285948,34.97762887758483],[127.17484337345968,34.978123546773574],[127.17493420105558,34.978511704532465],[127.17551658681985,34.97952196697529],[127.17567577019355,34.98002496101001],[127.17621581904965,34.980506423067965],[127.17663075591807,34.98113933278082],[127.17742897476033,34.98198998217654],[127.17774420944455,34.98280090156116],[127.17817482520911,34.983548285161596],[127.17822120589534,34.984108199471095],[127.17922597073014,34.98509387772888],[127.17883458544625,34.98540570534877],[127.17808993517382,34.98569467341242],[127.17754641724854,34.98577264802715],[127.17618026812313,34.986572900978196],[127.17575169001427,34.98694603884932],[127.17581167252312,34.98754833511053],[127.17489582724647,34.98863298686621],[127.17488391752426,34.9890724259001],[127.17516689980604,34.98952116016426],[127.1752445599966,34.99007257539159],[127.17560683843908,34.99046542673489],[127.17551713230587,34.991665091416124],[127.17568444066568,34.9921144137094],[127.17686472266305,34.99255030600343],[127.17703216532111,34.99354030862967],[127.1771012261761,34.993668375629774],[127.17749654707436,34.99381244708789],[127.17785291483432,34.99470499672561],[127.17732096863456,34.99541729792472],[127.1773199593856,34.995590670329015],[127.17656917666596,34.99641975195059],[127.1764046917248,34.996896880810354],[127.17638503185586,34.99730971287931],[127.17577481513506,34.99793056693328],[127.17575692012211,34.998531549746694],[127.1758874685157,34.998675167913746],[127.17604539039127,34.999210133460316],[127.17643663238181,34.9993612538205],[127.17665050671621,34.999887962354556],[127.17662832707494,35.000320943664626],[127.17690750715366,35.00169063296904],[127.17771938118115,35.00219380394023],[127.17795564579764,35.002539363830046],[127.17790804909443,35.003090822980276],[127.17809069925929,35.003892502770995],[127.17811982512056,35.004624963708245],[127.17836199041865,35.00500023243418],[127.17814720616887,35.005493345571345],[127.17751428196611,35.00568735803263],[127.17787876066612,35.006511587734906],[127.17941356759174,35.00796154450917],[127.18035891101997,35.00832859202625],[127.18122332968714,35.00909362814735],[127.1815966442309,35.009941494154646],[127.18192576879491,35.010384229433264],[127.18244569318365,35.01063936464693],[127.18254160657837,35.01112990313491],[127.18347259061062,35.0111642861002],[127.18399122543869,35.01129814558933],[127.18441398557013,35.011499759556465],[127.18518176768747,35.012049141503766],[127.18625767129505,35.01228101821791],[127.18767717100052,35.01236870657295],[127.18706662793527,35.01421914541066],[127.18629979221309,35.01570688044767],[127.18652759695084,35.01704930139441],[127.18703046832417,35.018446086806655],[127.1870316178048,35.018726917086695],[127.18667598595906,35.018931819851396],[127.18645818754453,35.01937452828695],[127.1856978156943,35.02002847790873],[127.18643960503755,35.02092646961895],[127.1863336926177,35.02209869589779],[127.18613387608099,35.022697430892265],[127.18639022854941,35.0231044882347],[127.18637980775382,35.023337878642764],[127.18651795810719,35.02371229673978],[127.18675634618803,35.02404684713884],[127.18677175872982,35.02457891309972],[127.18710949329397,35.0259125729173],[127.18649458432243,35.02701811730588],[127.18731461892469,35.0279592220095],[127.18584583428856,35.03006193970587],[127.18540905719595,35.03105819515627],[127.1849461930044,35.03272333327391],[127.18456913445996,35.03356570294686],[127.18342565699177,35.03464287670979],[127.18280774907664,35.03583669481628],[127.18374717125769,35.03654414346192],[127.18441930658943,35.03855573110874],[127.18407590615968,35.03960520976784],[127.18445217543018,35.04100909548026],[127.1847590297992,35.04153607822279],[127.184521292352,35.042514703473515],[127.18433349113643,35.04269526076404],[127.18415491094764,35.04324705123579],[127.1841196402694,35.043866805349346],[127.18390418843941,35.044015431971744],[127.18394216205968,35.04422099540359],[127.18429731478484,35.04467367854161],[127.18447642682528,35.045356899270956],[127.18472804550699,35.04545650838189],[127.18504221924687,35.04618488099574],[127.18387474136374,35.04702392441519],[127.18409851397224,35.04753230271245],[127.18387936063327,35.048712020348155],[127.18431494101684,35.04927782112617],[127.1845688607213,35.050555264179366],[127.18474028620918,35.05108808398284],[127.18501623711181,35.05156116488787],[127.18538187149903,35.05186130774997],[127.18545450042144,35.05201781045518],[127.18611353604003,35.05239523975099],[127.18649071540445,35.052717472219],[127.18652550501498,35.05311035281791],[127.18607004826187,35.05346469881943],[127.18539571047027,35.05497776894827],[127.18533695448599,35.055431633924606],[127.18544714629685,35.05614749580108],[127.18582680660504,35.0561916993164],[127.186099045181,35.05653423780977],[127.18778199760078,35.057803575863694],[127.18797209662247,35.05779736172219],[127.18885717505003,35.058876521321615],[127.18924158678898,35.0591223878048],[127.18968809558197,35.059709558732465],[127.18968164556985,35.06018532859919],[127.1901197292431,35.06089939639417],[127.19045115920565,35.06178616847621],[127.19121133056429,35.06259142590944],[127.19133985715784,35.0632168276545],[127.19196694617061,35.063873562843575],[127.19240495914214,35.064027088949615],[127.19217321974259,35.06448080506691],[127.191782100418,35.0648973191194],[127.19139975148923,35.06562789038918],[127.1903879806998,35.06611028669331],[127.18964714535822,35.066718878437776],[127.18887925693255,35.06688809122195],[127.1876836692915,35.068056355225046],[127.1874331052083,35.06815419543458],[127.1872076589869,35.0685284727757],[127.18671361775765,35.06867485316335],[127.18627102144151,35.06900395926322],[127.1856470446098,35.06919293350331],[127.18555056972471,35.07009289587108],[127.18557687815401,35.070750005921276],[127.18536635174151,35.071286782357305],[127.18504765245373,35.0717154140533],[127.18517183283129,35.07224562575607],[127.18479171291837,35.072558443115454],[127.18510850087125,35.07341313456952],[127.18497913127345,35.0744735617037],[127.18538776361872,35.07525896036674],[127.18522026994948,35.07566341355749],[127.18529839935391,35.07627819753724],[127.18575195434072,35.07676607611091],[127.18594193044161,35.07797642872154],[127.18534631049722,35.0785440755918],[127.18550831037965,35.079884889408326],[127.18530961040308,35.080361652188415],[127.18536526925512,35.08103617609093],[127.1852875554698,35.0812199469477],[127.18559258566843,35.081860714832786],[127.18533073145365,35.082136596168326],[127.18495321911296,35.08287009438396],[127.18488247381707,35.08425266871191],[127.18511208116217,35.08472271602186],[127.18536358339361,35.08570299174369],[127.18510750935728,35.08650376384968],[127.18487177380781,35.08866203911948],[127.18532752599008,35.08925892573121],[127.18575206440897,35.09007049061206],[127.18578759132303,35.090931382601944],[127.18555457764992,35.09162916624016],[127.18585121624038,35.09225065588014],[127.18462508058762,35.09258531557501],[127.1826264251248,35.09251480330105],[127.18216631687548,35.09405358435365],[127.18168903850564,35.094969168780054],[127.1821594715373,35.09530028712911],[127.18250754163881,35.095786647785715],[127.18252549472408,35.09669938552004],[127.18297402192569,35.09734910173611],[127.1834824771057,35.09774508297158],[127.18328234352605,35.09860350695388],[127.18306740596441,35.098891138225994],[127.18346415830904,35.09921898149696],[127.18432955805483,35.099365700874806],[127.18536843258745,35.099770445263864],[127.18615858982993,35.10059652280178],[127.18675056682787,35.101079677681795],[127.18697428241697,35.10164410160958],[127.18726006181184,35.10191561371227],[127.18769459897256,35.10286630677882],[127.1876294269148,35.10359453545245],[127.18698886138382,35.10429294559823],[127.18761116668445,35.10559234897199],[127.18758768209514,35.106566269271234],[127.1884807242364,35.108131297205716],[127.18870611556866,35.108287695843],[127.18929052941678,35.10843157724207],[127.19014358605202,35.10920584595549],[127.1904930326048,35.11023721469546],[127.1908398904474,35.1122982546986],[127.19038761385991,35.11245824875244],[127.1895283600829,35.1135569903465],[127.18915993214544,35.11373951887279],[127.1892729499794,35.11488661220125],[127.1885951055026,35.116181670055354],[127.18772172228027,35.1165946840823],[127.1875590672833,35.11689618617923],[127.1886786336213,35.11867689947721],[127.18965969254461,35.11923619657686],[127.18948315859767,35.119994459135576],[127.18957528715885,35.12009951374942],[127.1883950482116,35.12104058244799],[127.18868130467452,35.12164222101511],[127.18816152555372,35.1220714474509],[127.18808777035744,35.12272546944872],[127.18746334652616,35.12327218371391],[127.18771816867469,35.12406962951473],[127.18823577890021,35.12456275010064],[127.18926071388496,35.12471637109531],[127.18942632293403,35.12479892211882],[127.1903697523883,35.12573318189294],[127.19079963566175,35.12690131958772],[127.191687014099,35.127526508696896],[127.19222867637745,35.128532788969785],[127.19187861729591,35.12927061367367],[127.19220122605434,35.13006668073089],[127.19365641012693,35.13061097360361],[127.19502147517798,35.13065696956663],[127.19554646818564,35.13075738836396],[127.19783502559712,35.13165745604697],[127.19753681886965,35.13260809502277],[127.19747791791609,35.133453572610414],[127.19758620974311,35.13396949607142],[127.19725778669218,35.13440750046105],[127.19700510207575,35.13458410559463],[127.1967097880705,35.135031402098164],[127.19695935684497,35.13555631014162],[127.19679273099308,35.13660383744846],[127.19654447109959,35.13679866886961],[127.19624904143062,35.137395264884454],[127.19604887923592,35.138580337578894],[127.19590463322507,35.1388072781153],[127.19612318262008,35.14072175796873],[127.19642157457041,35.14112741095514],[127.1965961568076,35.14123778032086],[127.19664237234119,35.1416179245948],[127.19656093949274,35.14203139922371],[127.19695479616578,35.142946910812206],[127.19650306852425,35.14378924296038],[127.19658496512362,35.14435542338205],[127.19675456905242,35.144772116888035],[127.19717465976782,35.14534023899451],[127.19710458518946,35.145648831787575],[127.1974599554796,35.147121503443316],[127.19708779955435,35.14718212606817],[127.1969686068179,35.14755628138092],[127.19656235457353,35.14779253221982],[127.19648014762646,35.14816481573627],[127.19667479701747,35.14932842096732],[127.19599899331105,35.14949866504978],[127.19580554150059,35.149790266102265],[127.19574554412644,35.150117625949164],[127.19579563385564,35.15085273497654],[127.19573704592445,35.15115009544556],[127.1959424953954,35.151489990856156],[127.1958280809831,35.15164468452553],[127.19622305288134,35.152569857689976],[127.19685845527869,35.15325977620476],[127.19695365662362,35.15396900583817],[127.19676936016499,35.154186475162696],[127.19670171675732,35.15451039538517],[127.19714887976916,35.15515721516964],[127.19705324075507,35.15559159651526],[127.19679494803704,35.15583248524337],[127.19676290660334,35.15613339955726],[127.19713656116473,35.15637901024076],[127.19716424466718,35.15683441920583],[127.19659656667666,35.15743363494415],[127.19650872124755,35.157856997633196],[127.19660854360517,35.15889618675277],[127.19604256151926,35.15909069866789],[127.19539437004116,35.15961820909064],[127.19540711670572,35.16018398571205],[127.19459575849565,35.16022878119455],[127.1940847574217,35.16051462046226],[127.19276422446792,35.160790760152096],[127.19258104087645,35.160913470975494],[127.1924642417515,35.16109400679402],[127.19207118409051,35.16138884532903],[127.19163404854979,35.16200605734809],[127.1911046927391,35.16227623829332],[127.19088903311896,35.16304603306],[127.19047597798033,35.163252916634505],[127.19008277517943,35.16373493265577],[127.18953262564918,35.16392428777671],[127.1891919723389,35.16436508156614],[127.18868852075553,35.16461202896598],[127.18982427699447,35.16695795613355],[127.18987298042153,35.16776230959718],[127.19044973638675,35.169056067180335],[127.19113186075137,35.169699016463895],[127.1915211157182,35.17023265516841],[127.192368684394,35.170937098196305],[127.19257508898274,35.171561805488246],[127.19270312927495,35.172697179187146],[127.19304622456546,35.173009919453264],[127.19305267210811,35.1734326517016],[127.19268158276303,35.174034132450714],[127.19263905598854,35.174826639837434],[127.1927693559313,35.175354156696976],[127.19391027265758,35.176687816755106],[127.19448360258735,35.17812225916857],[127.19484960228031,35.178618832848194],[127.19501291554396,35.178990306634866],[127.19466603053458,35.18000334651922],[127.19545084840749,35.1802107905083],[127.19603782222248,35.18068727572833],[127.19655978519143,35.18084547915581],[127.1968504654969,35.1811040403489],[127.19745058053198,35.181963111168535],[127.19783723723594,35.18216001553061],[127.19836197376702,35.18279368631818],[127.19872789404303,35.18307082354773],[127.19939345149169,35.18435389848405],[127.20077826375493,35.185733322795805],[127.2013766674808,35.18594352245123],[127.20163324911363,35.18640439978971],[127.20159214970188,35.1865996727497],[127.20136951003731,35.18675082703894],[127.20103491453307,35.18681686184737],[127.20078820729056,35.1869682620344],[127.20034241711764,35.188113175510274],[127.20081704772178,35.18864858013249],[127.20082689983302,35.18899611473823],[127.1998784879639,35.18924484001144],[127.19974055612606,35.189739320123095],[127.199446129327,35.18998505861478],[127.19940380275982,35.19013900593019],[127.19905658019441,35.19053777947396],[127.19891520520846,35.190910005348286],[127.19908371759716,35.19186442000858],[127.19862895101541,35.19235977582497],[127.19856288506072,35.19264644882042],[127.19712591186509,35.193083787510105],[127.1966710328611,35.19367305649408],[127.19735995584965,35.195330882769845],[127.19702350728625,35.1960920914859],[127.19753250303235,35.197113513098046],[127.19744984228146,35.19859062087799],[127.1975168708247,35.19945947364343],[127.19652898837413,35.1999770269264],[127.19629073287744,35.20051026853596],[127.19639408938856,35.201692380192846],[127.19685229285157,35.20249922984759],[127.1963686776366,35.20332349710521],[127.19608209712972,35.2040381215421],[127.1936769990959,35.204409478302715],[127.19237684042362,35.20514556437731],[127.19191738838619,35.205127161401435],[127.19131396440044,35.20576373813671],[127.1910661857824,35.20645032990636],[127.19025338610584,35.20783698617384],[127.18904850107744,35.20892199670963],[127.18961823390116,35.21048199916279],[127.18915335437242,35.21121507259195],[127.18900525831118,35.211651111386615],[127.18821191933755,35.212312699028736],[127.18743822821348,35.21253675651216],[127.18695196915952,35.21330463701989],[127.18595167723554,35.21414965281005],[127.1850903441831,35.21412666206983],[127.18429758743147,35.21429400675858]]]}}
