{"type":"Feature","bbox":[129.02118001123452,35.095391559484526,129.0468922130171,35.11660695156523],"properties":{"regionCode":"26110","version":"vworld-20260909-3f8952dfda77-p2","name":"부산광역시 중구","attribution":"국토교통부/K-Geo플랫폼 · VWorld 법정구역정보, CC BY 2.0 KR; 두꺼비집 가공"},"geometry":{"type":"Polygon","coordinates":[[[129.0322456909913,35.116456161407626],[129.03212686858254,35.11660695156523],[129.03204683864263,35.116559027144],[129.03169681101224,35.11605508385759],[129.03031515978506,35.11630723274163],[129.02952374303348,35.116372083405395],[129.02891231630332,35.11578122738199],[129.02825841329167,35.11545517145922],[129.0274623663397,35.115536746888736],[129.02655046814724,35.11577074150973],[129.02664037284856,35.115611934113055],[129.02747210378107,35.11548655733278],[129.02793493980167,35.11447539045858],[129.02788350355374,35.11373824868748],[129.02809118467349,35.113079488733874],[129.0280050261189,35.1121862042505],[129.02808132857643,35.1121552093413],[129.02797686462839,35.11210317946085],[129.0276895312436,35.11117701871296],[129.0273005891644,35.11076944377475],[129.02675934659533,35.11043713640549],[129.0260340421271,35.11081208639698],[129.02572060929694,35.11058131228317],[129.02529562441106,35.1097571001004],[129.0251692629932,35.109656147361996],[129.02492694216275,35.10974470866208],[129.02454612049706,35.10975546368569],[129.02426127726284,35.10889433508813],[129.02359837938687,35.10886523384927],[129.02289598623418,35.1089352542647],[129.02278131699,35.10901549473416],[129.0224505632055,35.10828552074658],[129.02244380844678,35.107951521343914],[129.0222033550389,35.10705458270285],[129.02165650907264,35.106372265559756],[129.02158290776646,35.10625956742297],[129.02163682578055,35.10619814661658],[129.02158272939533,35.106259297373],[129.0213923150276,35.10588740177889],[129.02118001123452,35.10287755532247],[129.02129226853899,35.102281897521415],[129.0215226865578,35.101937020811626],[129.0219230090257,35.101571556153324],[129.02404967504015,35.10022390805486],[129.02435034517717,35.09992614865276],[129.02455854492558,35.09950551566609],[129.0247505031095,35.098741870409334],[129.02655622202434,35.095391559484526],[129.0308763462732,35.096393920238015],[129.03151195526334,35.09645418117975],[129.03152654444625,35.096361795422524],[129.03156819953298,35.09645968183238],[129.03432451488763,35.096729601974026],[129.0351210870771,35.096378156666944],[129.03461920114754,35.09630214038364],[129.03464326569335,35.096244030214486],[129.03496164574588,35.09612353879499],[129.035310820736,35.09609170675095],[129.0369279537999,35.096465968450765],[129.0373855701627,35.09666509994532],[129.03807058556765,35.09725365601863],[129.03832204089068,35.097759765215784],[129.03845824189187,35.098344491732604],[129.03898615969374,35.09821976226464],[129.0390474300445,35.09839649588765],[129.03852139480628,35.0985237334836],[129.03847905622024,35.09927045292007],[129.039349450666,35.09907309507362],[129.039411592837,35.09925183161428],[129.03846431556804,35.099477510017856],[129.03841221893964,35.100326986186325],[129.03978174830146,35.10000328842976],[129.03990356187964,35.10035466402398],[129.03964076915517,35.1004159113577],[129.03994901248936,35.10129729885057],[129.03847589408392,35.10164952076511],[129.0385347947652,35.10181816644379],[129.03832901681963,35.101828385129366],[129.03827917528156,35.10258183348915],[129.03789217417253,35.10267258549096],[129.03779209104522,35.10362849911114],[129.03818285024548,35.10436732503916],[129.03970161748526,35.10442213855663],[129.0389220329848,35.103570831924344],[129.03998100584752,35.10291170234069],[129.0402413959665,35.103196006205216],[129.04219734294958,35.10196607113446],[129.04229411843139,35.10197855972297],[129.0436062834692,35.10339364546377],[129.0435883014788,35.103456353816526],[129.04079541694557,35.10520379197712],[129.042011236898,35.105658638969466],[129.0417533404476,35.1061982032478],[129.0437279675663,35.10495102201559],[129.04418570993047,35.10543956119672],[129.04466855758525,35.10513357792497],[129.0449945906444,35.104907774506316],[129.04467205882364,35.10455003675655],[129.0446234981378,35.10437383594028],[129.0468922130171,35.1068257409438],[129.04683383659167,35.10691661331169],[129.04669537778173,35.106890654670465],[129.0466969555758,35.10678481275729],[129.04563375975255,35.10563025495526],[129.04538129088854,35.10578767313974],[129.0449740350598,35.1058574351307],[129.04462014370682,35.106012653446335],[129.04422122514123,35.106380674129475],[129.04404898716717,35.10678054620405],[129.04402833579192,35.107682420295845],[129.04432032417793,35.1082727905594],[129.04204384916923,35.10994013127894],[129.0412184432172,35.11020483734017],[129.0416000355021,35.11096897644242],[129.03819899337824,35.11199664582848],[129.03789717708537,35.11200783320307],[129.03779210565358,35.11208582187807],[129.03784305448897,35.112518468913784],[129.03693031330997,35.11268194246291],[129.0364872489711,35.11285596968081],[129.03627904597155,35.11307743863348],[129.0360937078789,35.113152972071276],[129.03598261861052,35.11338519571125],[129.03611860565627,35.11348457587879],[129.03571350768598,35.113836502167636],[129.03559332368778,35.11408926051073],[129.03512531306296,35.11425758694499],[129.03505142511295,35.11435126854441],[129.03463741203979,35.11442910453259],[129.0344020060059,35.11503270980936],[129.03403796360033,35.11532302806886],[129.03352010299713,35.11559398290072],[129.03388098463424,35.115888693140704],[129.03346401076658,35.11560901574243],[129.0332871526533,35.11537149007255],[129.0326598524034,35.115914354151464],[129.0328644409033,35.11613115885689],[129.03275261620215,35.116304195956744],[129.03253769913132,35.11631278523858],[129.03247426406634,35.11644246270399],[129.0322456909913,35.116456161407626]]]}}
