{"type":"Feature","bbox":[129.03106663989442,35.03674325726996,129.10528125753322,35.10443042297719],"properties":{"regionCode":"26200","version":"vworld-20260909-3f8952dfda77-p2","name":"부산광역시 영도구","attribution":"국토교통부/K-Geo플랫폼 · VWorld 법정구역정보, CC BY 2.0 KR; 공공주택 복덕방 가공"},"geometry":{"type":"MultiPolygon","coordinates":[[[[129.09319447480848,35.0377159690904],[129.09299485143785,35.03770799575688],[129.09265159672498,35.03734721737071],[129.09253717841892,35.03756248883916],[129.09236189885797,35.03746681266875],[129.0922596530236,35.037347217912604],[129.09222557079747,35.03704424162798],[129.09233998877426,35.03681900214002],[129.09268324366735,35.03674325726996],[129.09318473726412,35.036910692620076],[129.09341844176694,35.037175796077214],[129.0933381059654,35.03729140555612],[129.0930313676981,35.03737910969312],[129.09328211354222,35.03755650913127],[129.09319447480848,35.0377159690904]]],[[[129.08586145824933,35.04935514783747],[129.08580774594802,35.04933108265627],[129.08590961487178,35.04929799303108],[129.08586145824933,35.04935514783747]]],[[[129.08572573378632,35.0493923126687],[129.08567044152028,35.04940697906326],[129.08564516213664,35.04935292844066],[129.08572573378632,35.0493923126687]]],[[[129.08554949155553,35.04943199418586],[129.08547426955138,35.04945564507742],[129.0854586704214,35.049400978297896],[129.08554949155553,35.04943199418586]]],[[[129.08574863502687,35.04950760432645],[129.08583024835295,35.04946180710259],[129.0858331575072,35.049505382143536],[129.08574863502687,35.04950760432645]]],[[[129.08551978492525,35.04955518743592],[129.08546362154252,35.04955604782501],[129.08546960742171,35.049536231351965],[129.08551978492525,35.04955518743592]]],[[[129.08588990780396,35.04965827317489],[129.08580541195542,35.04963261881923],[129.08581564178522,35.049622324733114],[129.08588990780396,35.04965827317489]]],[[[129.08567014597602,35.049635052674056],[129.08565792787758,35.04965984010762],[129.08560924243335,35.04963838692999],[129.08567014597602,35.049635052674056]]],[[[129.0857892520463,35.04970559249424],[129.08571727800492,35.049691618920626],[129.08580116770622,35.04967917076199],[129.0857892520463,35.04970559249424]]],[[[129.0845938888975,35.04985020617623],[129.08455373961007,35.04985454995734],[129.08454505866445,35.04983169283542],[129.0845938888975,35.04985020617623]]],[[[129.08476281202448,35.049915909047456],[129.08473361833194,35.04996436928514],[129.08465101112762,35.049928191906275],[129.08476281202448,35.049915909047456]]],[[[129.08480256191913,35.050013519104056],[129.0847546099657,35.05002900792544],[129.08476107435962,35.04999195530768],[129.08480256191913,35.050013519104056]]],[[[129.08352005829732,35.050047325812294],[129.08351603151777,35.05006449110391],[129.08348338541157,35.05004967635781],[129.08352005829732,35.050047325812294]]],[[[129.08458279587646,35.04993461184537],[129.08462232902093,35.049985543505585],[129.08453085056556,35.05008101814569],[129.0844169226682,35.04998223837644],[129.08458279587646,35.04993461184537]]],[[[129.08163593160455,35.050157158767725],[129.08161604294503,35.05016346888176],[129.08161145764822,35.05013554242738],[129.08163593160455,35.050157158767725]]],[[[129.08369349855388,35.05014104399616],[129.08367919382457,35.0501530230425],[129.08367668572646,35.05011346752716],[129.08369349855388,35.05014104399616]]],[[[129.08154972203675,35.05023910132921],[129.08152807833,35.05024150415778],[129.08155420592865,35.05019899475879],[129.08154972203675,35.05023910132921]]],[[[129.0833425963517,35.0502213792651],[129.08333341200745,35.05021161922422],[129.08347652508442,35.050207549159204],[129.0833425963517,35.0502213792651]]],[[[129.08390827383704,35.05028702001262],[129.0838221700303,35.05028461547411],[129.083833482098,35.05026499730787],[129.08390827383704,35.05028702001262]]],[[[129.08215134466724,35.05027153569375],[129.08223151155872,35.05021995150152],[129.08259640070227,35.05026395497177],[129.08255186800352,35.05028144138152],[129.08215134466724,35.05027153569375]]],[[[129.08923236498856,35.049972578706424],[129.08939545181235,35.05014800897697],[129.089295532854,35.050247762315685],[129.08913322973535,35.0501031055767],[129.08923236498856,35.049972578706424]]],[[[129.08405939656348,35.050359439846595],[129.084043624283,35.05036298633117],[129.084032916973,35.05034584755445],[129.08405939656348,35.050359439846595]]],[[[129.0842734942605,35.05047492680383],[129.0842756536759,35.05049193016776],[129.0841926446942,35.050486966349226],[129.0842734942605,35.05047492680383]]],[[[129.08439740962177,35.050526756992014],[129.0843528591463,35.0505403015149],[129.0843415289064,35.050502156886154],[129.08439740962177,35.050526756992014]]],[[[129.09086992991,35.05061639994316],[129.09045141730374,35.05046968117632],[129.09061026342005,35.05040131752889],[129.09086992991,35.05061639994316]]],[[[129.08223307489618,35.05077381526931],[129.0821614462803,35.05080669941643],[129.0821503444024,35.050804101512135],[129.08217694008212,35.050764210490335],[129.08223307489618,35.05077381526931]]],[[[129.0912473780797,35.05095401444317],[129.09123102475394,35.0509710026782],[129.0912097682814,35.050955324728605],[129.0912473780797,35.05095401444317]]],[[[129.0819297576977,35.05173399953857],[129.08191802021952,35.051750979534745],[129.08189459806854,35.05171536904915],[129.0819297576977,35.05173399953857]]],[[[129.08200760522536,35.05194532342461],[129.0819704148464,35.05195909025543],[129.08197532384526,35.05192386400723],[129.08200760522536,35.05194532342461]]],[[[129.09260987139584,35.051950729971004],[129.09253080857405,35.05194807239293],[129.09257498332764,35.05189623994212],[129.09260987139584,35.051950729971004]]],[[[129.09335297252485,35.0542570382624],[129.09329955326996,35.05430082018351],[129.09322738708357,35.05423235817372],[129.09335297252485,35.0542570382624]]],[[[129.09322827359094,35.05439436610493],[129.09319319327076,35.05441578951584],[129.0931358560936,35.05437292790204],[129.09322827359094,35.05439436610493]]],[[[129.08191264473493,35.05456477500073],[129.081897224894,35.05458271726363],[129.0818800636134,35.054563641060746],[129.08191264473493,35.05456477500073]]],[[[129.08182026335902,35.05456383406327],[129.0817986356734,35.054591115094205],[129.08178687530156,35.05456560211199],[129.08182026335902,35.05456383406327]]],[[[129.09319096324805,35.054496788475134],[129.09314062940828,35.054494357117186],[129.09302768888173,35.05445527510219],[129.0930550087393,35.05444385071721],[129.09319096324805,35.054496788475134]]],[[[129.08203916609702,35.05476116149779],[129.081997474839,35.05477681644197],[129.08197359306558,35.05474789478878],[129.08203916609702,35.05476116149779]]],[[[129.08175362445178,35.05497480417909],[129.08170265391342,35.05499109667038],[129.08169852226294,35.05495134952412],[129.08175362445178,35.05497480417909]]],[[[129.08170681395498,35.05545396107966],[129.08168586426095,35.055452509501094],[129.08168804622062,35.055447108303255],[129.08170681395498,35.05545396107966]]],[[[129.0937994949196,35.05553359239397],[129.09383764659464,35.05551746420866],[129.0938474012326,35.055560758753316],[129.0937994949196,35.05553359239397]]],[[[129.09413301571507,35.05564357359719],[129.09411580318,35.05564723049025],[129.09409973505956,35.05561014723887],[129.09413301571507,35.05564357359719]]],[[[129.09426678285132,35.05611316843466],[129.09422747496566,35.0561086928969],[129.09423066005846,35.05609779917769],[129.09426678285132,35.05611316843466]]],[[[129.09448671906875,35.05612991519053],[129.0944415653342,35.05614526287152],[129.09442421777425,35.056118914901305],[129.09448671906875,35.05612991519053]]],[[[129.09448296013747,35.05621398350185],[129.0944597211919,35.05628135933958],[129.09439233759065,35.056266319968714],[129.09439503622258,35.05621766214242],[129.09448296013747,35.05621398350185]]],[[[129.09518954738138,35.056946959696695],[129.095182392071,35.05697104580776],[129.09508816274973,35.0569327376009],[129.09518954738138,35.056946959696695]]],[[[129.07026288021595,35.05865944469808],[129.0702625553458,35.058665899088794],[129.07024396326733,35.05865727328904],[129.07026288021595,35.05865944469808]]],[[[129.0703433854601,35.0586808787755],[129.0703416446268,35.05868410747469],[129.07032833526455,35.05867999080621],[129.0703433854601,35.0586808787755]]],[[[129.0703103441692,35.05869742214676],[129.07030271332422,35.05872134443797],[129.07027274614222,35.0587042518578],[129.0703103441692,35.05869742214676]]],[[[129.07036533863337,35.05871282109184],[129.07034003866085,35.05872323510355],[129.07034297347982,35.05870288091534],[129.07036533863337,35.05871282109184]]],[[[129.07039198337563,35.05874731734936],[129.07036658196475,35.05875558412148],[129.07036372504587,35.05874027104674],[129.07039198337563,35.05874731734936]]],[[[129.07302285257697,35.058930346345875],[129.07289459114958,35.058930585344676],[129.07287234163377,35.058880847585264],[129.07297180785852,35.058874287572486],[129.07302285257697,35.058930346345875]]],[[[129.0724107081553,35.05911450608313],[129.07239256375942,35.05912701236726],[129.07237983740654,35.05910184458238],[129.0724107081553,35.05911450608313]]],[[[129.07294892942048,35.059212177447776],[129.0729422413639,35.05918500645173],[129.07305619214964,35.05917457448574],[129.07294892942048,35.059212177447776]]],[[[129.09645419290393,35.05868122029899],[129.09657392875522,35.05878412955472],[129.0964912364295,35.05887079227452],[129.09628957970403,35.05890398446441],[129.09623074483932,35.05879795530943],[129.09645419290393,35.05868122029899]]],[[[129.07310182037585,35.05926727223297],[129.07300380726224,35.05926163624736],[129.07301023990678,35.05923845424078],[129.07310182037585,35.05926727223297]]],[[[129.0705573118996,35.05931695536513],[129.07061657385933,35.059365465884774],[129.0704097596345,35.05934071596006],[129.0705573118996,35.05931695536513]]],[[[129.07051773288651,35.05945331577744],[129.07049823565177,35.05945801234566],[129.07048230669716,35.05942917115788],[129.07051773288651,35.05945331577744]]],[[[129.07019774981214,35.059717791750714],[129.07018484902076,35.05972345234716],[129.07013932349116,35.059688698299766],[129.07019774981214,35.059717791750714]]],[[[129.06996635552417,35.05984047201921],[129.06997779766712,35.059883472682614],[129.06993175903818,35.059866934301255],[129.06996635552417,35.05984047201921]]],[[[129.09678854224845,35.05966774778503],[129.09674209991866,35.05967494106217],[129.09673566158924,35.0596510897511],[129.09678854224845,35.05966774778503]]],[[[129.0701951307206,35.060132831025214],[129.06990075530788,35.0599014429992],[129.069987973059,35.059907446645354],[129.0701951307206,35.060132831025214]]],[[[129.07439876687772,35.06017915440454],[129.07438702015395,35.06019333878964],[129.07437347628994,35.06017577617404],[129.07439876687772,35.06017915440454]]],[[[129.07447292240886,35.06022736775876],[129.07442690988793,35.06023245968699],[129.07442144428603,35.06019851438221],[129.07447292240886,35.06022736775876]]],[[[129.09448261751834,35.06012196481622],[129.09445788440865,35.060117067843116],[129.09448142048038,35.06007512720462],[129.09448261751834,35.06012196481622]]],[[[129.09474564437892,35.06012594102414],[129.09459940551562,35.06013059767252],[129.09464457153953,35.06007337422103],[129.09474564437892,35.06012594102414]]],[[[129.09492513321385,35.06013086657038],[129.09495591156386,35.06021259714571],[129.09479431852813,35.06019614718537],[129.09480526712278,35.06016495968601],[129.09492513321385,35.06013086657038]]],[[[129.0944659728866,35.06023088061359],[129.09430614495722,35.06026133047082],[129.09440942203582,35.0601466594774],[129.0943786608137,35.06021002460867],[129.0944659728866,35.06023088061359]]],[[[129.09471216156078,35.060249221011084],[129.09470484709678,35.06027512323072],[129.09464875493236,35.060257969154584],[129.09471216156078,35.060249221011084]]],[[[129.07477325089272,35.06063986721972],[129.07474447967584,35.06063465889977],[129.0747426432275,35.06061674504903],[129.07477325089272,35.06063986721972]]],[[[129.09426030814382,35.06039364554793],[129.09422610382978,35.06037293788493],[129.09431122347988,35.060358687766836],[129.09426030814382,35.06039364554793]]],[[[129.0694044556042,35.06076856215995],[129.06940018274477,35.06077459609146],[129.0693484702728,35.06073291083046],[129.0694044556042,35.06076856215995]]],[[[129.06927180637157,35.06084340632729],[129.06924586194594,35.060859779143364],[129.06922997798972,35.060824859398],[129.06927180637157,35.06084340632729]]],[[[129.09372528185466,35.06064303750062],[129.0938745360069,35.06060425128117],[129.0938401792549,35.06062827375691],[129.09372528185466,35.06064303750062]]],[[[129.09355764124768,35.06075676669409],[129.09358963535436,35.060724294747885],[129.09366115170917,35.06072870965755],[129.09365391937735,35.06074559909061],[129.09355764124768,35.06075676669409]]],[[[129.0937402511285,35.06075616663525],[129.09369273119887,35.06075558025331],[129.09372224110547,35.060701138795345],[129.0937402511285,35.06075616663525]]],[[[129.09384912275132,35.06077561813439],[129.09379612368127,35.06077972728796],[129.09383255478596,35.06073543539259],[129.09384912275132,35.06077561813439]]],[[[129.09204465230638,35.06112258741306],[129.09205530551,35.061032306725004],[129.0918748827059,35.06102032054549],[129.09201636337906,35.060932428446904],[129.09222842773897,35.060996192620514],[129.09204465230638,35.06112258741306]]],[[[129.09228198343163,35.06108764089066],[129.09223219526717,35.06112006572313],[129.09221849412134,35.06110262533508],[129.09228198343163,35.06108764089066]]],[[[129.09141586058215,35.06118570559823],[129.0914092812468,35.06117276449003],[129.09143092061515,35.061150629863974],[129.09141586058215,35.06118570559823]]],[[[129.0673066272581,35.06165214750472],[129.0672963065374,35.06165960654471],[129.06728427332877,35.06162543741123],[129.0673066272581,35.06165214750472]]],[[[129.09090605051844,35.06142644055382],[129.09083569643636,35.0614238561891],[129.09087804026225,35.061376931516925],[129.09090605051844,35.06142644055382]]],[[[129.09084000105193,35.06146486291321],[129.09087219219552,35.06149576636659],[129.0908507836429,35.061524835800945],[129.09084000105193,35.06146486291321]]],[[[129.09069840494232,35.06159230184927],[129.0906257013362,35.061553231839085],[129.09061313258835,35.06137241443726],[129.09088096657607,35.06131554087503],[129.09074392453314,35.061410924479055],[129.09069840494232,35.06159230184927]]],[[[129.06814307118592,35.06221467325306],[129.06810986711324,35.0622179868849],[129.06811328932653,35.062201754062464],[129.06814307118592,35.06221467325306]]],[[[129.0679833924834,35.062218756654325],[129.06792999257715,35.062234258877595],[129.06793263341987,35.06221088181433],[129.0679833924834,35.062218756654325]]],[[[129.0682241991058,35.062229119398864],[129.06818178083896,35.062231870579595],[129.06819836889,35.062219736671025],[129.0682241991058,35.062229119398864]]],[[[129.0896371462719,35.06199448585299],[129.08960475379632,35.06200007040195],[129.08961769163244,35.0619818387414],[129.0896371462719,35.06199448585299]]],[[[129.0896078535927,35.06207579075469],[129.08956252035077,35.0620795505441],[129.08958538736718,35.06205531651472],[129.0896078535927,35.06207579075469]]],[[[129.066663880982,35.062368226461224],[129.06672047885806,35.06237487683589],[129.06676440338256,35.062396770500676],[129.0666967726487,35.06242166427703],[129.066663880982,35.062368226461224]]],[[[129.06702644417422,35.06248148109511],[129.0669615052587,35.06249574711142],[129.06694423261368,35.06244551026953],[129.06702644417422,35.06248148109511]]],[[[129.06692245125228,35.06249672958586],[129.06692154589058,35.06250214378642],[129.06690292041807,35.06250327433953],[129.06692245125228,35.06249672958586]]],[[[129.06687818395304,35.062528109877725],[129.0668520741638,35.062538579622704],[129.06684115307277,35.06251319768745],[129.06687818395304,35.062528109877725]]],[[[129.0672940071911,35.062544305069736],[129.067284128702,35.06255104070496],[129.06727657958697,35.062536624002355],[129.0672940071911,35.062544305069736]]],[[[129.0647251999726,35.06267191068602],[129.06466224905012,35.062652589743315],[129.06470771086688,35.06263077454474],[129.0647251999726,35.06267191068602]]],[[[129.06540404735938,35.062737781354215],[129.0653582133141,35.06273119248952],[129.06535655284938,35.06271613163253],[129.06540404735938,35.062737781354215]]],[[[129.08912641616075,35.0624095430227],[129.0890844740387,35.06243540639487],[129.08908880769843,35.06238460575958],[129.08912641616075,35.0624095430227]]],[[[129.0669020912765,35.06265542698847],[129.06689565266788,35.06273267706437],[129.06671161189274,35.06260531724795],[129.0669020912765,35.06265542698847]]],[[[129.06593907899926,35.06276050101767],[129.06592518470774,35.06276614424379],[129.0659207245359,35.06275624705692],[129.06593907899926,35.06276050101767]]],[[[129.08893919116454,35.062470614837544],[129.08892382569636,35.0624714959805],[129.08891745455537,35.06245887208142],[129.08893919116454,35.062470614837544]]],[[[129.088850722891,35.06250728049705],[129.0888062061347,35.062497734080054],[129.08882896953907,35.06248030153568],[129.088850722891,35.06250728049705]]],[[[129.06603254227915,35.06280129064072],[129.06603284423798,35.062813998672425],[129.0660042525653,35.06281257727265],[129.06603254227915,35.06280129064072]]],[[[129.06530362371504,35.06282169480828],[129.0652807925027,35.06277944658669],[129.0653517837328,35.06277665759535],[129.06530362371504,35.06282169480828]]],[[[129.08816845328982,35.062673508027736],[129.0882106484467,35.062713497494684],[129.08821070438347,35.06276495199047],[129.08816936071358,35.06275623925358],[129.08816845328982,35.062673508027736]]],[[[129.0646856546468,35.063181902671545],[129.0646811841641,35.06320777101278],[129.06461927905522,35.06316460946269],[129.0646856546468,35.063181902671545]]],[[[129.06460838463275,35.063246777559655],[129.06456598581184,35.06327908322064],[129.0645497777527,35.063207508990054],[129.06460838463275,35.063246777559655]]],[[[129.08771967429539,35.06300097470799],[129.0876559192532,35.06301107891853],[129.0876446785486,35.06294297013503],[129.08771967429539,35.06300097470799]]],[[[129.0647192936732,35.06338635354936],[129.06469810588248,35.06340934954266],[129.06466154156792,35.063381020882176],[129.0647192936732,35.06338635354936]]],[[[129.08745642764757,35.063175838036045],[129.08744940669092,35.06318389932738],[129.08744125835852,35.06317660823095],[129.08745642764757,35.063175838036045]]],[[[129.08747283177732,35.06323646074734],[129.08750481714722,35.063285532647754],[129.08751128125385,35.06331049672553],[129.08746309984318,35.06328788829539],[129.08747283177732,35.06323646074734]]],[[[129.08729167387014,35.06350978753342],[129.08726281035007,35.063506755413684],[129.08726222301172,35.06348961616638],[129.08729167387014,35.06350978753342]]],[[[129.06470466638487,35.0638213978383],[129.06467919477976,35.06384281897335],[129.06465344961558,35.06380940082938],[129.06470466638487,35.0638213978383]]],[[[129.06453918905663,35.063849740208084],[129.06456923259927,35.06387044959377],[129.0645686359692,35.06387538644458],[129.06453918905663,35.063849740208084]]],[[[129.06466090390504,35.063920333670424],[129.0646050608465,35.063927023788864],[129.06459601982203,35.0638944612401],[129.06466090390504,35.063920333670424]]],[[[129.06491008681502,35.06408380433178],[129.0649108647233,35.06409652245333],[129.06487950911352,35.06408004425531],[129.06491008681502,35.06408380433178]]],[[[129.06469935570692,35.064177560931334],[129.06469780733167,35.06420105997901],[129.06465118652994,35.06417977649986],[129.06469935570692,35.064177560931334]]],[[[129.06497095431928,35.06423697125185],[129.0647578346977,35.06421428218484],[129.06473171887686,35.063978119896284],[129.0647844053779,35.06398564570928],[129.06497095431928,35.06423697125185]]],[[[129.0649663465067,35.064314006462844],[129.06494428758762,35.0643104484293],[129.06494126578855,35.064296854941254],[129.0649663465067,35.064314006462844]]],[[[129.065105349522,35.06429863777239],[129.06510185503996,35.064312383879006],[129.06506221908134,35.064314637346484],[129.065105349522,35.06429863777239]]],[[[129.065126023099,35.06436960969607],[129.0651063579226,35.06437678793517],[129.0651026556652,35.06435684771958],[129.065126023099,35.06436960969607]]],[[[129.0867412965053,35.06444290034718],[129.08670093491216,35.064453066733435],[129.0866961410064,35.06442980014309],[129.0867412965053,35.06444290034718]]],[[[129.08620926325082,35.06526200304102],[129.0861820155995,35.06526362171047],[129.08620243529734,35.06524701372701],[129.08620926325082,35.06526200304102]]],[[[129.0861012486649,35.06530208978419],[129.08607668522532,35.065313104225545],[129.0860705828807,35.06529231523537],[129.0861012486649,35.06530208978419]]],[[[129.08606415552552,35.06538871443149],[129.08603677156808,35.06540647197508],[129.08602126332292,35.0653633323211],[129.08606415552552,35.06538871443149]]],[[[129.06493667316133,35.0661622227106],[129.06490673566276,35.0661652129271],[129.06490859408103,35.06614422810507],[129.06493667316133,35.0661622227106]]],[[[129.06538382647247,35.06614294059748],[129.06537634662106,35.06617499233224],[129.0653208195424,35.066138351418914],[129.06538382647247,35.06614294059748]]],[[[129.08590805335305,35.06599969484537],[129.08583069817837,35.06601066842894],[129.0858331510616,35.06598849266353],[129.08590805335305,35.06599969484537]]],[[[129.0653181244753,35.06619918958821],[129.065291040728,35.06628972092037],[129.06520769952675,35.06630060086283],[129.06521348458458,35.066171572137556],[129.0653181244753,35.06619918958821]]],[[[129.0654348634208,35.06641981089702],[129.0654062884139,35.06642064861554],[129.06541563306817,35.06640189062053],[129.0654348634208,35.06641981089702]]],[[[129.0653977799464,35.06643868984797],[129.06538564947599,35.06643152799726],[129.06539697445464,35.066423614357966],[129.0653977799464,35.06643868984797]]],[[[129.0653993823957,35.066485334253045],[129.06538008687423,35.06648180374897],[129.06538535832803,35.06647083602976],[129.0653993823957,35.066485334253045]]],[[[129.08573597913693,35.066319532122826],[129.08568233833174,35.06630762625807],[129.0856942673682,35.06628399129001],[129.08573597913693,35.066319532122826]]],[[[129.06541346416918,35.06692848208829],[129.06538379674427,35.06693437305379],[129.06538128325914,35.06692409278333],[129.06541346416918,35.06692848208829]]],[[[129.08542755553793,35.06671022919516],[129.08553350556286,35.06668586715882],[129.08552169550575,35.06669836650047],[129.08542755553793,35.06671022919516]]],[[[129.08541558352738,35.06685043371938],[129.08534997061892,35.0668371668169],[129.08539171222893,35.066774111164854],[129.08541558352738,35.06685043371938]]],[[[129.0653334611571,35.06713028461101],[129.0653109299684,35.06709514453589],[129.06532978376373,35.06709396979223],[129.0653334611571,35.06713028461101]]],[[[129.06546004338273,35.06715852029307],[129.06545950815405,35.06716311013108],[129.06542671974321,35.06715809574576],[129.06546004338273,35.06715852029307]]],[[[129.0852000774954,35.06711862549458],[129.08514927649028,35.06712446935708],[129.08516684065634,35.06706807900427],[129.0852000774954,35.06711862549458]]],[[[129.0851236327202,35.06720265369263],[129.08508380052498,35.06719836875006],[129.08508903035613,35.06716632908835],[129.0851236327202,35.06720265369263]]],[[[129.06063087598747,35.06931671038982],[129.06062251436697,35.069281827062625],[129.06066158148948,35.06930151602755],[129.06063087598747,35.06931671038982]]],[[[129.05842320092327,35.069438285481084],[129.05838677751245,35.06944947113431],[129.05838240243608,35.06941766322408],[129.05842320092327,35.069438285481084]]],[[[129.0583133160156,35.06945301096675],[129.05829332539048,35.06943024590902],[129.0583275135392,35.06941662307974],[129.0583133160156,35.06945301096675]]],[[[129.0582165253429,35.06949456889267],[129.05819655484015,35.069494955347665],[129.0582006275828,35.06948115511783],[129.0582165253429,35.06949456889267]]],[[[129.06024559622546,35.069450479074696],[129.0602462651212,35.06947709167877],[129.06018169567176,35.06943346001479],[129.06024559622546,35.069450479074696]]],[[[129.0623212091371,35.06946843892561],[129.06229938565357,35.06947626484466],[129.06226791723012,35.06940970613051],[129.0623212091371,35.06946843892561]]],[[[129.05828663468614,35.069544401189276],[129.05829099566122,35.06950273089718],[129.0583289858301,35.069514077347655],[129.05828663468614,35.069544401189276]]],[[[129.06246975372875,35.069503185715966],[129.06244167045946,35.06951963786343],[129.06242141859352,35.069486968076326],[129.06246975372875,35.069503185715966]]],[[[129.05825611088918,35.06957812270624],[129.0582088844903,35.06958886288034],[129.05820383642418,35.06955983969811],[129.05825611088918,35.06957812270624]]],[[[129.06062758441118,35.06956503975164],[129.06062371354375,35.0695828550745],[129.06059177049073,35.069566003776025],[129.06062758441118,35.06956503975164]]],[[[129.06029786100984,35.06958863610993],[129.06023055150357,35.069564451594125],[129.06023693168828,35.069545027063675],[129.06029786100984,35.06958863610993]]],[[[129.0602675704417,35.06961561281279],[129.06025060877295,35.06962087561821],[129.06023669200158,35.06959574983751],[129.0602675704417,35.06961561281279]]],[[[129.05871460356485,35.069713044925],[129.05868088445914,35.069711486677356],[129.05867955782873,35.069693050284144],[129.05871460356485,35.069713044925]]],[[[129.05789221854056,35.06977138019711],[129.05770253509826,35.069508355844974],[129.0578356118045,35.0695117764995],[129.05799317517312,35.06969937810915],[129.05789221854056,35.06977138019711]]],[[[129.05975477058698,35.06976428983405],[129.05972665984157,35.0697796778027],[129.05971266797738,35.06973838148253],[129.05975477058698,35.06976428983405]]],[[[129.05970068343123,35.069776924780335],[129.05967777844813,35.069793288050946],[129.05965259893796,35.06971916700893],[129.05970068343123,35.069776924780335]]],[[[129.05687908540804,35.06981316647565],[129.05684814461537,35.0698454089334],[129.05681886647096,35.0698007525299],[129.05687908540804,35.06981316647565]]],[[[129.05578393018308,35.07034718383759],[129.0558036636738,35.070362146387325],[129.05573894371832,35.07037688603883],[129.05578393018308,35.07034718383759]]],[[[129.05534098925517,35.070435852939966],[129.05530092584664,35.07044453458298],[129.05528791201888,35.07042432759639],[129.05534098925517,35.070435852939966]]],[[[129.05528630976627,35.070491193342036],[129.05525027880307,35.07050970049358],[129.05520505148692,35.0704678304955],[129.05528630976627,35.070491193342036]]],[[[129.05580265894187,35.07052690775433],[129.0557748423721,35.07052901739694],[129.05577135417212,35.070509968548855],[129.05580265894187,35.07052690775433]]],[[[129.05591701373496,35.070533273758215],[129.05589353023765,35.07053446497886],[129.05588168563995,35.07051335135397],[129.05591701373496,35.070533273758215]]],[[[129.05616303390784,35.07055077555834],[129.05615453107464,35.070573285419854],[129.05612019873277,35.07054724273544],[129.05616303390784,35.07055077555834]]],[[[129.05586339870416,35.070647617179894],[129.05582982838783,35.07063825902669],[129.05584590661633,35.07062282707925],[129.05586339870416,35.070647617179894]]],[[[129.05521730196193,35.07073996437595],[129.05522012065626,35.070748068048395],[129.055191135343,35.07073650145074],[129.05521730196193,35.07073996437595]]],[[[129.05538956799433,35.07078821940435],[129.05539116409167,35.070797488320004],[129.05536749052087,35.07078953494492],[129.05538956799433,35.07078821940435]]],[[[129.05482015032388,35.07097450074876],[129.0547686204009,35.07098530018728],[129.05475051976998,35.07093818730962],[129.05482015032388,35.07097450074876]]],[[[129.05439212404977,35.07099770512218],[129.05431881962846,35.07098104515443],[129.05432704037713,35.07097734592189],[129.05439212404977,35.07099770512218]]],[[[129.05469749115665,35.07098699478557],[129.054706446748,35.07100110662265],[129.0546549434413,35.070974863520775],[129.05469749115665,35.07098699478557]]],[[[129.05442949043967,35.07106687806494],[129.05442718316064,35.071075848105195],[129.05437286928807,35.07106187409107],[129.05442949043967,35.07106687806494]]],[[[129.05424091417024,35.07121800578681],[129.0542381658427,35.07123945899469],[129.0541959853929,35.071219170415304],[129.05424091417024,35.07121800578681]]],[[[129.05387377597202,35.071246156786174],[129.05387106469294,35.071257884639294],[129.05381624159932,35.071252338933945],[129.05387377597202,35.071246156786174]]],[[[129.05372022574815,35.071293871665645],[129.05378545943788,35.071324741254394],[129.053795582458,35.071380017888664],[129.0536681686202,35.07135983850578],[129.05372022574815,35.071293871665645]]],[[[129.05390452833635,35.07139245536741],[129.0538454063387,35.07140924830324],[129.05385030753726,35.07137495188976],[129.05390452833635,35.07139245536741]]],[[[129.05351959350568,35.07158244423749],[129.0535073879146,35.071565578927924],[129.05351805795655,35.07156091158677],[129.05351959350568,35.07158244423749]]],[[[129.05331643671624,35.071624936323765],[129.05328424245388,35.0716442710279],[129.05325474863957,35.071588342664384],[129.05331643671624,35.071624936323765]]],[[[129.0526787923333,35.071939632075456],[129.05264099357208,35.07194726682465],[129.05264169776905,35.071933495479385],[129.0526787923333,35.071939632075456]]],[[[129.0525861073701,35.071997980664165],[129.05255437094434,35.072000339022814],[129.05255864240416,35.07199008340256],[129.0525861073701,35.071997980664165]]],[[[129.05269095523371,35.07200409093071],[129.05267277653263,35.07201347424814],[129.05266491693203,35.07199589772605],[129.05269095523371,35.07200409093071]]],[[[129.0519171712543,35.0724767261868],[129.0518938143145,35.07252285897786],[129.0518663731606,35.07247325050848],[129.0519171712543,35.0724767261868]]],[[[129.05001185566582,35.07356178527099],[129.04998751161108,35.07359662130142],[129.04996610679694,35.07352917151588],[129.05001185566582,35.07356178527099]]],[[[129.08466202309324,35.073391605632786],[129.0849617488568,35.07352957622317],[129.0849180860571,35.07362106942049],[129.0846053209608,35.07348126844889],[129.08466202309324,35.073391605632786]]],[[[129.09088137738175,35.07390369730443],[129.09076845551533,35.07388997220346],[129.09081992583867,35.073843558046235],[129.09088137738175,35.07390369730443]]],[[[129.09131969797212,35.073755080330294],[129.09141857098732,35.07385860703994],[129.0910913056717,35.0740545679091],[129.09119232192137,35.07377966736464],[129.09131969797212,35.073755080330294]]],[[[129.09140620231,35.07411591059908],[129.09138824110994,35.07409059459231],[129.09144611632593,35.07406119522175],[129.09140620231,35.07411591059908]]],[[[129.09128875896812,35.07419981529689],[129.0912203014313,35.07417708509971],[129.0913050123403,35.07414249105327],[129.09128875896812,35.07419981529689]]],[[[129.04786540520004,35.07485088345007],[129.04785478828953,35.074855732651706],[129.04784927554397,35.074841360869804],[129.04786540520004,35.07485088345007]]],[[[129.04770280262554,35.07493103036286],[129.04768289468603,35.0749348621006],[129.04767719952434,35.07492232833816],[129.04770280262554,35.07493103036286]]],[[[129.09134819331615,35.07437681282305],[129.09133458666142,35.07438033187983],[129.09131896286095,35.07434543168594],[129.09134819331615,35.07437681282305]]],[[[129.04781212862156,35.07507219995737],[129.04777479796718,35.07507586100672],[129.0477951355534,35.07505825151874],[129.04781212862156,35.07507219995737]]],[[[129.09204144683898,35.07545073810126],[129.09181470466757,35.075506451347245],[129.09179541517545,35.075419384192365],[129.09193716118318,35.07542180410841],[129.09206704368583,35.07531786478722],[129.09204144683898,35.07545073810126]]],[[[129.09286956472133,35.076154746816194],[129.09282779697952,35.076192129134604],[129.09279422981612,35.076152902706404],[129.09286956472133,35.076154746816194]]],[[[129.09535905660587,35.07712402144622],[129.09527525337595,35.077065763688275],[129.09529391731246,35.07703824072229],[129.09535905660587,35.07712402144622]]],[[[129.0954778303454,35.077319000293684],[129.0954621864869,35.07740153423055],[129.09537360913097,35.077409035398496],[129.09522353174015,35.077157544969744],[129.0954778303454,35.077319000293684]]],[[[129.09575024830582,35.0782069255706],[129.09596859614425,35.07845972918541],[129.09592224568965,35.07853204365091],[129.0957468457958,35.07848161512967],[129.09575024830582,35.0782069255706]]],[[[129.03321805099262,35.08000612811437],[129.0332572480119,35.08009412841759],[129.0331665003862,35.08011979647087],[129.03313134829543,35.0800288561941],[129.03321805099262,35.08000612811437]]],[[[129.10523416536475,35.07938466191206],[129.09756812034485,35.078818471813605],[129.09760887110974,35.07841977648445],[129.09805431271116,35.07844995812698],[129.09803508550522,35.078664395885056],[129.10480471841248,35.079145604514856],[129.10483176397105,35.07888830804335],[129.10528125753322,35.07892437627082],[129.10523416536475,35.07938466191206]]],[[[129.03414435793255,35.080225576793836],[129.0341920648272,35.0802980405514],[129.03409262470134,35.080337337300236],[129.0340553360905,35.08026063660332],[129.03414435793255,35.080225576793836]]],[[[129.03515517193532,35.08045032822818],[129.03519637918276,35.08052039891939],[129.03511528265628,35.08056480363838],[129.03505530759747,35.080497525730905],[129.03515517193532,35.08045032822818]]],[[[129.03300044469086,35.08065808067417],[129.03306658282182,35.08071489410634],[129.03298991215655,35.080776734720345],[129.03292307430493,35.08070702698549],[129.03300044469086,35.08065808067417]]],[[[129.03614379397808,35.080670103980886],[129.03620141130435,35.08074805484593],[129.03610972096467,35.080785204763316],[129.03605946782923,35.080715860300316],[129.03614379397808,35.080670103980886]]],[[[129.0373348377909,35.08095425228804],[129.0373698483961,35.081032004147914],[129.03727651139042,35.08106485615728],[129.03723537371056,35.08098375489263],[129.0373348377909,35.08095425228804]]],[[[129.09518913803092,35.08060089788769],[129.09522532632437,35.08058773786726],[129.09522290454137,35.08060823994273],[129.09518913803092,35.08060089788769]]],[[[129.0382296682111,35.0812630017007],[129.03827231543517,35.081349550885975],[129.03817040415697,35.081372740601076],[129.03814842358676,35.081287899236536],[129.0382296682111,35.0812630017007]]],[[[129.07832891333587,35.08693888885429],[129.0783755840035,35.087009085908015],[129.07828068616192,35.08719926003587],[129.07818176124684,35.08700356498777],[129.07832891333587,35.08693888885429]]],[[[129.0642005604522,35.09975448104929],[129.0641123404211,35.09993556005952],[129.06403320749908,35.09991273974609],[129.0639852183648,35.09973441370057],[129.0642005604522,35.09975448104929]]],[[[129.0637442040939,35.10026696024736],[129.0637417739107,35.10020526346213],[129.06387474518957,35.100178718410916],[129.0638603664587,35.10010511849404],[129.06377660849375,35.10011378886937],[129.06378437930454,35.10001455339567],[129.0640131068676,35.100028275026645],[129.0639582488029,35.10018217165244],[129.06408989057033,35.100144614070416],[129.06401113037086,35.100211491463305],[129.06408250195514,35.10025935690217],[129.0637442040939,35.10026696024736]]],[[[129.05854952473769,35.103280684454525],[129.05853708096967,35.10329190456893],[129.0585224597732,35.103269719899004],[129.05854952473769,35.103280684454525]]],[[[129.06250865044436,35.10283168734244],[129.0627118249833,35.10306883796524],[129.06349917833762,35.10365141901309],[129.06361953100176,35.103906213404954],[129.06290638288328,35.10443042297719],[129.06238839970146,35.10399604214146],[129.06302839192435,35.103470107496356],[129.06164755862406,35.10243095768458],[129.06119189023133,35.102709577661976],[129.05904784106846,35.10087049744673],[129.05855620413527,35.100776953386756],[129.05994247520886,35.10248643915908],[129.06006039551005,35.10253499899346],[129.05923549970504,35.102983759160544],[129.0583673405436,35.101823051670415],[129.05813270246503,35.10166744242243],[129.05744249093175,35.10081326504111],[129.05681454697694,35.100531103497445],[129.05639807173225,35.100924959725454],[129.055287361501,35.100823268552],[129.05548116463018,35.10174208136614],[129.05527759778843,35.10202578297054],[129.0551496032705,35.10206415161782],[129.05511243534886,35.10197634048163],[129.05540905796948,35.101727631419465],[129.05523126833697,35.10086788072312],[129.05113353871903,35.099627479490344],[129.05107884716887,35.099528768910844],[129.0523177652946,35.09675809864806],[129.0519021843247,35.096571833442795],[129.0517590136337,35.09658414577141],[129.05130417511432,35.09760350634745],[129.0502253180245,35.09728049940387],[129.04871009787826,35.1007163300928],[129.04866259384838,35.10081397081301],[129.04853119944664,35.10076970038474],[129.04956187383002,35.098438096489495],[129.04780051091439,35.09792677481869],[129.04761484921983,35.097238801363986],[129.04793941688473,35.09645525949374],[129.04923885144436,35.09603624314066],[129.0488865101442,35.09531041488854],[129.04877321295533,35.09530076175007],[129.04877702886296,35.095489520689966],[129.04862652138996,35.095317421464],[129.04847087626516,35.09530288580599],[129.04803961110198,35.09546914512922],[129.04805946129733,35.0955412040597],[129.04794393359873,35.09558807037752],[129.04771922905516,35.0956529338566],[129.04764728907315,35.09555413975734],[129.0475072091926,35.09561733274789],[129.04758429505156,35.09579436491174],[129.04753800460787,35.0958683286036],[129.04743203467334,35.09586116291057],[129.04742571009112,35.095980497886785],[129.0470762587572,35.09609592571647],[129.04718430580417,35.09658556489305],[129.04682046717517,35.096615966479995],[129.04683174782525,35.09666764660478],[129.04547642913366,35.09714057057579],[129.04534936287035,35.096870674686464],[129.04498266322597,35.09690484986579],[129.0449381934025,35.096719575192026],[129.04420955984156,35.09696619402643],[129.04208002971347,35.09628420849709],[129.04203505024432,35.09639229865558],[129.04197280319732,35.096376174316056],[129.04201199028634,35.096266210367176],[129.0407522942803,35.09586786310249],[129.0400366846327,35.095561130368665],[129.03884812032763,35.094818323577236],[129.03812629873678,35.09482220729486],[129.0381293589457,35.094771724686275],[129.03873567393552,35.09477282710257],[129.03850053906638,35.09359667958396],[129.03836946695517,35.09352410366551],[129.03788957959537,35.093698280535364],[129.0374903827888,35.094843534478656],[129.03605673112767,35.094513860854754],[129.03671076589384,35.092647331433604],[129.03741461580364,35.092383555399316],[129.03710941149134,35.09186030462416],[129.03473414147243,35.09272937570489],[129.0342354346288,35.093160330525635],[129.034274508401,35.09328699955196],[129.0341875705084,35.09321592337035],[129.0340097696131,35.09335343171661],[129.03320162908707,35.09332277051302],[129.03315289147517,35.093663919728634],[129.03338711677077,35.09368909677569],[129.03336124741386,35.09375810128061],[129.0331247374691,35.0937368805362],[129.03311073380962,35.09399572245457],[129.0335140679465,35.09405668616357],[129.03313949746519,35.09436430420782],[129.0316117422178,35.09402659553398],[129.03152742629783,35.093949642707706],[129.03151283384761,35.09341643943231],[129.03106663989442,35.09338459438082],[129.0315093578309,35.093386131206366],[129.03155381518957,35.09229581996435],[129.03137713924104,35.09225679917655],[129.03159229145234,35.09192517544554],[129.03169719571875,35.09195364408373],[129.03210290165984,35.09136973303608],[129.0320292980693,35.09134018124394],[129.03226229726073,35.09098698674166],[129.03175710362098,35.090746987001786],[129.0317948480531,35.09068807606598],[129.03204577558463,35.09081037471818],[129.03231344809544,35.09046863339213],[129.03197761117556,35.09030017961779],[129.03248252802922,35.09051729615045],[129.03281489726785,35.09007959058814],[129.03234645041027,35.089808967588226],[129.0329389632307,35.09011193450826],[129.03328854856258,35.08964091239481],[129.0335190019585,35.089593438505545],[129.0345302421724,35.08986161178043],[129.03470671871733,35.09019536206679],[129.0348012542257,35.09022258252753],[129.03641934175238,35.08963732431108],[129.0361056499439,35.08905381737498],[129.0358441496517,35.088971813801685],[129.03456555048365,35.089427149215396],[129.03417383910332,35.08949217646949],[129.033640473507,35.08936101133461],[129.0336174512646,35.08918111103161],[129.03344052597149,35.08915898456641],[129.03329291780256,35.089039736865224],[129.03316306919797,35.08907905778615],[129.0330924669067,35.08882930644258],[129.03214166124536,35.08877405206506],[129.0321861172909,35.08872684667709],[129.03284380662842,35.0887477245287],[129.0337457819638,35.08829066107543],[129.0341581716003,35.08789598818114],[129.03432571320525,35.08754098445198],[129.03429949415516,35.087392200855824],[129.03438854957315,35.087372233508425],[129.03430435928965,35.08703975169479],[129.03404381181488,35.0870575585816],[129.03416140599467,35.08683594798415],[129.0343112720166,35.086824549248085],[129.03440866260166,35.086358876537815],[129.0341098277905,35.086287053823575],[129.03426916948044,35.08589725935796],[129.03427083042712,35.085676784840786],[129.03343780773028,35.08503195011272],[129.03332378802372,35.08514827945225],[129.03304860473787,35.08500769482053],[129.03300580232843,35.08473396020096],[129.03326164589157,35.084573864478614],[129.0339100241712,35.08504283594529],[129.03441258311537,35.085020323972216],[129.0380122999845,35.08192040001672],[129.03814847172828,35.081936951106],[129.03845958668037,35.08154533206311],[129.03974148770848,35.08050781331849],[129.0399282797185,35.0805037712194],[129.04026680137054,35.08067068354192],[129.04050465223827,35.080621534788705],[129.04092246631382,35.080744820858826],[129.04110517003568,35.08072142963111],[129.04119689508363,35.080799659503334],[129.04151178978333,35.08061902886549],[129.04280053928065,35.07959017211647],[129.04326120325376,35.07936168681429],[129.0437808423643,35.078958506495034],[129.04520225894782,35.07768977601915],[129.0458215044982,35.07708361169775],[129.04663510047322,35.07602049552053],[129.04739336845975,35.07541668206123],[129.04752285101281,35.07538405530141],[129.04741641981755,35.07528815402915],[129.04742725241573,35.07518727503724],[129.047626122026,35.075318303833356],[129.0477789378476,35.075122414719075],[129.04789924119962,35.07520091943847],[129.0484390222671,35.07503437484387],[129.04843457611727,35.07479506677449],[129.04866559958003,35.074853568955824],[129.048973401388,35.074717641873875],[129.0497302678893,35.07411335049485],[129.05048961623757,35.07363125989411],[129.0505101867042,35.073383244265564],[129.05086149196222,35.0734058218013],[129.05168493776912,35.073014985563056],[129.05246547900467,35.07232279198714],[129.05296826261466,35.07207044771759],[129.0529370341043,35.07198564998514],[129.05305642671462,35.071937031962904],[129.05297910171763,35.07187438597255],[129.0530160028302,35.07180786609187],[129.0532304592121,35.07183619176289],[129.05331574156685,35.07174200435408],[129.0535818579001,35.07169803302115],[129.0536619729849,35.07155425485954],[129.0539610945249,35.07154707597214],[129.05388065810084,35.071476109710076],[129.05394196559803,35.07142708649197],[129.05400395787808,35.07154987346912],[129.0541632738171,35.07155132359358],[129.05428786966,35.0714645244078],[129.05427343177618,35.071281725716524],[129.054418521472,35.07138260006228],[129.05444611588206,35.07128936865847],[129.05461063436385,35.07125724731472],[129.05454530374914,35.07107465031516],[129.05467322721685,35.07113015041659],[129.0547180710459,35.07104854417726],[129.0548863963594,35.07104265407157],[129.05506688383514,35.071159705011276],[129.05498052635974,35.07095558485757],[129.05518279443143,35.07110416456227],[129.0552402056808,35.070977478256054],[129.05534637019343,35.07103390227751],[129.05584277007037,35.07096668197686],[129.0560720505123,35.07065578900133],[129.05629977306694,35.070609299346195],[129.0563922739783,35.07039034480577],[129.0567029253012,35.07057680625003],[129.0567999404232,35.0705009409058],[129.05660367772805,35.07037241186846],[129.0567601032866,35.07032949094393],[129.05693046259242,35.07047123466166],[129.05696186117493,35.070297277846436],[129.05712686678095,35.070149357267276],[129.0569550849713,35.069914409111476],[129.05693158653176,35.06970990970997],[129.0570339194268,35.06969697838784],[129.05693369357203,35.06949446856995],[129.05706957291025,35.0694552651721],[129.05728510881522,35.06955025006494],[129.0573690721336,35.06951854732711],[129.05749662396317,35.06966296336471],[129.05756324520067,35.06954402973696],[129.05793463971014,35.0698902348593],[129.05797967606327,35.06982663572838],[129.05819541552225,35.069854922657036],[129.0583634168607,35.06973598776732],[129.05833767644464,35.06963951167626],[129.05857029834746,35.0695663381298],[129.05863983037005,35.06985909285759],[129.05877241414657,35.06998037850227],[129.0593468193367,35.0700025727098],[129.0600741295903,35.06976923289932],[129.06030279600338,35.06964180961958],[129.06038672146542,35.069476376225076],[129.06053860104754,35.06969531123374],[129.06058782408707,35.06959223578365],[129.06074726320176,35.06964810105566],[129.06070379426143,35.06956790070414],[129.0609597443128,35.06964981280451],[129.06103005614796,35.06948780456337],[129.0612369602716,35.069634541832485],[129.06124255386715,35.069426963977804],[129.0612898315062,35.06949643270968],[129.0615357399911,35.06954537263981],[129.06151263276317,35.06967382272904],[129.06168390983171,35.06969802182857],[129.0616157919635,35.06978402544454],[129.06173818971143,35.069792213651844],[129.06177488851506,35.06965385820163],[129.06188600718963,35.06968018874754],[129.0618430518425,35.069579980688566],[129.06201824507082,35.06969274630212],[129.06290308847784,35.069563909085716],[129.06356851186422,35.06934539061742],[129.06412453139384,35.06905835562312],[129.0648775395847,35.06836649821778],[129.0651011269095,35.068418954897254],[129.06529722550567,35.06807680922408],[129.06446358086816,35.06790506342123],[129.06433905145306,35.06807700650499],[129.06412095890073,35.068180940858674],[129.06394340019193,35.06793434359677],[129.0644609143826,35.06768606303916],[129.065405495246,35.06791267572857],[129.06554123362145,35.0677288189398],[129.0654342331298,35.06679169986515],[129.06556574857535,35.06667397810708],[129.0653987800462,35.066590233668855],[129.0655470141605,35.06645137584696],[129.06535668234136,35.06602483087812],[129.06543585026205,35.06601611359703],[129.06547991638422,35.06588030188561],[129.06553565245986,35.06523389779637],[129.06518865637324,35.06437170092322],[129.06487759731797,35.06402228594538],[129.06494888778101,35.06382170598039],[129.06479411787268,35.06373906813755],[129.06485885427125,35.0637166480283],[129.0647473649608,35.063331658858296],[129.06491104369766,35.06319622433185],[129.06483370278664,35.063137534230485],[129.06488781469932,35.06294119536788],[129.06500590546804,35.06290207392199],[129.06490511215515,35.062764893984685],[129.0651870714763,35.06290290682078],[129.06519780051477,35.063239729671736],[129.06533124583106,35.06308586078806],[129.0653912135602,35.06283612525863],[129.06553869679303,35.062751775536576],[129.0662765208187,35.06297409979184],[129.0661619623085,35.06277234441587],[129.06635353823486,35.062753287556944],[129.06656049912368,35.0628492468771],[129.0664715218519,35.06269087635081],[129.0665227773568,35.06266710486176],[129.06702046993945,35.06293005704604],[129.0671965911502,35.06281217191707],[129.06696590678303,35.06261318565105],[129.06708542622843,35.062478500950256],[129.0671342535406,35.06270111631121],[129.0672442598199,35.06268423913771],[129.0672597703672,35.06257580381119],[129.0673864962108,35.062735610816894],[129.0678650400869,35.06256345569989],[129.0682805837855,35.062252827729814],[129.06806964440543,35.061853472044085],[129.06801175503054,35.061473619133885],[129.06848432691342,35.06144273874424],[129.0686290159298,35.061365038441444],[129.06887116860497,35.06147269247087],[129.06897410087785,35.061108894608005],[129.06917136745867,35.061235528094144],[129.06925441064845,35.061471941820244],[129.06926920130508,35.0613350947344],[129.06940713530327,35.06145729863701],[129.0693260552963,35.061304911250524],[129.06949212638577,35.06124562289521],[129.0694507106562,35.06110406101442],[129.0696887892915,35.06110583671793],[129.06945462698334,35.06103706781998],[129.0693784887353,35.06084746348197],[129.06947592546135,35.06084936450989],[129.0695897569391,35.061012010307316],[129.069715542521,35.06090885363447],[129.0695682389772,35.060820955317325],[129.06947119932178,35.060497808640434],[129.06959363207625,35.060416069268705],[129.06980304762456,35.06043893044313],[129.06956053224994,35.060259014545856],[129.06976129979162,35.06024119396468],[129.06988788666038,35.060342833138385],[129.07015880145036,35.060391012074454],[129.07034989282053,35.06026627377838],[129.07025958869116,35.059993038005935],[129.0701438840655,35.05995244850784],[129.07026765111172,35.05995442816673],[129.07027490749024,35.05987687971945],[129.07041076794886,35.05994188811288],[129.07023822087962,35.059740260840414],[129.07049179989377,35.059931328509784],[129.0705139736666,35.059863019610795],[129.07063491663433,35.05986829932919],[129.07043777817375,35.059689441140506],[129.07044976316553,35.0596122660299],[129.07078166285075,35.059862689465476],[129.07053574252913,35.05953302190677],[129.0706034705695,35.059535662015456],[129.07055267505717,35.05944194286058],[129.07088567374706,35.059453163070906],[129.07083568406767,35.05937330320584],[129.07094211387331,35.05934756376995],[129.0707381232521,35.05922150436338],[129.07100097406388,35.05933766340212],[129.0711235300663,35.05931786304941],[129.07103483761668,35.05924064329382],[129.07109289050462,35.0591970841788],[129.0709461460991,35.059125804302006],[129.07112030517564,35.059148243558845],[129.07113401225723,35.05909940379824],[129.07079931502187,35.05878417215248],[129.07079338559615,35.058621984543684],[129.07089366874834,35.05855161437766],[129.07171323260152,35.058833971546235],[129.07188615847542,35.05882871172547],[129.07194663660778,35.05874308188611],[129.07209308186887,35.0587692979069],[129.0723830782724,35.058997867541045],[129.07227720792082,35.059135480166894],[129.07252701654838,35.059154108239255],[129.07261487107334,35.059279618539826],[129.07281760503543,35.059325547949975],[129.07290610731562,35.0595943691444],[129.0732836070703,35.059803602423194],[129.07341180761765,35.060184226430295],[129.07387890392536,35.06049783157049],[129.07436934428944,35.060563285915265],[129.07429196911133,35.060676349819715],[129.07443246639727,35.0607463001302],[129.07473754227195,35.06066465295795],[129.0749435263386,35.060793743283845],[129.07527920575765,35.060833977482105],[129.07614610777284,35.06078070286401],[129.07662104413356,35.060678560228034],[129.07722385968907,35.060407636881195],[129.07753550686368,35.06008625891009],[129.07748707096295,35.05991009247766],[129.07728311478178,35.05996066357462],[129.0773987078537,35.059770878835245],[129.07759173286894,35.059719714026684],[129.07793261897336,35.05978332788302],[129.07832023252416,35.05948604882143],[129.0782616400173,35.059241555025544],[129.0785679179282,35.05909520240405],[129.07871596105872,35.05889844740689],[129.07911495961667,35.058798357482914],[129.07933207072043,35.05859315316353],[129.07916153076556,35.05840385492371],[129.0789579343215,35.05855422961051],[129.07880565876312,35.058460379081474],[129.07965385829527,35.05752173506846],[129.07977966951853,35.05755237693603],[129.0796467578152,35.057268066245264],[129.07966551408018,35.05697394673642],[129.0795134225962,35.05675166454941],[129.0796582562699,35.05678729812088],[129.07962073375734,35.0563454313233],[129.07979480377634,35.05632343389771],[129.07988777747778,35.05641335113713],[129.0800137137729,35.05631746167425],[129.08012720886535,35.056511767601435],[129.0800177829324,35.056136443976484],[129.08026127151194,35.05591040962672],[129.08055296598843,35.05600521943243],[129.08068118623254,35.05633466851301],[129.08079353604992,35.05642073505095],[129.08096078496064,35.056380439066366],[129.08155159268512,35.05601369106176],[129.08170660854364,35.05581839414936],[129.0817592803564,35.05553294288621],[129.0818811586273,35.05549476111071],[129.08172873622112,35.055379635204105],[129.0817029102849,35.05515896108946],[129.08190757771249,35.05492235250189],[129.0821077328132,35.05484088525392],[129.08212906651374,35.05466446685222],[129.0819446570782,35.05454494922146],[129.08201559320406,35.05409256210677],[129.08182314470298,35.05390714435685],[129.08153111540116,35.053897677327875],[129.0814492409255,35.05376902911545],[129.0814886839538,35.05367700685547],[129.08137134540442,35.05355273944547],[129.08142670107642,35.0534318887511],[129.08155812804404,35.05343950404745],[129.081394672272,35.05318319372288],[129.08150906427267,35.05296910053019],[129.0814481454586,35.05285049715197],[129.08171624174918,35.05302024799627],[129.08151718686977,35.05277704275923],[129.08156267107717,35.05264438599502],[129.08142904538343,35.05250789135566],[129.0815874080038,35.05257299334955],[129.081715179658,35.0525116706302],[129.081703924964,35.05266682815232],[129.08181898814343,35.0526244454562],[129.08179841167725,35.0524585148859],[129.08205794382442,35.0525052426634],[129.08207806934072,35.052423197044334],[129.08184593482943,35.05223349127109],[129.0818461729333,35.052040842954774],[129.08246450148934,35.052129114010505],[129.0821492320368,35.05198903029635],[129.08198697358938,35.0517137287164],[129.08199901363,35.051566462695575],[129.0822860285539,35.051661015849085],[129.08216490203765,35.05151699631627],[129.08243211184194,35.051545088612485],[129.08216249662482,35.05134830872333],[129.08204084334014,35.051101229198245],[129.08223507413695,35.05085045562063],[129.08281562160016,35.05042982685385],[129.0832125987822,35.05049164312867],[129.08315894723006,35.05030395115877],[129.08389157323526,35.05032555778814],[129.08397006893856,35.05042582862498],[129.0844061009951,35.050561333220145],[129.08433495986182,35.05024642201603],[129.08455537769015,35.05017016079875],[129.08505137565822,35.050197525773875],[129.0851178201339,35.05008227724106],[129.08549321413102,35.05006505546699],[129.08605600849182,35.04963814012427],[129.0858984908936,35.04940198957417],[129.08621010393009,35.049288906414475],[129.08638165169353,35.049264747194506],[129.08658810609677,35.0493554300565],[129.0870247731998,35.049397928585144],[129.087091557491,35.049480495870185],[129.08703813502058,35.04954470126533],[129.08717136811478,35.04959700357136],[129.08721955073938,35.0497506444032],[129.0874343228658,35.049488928652046],[129.08801182935719,35.04956148217665],[129.08829181676552,35.049723738090556],[129.08805098772447,35.04992548276605],[129.08835132270752,35.04987753851316],[129.0883956683166,35.04996664530312],[129.08873830104233,35.049993310421115],[129.08927805156725,35.05027999790228],[129.0892298845701,35.05036702293846],[129.08934991649025,35.05044473295612],[129.09021692286328,35.05057204558651],[129.09087810427368,35.05125626066947],[129.09094986511656,35.05122193701081],[129.090822994509,35.0511100875196],[129.09082408325986,35.05100477606312],[129.09056012147133,35.050829972859745],[129.09051650354897,35.05067789742873],[129.09101752059212,35.05077069172446],[129.09131148707624,35.05116847231474],[129.09125268108542,35.05099152337371],[129.09148335485528,35.051007730089424],[129.09182277050311,35.05125466392952],[129.09160581373632,35.05145544767806],[129.09130100448147,35.05140345407161],[129.09144670784798,35.051495678377485],[129.09139372855657,35.05153480585712],[129.09159046346116,35.051617973549554],[129.09162578109496,35.05150508474806],[129.0920729530465,35.05149785342],[129.09238842222564,35.051745906884975],[129.0923679901626,35.05180315192],[129.09204886092874,35.051847173883985],[129.09218332540829,35.05189483451836],[129.09212166986669,35.051952128384364],[129.09236945433318,35.051951697527635],[129.09275027600256,35.05216631564444],[129.09291875857426,35.05212600155388],[129.09304319850665,35.05218264675386],[129.09313814480427,35.052332140938084],[129.09307133721458,35.05254538076654],[129.09250259625637,35.05268144650463],[129.09263839419185,35.05296148442177],[129.09240779961226,35.052969978739206],[129.09240382202398,35.053148944186205],[129.09217591530108,35.05325271359012],[129.0921267218656,35.05364113662299],[129.09237315507409,35.054238768451526],[129.0926985122528,35.05458813009521],[129.09283134154992,35.05447931511884],[129.0933446897111,35.05467401754631],[129.09337213809886,35.05473545913618],[129.09312784144197,35.05490586955846],[129.09307993298566,35.05510901633085],[129.0931664659966,35.05535595488249],[129.09345030721354,35.05549339292598],[129.0936481240754,35.055355449421256],[129.09374880785344,35.05537947712401],[129.0936987023863,35.055747487356605],[129.09404043084112,35.05590766211047],[129.09404134856047,35.05605973465415],[129.0942857659592,35.056232048520116],[129.09433724577477,35.05641698656728],[129.09474414064613,35.05658317558637],[129.09487876389235,35.05652446645066],[129.094959217067,35.05672967199318],[129.09472388120778,35.05688951083051],[129.09474784215016,35.05709623200748],[129.09463074158418,35.05715706472924],[129.09478784190892,35.05730838187127],[129.09476448085942,35.05749204976904],[129.09506436206752,35.05751698570299],[129.09508154330243,35.057792866022766],[129.0947866741619,35.05784217540808],[129.09493821831896,35.05794784805491],[129.09558578673358,35.05803854379665],[129.0956332970503,35.05815947092079],[129.09517413787577,35.05815330783264],[129.095098076393,35.058226390628086],[129.09530797829098,35.05832849209851],[129.09557947924324,35.05827958625045],[129.09553919821943,35.058411001931276],[129.09560552735803,35.05850597370699],[129.0958126512127,35.058347003882695],[129.09608404153352,35.05841568164437],[129.09607087561926,35.05860173646812],[129.09579372424363,35.05885643306585],[129.09602187268644,35.05891015951844],[129.09582937544707,35.05906214806942],[129.0959104741194,35.05915558280197],[129.09580477342212,35.059342463954515],[129.09604749741297,35.05926715320003],[129.09633751211797,35.05950919125561],[129.09641220491133,35.05977535664971],[129.0962969480245,35.05970077116004],[129.09624288017665,35.05986211099552],[129.09607746529522,35.05984026187773],[129.09578123539748,35.05999172214278],[129.09541066850306,35.05998071212153],[129.09529511999824,35.060058939790785],[129.09453994229887,35.0599830610757],[129.0941548366283,35.060270333200044],[129.0937729641009,35.0602279400073],[129.09372783686854,35.06033734543626],[129.09392467564473,35.06033607665794],[129.093966683684,35.06040883488668],[129.0936269915446,35.06054728917861],[129.09373795953024,35.06058158177609],[129.09366433928588,35.06064036264329],[129.0934480092289,35.06068989092873],[129.09319771597703,35.0605760008946],[129.09316770526138,35.0608209304302],[129.09281865831719,35.06079607042157],[129.0927195291675,35.06061673636983],[129.09210670307218,35.06073903422444],[129.09195242823992,35.06089801817561],[129.09170889575827,35.06099098687765],[129.0913222921691,35.060868567473086],[129.09036926755905,35.061401924605875],[129.09026986483198,35.061547396527025],[129.09001587879516,35.061498862297455],[129.08964977563292,35.06166936979617],[129.08918379548362,35.062120561613725],[129.08934634614545,35.0622316292563],[129.0893325126412,35.062327202423766],[129.08901078848942,35.06224988888385],[129.08854982889005,35.06251090498952],[129.08857936279358,35.06265256681654],[129.08808384946505,35.062634977331875],[129.0875588929571,35.06288412941373],[129.08728061396573,35.0631816953444],[129.0873687466506,35.06330194346087],[129.0871750208434,35.06331814310014],[129.08681732157297,35.06371824415209],[129.0865027010457,35.06429188807607],[129.08658234731558,35.064449699096386],[129.0864072838315,35.06446228223472],[129.08626019389862,35.06458190152407],[129.08642607429567,35.064714015569145],[129.08619366576016,35.064682653673714],[129.0860548661796,35.06475255105066],[129.0860567235842,35.064948421786596],[129.08585742825855,35.06517389870462],[129.08559436563434,35.06573761276113],[129.08573765948987,35.06603293332192],[129.08551128545864,35.06614932833406],[129.08561156994497,35.066251066390215],[129.08527951671735,35.06652095889473],[129.0854080734096,35.06667288381731],[129.0851736444956,35.06676397689121],[129.0850151420516,35.06704558756274],[129.08502610239984,35.067179352299334],[129.08487293736053,35.067330753778336],[129.08462225623236,35.06742321228918],[129.08455394317724,35.067549333105525],[129.08452582348457,35.06785420148823],[129.0847474186993,35.06791385621864],[129.08471256858513,35.069160250001765],[129.0847773761524,35.06971137574092],[129.08404015615764,35.07152258247591],[129.0838978463703,35.07156804087971],[129.083727907057,35.071454105441134],[129.0844738720099,35.06967803489808],[129.08435412040106,35.06971361125741],[129.08436778171946,35.069771377796],[129.08422746046745,35.06974196294746],[129.08158324304276,35.07020398868424],[129.08131657703532,35.071057743607206],[129.08149361591225,35.07119222247383],[129.08182103704672,35.07125632659463],[129.08165229056976,35.07126516730272],[129.08117352971968,35.07111463912913],[129.08148039475677,35.070226224144356],[129.08112392469857,35.06975744677121],[129.08046577326238,35.0703738152333],[129.08031904084152,35.070356839674396],[129.08005171900797,35.070620714554494],[129.07995446613245,35.07140543841337],[129.0801289753673,35.07154166171168],[129.08032499407844,35.071621217354114],[129.08039374659114,35.071576132189165],[129.08582847204232,35.074122429452416],[129.08596805740677,35.07410546746673],[129.08679723010957,35.0727348452081],[129.0869197279724,35.072681492994],[129.0902273958381,35.07381600435262],[129.09037506269766,35.07411038041764],[129.09050731565742,35.074129197981385],[129.0905761465585,35.07404488856435],[129.09067966510185,35.074183466499356],[129.09091457138624,35.07404604860548],[129.0911014863333,35.07424260207179],[129.09112061816322,35.07463396435954],[129.09103950248956,35.07470452337256],[129.0911535034999,35.074997608140556],[129.09153666792673,35.07557346029183],[129.09201792278205,35.07594670640382],[129.09216753294277,35.075996068980466],[129.09228898231515,35.0759346971458],[129.09227560099936,35.07603256721723],[129.0924321601772,35.07604094461982],[129.09275305739936,35.07624297648951],[129.09357968243424,35.07636757787125],[129.09369239758212,35.076441472178395],[129.09404574433523,35.07644774672172],[129.09418385555196,35.07657543954161],[129.0942149522052,35.076480706602595],[129.09462426914368,35.07645647767198],[129.09504016571185,35.07687445343411],[129.0950919199605,35.07724937917732],[129.09539266654744,35.07777349067987],[129.09566204422384,35.07861310981155],[129.09561834311435,35.078726644391686],[129.09536987506743,35.078859753489425],[129.095353049119,35.079024725685635],[129.09558362757198,35.07897054931348],[129.09567624199178,35.07905767859978],[129.09557710999644,35.079297349773746],[129.09600657963085,35.07934215053467],[129.09606989693773,35.07966093058128],[129.09589037189355,35.079972518895474],[129.09606328004148,35.080064618223005],[129.09596535650905,35.0802658767998],[129.0960036812557,35.08038227989259],[129.09586483620075,35.08054105842307],[129.09571229531196,35.080491445236326],[129.0953413635534,35.08054870399301],[129.0949753858368,35.08041149524802],[129.0949230231944,35.08049762359476],[129.09477806583894,35.08034634189633],[129.0946968034992,35.08057171215097],[129.0944232438596,35.08059539337811],[129.09408437603705,35.080569861609696],[129.09396566861952,35.08047810898995],[129.09321172304294,35.08045986131566],[129.09259275775145,35.080217955335094],[129.09171884601326,35.079715997935935],[129.09091259841517,35.07909397816767],[129.08821513404627,35.07745245907633],[129.08790365542146,35.07730980192526],[129.08767190638991,35.07741584798681],[129.08762638575635,35.077357056526616],[129.0879351307423,35.07711095706693],[129.08807788279836,35.07712399560892],[129.08797444992132,35.077044880341624],[129.08813444776408,35.076814901794094],[129.08799761814674,35.076752315979036],[129.08792413208474,35.07685648617957],[129.08795988858415,35.0767372509628],[129.0876374398706,35.07659135117878],[129.08725455069106,35.07707393208119],[129.08753457164687,35.077468802916805],[129.08738743419084,35.077538418930395],[129.08556223885859,35.07494916302281],[129.0857809975062,35.07456251995375],[129.08419737601753,35.073879356077015],[129.0841830726451,35.07402294573838],[129.08340445644563,35.07515839565694],[129.08349846253984,35.075329617210805],[129.08339647081647,35.075505858856076],[129.08349636846884,35.075622000437875],[129.0833800528853,35.07552868666073],[129.0833168485437,35.07562135051872],[129.08336356531785,35.075768934420694],[129.08316316586533,35.07584432234876],[129.08249509079457,35.07681344209449],[129.08248800300925,35.07699951252272],[129.0823300046844,35.07705019053278],[129.08206065405093,35.07744183796888],[129.08188011116349,35.07788572704807],[129.08146484710858,35.07830456528672],[129.08073397486223,35.07936016151962],[129.08076136384472,35.07949716545769],[129.08056980745653,35.07959683792439],[129.08021513955308,35.08011826928943],[129.08031407995344,35.080241059956506],[129.08019869496238,35.080140773339124],[129.08017154390754,35.08038895587714],[129.07997579911878,35.08046421759935],[129.07984601380247,35.080651601807986],[129.07981549211092,35.08089858666078],[129.07957471543725,35.08103501762305],[129.0793314637789,35.08138527937714],[129.08381442809375,35.08348662822457],[129.08369999874,35.083651042853205],[129.08314628148653,35.083389147370966],[129.08311689436198,35.083578632914495],[129.08363451588497,35.084730593462034],[129.08340948284086,35.08480275771053],[129.08320846032674,35.08576045427434],[129.08304795909868,35.08573796945747],[129.08323388384005,35.0848523352234],[129.082685535255,35.083638981929305],[129.0792608266385,35.0820344938814],[129.07836448763044,35.08332559623705],[129.07786224869062,35.083172539720124],[129.07765073620425,35.08331394979027],[129.07755030754046,35.083451691655384],[129.0775926925356,35.08355892457856],[129.0793657156011,35.084777676465315],[129.07962281034875,35.08474584860181],[129.0796417707814,35.08485199385095],[129.07938662446958,35.084890117593694],[129.0779900275936,35.086304971809156],[129.07793465504105,35.08650273582957],[129.07815104212406,35.08665721305608],[129.07811703066608,35.08711903613986],[129.07828573133372,35.08722809379383],[129.07844139973466,35.087181390325966],[129.07952516919516,35.08788226922109],[129.07955748520828,35.08811792945411],[129.07931417566155,35.088369513804224],[129.077603311471,35.08963251509283],[129.07748034421812,35.0895259188667],[129.0787270132412,35.08863759448871],[129.07932317970634,35.08801473857251],[129.0776537592852,35.08693218339952],[129.0764116032288,35.087754286642095],[129.0752807528618,35.08900752931587],[129.0753614755499,35.089069032571864],[129.07529435751655,35.08913109549865],[129.07521133302527,35.08908485398029],[129.07511889560973,35.08918723509898],[129.07519897101776,35.08923190471487],[129.0751335875841,35.08932371632167],[129.0750365582852,35.08928150924689],[129.07494140653765,35.089385652991034],[129.07502100951535,35.08943250265156],[129.07497217854086,35.089505786433335],[129.07487366440898,35.08946634574036],[129.07089403194493,35.09394531440173],[129.06841906962822,35.095938312622614],[129.0621713318152,35.09888468281846],[129.06148013440242,35.097955777302914],[129.06118966835925,35.098064552291966],[129.06181652061784,35.099048289884585],[129.05912394038188,35.10040073015291],[129.0603922659182,35.10128697571748],[129.06107016881336,35.100857576132945],[129.06154352286663,35.10085288553916],[129.06188080904138,35.10101413590645],[129.062069919721,35.10122976170105],[129.06214344614983,35.10153769467886],[129.0620644688889,35.1018158624918],[129.06176305960375,35.10214925226103],[129.06179257167952,35.10238739502837],[129.06237117757811,35.10281685438144],[129.06250865044436,35.10283168734244]]]]}}
