{"type":"Feature","bbox":[129.04413167308428,35.18333788055103,129.11637321447333,35.22624013608894],"properties":{"regionCode":"26260","version":"vworld-20260909-3f8952dfda77-p2","name":"부산광역시 동래구","attribution":"국토교통부/K-Geo플랫폼 · VWorld 법정구역정보, CC BY 2.0 KR; 공공주택 복덕방 가공"},"geometry":{"type":"Polygon","coordinates":[[[129.07769906958018,35.22623952692927],[129.07672763510416,35.22624013608894],[129.07565291750902,35.22549666829126],[129.07432003399313,35.2252716884527],[129.07356894545396,35.22517865097251],[129.07284192539822,35.225223826233986],[129.07185360957664,35.22509425008307],[129.07138975046755,35.22491748042155],[129.07094965721183,35.22501949139491],[129.06833295446225,35.22479946120775],[129.06689815267274,35.2250177222448],[129.06542963318537,35.225421244292974],[129.06284733433444,35.22508365911568],[129.0620022025199,35.22485416575026],[129.06195671573914,35.22531793411364],[129.06177822849847,35.22583664731955],[129.06076024944232,35.2253269719105],[129.05889149775774,35.22475227319978],[129.05803935863477,35.222672541565466],[129.05788274553944,35.222550251470416],[129.0569142107527,35.220378218062905],[129.05604038125506,35.219750857210755],[129.0564455590205,35.21877125958346],[129.05579843183745,35.21823538850997],[129.0558308271022,35.217712058869814],[129.05500758972858,35.21705321831502],[129.05444230106258,35.21639161671275],[129.05345382688188,35.21582088164144],[129.05290157354216,35.21460905685577],[129.05122308408806,35.21298968937745],[129.0511063132684,35.212527070516764],[129.05130813249113,35.21097801592758],[129.05122111255858,35.209295236773286],[129.0510558350378,35.209123598022465],[129.05042737272933,35.20720070521418],[129.0500090137974,35.206608344011215],[129.048065936811,35.20503968008805],[129.04773932977176,35.20422739936238],[129.0474592886364,35.204370561866604],[129.0468227273635,35.20380071581009],[129.0468469766685,35.20354134666348],[129.0465789805707,35.20184959504646],[129.0442196075285,35.20172736297674],[129.04413167308428,35.19945225764092],[129.04462352406904,35.19841525021068],[129.04829036122018,35.19452549110259],[129.04960636149468,35.19403722798703],[129.05023588931678,35.19346712387791],[129.05266227197177,35.19230201900059],[129.0532881684319,35.1923064222975],[129.05428784000742,35.192619705043356],[129.0557478945032,35.19247921502227],[129.05638674267863,35.19276719730684],[129.05724688219013,35.19338488626435],[129.05893028571197,35.19287494380319],[129.0596790854425,35.19252604522171],[129.0594809091942,35.19225211434239],[129.0595280532215,35.19198194601026],[129.05981321493755,35.19139382687765],[129.05998234244282,35.191272373130495],[129.06075141187648,35.19137219409811],[129.06154577888591,35.19157903225658],[129.0616490126003,35.1916588071259],[129.06159740144983,35.19192726307185],[129.06221243981977,35.19164357758852],[129.06249073311764,35.191697238281144],[129.06293057796566,35.19210374127455],[129.06275912223242,35.19247994251275],[129.063118563998,35.19311724847276],[129.06366259314882,35.19282623171171],[129.0642075889437,35.19281401677073],[129.0643270802017,35.19287411186467],[129.06439821945386,35.19320239990903],[129.0644938529769,35.193297911452945],[129.064364243484,35.19372317300162],[129.07188591155742,35.19524762265281],[129.07147491853442,35.19635363687662],[129.0728349787322,35.196661047584925],[129.07422268419407,35.19810128224077],[129.07811886553108,35.19953097582125],[129.07827887560447,35.199392418538736],[129.08036474087754,35.19915282914163],[129.08056359985508,35.199349224884095],[129.08109199844782,35.198782108061835],[129.0818930216812,35.19822533874555],[129.08214515278095,35.1979589594667],[129.08252334493653,35.197354614116506],[129.08261639813307,35.196840274659834],[129.08286154973374,35.19624401454941],[129.08322167798073,35.195741385322165],[129.0836406396806,35.19544570296951],[129.08435757465642,35.19530567608788],[129.08502665292238,35.194951087054214],[129.08689795893608,35.19438195466185],[129.08717893980565,35.194086016667164],[129.0873557765322,35.19369895935224],[129.08751179606713,35.193653947158],[129.0875072727923,35.19352878800785],[129.0876527231332,35.19347972990159],[129.0881168204525,35.193373491908176],[129.08936360802127,35.19356760581686],[129.08998034345106,35.19340754565692],[129.0902664982124,35.19313747166489],[129.0910748422933,35.19303294118461],[129.0915249843312,35.19319377714708],[129.09213217473058,35.19324342234442],[129.09261845879448,35.19343620576326],[129.09344634799552,35.19337440672962],[129.09429637686273,35.192977570910244],[129.09473157135383,35.19295754016179],[129.0953151462565,35.1931514564701],[129.09555549707213,35.193148658919796],[129.09642925857315,35.19292920026637],[129.09662872793746,35.19280150225889],[129.0974579799097,35.191805486366995],[129.09930755831988,35.19133453705593],[129.10013089463618,35.191407222277896],[129.10060338285155,35.19133565630965],[129.10217727853095,35.19089593253654],[129.10402686427346,35.1906623883698],[129.10497711972053,35.19033243385086],[129.1066162634178,35.190160774513146],[129.10722694703495,35.190291227734676],[129.1081864554215,35.19036617080362],[129.10886163089546,35.19003834817218],[129.11027116847194,35.188930141345594],[129.11138202339149,35.188947182617945],[129.11174664361866,35.18888172879348],[129.11202503255487,35.18873815192468],[129.11258524484836,35.18809614942053],[129.11241918872403,35.18792053386146],[129.1123240360398,35.1874277231476],[129.11273560797,35.18677354953145],[129.1132334495177,35.18559638897198],[129.113841972445,35.1845048381375],[129.11392921794916,35.18437180973649],[129.11435930262965,35.184277911240166],[129.11480948176538,35.183952714837005],[129.11538175852283,35.18333788055103],[129.115614233043,35.18437368002573],[129.11553641715182,35.18602027906019],[129.11537771852474,35.18674912431105],[129.11472976838937,35.18798363950719],[129.1145466006546,35.18909260762038],[129.11453538251237,35.18917417301879],[129.11467483628778,35.18917624793582],[129.1145002576634,35.189918772568426],[129.11478512179403,35.19083284384787],[129.11477953480266,35.19116747571843],[129.11450219155205,35.192187172027154],[129.1143181738603,35.19365990507133],[129.11432094037283,35.1943668838553],[129.1147284444222,35.197682648794085],[129.1153192193865,35.19932846311706],[129.11637321447333,35.20092637681591],[129.11559263204683,35.20143119572862],[129.11559658235765,35.20152160252947],[129.11376046117502,35.20154584535895],[129.11378732197858,35.202111975377036],[129.1108449707156,35.2039778063076],[129.11130149087745,35.2042678725412],[129.11188484720455,35.20437341596023],[129.11165055569612,35.20465086489674],[129.11110891543382,35.20473938939392],[129.11089215226573,35.20579983372542],[129.1107962891349,35.207022563117896],[129.11088460413737,35.207097529227134],[129.1106772935665,35.207709631114795],[129.11073095730308,35.2080905396319],[129.11031114502126,35.20861100391571],[129.1102398934656,35.21017551617758],[129.10941470937252,35.210158604163425],[129.109050385758,35.20979057767516],[129.10817337522553,35.210097298392625],[129.10743380246882,35.210730831032265],[129.1063656375785,35.20956145727625],[129.1051256214371,35.210286632733684],[129.10504970552898,35.21022128572037],[129.10501062519498,35.21045105472744],[129.10425889738102,35.211185248996706],[129.10397339624052,35.21127013801682],[129.10386265007668,35.21101874549801],[129.10372026486286,35.21105021239215],[129.10366816358106,35.21094307930766],[129.10232063893608,35.2113299663733],[129.10252500523399,35.2121928898104],[129.10177213155794,35.212585646186966],[129.1013043115563,35.21274904137173],[129.09991323359225,35.21281955904517],[129.099923710577,35.212401209114894],[129.09940509317087,35.212442929342544],[129.0989699649673,35.21286315337715],[129.09894586952927,35.21318645141633],[129.09841591863406,35.21370616009469],[129.0973288522064,35.21418919132296],[129.09494044964424,35.21559533782525],[129.09438899041797,35.215454018621315],[129.09387664349322,35.215469176444174],[129.09335212202888,35.215885681968],[129.09305461878003,35.21599221105095],[129.09211874320502,35.21656827112268],[129.0913778245121,35.21675936776799],[129.09086385068431,35.21680438161676],[129.08913412454157,35.217252066914945],[129.0882515573075,35.217665648801535],[129.08779432054925,35.21746733019622],[129.08791451196126,35.21736958663318],[129.08791109094443,35.217253697238725],[129.08741850082504,35.217141234619696],[129.08699970887497,35.216831843415946],[129.0868096982297,35.216986051406096],[129.0862404320565,35.217131267858754],[129.08606387631204,35.217104386094576],[129.0857825399365,35.217221099931805],[129.08572148571105,35.217543318487316],[129.08508394114182,35.217850605841654],[129.08469776489574,35.2173701931629],[129.08438798898436,35.21728334608902],[129.08425559840208,35.217155031092226],[129.08391857059027,35.217217092665344],[129.08453490184917,35.218067262361835],[129.08598747834353,35.21898113034577],[129.08688673216685,35.22066974928522],[129.0872675661548,35.221862626395634],[129.08692859807363,35.2219354879241],[129.08666873667138,35.22183975016165],[129.0853484717247,35.22212637183696],[129.08519980308898,35.22183741241371],[129.08505879164355,35.22211707297834],[129.08500916689866,35.221915019159475],[129.0847101671743,35.22233029242211],[129.0841795306713,35.22259360398285],[129.08403580266452,35.22284159887658],[129.08359254214002,35.22317356936632],[129.08338418565674,35.22324354986038],[129.08200042450946,35.22431616225675],[129.0815036645246,35.22333151512637],[129.08022220391575,35.224263976434514],[129.07972827884905,35.22428351381897],[129.0796149303755,35.224510671522374],[129.0790597643278,35.22509135043785],[129.0782986579893,35.22553954196451],[129.07804804786196,35.2261253196876],[129.07769906958018,35.22623952692927]]]}}
