{"type":"Feature","bbox":[129.09157568961217,35.135482638602575,129.13527018923514,35.18674912431105],"properties":{"regionCode":"26500","version":"vworld-20260909-3f8952dfda77-p2","name":"부산광역시 수영구","attribution":"국토교통부/K-Geo플랫폼 · VWorld 법정구역정보, CC BY 2.0 KR; 공공주택 복덕방 가공"},"geometry":{"type":"MultiPolygon","coordinates":[[[[129.123865202789,35.15246582209261],[129.1239083100915,35.15256488074036],[129.12379325569933,35.152619396516435],[129.12371709837169,35.152529738227635],[129.123865202789,35.15246582209261]]],[[[129.12402738010383,35.1526517104882],[129.12394220812845,35.15267718379274],[129.12385205456968,35.152650961255006],[129.12388828380492,35.152622059901915],[129.12402738010383,35.1526517104882]]],[[[129.12404338143955,35.15274274762379],[129.12399182465046,35.15269114704145],[129.1240918005048,35.15270436115436],[129.12404338143955,35.15274274762379]]],[[[129.12381159916424,35.152808580939535],[129.12374434749412,35.15283524471654],[129.12375894345305,35.15277177669322],[129.12381159916424,35.152808580939535]]],[[[129.12386147586568,35.1528306614489],[129.12384761506743,35.152838263808995],[129.12383690136696,35.152829285059674],[129.12386147586568,35.1528306614489]]],[[[129.12391466998596,35.15285837302501],[129.1238815854196,35.15284096941689],[129.12388823829906,35.152837400059894],[129.12391466998596,35.15285837302501]]],[[[129.12399460263737,35.15286162638054],[129.1239816599855,35.15286135090295],[129.1239835188551,35.15284988019133],[129.12399460263737,35.15286162638054]]],[[[129.12416250382307,35.152779063583644],[129.12418014597233,35.15283782221549],[129.12415594532203,35.152881928314365],[129.12410692006478,35.152861765030856],[129.12416250382307,35.152779063583644]]],[[[129.12381507521988,35.15290389369185],[129.12381180122534,35.15290221372466],[129.12381648923954,35.15288644323465],[129.12381507521988,35.15290389369185]]],[[[129.1241313336424,35.15307777710252],[129.1241105842875,35.15309653356258],[129.124106746811,35.15305722754619],[129.1241313336424,35.15307777710252]]],[[[129.12389271568898,35.15310008020518],[129.1240723428889,35.15290645923429],[129.1241267642998,35.15304241006472],[129.12389271568898,35.15310008020518]]],[[[129.12400057598913,35.153144212683145],[129.1239847302909,35.15315153422539],[129.1239766547704,35.153137544199446],[129.12400057598913,35.153144212683145]]],[[[129.12410457715745,35.153157609028796],[129.12402749011505,35.153160123891524],[129.12407524493446,35.15308366733119],[129.12408694000143,35.153090045313554],[129.12410457715745,35.153157609028796]]],[[[129.12404463885395,35.15324299248235],[129.1241468182834,35.15316578365915],[129.12415053841158,35.15320376860213],[129.12404463885395,35.15324299248235]]],[[[129.1166247749992,35.18384538700853],[129.11537771852474,35.18674912431105],[129.11553641715182,35.18602027906019],[129.115614233043,35.18437368002573],[129.11538050427066,35.18333038338739],[129.11518382028473,35.183544786472986],[129.11463220730136,35.18220341390938],[129.11465342156004,35.182095274942455],[129.1144446474745,35.18185097092232],[129.11448208402948,35.18163091518681],[129.11437136795132,35.18135130258129],[129.11403345564702,35.18069154913064],[129.11335984736124,35.180412487513145],[129.1132291997763,35.18018391177671],[129.11348784718567,35.179657983520876],[129.1125217259524,35.178547339080765],[129.1122749951885,35.17743408169759],[129.11195921689438,35.17687629504505],[129.1116824008999,35.176927008605155],[129.1115477450032,35.176413462304716],[129.11193979729416,35.17628169165836],[129.11162198000804,35.17581216496736],[129.1095617725376,35.17622131700269],[129.10899452397695,35.17715884557839],[129.10855403635637,35.177285873949046],[129.1079318135695,35.177235703153904],[129.10735103461846,35.17785343059621],[129.10725578690426,35.179494956307586],[129.1069808885134,35.17949257480448],[129.10697674789546,35.179679516424244],[129.1066167482879,35.17971078402813],[129.1066417140939,35.18004725343746],[129.10623355025413,35.180049145681274],[129.10621237135948,35.180415667115696],[129.1060652852184,35.18039930839979],[129.1060323269357,35.180261573949],[129.105838008779,35.18032836998268],[129.10531458745174,35.180317714521586],[129.10436080435184,35.18068189148844],[129.1041420277502,35.180702794795174],[129.10392214344046,35.18057389212065],[129.10359001893818,35.180875513268475],[129.10292919109466,35.180422940411724],[129.10249376501199,35.18031728042737],[129.1016828624707,35.179751543441924],[129.1001537422427,35.180164536884504],[129.09938766386065,35.17980951215718],[129.0988122808147,35.17977567293774],[129.0976329843001,35.17939143816215],[129.09747009517955,35.17942278086889],[129.0967952148334,35.17793686721896],[129.09666561211597,35.1771397053003],[129.0966950348314,35.17512788561878],[129.09695301487028,35.17511055779935],[129.09678630697914,35.175121510596234],[129.09647932895626,35.17349014301393],[129.09675064722325,35.173451921096344],[129.0967912246864,35.17320264557079],[129.09701417696417,35.17317461954811],[129.09714111906362,35.17162943573199],[129.09656493463547,35.171561837862214],[129.09650716459672,35.17064152677513],[129.0957675200584,35.16964448872879],[129.09535941166786,35.16884893957552],[129.09489126026764,35.1681890662119],[129.09478246162683,35.1678544795893],[129.09448111546266,35.16764058002014],[129.0931341531701,35.1662964600708],[129.09157568961217,35.165491889328315],[129.0918835567614,35.16415729766559],[129.09372173382255,35.16200864254803],[129.0949627982274,35.16216437302796],[129.09578237272433,35.1606825069002],[129.09586357043673,35.160016406817235],[129.09652752635947,35.15952042975958],[129.09699445546855,35.15835975550504],[129.09754250833018,35.157710986581534],[129.09799537267074,35.156504074111986],[129.09846332087932,35.15579933696538],[129.09890407417183,35.15544391114827],[129.09895249564644,35.154765922024],[129.10123567299328,35.15182289984587],[129.1013327236031,35.15121389758951],[129.10160406161248,35.15068008189777],[129.1016157536787,35.15016564992539],[129.10192705033393,35.14959229285998],[129.10169685209715,35.1493021483849],[129.1020260568795,35.14894747227964],[129.10238052403116,35.148708693885354],[129.10239128563887,35.14832305981794],[129.10253192737215,35.147656622097834],[129.1026492380232,35.14746761806089],[129.1028323947392,35.14638119659414],[129.1034174828106,35.14477700100414],[129.10335009279967,35.143903856849015],[129.10292812560152,35.14355661565951],[129.10220813111212,35.14264628496862],[129.10215464196187,35.14269089681687],[129.1030724406136,35.141652637844295],[129.10361758828154,35.14159845686503],[129.10516092355113,35.140413329871144],[129.1052592192556,35.14016252513795],[129.1055703831539,35.13989657367238],[129.10621229690287,35.13908792590531],[129.10695796779294,35.13879715246101],[129.10749062737827,35.13816569026319],[129.1075723998023,35.13823004901683],[129.11122888429145,35.13575659208538],[129.1118241523147,35.135482638602575],[129.11408522478138,35.135806945705575],[129.11418300285277,35.135678332329206],[129.11430899539673,35.135671700278074],[129.1143441002965,35.135816900783304],[129.11458566493164,35.13593020312429],[129.11443695780258,35.13660412708497],[129.11199391953414,35.13629529517315],[129.1119552299596,35.136446044833576],[129.11372541812318,35.13811140345106],[129.11380963424003,35.13804960840762],[129.1143070579332,35.13851956649542],[129.11422165020684,35.13858282933736],[129.11429306606,35.13865096843543],[129.1146099723796,35.13839647707444],[129.11449543616058,35.138154102127544],[129.11408268057494,35.137500059257604],[129.11375562020098,35.13761531937975],[129.11368588603355,35.13753255248683],[129.11407769319194,35.137347730634886],[129.1146940011542,35.138123494539414],[129.1148763024871,35.138232979696284],[129.1155676510157,35.139366627369164],[129.11715185362465,35.139720296403446],[129.1172999138491,35.13968243897577],[129.11780219081095,35.13985630374765],[129.117796217631,35.14239876264384],[129.11797621066495,35.146124806489915],[129.11786466165182,35.14624037664693],[129.11755725688118,35.146233226982545],[129.11742835757732,35.14616017743462],[129.11517552136135,35.14640862973064],[129.1151068408845,35.147359849430494],[129.11531922108665,35.148512469849884],[129.1159180685911,35.149685297848826],[129.117415050578,35.15156739989548],[129.11845811460262,35.152632146940476],[129.11970866675156,35.15357352225994],[129.12091307550693,35.15420842615745],[129.12201899247248,35.154527860996765],[129.12354681840515,35.15468857151941],[129.1243105789426,35.153054109468165],[129.12426270461268,35.152733121576674],[129.1250432689826,35.152815806531706],[129.1269209460191,35.153261269583496],[129.12702578470874,35.15297627558287],[129.12714864327873,35.15287488785252],[129.1301715303796,35.15223295631151],[129.13106594560546,35.15247373676024],[129.13115577851508,35.15256518156236],[129.13113284125043,35.15274309877504],[129.1308548304933,35.15281982546283],[129.13073486784032,35.152663172319855],[129.13015441233358,35.15251084622916],[129.1293490532572,35.15267604424771],[129.12935669937252,35.15278461365115],[129.1292744669572,35.152730331894965],[129.12733001381068,35.15313007935602],[129.1272201135552,35.15346239162827],[129.13070906626245,35.154316871297304],[129.1308270359084,35.15399455344068],[129.13103174536093,35.15402539249546],[129.13109620299687,35.15379373643729],[129.12984241831026,35.15328095961923],[129.12978587575955,35.15310822060219],[129.12996033602244,35.15304260448389],[129.13142145181172,35.15366229967592],[129.13144152665186,35.15380677439567],[129.1313207675906,35.15385338865987],[129.13126265580206,35.15404210555983],[129.13400276447413,35.154643547190275],[129.13454617825633,35.15486505506832],[129.13505737435491,35.155321434732166],[129.13527018923514,35.15581968164813],[129.13513815480874,35.15665920738783],[129.1310550963687,35.16112035641803],[129.1339788643571,35.16237982025032],[129.13457305002632,35.162018539628484],[129.13455823044686,35.1618654584846],[129.1346731573254,35.16194890984944],[129.13485105706428,35.16191914437599],[129.13099555027384,35.16432981178895],[129.13012151168698,35.163835484286366],[129.1300371069689,35.163896414114596],[129.13089716484208,35.16438524501888],[129.12781906206212,35.166129652347145],[129.12751416158005,35.16596110338661],[129.12719201816128,35.16615779644698],[129.12699657064843,35.1659278591112],[129.1266642363467,35.16572255057986],[129.12497094444848,35.16750531616432],[129.1245599787464,35.16805281140955],[129.12379157449897,35.16937358631285],[129.12419290548067,35.1697908476197],[129.12359820641825,35.17065920040225],[129.12313358158735,35.17116067693244],[129.12263787479483,35.17225510961414],[129.12150638239262,35.173004773519935],[129.12115074479226,35.173362646674576],[129.11875764439404,35.17758251158238],[129.1182065999135,35.17906751694293],[129.1177843892424,35.179906777205396],[129.11795286047587,35.180976022896004],[129.11783018441943,35.18134556606379],[129.1166247749992,35.18384538700853]]]]}}
