{"type":"Feature","bbox":[128.60374859842187,35.85143325250096,128.76236175346708,36.01638693545565],"properties":{"regionCode":"27140","version":"vworld-20260909-3f8952dfda77-p2","name":"대구광역시 동구","attribution":"국토교통부/K-Geo플랫폼 · VWorld 법정구역정보, CC BY 2.0 KR; 두꺼비집 가공"},"geometry":{"type":"Polygon","coordinates":[[[128.69499957406228,36.01638693545565],[128.6936681302657,36.0160657179255],[128.69117183351352,36.01568773544743],[128.6899535955861,36.01572972296272],[128.68902354843263,36.01524002780278],[128.68714701371144,36.01445946319321],[128.6870770692522,36.01449927304468],[128.68648966645378,36.0142626280857],[128.68590932458608,36.01462029232407],[128.68461883311357,36.014488605302475],[128.679792586008,36.014914889539945],[128.67741853221924,36.013567284104965],[128.67722920725765,36.01357503877806],[128.67685180161925,36.013362560718],[128.67304302737043,36.01349171597483],[128.67223178986006,36.013275894922124],[128.66901700648447,36.01336482937631],[128.66786872552476,36.01290311930779],[128.6673370091893,36.01280708810338],[128.66679396744107,36.0125162620152],[128.66547654944782,36.01087481407817],[128.66483425231107,36.010607478141715],[128.66357777972618,36.01020780369132],[128.6623048631802,36.010358117966156],[128.66003039760838,36.009989421423754],[128.65597319291516,36.00994325351209],[128.65515223309788,36.00962267110605],[128.65433201145845,36.00945089244806],[128.65402365786142,36.0094849827853],[128.65318029018488,36.008402001893536],[128.65117300572555,36.007584847350024],[128.65108644997338,36.00762345971623],[128.65041531248525,36.00737756003352],[128.64834896008134,36.008434390809626],[128.64787060123422,36.00885359681108],[128.64635771375913,36.0095749982788],[128.64567259207035,36.009709512810986],[128.64524452330622,36.0099826685838],[128.6438751727613,36.01052614278812],[128.64221946545047,36.01030612543226],[128.64065949037322,36.01043070321304],[128.6400347714254,36.009563519768115],[128.63961269307026,36.00950025578115],[128.63883879038855,36.009232326223405],[128.63498453635626,36.009017801299315],[128.63407149670007,36.008545931291614],[128.63263282107982,36.00811264497667],[128.63083540215476,36.006978133124086],[128.62637721635195,36.00763940315223],[128.62603003643352,36.00757639021278],[128.62569550529432,36.00736378146078],[128.6253398196616,36.00754681325675],[128.62476530123467,36.00747787880035],[128.6243088928504,36.007261520923336],[128.62390438527908,36.006186897178274],[128.62229286793368,36.006035831251076],[128.62220426980497,36.00581082368881],[128.62174445535712,36.00587119459886],[128.6207914934083,36.00583266469399],[128.6202034139459,36.00595935910221],[128.61998681799437,36.005931455297905],[128.61810422227344,36.00631376110733],[128.6176701111954,36.00654847626146],[128.61670996445443,36.003038878456984],[128.61584707653532,36.0008223924986],[128.61508248413156,36.00029179701022],[128.61459901089552,35.999810825221886],[128.6136842964198,35.99936070232291],[128.61266272099118,35.99917967490008],[128.61197251075197,35.99785681547256],[128.61171523683242,35.997515525298326],[128.61148652463152,35.99755264902746],[128.6111886319087,35.99738897630774],[128.6109425295893,35.99696275032077],[128.6107634903567,35.99706753851482],[128.61010789145544,35.9967424948243],[128.61007397956064,35.996625332319375],[128.61038094782796,35.99600321995917],[128.6097235561168,35.99499053647745],[128.60914188345228,35.99451549340401],[128.60895181011446,35.99396041118999],[128.6090013763168,35.99380262473738],[128.6087509214098,35.99347393049323],[128.6078564869737,35.992972028619924],[128.60669568130055,35.99196640638787],[128.60615648815096,35.990684311281164],[128.60374859842187,35.98773966166708],[128.6049934442035,35.98756606786173],[128.60628011273351,35.987064980954294],[128.60860453567807,35.98579047791824],[128.6089347344884,35.985448618648505],[128.60944364863659,35.98529929747655],[128.6098873110627,35.984969203478585],[128.61048013783062,35.984359096931954],[128.61203665703482,35.98328233007965],[128.61294908019315,35.98249969873738],[128.6135181664308,35.98170499362971],[128.6135318565257,35.98140674940101],[128.613854318583,35.98073675038538],[128.6143767792787,35.980293302723325],[128.61450929287125,35.97975291321871],[128.61480455949612,35.97964050335972],[128.61488110556866,35.97951851452882],[128.61476852748564,35.97926235730111],[128.61499523028544,35.97811918763906],[128.61612268694992,35.977574479651814],[128.61724559505208,35.977350127596495],[128.61894238860876,35.976440334278784],[128.61927258400826,35.97591864277934],[128.61914559044283,35.975410051918054],[128.61925719685902,35.975145204499746],[128.6197903854198,35.974695903125635],[128.61991180917536,35.9739970816761],[128.61843373020332,35.97195495953301],[128.61832777673632,35.970522797972556],[128.61894609353735,35.96992671684875],[128.62041382929843,35.9690395807336],[128.62089567292955,35.96831641274409],[128.62156655595672,35.96693387708269],[128.62201163752897,35.96671041866841],[128.62227284292342,35.966308223448735],[128.6229901947585,35.9659055495347],[128.62330056367747,35.965418854405186],[128.62281642622068,35.96426731855376],[128.6221916388014,35.96336389133102],[128.62253020325426,35.96268646205238],[128.62257212326872,35.9621101975251],[128.62439387235528,35.96116248962976],[128.62520490961998,35.96062783906349],[128.62567514293008,35.959575633174865],[128.62635311905268,35.95839246437109],[128.62674991199697,35.95806034393024],[128.62661981786954,35.95648357725017],[128.62544772354866,35.95575571932718],[128.62486018789605,35.95503366183855],[128.62434650876492,35.95456687113352],[128.6246778578772,35.95310075567773],[128.6236917287279,35.95250411399374],[128.62350510242248,35.95221144663044],[128.62379574836734,35.95108193896183],[128.6237670210153,35.95019232830076],[128.6233166258404,35.9495065778453],[128.6232211436442,35.948357002777364],[128.6235689260942,35.947104000863106],[128.62347731276586,35.94699663577118],[128.62338490760274,35.94609931359778],[128.6242722755484,35.94625143033058],[128.62488110174186,35.9461628786707],[128.62562633486309,35.94588319037602],[128.62637218287492,35.945364739268],[128.6262989886327,35.94463567711193],[128.62648623933282,35.94425972587853],[128.6263484747184,35.94398578249056],[128.62649044775364,35.943563069999456],[128.62636789066025,35.94331761432655],[128.62609231935508,35.94169237693827],[128.62622740001322,35.941311406081226],[128.62628486120144,35.940359642886335],[128.62608803951116,35.939745052058534],[128.6260757468262,35.938866682805035],[128.62508124540852,35.93818400782351],[128.6252249599543,35.937864247881365],[128.6252453389536,35.936959601875444],[128.62551481225483,35.93669843074209],[128.62562438562125,35.93610305139118],[128.62526743393332,35.935446501923394],[128.62598117179513,35.934716630708046],[128.6266574583395,35.93379784449037],[128.6271023801433,35.932742494872656],[128.62778362601077,35.932131363668425],[128.62835149200103,35.931791391564346],[128.62865238063208,35.93096506737854],[128.62866729667223,35.930188285147054],[128.62830331163678,35.92977897737531],[128.62902231399727,35.92959922395158],[128.6288385293251,35.92922519172761],[128.6296726623543,35.92881686178666],[128.63011210010842,35.928486829606044],[128.63100525182807,35.92732129268104],[128.63144544927212,35.92639888493312],[128.6315685093279,35.923819815468185],[128.63187836656343,35.92151425979107],[128.63209299302275,35.92076205547113],[128.63207743768234,35.91717731877842],[128.63214560103822,35.91659934041843],[128.63201111159864,35.915939379947176],[128.63190569189325,35.91425146256416],[128.63207110035927,35.913290660673105],[128.63191596471418,35.91189198754647],[128.63090144665762,35.91070990997826],[128.63053974451202,35.91000400896306],[128.63008006410337,35.90945864526917],[128.6279990249272,35.90742369891369],[128.62754993297875,35.90662632069167],[128.62690556069518,35.90494882678446],[128.62680386480142,35.90414302569789],[128.62733798617006,35.90318725322432],[128.62786642047664,35.90052757624506],[128.62836919508416,35.899801683219316],[128.62880575350763,35.89881652485713],[128.628982527999,35.89785199731014],[128.6293601991652,35.896870426838895],[128.63074044550208,35.89526288523308],[128.63148023114903,35.8942349332642],[128.6319328549113,35.89388457342454],[128.63182965801766,35.89290299541244],[128.63174343082778,35.892941429958505],[128.6310695174092,35.89196965848829],[128.63037584160816,35.89170229103188],[128.6303117409941,35.891302382889535],[128.62866792821552,35.88990633711348],[128.62873648880324,35.88985806715688],[128.6281711603106,35.88934765051206],[128.62697617229088,35.89023255383959],[128.62208426250766,35.892395314998055],[128.61734435937694,35.88925952958437],[128.61642716008902,35.88813292158424],[128.61629053167437,35.88786622084809],[128.61623732702765,35.887886526191316],[128.6159507693776,35.8874000033345],[128.6155932873811,35.88668107061987],[128.61523759253268,35.885367299368795],[128.6142371169418,35.88480804870007],[128.61428748268244,35.88472075417737],[128.6140440159547,35.88454921405765],[128.61402319212107,35.88442689449754],[128.6138756287252,35.88438424729526],[128.61245090355212,35.88237902561957],[128.61236265055703,35.88216648109049],[128.61248104605394,35.88207142226561],[128.61204974956007,35.88178295533188],[128.61224332450502,35.88168430842857],[128.61218189358564,35.88149699338754],[128.6120070092622,35.88147877119753],[128.6119500256967,35.881149430175434],[128.6120503699659,35.8808467836972],[128.6119876894426,35.88064955933957],[128.6113791235645,35.8802497782324],[128.61024681690392,35.87887465957285],[128.60989408820097,35.87858942511365],[128.6072952393952,35.877403834753586],[128.6073440583532,35.87731740023295],[128.60696341859727,35.87682009242598],[128.6077942348042,35.876554365689515],[128.6083757479987,35.87575035426947],[128.60867880264883,35.876067372175335],[128.60971040495107,35.87542726693099],[128.60973943365326,35.8747937765038],[128.6105522410938,35.87502303453381],[128.611323942038,35.87460126615588],[128.6118598761308,35.8744541394527],[128.61241017957346,35.87417001152381],[128.61348290040956,35.871736814734035],[128.61342209522638,35.87146535069592],[128.61364179294202,35.870060520891215],[128.61434721667604,35.86892359008999],[128.61464282030346,35.86821600947692],[128.62971470774914,35.866776164889224],[128.63362374928798,35.87116075392126],[128.63408374611708,35.87177779889761],[128.63452112466888,35.87199412656366],[128.63891955647725,35.87324979832838],[128.6448648671163,35.87677315339805],[128.64499119605824,35.87659768561413],[128.64959302174728,35.87831298689334],[128.6494533154273,35.87857817138328],[128.64998317156568,35.87870968324017],[128.65080979903783,35.87866766896733],[128.65094795426316,35.87852765711446],[128.65137806659317,35.878476098524324],[128.65191919366904,35.878286159677955],[128.65325532857108,35.877408086543674],[128.65348542963548,35.87727120445782],[128.65352551184583,35.87731027157224],[128.65433374054314,35.87665938954454],[128.655110332402,35.8763541290562],[128.65620422301578,35.876228645020895],[128.65769980138228,35.87651634833689],[128.6577210364949,35.87642985043285],[128.65786929112724,35.87645992708511],[128.65804093847416,35.876504568924496],[128.65794475009395,35.87656706526324],[128.65856971150797,35.876728460928724],[128.65881543338034,35.87660843217514],[128.65903826594345,35.87665489753768],[128.6593610808407,35.87649622236177],[128.6593982398098,35.87688289028026],[128.66082612668313,35.874748973945394],[128.66228481953095,35.873857176166126],[128.66391781853147,35.87319121442669],[128.66496549451054,35.87292055455011],[128.6673816094089,35.87252198188098],[128.67199218588476,35.872991815577095],[128.67290576219585,35.87333525780609],[128.6731181792669,35.87394139496787],[128.67430919406237,35.8739514030562],[128.6749329506048,35.87378401707635],[128.6757931683599,35.87342720859983],[128.6777321506275,35.87099178946907],[128.67993558049113,35.86682413863565],[128.67990793970495,35.866269228651284],[128.6804389472187,35.86431975424244],[128.68042766854268,35.86386619030518],[128.68004449537585,35.86287970370967],[128.68008969022247,35.86227519472431],[128.68085703817772,35.861360436059854],[128.68204808549362,35.860507009407165],[128.6827235495907,35.86094667402548],[128.6845756188015,35.859765389757555],[128.68544058341166,35.859301498682676],[128.6861021951017,35.85911512800056],[128.68682251305313,35.859161656500966],[128.68874050945422,35.85965893368937],[128.6902612249886,35.85919676678849],[128.69176417759786,35.8589755710413],[128.69788805236354,35.85890175939118],[128.69836213339207,35.85842113374048],[128.69875281863577,35.8581801869382],[128.69929532100767,35.85801700599374],[128.69965861269637,35.857951214839524],[128.70092637914175,35.85806110906752],[128.7016427726739,35.85802093604799],[128.7022738898113,35.857952322559235],[128.70314206602893,35.857715404664724],[128.70369507648363,35.8577537003503],[128.70558454907794,35.85827814490567],[128.70636267673962,35.85839463428707],[128.70758609564217,35.8584552206218],[128.70864394676357,35.85954490702171],[128.71150406383077,35.86103855506635],[128.71467775235973,35.861018883276],[128.71515837667724,35.861092082468524],[128.71556009941727,35.8615065669333],[128.71671923997357,35.86107956891119],[128.7186439736273,35.86071937930791],[128.7206244967109,35.860664488285444],[128.7228056884934,35.860301777584745],[128.72418663660875,35.86019800340667],[128.72469547530218,35.85908666885284],[128.72696200744878,35.857539391117434],[128.72965035202574,35.85532220641564],[128.72994991725037,35.85520714749271],[128.731543568336,35.85422740578354],[128.73338700922181,35.852716247582535],[128.73453445176384,35.8519816352748],[128.7350464282762,35.85169339738367],[128.7371009517634,35.85144817121814],[128.73856609701096,35.85143325250096],[128.73972166816128,35.85214604759566],[128.74037241217061,35.85240386274221],[128.74085761906017,35.852467278170174],[128.74088253026963,35.85282324747656],[128.741196157993,35.85313047616196],[128.74341207717544,35.85454628091574],[128.7445083041574,35.85507626700143],[128.74518840301664,35.85589642515745],[128.74550727554404,35.85605922552014],[128.74634194863307,35.85625073729735],[128.74679016604063,35.8564731378327],[128.74985586224605,35.857530453329474],[128.7507861504133,35.85776859764031],[128.75146368334552,35.85876090801729],[128.75161114246333,35.859145661479644],[128.75235989901128,35.8600851653397],[128.75262119063655,35.86061606240178],[128.7530538293139,35.861192955433644],[128.75371902817596,35.861955367189346],[128.7539940619304,35.862399218343334],[128.75503972017142,35.863265796167084],[128.75481207902212,35.86352568482786],[128.75507209774946,35.86383836276153],[128.75594619099783,35.86446960531503],[128.75926766014513,35.86603887691313],[128.75980264167336,35.86637237115405],[128.75987433470746,35.86875319933765],[128.75957711333874,35.869233168035635],[128.75829038795004,35.8699000949342],[128.7577285931358,35.870317679309316],[128.75805716423577,35.870513849543215],[128.75818981367587,35.87048709246291],[128.7587372195067,35.87082158866065],[128.75937800496897,35.87155051096709],[128.7595767602909,35.87229371597671],[128.7595388946685,35.87333025117732],[128.76010177751945,35.87404923684633],[128.76042544447597,35.87418494457407],[128.76079557486082,35.874229146485895],[128.76120653494291,35.87473983372886],[128.76113940764347,35.874756856526005],[128.76105498136906,35.87506705828397],[128.76061591717576,35.87530184236933],[128.760503863037,35.87544515585387],[128.76014791162163,35.87557126292404],[128.75982482134262,35.87592728318023],[128.75934321155344,35.876107023374956],[128.7586838793076,35.87649897616509],[128.75749747570444,35.876306136122686],[128.75740362763545,35.876401358891954],[128.75745843453026,35.876617979779354],[128.7571794696719,35.877405845890785],[128.75717289963356,35.87772920664011],[128.75694779002848,35.87791176606743],[128.75689237469555,35.878111504333226],[128.75714488206575,35.87814794895656],[128.75765372824793,35.878372059360544],[128.7577924650336,35.87829088659117],[128.7580617842571,35.87829788728939],[128.75870398700033,35.87882718702197],[128.7589322649485,35.87927373444349],[128.75880907293123,35.87965612989993],[128.75906189986983,35.88034453916365],[128.76013447886857,35.88180658089667],[128.7601987084705,35.882201451882715],[128.76063291941938,35.88279188192118],[128.7609661627386,35.88378309746246],[128.7609410204587,35.886078028643844],[128.761119766179,35.88657245276662],[128.76135941135027,35.88682795655635],[128.76131995696798,35.88732133346966],[128.76124184480597,35.88734829497086],[128.76138249537715,35.88760678290903],[128.76121696584858,35.88812506643626],[128.7614687834753,35.88815878165939],[128.7620158359303,35.88871268441576],[128.76236175346708,35.88872612573936],[128.7617677166831,35.8896320517616],[128.76103331413438,35.89006483027481],[128.7602517654864,35.89078321360581],[128.75864093647695,35.894321397020995],[128.75852230999917,35.894899698244544],[128.7580429779594,35.89524335800169],[128.75773705231256,35.89560679796391],[128.75741889756125,35.89653818134423],[128.7575087112514,35.89702785610874],[128.7572735390884,35.89742506310495],[128.75718001397138,35.897858378299716],[128.75711651641856,35.8988760916748],[128.7567220816095,35.90111607851513],[128.7569037388286,35.902093298290104],[128.75679354274166,35.90261752571674],[128.7565613502951,35.90284907341438],[128.7566399197246,35.90349194759457],[128.7565133272373,35.90382359420164],[128.75672101189227,35.904919920699875],[128.75702844544742,35.90538313784868],[128.75762635664856,35.90585854075749],[128.75793517301182,35.90628211284871],[128.7598104542605,35.9070900735895],[128.7595089158854,35.90765385244104],[128.7591935618956,35.90855867551182],[128.75842999024033,35.90913142456945],[128.75831624350954,35.90977814613982],[128.7580775772952,35.910249665986],[128.75742257495324,35.910723543218275],[128.75758157894873,35.91112032041491],[128.75724493478398,35.91171839697602],[128.75741745964177,35.912007147319386],[128.75693025796926,35.91293590842735],[128.75655708757844,35.91327755204454],[128.75653597765074,35.913718439042455],[128.75574299800695,35.914435336683795],[128.755280589804,35.91525480139483],[128.75480787941837,35.915550186519816],[128.75426989788264,35.91573360713251],[128.75381541888032,35.916141774290935],[128.75293848510202,35.91645608528384],[128.7521777849757,35.91698616459671],[128.75085119175944,35.917036943532096],[128.74996733377685,35.91773568994089],[128.7488555481868,35.917729163093746],[128.74846471889805,35.91813330337468],[128.74701403519268,35.918673222052334],[128.74555530434563,35.91886915767361],[128.74526031176023,35.91919722117701],[128.74398317560224,35.919658708380496],[128.74262573684223,35.920690387061995],[128.7424652389694,35.9217245365394],[128.7399655993682,35.925932179701036],[128.73878997160142,35.92701538593471],[128.73750098803606,35.92835262755636],[128.73651831965492,35.929868842858475],[128.73707548157594,35.92997868029201],[128.7375205585124,35.929827830475546],[128.73813909558874,35.93078784388859],[128.73821854085105,35.931396843178035],[128.73780442142902,35.934392966166136],[128.73916430748008,35.93533817289078],[128.73987572917196,35.93707973992595],[128.7405035079749,35.93715371821014],[128.73914235629226,35.93769922225667],[128.7393731125196,35.93769026478452],[128.7426679811416,35.94251717112608],[128.7434320246001,35.943228634273474],[128.74370183994824,35.94422628868458],[128.74307482745357,35.94577682127619],[128.74318535064566,35.94705330883848],[128.742879514989,35.94740179002268],[128.74185190747303,35.94805884351429],[128.74189912489464,35.94931869917606],[128.74204058798,35.9498520558499],[128.74122091188187,35.95077693378308],[128.74136924995568,35.95126961578114],[128.7408328742535,35.95159080494413],[128.74053859843016,35.95187534816232],[128.74026133094424,35.953561325540385],[128.73939478637482,35.95505847676329],[128.7375291221716,35.9562282929337],[128.73848527469926,35.957515632753974],[128.73911575270853,35.95772368748299],[128.73919049212867,35.95786704314445],[128.73948485932925,35.95794713342661],[128.73988640499144,35.958427245297145],[128.7406946156298,35.95887276281437],[128.74145310918004,35.959113443073406],[128.74205291547085,35.959549628847554],[128.74256670671306,35.9602281565176],[128.7425890586062,35.96055861043028],[128.7424424098856,35.96086762776303],[128.7424483224787,35.96134443290214],[128.74258988315006,35.96151195506022],[128.7429844233107,35.96250919591926],[128.74286437293733,35.9630997710813],[128.7429701847511,35.96339715025026],[128.74286780946858,35.96387505791871],[128.74311036356926,35.96393603935959],[128.7432763169576,35.96407431905968],[128.7430857556992,35.96424843040842],[128.74293347234442,35.96461850703243],[128.74301703415526,35.965046769457324],[128.7432452077223,35.96507868987693],[128.74334445924848,35.96519178744073],[128.74364955536828,35.9660241051643],[128.74363973547923,35.96646356997573],[128.7438735045443,35.96691228556718],[128.74493231408988,35.96724163836705],[128.74504026909412,35.96748365707367],[128.74550520374063,35.96790482299127],[128.744950209419,35.96877776709574],[128.74495437637435,35.969515655243804],[128.74512588301488,35.97165152301702],[128.74532699177388,35.97258015037521],[128.7457084174491,35.97309625197895],[128.74547442933027,35.97348923293324],[128.7448494847483,35.97411458439804],[128.74369328044529,35.97417560977146],[128.7432278103825,35.974745689137485],[128.74112701688634,35.975246090464076],[128.7407574740177,35.975392008677986],[128.73977626686897,35.975799751312714],[128.73939713193107,35.976222897256164],[128.73882240556875,35.976565344459445],[128.73856523921572,35.976559281843194],[128.73819268653517,35.97681355950932],[128.73742781945958,35.97750550205164],[128.73719275911805,35.978367153081244],[128.73657833177694,35.979169042911174],[128.73633360913212,35.98026057598972],[128.73605808214424,35.98099523626918],[128.73475254733853,35.981935167673605],[128.7324650725925,35.982739114531725],[128.73136928178718,35.98349074583799],[128.73014797409502,35.9849769613053],[128.73056006507377,35.985644882563186],[128.7302590043268,35.98710907549086],[128.7305772637181,35.98807478240867],[128.7305151451396,35.988978418563924],[128.7310813428886,35.98982670522366],[128.73136893361527,35.98998405819066],[128.7316104776709,35.990358629291414],[128.73270912444744,35.990941901746],[128.73369807426965,35.99206245939542],[128.73439443283488,35.99321349484716],[128.73313690449046,35.99418172504061],[128.7332942923148,35.994363036382325],[128.73288031228918,35.99521473584669],[128.73225944819842,35.99566619397796],[128.73173330831182,35.99668469421357],[128.7310701614085,35.99720449810899],[128.73017969298883,35.997355136605684],[128.72954463015384,35.99768435997594],[128.72836151122524,35.99758960226401],[128.72742423257029,35.99808577126078],[128.7278429503644,35.998402406930154],[128.7277305867512,35.99860910418812],[128.72814256023733,35.998974344353826],[128.72788456168706,35.99985340456939],[128.7281162103835,36.000973554644546],[128.72731971683814,36.002480324037556],[128.72686243784156,36.002719638190406],[128.72637943654698,36.00348019494471],[128.72585818247043,36.00390478368642],[128.72525372625384,36.004195977047026],[128.72421602370085,36.00428785918552],[128.7230260162917,36.005579970222016],[128.7225240564685,36.00589525196459],[128.72214771799665,36.006377179488155],[128.7213812899613,36.00644330440735],[128.7206719815042,36.00664402295553],[128.72081453370185,36.00695339865378],[128.7203689406252,36.00727592926621],[128.71802016065305,36.0079238696701],[128.7173439620892,36.00836438732061],[128.7161672774986,36.00844439723902],[128.71537017141824,36.00873550316404],[128.71479417454145,36.008647901676504],[128.71434650204915,36.00841042237272],[128.713142581278,36.00856322995315],[128.71132371282877,36.00938838073338],[128.70749284732267,36.00990255739256],[128.70591215911088,36.00996877469031],[128.7039055133857,36.010296247333436],[128.70217151280258,36.01079235286617],[128.7008784614253,36.011074454363346],[128.69941945168435,36.01213684351283],[128.6963112768295,36.01341190956335],[128.69622501594105,36.01482165130923],[128.69499957406228,36.01638693545565]]]}}
