{"type":"Feature","bbox":[128.59176713143083,35.79034956665739,128.7269773188165,35.87870968324017],"properties":{"regionCode":"27260","version":"vworld-20260909-3f8952dfda77-p2","name":"대구광역시 수성구","attribution":"국토교통부/K-Geo플랫폼 · VWorld 법정구역정보, CC BY 2.0 KR; 두꺼비집 가공"},"geometry":{"type":"Polygon","coordinates":[[[128.65094795426316,35.87852765711446],[128.65080979903783,35.87866766896733],[128.65037113957487,35.87869829033896],[128.64998317156568,35.87870968324017],[128.6494533154273,35.87857817138328],[128.64959302174728,35.87831298689334],[128.64499119605824,35.87659768561413],[128.6448648671163,35.87677315339805],[128.63891955647725,35.87324979832838],[128.63452112466888,35.87199412656366],[128.63408374611708,35.87177779889761],[128.63362374928798,35.87116075392126],[128.62971470774914,35.866776164889224],[128.6146377168454,35.868216520234576],[128.61414575005816,35.867758019386436],[128.6140537918948,35.86745885638285],[128.61420050838882,35.86647850727003],[128.61288086765487,35.86412982975997],[128.61267366527156,35.86391277074133],[128.61237352491864,35.86375065662387],[128.6101517223618,35.8627228918565],[128.60965949494874,35.8621345780941],[128.6093923207196,35.86164325311889],[128.6093599383183,35.86072079099926],[128.60866640307464,35.86083863002452],[128.60822500980015,35.859836801014836],[128.6081507744761,35.85948953058544],[128.60800337830275,35.85833944088888],[128.6081536195272,35.855674902470724],[128.60827409755947,35.85506313743098],[128.6087285471115,35.85429955711629],[128.60887729694838,35.853318948995586],[128.608857011473,35.852448641001],[128.60851726058937,35.85112576503817],[128.60831498307957,35.84906865386423],[128.60787112447687,35.847156372415796],[128.6078351179926,35.84646851531884],[128.60817067088675,35.84477843029023],[128.60763377963946,35.84256924822212],[128.60766483387678,35.84150453131717],[128.60751171376157,35.84005725764414],[128.60738151168138,35.83957250320426],[128.60711053229772,35.83916379987089],[128.60659632886336,35.83914339166275],[128.60613016459342,35.83641691383699],[128.60585814365788,35.835391663068286],[128.606306068765,35.833530528801184],[128.60630077177083,35.83252328018547],[128.60639111646395,35.832116125136096],[128.60704521087018,35.83029977855999],[128.60782135695104,35.82859513689512],[128.60774695454185,35.827458961432306],[128.60783864610065,35.82714434752004],[128.60702144493243,35.82718518081895],[128.60637090030139,35.827600719097546],[128.60630828329596,35.82721666991438],[128.60620474560378,35.82714035507604],[128.60567476847524,35.82718358297827],[128.60559961703117,35.82678471422608],[128.605508642419,35.82679341097451],[128.60547138015139,35.826645993181934],[128.60501067762885,35.82667668471702],[128.60464720930258,35.82512154605404],[128.6048171105741,35.824665992765965],[128.60483475414813,35.82418435561275],[128.6043009935054,35.82350289679887],[128.60416635303164,35.82251400227069],[128.6042576488045,35.82240064510905],[128.60192798651087,35.818553246402566],[128.6007869407508,35.815694983427285],[128.59996446377107,35.814828725556026],[128.59887197175618,35.81492996890956],[128.59842479780212,35.81430219118343],[128.5967634235064,35.81386202966587],[128.59455932872135,35.813077080082245],[128.5937598463418,35.81217861932746],[128.59258847219468,35.81124365110661],[128.59222632947282,35.810338017400696],[128.59243687855752,35.809605205069914],[128.5922046779964,35.80962000743442],[128.59176713143083,35.80924557579693],[128.59264054335569,35.80898529281542],[128.5931326043633,35.808740569353446],[128.5939423934138,35.808262858377255],[128.59426703265933,35.807912832984265],[128.59514630863083,35.80738676845034],[128.59611717578352,35.80721178430574],[128.59665360216027,35.8069611496151],[128.59741840553983,35.80672957779489],[128.5978548577304,35.80598949233597],[128.59872560601153,35.80569833352212],[128.59930089421755,35.8057473954181],[128.60061821674262,35.80610643877841],[128.6026990105759,35.80632280631778],[128.6049958294363,35.805726835252656],[128.60548764745582,35.805406981023886],[128.60760320625187,35.805146613868644],[128.6095863149265,35.80468289393185],[128.6101996184848,35.804699339670535],[128.6109344022157,35.80446218404665],[128.6115358652067,35.8046304016896],[128.6128284524106,35.80455573138743],[128.61316141419468,35.80442973039581],[128.61394202259555,35.80445883083906],[128.61557846729266,35.80388143857901],[128.6166926073124,35.803667580108],[128.61686959613195,35.80353129278207],[128.6172301901783,35.802835139994244],[128.61882411046324,35.80411991361848],[128.62040905956735,35.80569745594248],[128.62020829920817,35.805937323089026],[128.62080136662712,35.80609034389086],[128.6222542621221,35.805612396034874],[128.6231493839297,35.80553006860215],[128.62322920705572,35.80564586852925],[128.62387481041569,35.80559001904366],[128.62337661969448,35.805979149634794],[128.62608993274915,35.80534905364864],[128.6266343542183,35.80516563665192],[128.62703387863388,35.80494941175379],[128.6273782306448,35.80456113920922],[128.62777728288916,35.80430263454234],[128.6294471133281,35.80268602085236],[128.6294997633628,35.80276161583572],[128.6305170629507,35.80301656245745],[128.6319481748739,35.80359993422947],[128.6336071153663,35.80379536956262],[128.63482260101546,35.80385667218893],[128.6355947554405,35.80346337423348],[128.6361778819478,35.80303380832993],[128.63699903768574,35.803388873071405],[128.63801111809136,35.80370557078545],[128.63934097231493,35.80326129913887],[128.64058816309063,35.80303370182697],[128.6412223933436,35.80247736591435],[128.64301025777405,35.80232291970857],[128.6438312031441,35.802607101683975],[128.64501529911723,35.80243612737564],[128.64692975528604,35.80269549836268],[128.64743610476836,35.802824150432244],[128.6485738101552,35.80335968527654],[128.64922088374502,35.80339132351538],[128.64947976608812,35.80351492514958],[128.64984494658202,35.80316864639323],[128.65159485934436,35.80306515760396],[128.65220936503928,35.80085436297069],[128.6526452232279,35.800405730504444],[128.65282748440606,35.80006530581211],[128.6538077612659,35.799507747198916],[128.65493265313728,35.799528388559],[128.65647798759713,35.79915367595737],[128.65699650074976,35.79884765567234],[128.65726541198586,35.798570926306105],[128.65790469754188,35.798423603376136],[128.65905602003556,35.79865120187536],[128.65943308429635,35.79825176402173],[128.66036318389556,35.798704487458735],[128.66089120620157,35.798809723349805],[128.66151500063407,35.7987931893583],[128.66284565984068,35.79868212514297],[128.6635012212197,35.79842522273867],[128.66480758944576,35.79819365595955],[128.66508915939644,35.79784746169438],[128.6669073880709,35.797695720717876],[128.66878549260096,35.79716657184884],[128.6692395548209,35.79664654422845],[128.66936153129055,35.79668545946678],[128.66944316444773,35.796551758470976],[128.6693354508839,35.79651937256093],[128.66945570419935,35.79638379209539],[128.66924934852554,35.79575721171318],[128.66952956516428,35.79554240363706],[128.6703944034109,35.795679799246436],[128.67093979232266,35.79535504409936],[128.67215056850705,35.79554195382491],[128.6730797645863,35.79560343271209],[128.67353618953436,35.795175235478744],[128.67394824798322,35.79523160113157],[128.67466121615135,35.79504211880752],[128.6747531041999,35.795348795215666],[128.67523475500445,35.795510971027596],[128.6760021843748,35.79485180833304],[128.67651101743223,35.794479435071565],[128.67673200331478,35.79440530938825],[128.6779389377893,35.793288223934844],[128.6785510739787,35.7932623921619],[128.67899965999737,35.79339825210167],[128.67993416600962,35.793358768088574],[128.6801086579427,35.79293607164295],[128.68076365376518,35.792469494593135],[128.68128579914853,35.79238240592319],[128.68125385311941,35.7917543094268],[128.68170092984232,35.79118780662829],[128.68192814857233,35.791085236172194],[128.6823985780777,35.790631209432235],[128.68241043049736,35.79034956665739],[128.6837953540772,35.79084978693354],[128.68534112574395,35.79123704410442],[128.68599608801006,35.79187966969926],[128.6873009590703,35.792611276761846],[128.68802973149283,35.79261646315345],[128.68983939865313,35.7930973894943],[128.6904308581743,35.793561330203175],[128.69111679477274,35.79487209708366],[128.69100701073052,35.79583237398873],[128.69263389911654,35.796670891191106],[128.69293885736323,35.79729461023465],[128.693435756477,35.797112130110165],[128.69466371317597,35.79710701456044],[128.69502552058182,35.79629098994285],[128.6954538373016,35.79585554484987],[128.69568089551996,35.79541749488027],[128.69657806475794,35.79486319534109],[128.6975703654893,35.79461528065707],[128.6976607105054,35.794766290351646],[128.69835390897256,35.79504038885698],[128.69874004124918,35.795075191104175],[128.69910827827238,35.79521518277484],[128.70029619859866,35.795460495398],[128.70040044020078,35.795868397762874],[128.70043948717304,35.79710320910946],[128.70178821550684,35.79787865806948],[128.70254558919257,35.7988177997057],[128.70402652186297,35.79969656796784],[128.70621830448397,35.800350698103586],[128.7073237884467,35.800303619400296],[128.70803685964177,35.80067710013674],[128.70802323803758,35.802004171791076],[128.70786815029115,35.80293178232674],[128.70878332641584,35.803431816837495],[128.71036808903716,35.804757766741076],[128.7118057270633,35.80526988718207],[128.71327633709322,35.80552320199594],[128.71447938185312,35.805308849843236],[128.71511784620492,35.80565635152081],[128.71620188789677,35.80583496833185],[128.71699142532907,35.807188740597],[128.717686868832,35.807421452758426],[128.71776520161688,35.80868435933395],[128.71760025567826,35.8090238838847],[128.71675959568972,35.8093059545985],[128.71600156512343,35.80995413049757],[128.71582870498318,35.81069358645918],[128.71586718535582,35.81161475204012],[128.71562809569446,35.81194653837418],[128.71538096469297,35.812687391975146],[128.7150385017651,35.81328873339248],[128.71482945983374,35.81408756850992],[128.71498158838708,35.81471956186212],[128.7149934953162,35.8152430464366],[128.71432804779596,35.81592677996819],[128.71389374906792,35.81782928842536],[128.71287471279018,35.818923920898065],[128.71256913157958,35.81913608085657],[128.7121614655152,35.81963857765639],[128.71013212633932,35.82117512283987],[128.70960431947572,35.82139755098139],[128.70907501805783,35.821924812039555],[128.70901596479678,35.82246022979367],[128.70867793691298,35.823227153294695],[128.70860114560023,35.82371259733444],[128.70874353221478,35.82501245846184],[128.70878531068473,35.82680538276149],[128.70870048249148,35.826821452436526],[128.7087147232219,35.82701444430105],[128.70989202631318,35.82827491372816],[128.71029607939363,35.82826063593482],[128.71065631427277,35.82885232040167],[128.7111933008369,35.829415943831435],[128.71200770482812,35.829984820760565],[128.71228323067373,35.830268839181414],[128.7127479113497,35.83118440109501],[128.71418419530642,35.832217961456315],[128.71465401822573,35.833276908092],[128.71612586191907,35.83382962459779],[128.71696897598795,35.83435040819981],[128.716950918121,35.83447304565904],[128.7170064165593,35.8344590792866],[128.71700144500576,35.83460591177052],[128.71708433430544,35.83466398526762],[128.71730388301347,35.83465879889901],[128.71752089516536,35.83451383914871],[128.71785715780825,35.834578540537414],[128.7180468768466,35.83500947024123],[128.71824334811893,35.835913890666475],[128.71831955573106,35.83595885930708],[128.71852739070002,35.83599327210642],[128.71959332884256,35.836520504026545],[128.7203823140458,35.836432720577015],[128.7209564236801,35.836140183535285],[128.72138852518916,35.83578215949805],[128.72163865930685,35.83575447967324],[128.72184250772625,35.83515184403021],[128.72213181846215,35.83525400695971],[128.7219354762954,35.835742426384115],[128.72240199461993,35.83546245511297],[128.72282165427526,35.83572611635092],[128.72397683176357,35.83601660140607],[128.72487466017876,35.83649236798509],[128.72510637184925,35.83648298093034],[128.7252362471812,35.837126581290505],[128.7241667272425,35.83869564583998],[128.7241318129983,35.83894975275427],[128.72425635496515,35.839111625410936],[128.72421900412223,35.83959739685457],[128.7243498379449,35.84045718957292],[128.72448806684645,35.84045675108467],[128.72502362419422,35.84073947185836],[128.72563228941985,35.84156393592344],[128.72560279567676,35.84163986082055],[128.72630235963018,35.842415819102534],[128.7262662560166,35.84284404822073],[128.72636965247028,35.842959558281954],[128.72636403512277,35.84326225779243],[128.72625900329425,35.84391587706418],[128.72669263060297,35.8443083808504],[128.72673741233044,35.844732625106026],[128.7265934450293,35.845327148598585],[128.72692309091747,35.84638516574604],[128.72688992358786,35.846647470202946],[128.7269773188165,35.846913359595604],[128.72688557489673,35.84761980770259],[128.72558054631304,35.85062011569243],[128.72564864030997,35.85213630299397],[128.72537279998807,35.853165668080244],[128.72509807264663,35.853312977684595],[128.72539804368586,35.853662996534545],[128.72514141222263,35.853850906037884],[128.7254234483051,35.854183994424645],[128.724563814954,35.85476673574359],[128.72441318325141,35.85503555747842],[128.72416728821403,35.855205811315784],[128.72374145633637,35.85535753522037],[128.7227380854126,35.85585234967784],[128.72268536828213,35.85597895010468],[128.72261534927418,35.855958788183074],[128.7226255751081,35.85645608607053],[128.72234875432747,35.856683062801565],[128.72181242872435,35.85737861440815],[128.72263337610468,35.8575986855501],[128.7228024964743,35.858051406280566],[128.72295644323532,35.85831244471985],[128.72304973731073,35.858337960877364],[128.7236629927158,35.85819971267697],[128.7241607988731,35.85842335365053],[128.72443632105728,35.858433913956844],[128.7254339781088,35.85817562209223],[128.72572817394988,35.85838169662681],[128.72469547530218,35.85908666885284],[128.72418663660875,35.86019800340667],[128.7228056884934,35.860301777584745],[128.7206244967109,35.860664488285444],[128.7186439736273,35.86071937930791],[128.71671923997357,35.86107956891119],[128.71556009941727,35.8615065669333],[128.71515837667724,35.861092082468524],[128.71467775235973,35.861018883276],[128.71150406383077,35.86103855506635],[128.70864394676357,35.85954490702171],[128.70758609564217,35.8584552206218],[128.70636267673962,35.85839463428707],[128.70558454907794,35.85827814490567],[128.70369507648363,35.8577537003503],[128.70314206602893,35.857715404664724],[128.7022738898113,35.857952322559235],[128.7016427726739,35.85802093604799],[128.70092637914175,35.85806110906752],[128.69965861269637,35.857951214839524],[128.69929532100767,35.85801700599374],[128.69875281863577,35.8581801869382],[128.69836213339207,35.85842113374048],[128.69788805236354,35.85890175939118],[128.69176417759786,35.8589755710413],[128.6902612249886,35.85919676678849],[128.68874050945422,35.85965893368937],[128.68710858615947,35.85920214066429],[128.6861021951017,35.85911512800056],[128.68544058341166,35.859301498682676],[128.68486781508219,35.85960562147429],[128.6827235495907,35.86094667402548],[128.68204808549362,35.860507009407165],[128.68085703817772,35.861360436059854],[128.68008969022247,35.86227519472431],[128.68004449537585,35.86287970370967],[128.68042766854268,35.86386619030518],[128.6804389472187,35.86431975424244],[128.67990793970495,35.866269228651284],[128.67993558049113,35.86682413863565],[128.6777321506275,35.87099178946907],[128.6757931683599,35.87342720859983],[128.6749329506048,35.87378401707635],[128.67430919406237,35.8739514030562],[128.6731181792669,35.87394139496787],[128.67290576219585,35.87333525780609],[128.67199218588476,35.872991815577095],[128.6673816094089,35.87252198188098],[128.66496549451054,35.87292055455011],[128.66391781853147,35.87319121442669],[128.66228481953095,35.873857176166126],[128.66082612668313,35.874748973945394],[128.6593982398098,35.87688289028026],[128.6593610808407,35.87649622236177],[128.65903826594345,35.87665489753768],[128.65881543338034,35.87660843217514],[128.65856971150797,35.876728460928724],[128.65794475009395,35.87656706526324],[128.65804093847416,35.876504568924496],[128.65786929112724,35.87645992708511],[128.6577210364949,35.87642985043285],[128.65769980138228,35.87651634833689],[128.65620422301578,35.876228645020895],[128.655110332402,35.8763541290562],[128.65433374054314,35.87665938954454],[128.65352551184583,35.87731027157224],[128.65348542963548,35.87727120445782],[128.65325532857108,35.877408086543674],[128.65191919366904,35.878286159677955],[128.65137806659317,35.878476098524324],[128.65094795426316,35.87852765711446]]]}}
