{"type":"Feature","bbox":[128.46827444829304,35.772863907018056,128.5879504544368,35.86913778541348],"properties":{"regionCode":"27290","version":"vworld-20260909-3f8952dfda77-p2","name":"대구광역시 달서구","attribution":"국토교통부/K-Geo플랫폼 · VWorld 법정구역정보, CC BY 2.0 KR; 공공주택 복덕방 가공"},"geometry":{"type":"Polygon","coordinates":[[[128.5192879413101,35.86913778541348],[128.51886985733793,35.868593101601],[128.51778836952604,35.86813055235271],[128.51668561376576,35.86774252476462],[128.51551065444767,35.867591045318164],[128.51507720551473,35.867709098111376],[128.5141423932454,35.867714069000506],[128.51338107268512,35.86791516620907],[128.51256679904347,35.86788089580003],[128.51141861687992,35.86826214694725],[128.51051757221074,35.86882562360098],[128.50977627966813,35.869117992050406],[128.5095277573067,35.86771319537369],[128.5085676146611,35.8661415199904],[128.50810982254302,35.86579421534162],[128.50768846023854,35.86585450628404],[128.50756724609258,35.865766004270625],[128.50681165245706,35.86587194303223],[128.50661986163337,35.86572820989572],[128.50478386539493,35.8655454477023],[128.5039107817056,35.86556657362078],[128.50258379108342,35.86476764469225],[128.50259205429296,35.864369527564506],[128.50232892660858,35.86401351010721],[128.50152589327394,35.863357836627934],[128.5010853096303,35.86335813069523],[128.50097086691312,35.86327171482138],[128.50047245464054,35.86330194280277],[128.49823052694725,35.86394270692996],[128.4966435981581,35.86412417210645],[128.49585197208347,35.86459816951175],[128.4947746647674,35.86446195839021],[128.4940829856004,35.86456814073742],[128.49328250600897,35.86447395724642],[128.49206607182998,35.86523996802352],[128.4908280497218,35.86574231581449],[128.4896738978859,35.86634010723739],[128.48916250292382,35.86639925021433],[128.48761897400416,35.867483940812505],[128.4866257827169,35.8679197033454],[128.48489844905353,35.86782146440817],[128.48459390337436,35.867863731082906],[128.4842840372254,35.867712622682106],[128.48293331680074,35.867527249654536],[128.4820032701471,35.867922990224486],[128.48092962360613,35.867191277172935],[128.47989397765085,35.86620751256586],[128.4791441993898,35.86479697184351],[128.47831802315355,35.863682385503296],[128.4777701854941,35.862574550990374],[128.4771461019581,35.86205719477426],[128.47651009439102,35.860263182661015],[128.47585423793615,35.859717805130195],[128.4757900236388,35.85934897340729],[128.47395896243074,35.857911950556925],[128.4743749048248,35.856880613329224],[128.47401576439907,35.856868354681275],[128.4736837108566,35.855934699488714],[128.4738702092084,35.85559401092094],[128.47334384804114,35.85457770425037],[128.4727823580724,35.853919743661336],[128.47290583867115,35.85478118883193],[128.47374703653418,35.857993216137736],[128.47376207142517,35.85950353984014],[128.47346517489385,35.85949721235823],[128.4734318210848,35.85834778493987],[128.47312942614164,35.85763736234622],[128.47301988551587,35.856772461017016],[128.4724229096291,35.85507401004778],[128.4724494712415,35.85410518596413],[128.47237677308172,35.85384993253285],[128.4720766378143,35.85390641607607],[128.47185314541565,35.85274309203535],[128.47170526474366,35.85142977916163],[128.47147064741173,35.850373944949524],[128.47131735142145,35.8485232146182],[128.47075842773617,35.84524791731452],[128.46827444829304,35.8370136281894],[128.47635965628564,35.831794123381705],[128.47777297767777,35.830694599237894],[128.4784770551869,35.82992389590644],[128.4788284123846,35.82895782090321],[128.47903967858682,35.82872523556077],[128.48363127061117,35.83130149826627],[128.4842068147407,35.83070031953492],[128.48558802599206,35.828371431451906],[128.48634338467565,35.82675287415488],[128.48645779795376,35.82613616629224],[128.48648355587264,35.82432532875994],[128.48626107433708,35.82330424534093],[128.48559183082406,35.82121438774597],[128.4852408817542,35.820906839719605],[128.48489580337383,35.820126050530796],[128.48498867527024,35.820016811471525],[128.4846707105388,35.818861516733804],[128.4840644216536,35.818407750377276],[128.483794711215,35.81699418076396],[128.4831069366761,35.81602805112163],[128.48283463453714,35.8152517780922],[128.48400062744017,35.81611153367542],[128.48404615471128,35.81625770464084],[128.48387787463204,35.81632624359314],[128.48417257250676,35.81701413451586],[128.484433408073,35.817359215758195],[128.48482752037856,35.81765066582386],[128.48662183777287,35.81809246538658],[128.48718141738829,35.81813541016268],[128.48885902031898,35.81943808410392],[128.4901282187473,35.82019197135378],[128.49014763621915,35.82007654004994],[128.49039195943024,35.8199081416207],[128.49572072957423,35.818916771895005],[128.5001242959862,35.81796659315294],[128.50182168134637,35.81732666679917],[128.50662207775903,35.81465174394979],[128.50682540708675,35.814316298419755],[128.50705678173154,35.81352774585582],[128.50820871949176,35.81302895612982],[128.5087658401634,35.81257007947792],[128.50958857184963,35.812444508216885],[128.5097294372286,35.81233757709959],[128.51024732510695,35.812196593262975],[128.5114828262033,35.81166277037986],[128.51233190732128,35.81113749110773],[128.51280245962747,35.81099277295199],[128.51355129193638,35.80977735577601],[128.51217166754984,35.809183068497504],[128.51146776671752,35.80872647467202],[128.5100216029232,35.8081790660571],[128.50875806140712,35.80783252635183],[128.50860944130105,35.80771054563157],[128.50873180034577,35.80745847788395],[128.50807898209317,35.8060640272774],[128.50859557941578,35.80560238785112],[128.51054109403972,35.8059232125032],[128.51111412691913,35.80545868973096],[128.51146879852408,35.80529757810467],[128.5115958852091,35.80544907031752],[128.51208132685485,35.805188317410256],[128.51290353393085,35.805518566632045],[128.51471321574658,35.805683871078166],[128.5142646733783,35.8040884575536],[128.5142308817494,35.803911371422906],[128.51434644047015,35.80390621489312],[128.51432030029778,35.803671727405145],[128.51445716273392,35.803559110332756],[128.51471680514172,35.80351762459192],[128.51562492580686,35.80364002663512],[128.51566235140064,35.80166214557483],[128.51628338447563,35.800763841516876],[128.51686242114914,35.79929874195268],[128.51761498137,35.798333582405256],[128.5190062239084,35.79708665064807],[128.52080955147167,35.795901937016666],[128.52115182405876,35.79600732809012],[128.52256668802832,35.794951408643236],[128.52310043968112,35.793707094861254],[128.5234504779923,35.793201169441794],[128.52455577073846,35.79250781543107],[128.52502628898537,35.792456866886404],[128.5262663582763,35.792874341951446],[128.52760033814172,35.79286317502909],[128.52786234906333,35.79256969995874],[128.52808658025396,35.79131418341407],[128.52862589449168,35.78988609901158],[128.5290862108727,35.788077684117695],[128.53004598547915,35.78776188269828],[128.5309711469134,35.787307444211876],[128.53203334954108,35.78732606967598],[128.53347399160646,35.78659321255252],[128.53463100801343,35.78681653866618],[128.53636269378518,35.78667970103614],[128.5373879858036,35.78671170994742],[128.53827134519136,35.78689638849799],[128.5384167703931,35.7869864554026],[128.5386526081298,35.78719754449413],[128.5390174409767,35.78779324826958],[128.54046054079726,35.78823659116493],[128.5416519422947,35.78981461539998],[128.54174133959947,35.78812990472045],[128.54225156521034,35.78755673100813],[128.54365619174646,35.786792614106794],[128.54419020702417,35.78675793167461],[128.5448198166253,35.78638250121952],[128.54566796626213,35.786294483735794],[128.54628770391813,35.785758553124666],[128.54628100386904,35.78522490205681],[128.54682316715446,35.7836566398499],[128.5470940517117,35.7831747638297],[128.54780439703976,35.782508544352815],[128.54853063257815,35.78122243666195],[128.5492302457716,35.78034087903634],[128.5504607078417,35.77972486636477],[128.55237334416384,35.77930879721115],[128.55300326382712,35.77816761937999],[128.5536993492925,35.777538752433955],[128.55404735970114,35.775790560477],[128.55387074271306,35.77526310127273],[128.55426151794782,35.77459996137389],[128.5547365119071,35.77342568106464],[128.55435504254274,35.772863907018056],[128.55517155022443,35.77302429054027],[128.55766465187023,35.77304606723343],[128.55885243677957,35.77371543164429],[128.55991154028467,35.77404558304227],[128.56136031652602,35.77409302322088],[128.56225333785287,35.77436187688675],[128.56289902204017,35.77432223253125],[128.5640448766385,35.773909118669984],[128.5655670250818,35.77461732548045],[128.56596018174548,35.77518209245717],[128.56733189846983,35.776513274097695],[128.5676663837966,35.77764879672289],[128.56792719663954,35.778185155469],[128.56956632905326,35.77940852619063],[128.57058253949296,35.779967439713424],[128.57044946623074,35.78039899053166],[128.5705044793751,35.78133113637835],[128.56991002458372,35.782221923749795],[128.56974195239374,35.782747496816405],[128.56953431354935,35.78295130616331],[128.56950070148693,35.783376808645656],[128.56980653675134,35.784225059270774],[128.56985829472177,35.7847052121674],[128.57018484564438,35.78538984576739],[128.56991502743554,35.78572209777619],[128.56959078003234,35.78640840281669],[128.56949829237251,35.787274091525966],[128.569220174297,35.78783295485277],[128.5692988410017,35.78921051368613],[128.5695705890548,35.78975318402251],[128.56937036109866,35.79006252236424],[128.5689796474334,35.79019789557882],[128.5688475483639,35.79062220392483],[128.56878045943114,35.7916028574371],[128.56850088545403,35.792214767911936],[128.5687679241653,35.792898028233274],[128.56802445533532,35.79379207477459],[128.56747643427616,35.7948330882723],[128.567193318833,35.795080617449656],[128.56746365250942,35.79535804936325],[128.56775025957714,35.79536219936779],[128.568141603423,35.79565647283766],[128.56836598216452,35.79619231830453],[128.56894760039873,35.79654880167112],[128.56958007402784,35.79746419743967],[128.57243796301356,35.79694423749897],[128.5734172177459,35.796601309676525],[128.57396070334266,35.79661157531614],[128.57432285041614,35.79638232306219],[128.57517981127054,35.79611855278854],[128.57562709681477,35.79625168038328],[128.5766765427634,35.79601784678958],[128.57691998508918,35.79613156195029],[128.5773453707873,35.79653794720737],[128.57877114753774,35.79627551526901],[128.57947576606077,35.79667318144865],[128.58008752074898,35.79743539879782],[128.58051121015012,35.79744643327874],[128.58116846728342,35.79824282299566],[128.5820851512498,35.79869520661438],[128.58317010972718,35.7988086920361],[128.5834434168211,35.79898940731369],[128.58545016391142,35.799069580409444],[128.586471286015,35.80004440078051],[128.58663505292915,35.801068181083764],[128.58601676038404,35.80206488422838],[128.58593208031937,35.80257948516937],[128.58568259357764,35.80300867196878],[128.58644792445085,35.804621551336425],[128.5870654527399,35.80546124388724],[128.587783041353,35.80686087110812],[128.5879504544368,35.80769075120005],[128.58518336959446,35.80730891622133],[128.5848188040849,35.80746935620636],[128.58473372769515,35.809317271534994],[128.5843485667954,35.80924400663362],[128.5827478298688,35.812106713648845],[128.581741294764,35.8120606269498],[128.58107879551454,35.811841618043935],[128.5800410114263,35.81187415010613],[128.57950208279104,35.81215396348493],[128.57884239317772,35.81333297621184],[128.57762430519625,35.813980876836936],[128.57505427683324,35.81726853754672],[128.57218178105242,35.81880331294439],[128.57116861297388,35.81890576843455],[128.57074964172315,35.81941348285009],[128.571134780382,35.820663991851475],[128.57107574111507,35.82202772887304],[128.57079955119403,35.822264560502056],[128.57052465340925,35.82280621380314],[128.5700610525184,35.82315165004824],[128.56936668287076,35.82427776181698],[128.56861934092692,35.8249179953308],[128.56739251232798,35.823556563682],[128.56613529641345,35.82391678764457],[128.56352284212028,35.82427088615584],[128.56327935280464,35.82450169171673],[128.562535376244,35.82558503266787],[128.56245253440193,35.82558299541292],[128.56105915517014,35.82835747458162],[128.56112089299927,35.82836855073764],[128.56095509353517,35.82886469219573],[128.56050592748468,35.829391472322655],[128.56055615265424,35.829654998281875],[128.5603854760439,35.82965081364751],[128.56016678490974,35.83038645776859],[128.5588917277502,35.83159682827278],[128.5584785946072,35.83180402265344],[128.55836152657275,35.83204253108827],[128.55848928260838,35.832029393359385],[128.55829960051432,35.8322744105134],[128.55841777841306,35.83248103936061],[128.55820115209485,35.83290793492398],[128.55709195579368,35.833569364973094],[128.55661303419942,35.83393758242858],[128.5559236314877,35.83410402786999],[128.55554203135765,35.834445997675004],[128.5560246553793,35.83558713269878],[128.55680782074802,35.83683543582187],[128.55732743550124,35.83737338847884],[128.5578276391147,35.837738391979386],[128.55754605438193,35.837675475952956],[128.56211014231715,35.84355042198045],[128.56510655696871,35.84592848972037],[128.5718785907165,35.850078870202815],[128.57193994730216,35.85001138957641],[128.57361758916096,35.85113556526037],[128.57354807681347,35.85120876971926],[128.57447555575123,35.85991605677149],[128.57408355364143,35.862632189605606],[128.57142559897855,35.86203511846846],[128.57112177709985,35.86181322890836],[128.5690706176572,35.86133406545618],[128.5668393680801,35.86068973864526],[128.56680999797535,35.86075614374375],[128.5585502764926,35.858234932089445],[128.55660405172785,35.8575550738265],[128.5481695069133,35.854281516761],[128.5481465558536,35.854363937338576],[128.54803406165465,35.85432019999115],[128.54739985452954,35.856473954608575],[128.54366671417677,35.85573262054977],[128.54349357825902,35.856304770576514],[128.5420727582807,35.85602133587924],[128.5420761042538,35.85626666521502],[128.5419363742336,35.85631185023297],[128.5406376132314,35.85632138661429],[128.54013923178022,35.85625999248447],[128.5401565867496,35.85674258553644],[128.54045496999373,35.857350082661036],[128.54047846136694,35.857671467003705],[128.53996183241142,35.85838867177883],[128.5398811625637,35.858706861082595],[128.53319247857243,35.85870756746369],[128.5337765154213,35.86189454115281],[128.53290660693608,35.861490888485015],[128.5276367979374,35.86153683951236],[128.5273925659674,35.861703508119106],[128.52727870720915,35.86211046387353],[128.5270546403226,35.86247328509228],[128.5266138394585,35.86290163064218],[128.52652571667113,35.86310069104649],[128.52670926534776,35.86349568311527],[128.52697815164402,35.863802506683555],[128.52777781892817,35.86444816487693],[128.52711159164528,35.86504132976539],[128.52552773465575,35.865751954448726],[128.52521373820954,35.866050788268936],[128.52487648139967,35.866996094037056],[128.52302464115098,35.86732853515073],[128.52221395150835,35.86722211459001],[128.52063572128154,35.86740405176763],[128.5192879413101,35.86913778541348]]]}}
