{"type":"Feature","bbox":[129.28942162221364,35.516089534908346,129.46478994781145,35.67942801948147],"properties":{"regionCode":"31200","version":"vworld-20260909-3f8952dfda77-p2","name":"울산광역시 북구","attribution":"국토교통부/K-Geo플랫폼 · VWorld 법정구역정보, CC BY 2.0 KR; 공공주택 복덕방 가공"},"geometry":{"type":"MultiPolygon","coordinates":[[[[129.4533797472515,35.57359519437685],[129.4533678326869,35.573616600421865],[129.45329930724316,35.57359974996545],[129.4533797472515,35.57359519437685]]],[[[129.45322768361248,35.573650428751534],[129.45326022451272,35.573691275975044],[129.45324959501028,35.5737307053576],[129.45322049778542,35.57372347919148],[129.45322768361248,35.573650428751534]]],[[[129.45367943495333,35.57602862898531],[129.45359579562648,35.576062930771855],[129.4535770493859,35.57601161011686],[129.45367943495333,35.57602862898531]]],[[[129.45349566989157,35.57707124491354],[129.45337153704727,35.57708321239471],[129.453272293949,35.57702489389457],[129.45343536021088,35.577005245730426],[129.45349566989157,35.57707124491354]]],[[[129.4537844468571,35.577276183977816],[129.45366681720665,35.577238168838626],[129.45373021352805,35.57721772292489],[129.4537844468571,35.577276183977816]]],[[[129.45776117129364,35.580150721070844],[129.4577341455046,35.58013590793529],[129.45774755573166,35.58011172043598],[129.45776117129364,35.580150721070844]]],[[[129.4577952011642,35.58017283602173],[129.45780228559616,35.580149897989145],[129.45781533674992,35.580163448918995],[129.4577952011642,35.58017283602173]]],[[[129.45789313875898,35.580221565631156],[129.45788407871234,35.58022309662828],[129.4578811709172,35.58020646097534],[129.45789313875898,35.580221565631156]]],[[[129.45618109291777,35.58053502731091],[129.45617433177384,35.58050409349311],[129.4562073633626,35.580492350852765],[129.45618109291777,35.58053502731091]]],[[[129.45621867823206,35.580596659336486],[129.45621685063048,35.580640153268995],[129.45613444247857,35.580619834740865],[129.45621867823206,35.580596659336486]]],[[[129.45465555843268,35.58056819887491],[129.45465510056292,35.58067851851169],[129.4545873648374,35.58059930747711],[129.45465555843268,35.58056819887491]]],[[[129.45454630186435,35.580636576636955],[129.45449607669426,35.58068661701746],[129.4544860351794,35.58061018058128],[129.45454630186435,35.580636576636955]]],[[[129.45439888372178,35.58068962418868],[129.45443406268262,35.58064767173802],[129.454441429269,35.58065505261816],[129.45439888372178,35.58068962418868]]],[[[129.4547319241998,35.58070054411799],[129.45471428768832,35.58061165337553],[129.45484854647265,35.58062553164671],[129.45489976729044,35.58071450312499],[129.4547319241998,35.58070054411799]]],[[[129.45530804656335,35.580730635555355],[129.45526714642125,35.58071849634823],[129.45528724038556,35.5807073794839],[129.45530804656335,35.580730635555355]]],[[[129.45508910183608,35.580792975136724],[129.45507841648774,35.58075680148046],[129.45508868151092,35.58075576228408],[129.45508910183608,35.580792975136724]]],[[[129.45645180760442,35.58095786888176],[129.45627979862908,35.58097187708171],[129.45628756576266,35.58092917197762],[129.45645180760442,35.58095786888176]]],[[[129.45661603585611,35.58105217053663],[129.4565944019967,35.58111065597613],[129.4564977183247,35.58106921060446],[129.45661603585611,35.58105217053663]]],[[[129.45934454184024,35.582926763822904],[129.4603170137664,35.58380194426745],[129.4603568436391,35.58398128315806],[129.46017034696723,35.583891992638115],[129.45924792883477,35.583047283163324],[129.45934454184024,35.582926763822904]]],[[[129.4616029585418,35.58408626717647],[129.46162850944984,35.58410898059006],[129.46152801612675,35.584110393084785],[129.4616029585418,35.58408626717647]]],[[[129.46170001876413,35.58419033646842],[129.46164886346259,35.58423739026768],[129.46153086610607,35.584189893716434],[129.46157139982648,35.58414714349287],[129.46170001876413,35.58419033646842]]],[[[129.46196114574033,35.58434667339159],[129.4618925873968,35.58436822460271],[129.46186035163902,35.584316866335854],[129.46192594459046,35.5842843220435],[129.4618863067987,35.58433705526221],[129.46196114574033,35.58434667339159]]],[[[129.4618379995987,35.58437867278732],[129.46188520006228,35.5844324422641],[129.4617963022392,35.58439340586703],[129.4618379995987,35.58437867278732]]],[[[129.463090536594,35.58464141369809],[129.4631290267137,35.58487249965621],[129.46303808678883,35.584701190184106],[129.463090536594,35.58464141369809]]],[[[129.46333274488345,35.58503519220956],[129.46333531801707,35.58505655152175],[129.46323065169503,35.58503476433752],[129.46333274488345,35.58503519220956]]],[[[129.46374855231284,35.5852448731038],[129.46370377155026,35.585170688702654],[129.4637638861613,35.58519262916984],[129.46374855231284,35.5852448731038]]],[[[129.46397677215464,35.5853358262163],[129.46401854933706,35.58540346060442],[129.4639973108969,35.58543047271291],[129.46391113486598,35.58540473010929],[129.46397677215464,35.5853358262163]]],[[[129.46436735309268,35.58604470732359],[129.4643713453961,35.586094145433556],[129.46427997200803,35.58606452942955],[129.46436735309268,35.58604470732359]]],[[[129.4643815331353,35.58612731892185],[129.4642805341864,35.58621550173479],[129.46422235839526,35.58619706916208],[129.46430202318234,35.58614602919459],[129.4643815331353,35.58612731892185]]],[[[129.46455584772156,35.5864953716719],[129.4645424000892,35.58628950717074],[129.46464895917345,35.586466793559445],[129.46455584772156,35.5864953716719]]],[[[129.46461163464832,35.586524376872084],[129.46463360877988,35.58663232916476],[129.46445010216186,35.58680486703072],[129.46460359845213,35.586611634541065],[129.46461163464832,35.586524376872084]]],[[[129.4638459057954,35.588775394928966],[129.46384322473497,35.58879647746155],[129.46375898362555,35.588751060845055],[129.4638459057954,35.588775394928966]]],[[[129.46400556499384,35.58898585267138],[129.46388719133256,35.58885332324723],[129.46398799448556,35.58890663452891],[129.46400556499384,35.58898585267138]]],[[[129.46366242147982,35.58935680830817],[129.4637806762336,35.589256085441995],[129.4638605689263,35.589285979946176],[129.46366242147982,35.58935680830817]]],[[[129.46416166019,35.59262531876984],[129.46410273652955,35.59269593612821],[129.46391119382008,35.59263326842751],[129.46387277092026,35.592545161755744],[129.46396131949635,35.59252748077464],[129.46383673855732,35.592410342699495],[129.46401704206642,35.59239162302985],[129.46416166019,35.59262531876984]]],[[[129.46370806950657,35.592856559431596],[129.463681214729,35.5928034328129],[129.4638191486578,35.59281555593419],[129.46370806950657,35.592856559431596]]],[[[129.4641015923542,35.59297367204269],[129.46398467938315,35.59281057411275],[129.46422860270835,35.5928368178582],[129.46435172651982,35.59295195182377],[129.4641015923542,35.59297367204269]]],[[[129.46420865295056,35.593865315391795],[129.4643105156469,35.59402822663177],[129.4643096838098,35.594061794298035],[129.4642302674893,35.59404062238561],[129.46420865295056,35.593865315391795]]],[[[129.46338118491562,35.594636791474706],[129.4633914266967,35.59460640594223],[129.46345795734848,35.594633756230635],[129.46338118491562,35.594636791474706]]],[[[129.46359038616578,35.59477008007665],[129.46343424513555,35.59470860880628],[129.4634571144457,35.594661689804106],[129.46360053569444,35.59471983906214],[129.46359038616578,35.59477008007665]]],[[[129.46316741604156,35.59472386607776],[129.463190408871,35.5947825322354],[129.4631697875488,35.594800258786506],[129.4631339660132,35.59477483562453],[129.46316741604156,35.59472386607776]]],[[[129.46344384971258,35.59495244139669],[129.4634398094477,35.595005723597716],[129.46336094537213,35.59489871010965],[129.46356611872056,35.5949877709103],[129.4635434530566,35.59499541079537],[129.46344384971258,35.59495244139669]]],[[[129.4636612877489,35.595103661333205],[129.46367026605543,35.59511448693963],[129.46360075628726,35.59513891784457],[129.4636612877489,35.595103661333205]]],[[[129.46392469711014,35.59540392006272],[129.46375089269247,35.59541787398735],[129.46368885941405,35.595250329450565],[129.46375748670468,35.59525441867473],[129.46392469711014,35.59540392006272]]],[[[129.4641299715619,35.59585422226255],[129.46402277013652,35.59574365153812],[129.46399236569087,35.595821324070066],[129.46386262700202,35.595543515993704],[129.4639459303728,35.59554388884346],[129.4641299715619,35.59585422226255]]],[[[129.464269768269,35.59606011429538],[129.46432428666088,35.59609163006492],[129.4643175155872,35.59618218083466],[129.4642975270333,35.59618154577341],[129.464269768269,35.59606011429538]]],[[[129.46385889948,35.596192337983574],[129.46385149247723,35.59621858460556],[129.46372608334906,35.59606584878583],[129.46385889948,35.596192337983574]]],[[[129.4639334383373,35.59618063140135],[129.4639954602221,35.59624847555543],[129.46400565467923,35.59631709700855],[129.46396889747612,35.59628648601027],[129.4639334383373,35.59618063140135]]],[[[129.4637604744533,35.59658349572786],[129.4637836771498,35.59666525250813],[129.4637543135904,35.59670722100881],[129.46370797746894,35.59664975314309],[129.4637604744533,35.59658349572786]]],[[[129.4638018375895,35.597018494603695],[129.46375162462996,35.59703120729235],[129.46374086703145,35.59700855440023],[129.4638018375895,35.597018494603695]]],[[[129.46380235203662,35.597157479541174],[129.46373020901746,35.59718682417755],[129.46374565800366,35.597135058013706],[129.46380235203662,35.597157479541174]]],[[[129.4644943742314,35.59737657599775],[129.4643157460087,35.59724952471662],[129.46434248965414,35.597135914702136],[129.4644387116599,35.59732849981596],[129.4645148794003,35.59733864257824],[129.46452686232877,35.59723356056377],[129.46433913892875,35.597119487529945],[129.46426551554973,35.596915396032884],[129.46429004104493,35.59678066799774],[129.46437782383424,35.59692401206642],[129.46436753753267,35.59671744996912],[129.46446072382108,35.59680469584514],[129.4644566663545,35.597068788265666],[129.46458437523827,35.59733443611789],[129.4644943742314,35.59737657599775]]],[[[129.46453066398522,35.597415893750004],[129.4645150369282,35.59745755728899],[129.46447648226155,35.59740451262922],[129.46453066398522,35.597415893750004]]],[[[129.46451902590363,35.597510114485104],[129.4645776115778,35.59753309616353],[129.46466069312433,35.59761320643586],[129.4645514228174,35.5975767024562],[129.46451902590363,35.597510114485104]]],[[[129.46463980014923,35.59767550336113],[129.46475228000907,35.59775754558901],[129.46474657179613,35.59778189397537],[129.46465998956091,35.59777779347051],[129.46463980014923,35.59767550336113]]],[[[129.46475875186883,35.597922618683086],[129.46478994781145,35.59798742680823],[129.46473590827253,35.59798544505407],[129.46475875186883,35.597922618683086]]],[[[129.46391800358512,35.60106872609427],[129.46387620752853,35.60112333415742],[129.46381699852753,35.601118893218505],[129.46382052423718,35.60110079077106],[129.46391800358512,35.60106872609427]]],[[[129.46386734071865,35.601185565595806],[129.4638306675173,35.601188923797736],[129.4638278753476,35.60114879205505],[129.46386734071865,35.601185565595806]]],[[[129.46374847720864,35.6014534252628],[129.46373577457078,35.601392087242],[129.4638040240951,35.60144278373476],[129.46374847720864,35.6014534252628]]],[[[129.4637771611442,35.60151889207351],[129.46371507978307,35.60149475996053],[129.46372537676706,35.60147952473067],[129.4637771611442,35.60151889207351]]],[[[129.46417544955457,35.60167417312459],[129.46415228743948,35.60163620083496],[129.46421985565084,35.60160712702298],[129.46417544955457,35.60167417312459]]],[[[129.46399623150626,35.602284148744346],[129.4637206943076,35.601945750300125],[129.46379942115894,35.602119629395546],[129.46373675308217,35.60207810465645],[129.4636639374748,35.60183851747948],[129.46369476108958,35.60178332119182],[129.463846778803,35.60183140534335],[129.46387952134285,35.601617314930635],[129.46390758474985,35.60167834120491],[129.4639131791245,35.601615265242245],[129.46399354612598,35.601650593024885],[129.46400928797144,35.6017412914154],[129.46392197779784,35.6017305241362],[129.4640721141511,35.60193834975624],[129.4640819924866,35.602303718949116],[129.46402021968564,35.602191810074345],[129.46399623150626,35.602284148744346]]],[[[129.4640852796249,35.60246785768939],[129.46404993584198,35.60243973797602],[129.46404243909726,35.60234537587044],[129.4640783674901,35.602446135592544],[129.4640852796249,35.60246785768939]]],[[[129.46332191298583,35.602796194576996],[129.46325350180425,35.602702192364404],[129.46331464694993,35.6026995866719],[129.46332191298583,35.602796194576996]]],[[[129.46314195896116,35.602787575810204],[129.4631440609142,35.60282305093738],[129.46305391809108,35.602745950372224],[129.46314195896116,35.602787575810204]]],[[[129.46428576120323,35.60278045270152],[129.46434152200302,35.60284489546405],[129.46433342211745,35.60285830186926],[129.46427429387458,35.602831752817785],[129.46428576120323,35.60278045270152]]],[[[129.4628815811749,35.60337198666145],[129.462877028574,35.60342659420397],[129.46284182739285,35.603398303238855],[129.4628815811749,35.60337198666145]]],[[[129.46306538482997,35.60412139183192],[129.46308671579104,35.60419378208767],[129.4630626427737,35.60421436038082],[129.4630040785097,35.604145907856605],[129.46306538482997,35.60412139183192]]],[[[129.46353589883228,35.60418582730673],[129.46354231209745,35.60425127132016],[129.4634271989672,35.6041674167347],[129.46350630030923,35.60416093035126],[129.4635176878792,35.604078472786234],[129.46358720228255,35.60421032447193],[129.46353589883228,35.60418582730673]]],[[[129.46327634736343,35.604316474444595],[129.46328386378946,35.604525498450954],[129.4631220690334,35.604600792077825],[129.4629076672928,35.6043488592002],[129.46327634736343,35.604316474444595]]],[[[129.46275526148415,35.60494505863175],[129.46274361735396,35.60497358374237],[129.4626925882759,35.60494514588304],[129.46275526148415,35.60494505863175]]],[[[129.46262589315674,35.60665839903244],[129.46262979189322,35.606729829321345],[129.46252631310017,35.606731335000845],[129.46255978067208,35.60660370153114],[129.46244420714922,35.60664186372303],[129.46237129438236,35.60656960876286],[129.462440841699,35.60641376252458],[129.46222643409803,35.60630895408513],[129.4623956073952,35.60609399832833],[129.46230347421005,35.60610302213078],[129.46224987421553,35.60600378933453],[129.46216367843311,35.60610305380955],[129.46218827368443,35.60602550254112],[129.46208446495058,35.606007722389634],[129.46221839737487,35.605926724163936],[129.46235356754352,35.60599564911144],[129.46240332275858,35.605917641042055],[129.46228959692544,35.605927559294614],[129.46225503064605,35.60586026694349],[129.46236082895524,35.605700107985434],[129.46238476772834,35.60576931600694],[129.46239294812193,35.605714306830244],[129.46248003391787,35.60576601239223],[129.46245220766073,35.605830353754875],[129.4623988351813,35.60578413346527],[129.46239166104937,35.60587997599908],[129.4625117315652,35.60602318907043],[129.46246946953204,35.606131703851744],[129.46256794005043,35.6061595987251],[129.4627663919618,35.606573382579924],[129.4627584352762,35.60666153110282],[129.46262589315674,35.60665839903244]]],[[[129.46262557340248,35.60694212398048],[129.4626319313557,35.606894395108874],[129.46276459280526,35.60681094962439],[129.46276902246052,35.60690175491337],[129.46262557340248,35.60694212398048]]],[[[129.4624960769349,35.60705984256869],[129.46244981034832,35.60708239868634],[129.4624350531214,35.60704952227693],[129.4624960769349,35.60705984256869]]],[[[129.46153784263237,35.607666267412746],[129.46143004443815,35.60760561862592],[129.4614112970191,35.607371825290315],[129.46133132930106,35.607600858855974],[129.46129197321056,35.6073277043057],[129.46145882480303,35.60714587201395],[129.46155121438844,35.607140921165225],[129.46159841976336,35.60722013461448],[129.46167057197297,35.607125403814344],[129.46159578488047,35.60706873848676],[129.46168872197612,35.6071169525249],[129.46173688396573,35.60703042462177],[129.461764394659,35.60715857206158],[129.46164441292947,35.60718632286272],[129.46171583080252,35.60732108791498],[129.46154905206086,35.60731963639246],[129.46149054388738,35.607376632479856],[129.46155827245354,35.60746275153873],[129.46145088093309,35.60749980956261],[129.46153784263237,35.607666267412746]]],[[[129.46015237042494,35.6076847518698],[129.46015778979972,35.607765702407896],[129.4601273619869,35.60775225433472],[129.46015237042494,35.6076847518698]]],[[[129.46106523233442,35.60772434382414],[129.46103344598097,35.60776450038004],[129.46100761991292,35.60769885933989],[129.46106523233442,35.60772434382414]]],[[[129.4611417767243,35.60777552329026],[129.4611200054541,35.607818507926915],[129.46110449201498,35.60774410337904],[129.4611417767243,35.60777552329026]]],[[[129.4614250939945,35.60786984873334],[129.46138257645268,35.607911163637354],[129.46135673026032,35.60786139539665],[129.4614250939945,35.60786984873334]]],[[[129.45890458908062,35.60806872559838],[129.4588254560953,35.60805684183275],[129.45878269138524,35.60786185882574],[129.45902724784287,35.607958364500476],[129.45893231430372,35.607927938267544],[129.45890458908062,35.60806872559838]]],[[[129.46082194623312,35.60810745508183],[129.46085287268608,35.60805770278155],[129.46089533296973,35.608106417281526],[129.46082194623312,35.60810745508183]]],[[[129.4583800129577,35.60812838575054],[129.45842992951148,35.60819579294953],[129.4584361597473,35.608229792023266],[129.4583550433617,35.60819908749859],[129.4583800129577,35.60812838575054]]],[[[129.4578608139052,35.60850440177625],[129.4578069425628,35.608550553443834],[129.4578120381044,35.60849379893514],[129.4578608139052,35.60850440177625]]],[[[129.45736017921257,35.6088135232463],[129.45745557450948,35.60876602447803],[129.45743538513804,35.60868021773117],[129.45775778543168,35.60859885963552],[129.4577165929692,35.60863888064793],[129.45780974300007,35.60870309462807],[129.45751071513183,35.60866766462058],[129.45748099434488,35.60872775813829],[129.45761017061125,35.6087790373989],[129.45736017921257,35.6088135232463]]],[[[129.45785205770878,35.60930755927601],[129.45786056638482,35.6093733571869],[129.457763794521,35.609384368623125],[129.45777129807752,35.609331976019526],[129.45785205770878,35.60930755927601]]],[[[129.45789636982883,35.60940625266609],[129.4579470905156,35.60917506975729],[129.45802334411647,35.609401921458364],[129.45789636982883,35.60940625266609]]],[[[129.45805995338017,35.60947375863608],[129.45797749814025,35.60946584347824],[129.4580141522111,35.60944092836637],[129.45805995338017,35.60947375863608]]],[[[129.45789123533584,35.6094696959003],[129.45789159985242,35.6094891800204],[129.45780591208742,35.60948940628808],[129.45789123533584,35.6094696959003]]],[[[129.45775580433065,35.60946593839589],[129.45763565912398,35.60953569429008],[129.45761063179492,35.609511166043646],[129.45775580433065,35.60946593839589]]],[[[129.45791925223176,35.610183576753066],[129.45805955841237,35.61044030532468],[129.45799039221617,35.610487002301554],[129.4581179031312,35.610595861342325],[129.45791414855418,35.61050022596357],[129.45768649013345,35.61012394890021],[129.45791925223176,35.610183576753066]]],[[[129.45763806948136,35.61062353314172],[129.45747059467195,35.610594210853044],[129.45761112195225,35.61054681956502],[129.45734231198585,35.61033395701863],[129.45740568427422,35.61022335383697],[129.4575201733329,35.61041610973516],[129.45768895026467,35.610511419120186],[129.45763806948136,35.61062353314172]]],[[[129.45789506713706,35.6112152409883],[129.45786486244418,35.61130681769719],[129.45770490952677,35.611181840742866],[129.4577472292016,35.61120971004679],[129.45789506713706,35.6112152409883]]],[[[129.45817970184171,35.61254566886829],[129.45818592873522,35.61258857372211],[129.4580880440817,35.61252710820477],[129.45817970184171,35.61254566886829]]],[[[129.4582238703722,35.61268071123265],[129.45821130291208,35.612696919557735],[129.45817181267557,35.61266791274391],[129.4582238703722,35.61268071123265]]],[[[129.45843602348924,35.61361658949744],[129.45840449758037,35.61355216838304],[129.45852686088983,35.6133963309992],[129.45855309760708,35.613553189465094],[129.45843602348924,35.61361658949744]]],[[[129.4585993027844,35.61374910533123],[129.4586850269417,35.61381242777396],[129.45859978910886,35.61387674269633],[129.45854046054623,35.61382205357733],[129.4585993027844,35.61374910533123]]],[[[129.4564906853754,35.61538190832404],[129.456582287236,35.61542288549953],[129.4565593590319,35.61604779450013],[129.45665385544524,35.61636295796693],[129.4564536261386,35.616528714406186],[129.45628177697824,35.61646787922447],[129.4562210263491,35.616281364093915],[129.45630471426932,35.61619983244542],[129.45627531595005,35.61547797164198],[129.4564906853754,35.61538190832404]]],[[[129.4531261434677,35.6184916214542],[129.4530587820016,35.61850579070987],[129.45306314900228,35.618468000992],[129.4531261434677,35.6184916214542]]],[[[129.45358893714595,35.618483210503406],[129.4536392042768,35.61854580445844],[129.4535758310134,35.6185763712685],[129.4535228183408,35.61852971313995],[129.45358893714595,35.618483210503406]]],[[[129.45070339157172,35.6195368851786],[129.45068108963753,35.61944144228347],[129.45076774200302,35.61950510866467],[129.45070339157172,35.6195368851786]]],[[[129.45075177252826,35.61966087388986],[129.45067124720907,35.61964287020106],[129.4506961107544,35.61959080085213],[129.45054254607723,35.61961366329287],[129.45059228841276,35.61950251176398],[129.4507615764963,35.619596387133555],[129.45075177252826,35.61966087388986]]],[[[129.4507092138843,35.61979931688718],[129.45057992848277,35.61972339026034],[129.45075459062357,35.61973229053275],[129.4507092138843,35.61979931688718]]],[[[129.44923544459593,35.62071376432882],[129.44924051283914,35.620761450039886],[129.44918091827338,35.62071418345037],[129.44923544459593,35.62071376432882]]],[[[129.44952309191154,35.620599868673786],[129.44959184372811,35.62073894164421],[129.44957320431533,35.62076129092163],[129.44949460024768,35.62067643930499],[129.44952309191154,35.620599868673786]]],[[[129.442481101565,35.633593425373334],[129.4424882416972,35.633605016836114],[129.44233224347445,35.63356832141446],[129.442481101565,35.633593425373334]]],[[[129.44260713166292,35.63379325387828],[129.44242298609106,35.63377559850343],[129.44237822558847,35.63372669664848],[129.44253129574105,35.63374487232288],[129.44260713166292,35.63379325387828]]],[[[129.4428288358814,35.63399513647623],[129.44260234371077,35.63385808274041],[129.44280505473105,35.63385090178091],[129.4428288358814,35.63399513647623]]],[[[129.44312398107076,35.633965255348016],[129.44297584872822,35.63400980067282],[129.44294580123184,35.63393245518268],[129.44312398107076,35.633965255348016]]],[[[129.4427712857132,35.63415164807649],[129.44274750152252,35.63413692747514],[129.44287668527784,35.63411163188662],[129.4427712857132,35.63415164807649]]],[[[129.44322059291852,35.634519394748494],[129.4432039210456,35.634513155993574],[129.44323708084346,35.634466275720555],[129.44322059291852,35.634519394748494]]],[[[129.44387573266408,35.635199755623795],[129.44379321468026,35.63519499456937],[129.44383662010162,35.635112385313725],[129.44386044469195,35.63512424013054],[129.44387573266408,35.635199755623795]]],[[[129.44500479897502,35.6359019144232],[129.44480403727513,35.63579548468434],[129.44473016616612,35.63588509229029],[129.44463094156237,35.63574442571826],[129.4444666564507,35.63575153923248],[129.44460326057452,35.63569816611156],[129.44458393859398,35.63558016146049],[129.44467312053152,35.635548070879295],[129.44491197565935,35.63565359350644],[129.44500479897502,35.6359019144232]]],[[[129.4445495633236,35.64577749366734],[129.44452665099737,35.64580732947801],[129.44449048424153,35.64577035703352],[129.4445495633236,35.64577749366734]]],[[[129.4441506552615,35.64583830564823],[129.44420625023906,35.64589425884725],[129.44415360758575,35.64594280709092],[129.44413222607508,35.64591997529851],[129.4441506552615,35.64583830564823]]],[[[129.446310579395,35.64595081298695],[129.4462463171567,35.645976638861775],[129.44626278994707,35.64593282031072],[129.446310579395,35.64595081298695]]],[[[129.44428500329997,35.64597457015117],[129.4442939167451,35.646047008852165],[129.44423476228815,35.6459962597238],[129.44428500329997,35.64597457015117]]],[[[129.44612348334795,35.64600929630782],[129.44608959064828,35.64603213411425],[129.4460585192573,35.646002416937506],[129.44612348334795,35.64600929630782]]],[[[129.4450578154794,35.646047009159936],[129.4451239015929,35.645997636649206],[129.44516732774167,35.64603928658495],[129.4450578154794,35.646047009159936]]],[[[129.44686218378425,35.64603899503865],[129.4468053676355,35.64607947425014],[129.4467642012882,35.64601156254537],[129.44677904084767,35.6459996195991],[129.44686218378425,35.64603899503865]]],[[[129.44652471686652,35.64609482782121],[129.44647377601672,35.646119513531566],[129.44646346457515,35.64608403213382],[129.44652471686652,35.64609482782121]]],[[[129.44635672990213,35.64619434801553],[129.44641847026517,35.6461140585077],[129.4464327009471,35.64614939000781],[129.44635672990213,35.64619434801553]]],[[[129.44663754142502,35.64617809345696],[129.4465653992658,35.64619873809339],[129.44652027712306,35.64616014145973],[129.44660852972459,35.646101825892444],[129.44663754142502,35.64617809345696]]],[[[129.446279223472,35.64622518838792],[129.44627718311474,35.64615415685174],[129.44631650798613,35.64616903561812],[129.446279223472,35.64622518838792]]],[[[129.44637541506145,35.646256276876855],[129.44633878959843,35.646250239473716],[129.44646383146724,35.646171932155916],[129.44637541506145,35.646256276876855]]],[[[129.44757971917267,35.64631454582082],[129.4475488075809,35.64630367458099],[129.4475829051163,35.646240476539944],[129.44757971917267,35.64631454582082]]],[[[129.44772751111626,35.646448756191944],[129.4476730044305,35.646402398634],[129.44772868966086,35.64635337776891],[129.44780309099096,35.64640522258433],[129.44772751111626,35.646448756191944]]],[[[129.44712116487025,35.646446943531906],[129.44705416514964,35.64648293681903],[129.44705044556605,35.6464454936335],[129.44712116487025,35.646446943531906]]],[[[129.4466686414962,35.64650657466563],[129.44667758276665,35.64654784676043],[129.44661695256423,35.646512092661226],[129.4466686414962,35.64650657466563]]],[[[129.44790905345295,35.64652487893423],[129.44783361426346,35.646581849581864],[129.44777454153547,35.64651683501099],[129.44790905345295,35.64652487893423]]],[[[129.4475547480198,35.64660457965559],[129.44746290059595,35.64658046060722],[129.44764342042373,35.64644939261979],[129.44769055386925,35.64650611567739],[129.4475547480198,35.64660457965559]]],[[[129.44731318791273,35.64666420453883],[129.44728685497586,35.6466684301718],[129.44728125481402,35.646648154529714],[129.44731318791273,35.64666420453883]]],[[[129.4479005987789,35.64668182258468],[129.44785595396903,35.646667469433375],[129.4478955948348,35.64662011256423],[129.4479005987789,35.64668182258468]]],[[[129.44757216563315,35.6466884509828],[129.44777778803333,35.64657812723803],[129.44773526685478,35.64666128422497],[129.44757216563315,35.6466884509828]]],[[[129.44727517100605,35.64672151342863],[129.44723072381424,35.64674655418945],[129.4471949788057,35.64671433107052],[129.44727517100605,35.64672151342863]]],[[[129.44786271545823,35.646723557344195],[129.44777959750132,35.6467579439325],[129.44774645280333,35.64670109738407],[129.44786271545823,35.646723557344195]]],[[[129.44727702182362,35.646809949244606],[129.4472810665167,35.64677297276634],[129.44732928546756,35.6467887467496],[129.44727702182362,35.646809949244606]]],[[[129.44718665156648,35.647084552663095],[129.44710921878956,35.6470893288202],[129.44711276444605,35.64706163753949],[129.44718665156648,35.647084552663095]]],[[[129.44818234380566,35.647354326962585],[129.44810830686606,35.64734827524348],[129.448117207469,35.64731089293779],[129.44818234380566,35.647354326962585]]],[[[129.4486075383571,35.64733948605145],[129.44866890783717,35.64737273997424],[129.4486445078624,35.64742271622109],[129.44861198212243,35.64741143597568],[129.4486075383571,35.64733948605145]]],[[[129.4482174590645,35.64742989405318],[129.4482048894125,35.64740547174893],[129.44828108565977,35.647387062896705],[129.4482174590645,35.64742989405318]]],[[[129.44828295720322,35.6474809423665],[129.44823484657715,35.64745305565541],[129.44827275346708,35.64743329394622],[129.44828295720322,35.6474809423665]]],[[[129.44853178345744,35.64756919729907],[129.44841163117053,35.64764542453934],[129.4483082879014,35.647508562145404],[129.44842520296396,35.64756460098277],[129.4483835810779,35.64746497511402],[129.4484677427028,35.64743134197879],[129.44853178345744,35.64756919729907]]],[[[129.4480299010043,35.64765125171081],[129.44804701543654,35.64770459836819],[129.44796582531623,35.64764545161357],[129.4480299010043,35.64765125171081]]],[[[129.44818425774204,35.647825615270364],[129.44808770839558,35.6477111427647],[129.44816013695979,35.64762494604481],[129.44807379925874,35.647666401152584],[129.4479933478329,35.647567361940055],[129.44813173224327,35.647493627478454],[129.44806605837223,35.64750219041223],[129.44810445222862,35.64744308574723],[129.44800239608452,35.647518956674745],[129.44794063010016,35.64747177917331],[129.4480377781282,35.64736721160296],[129.44821361044924,35.64749607168904],[129.44826122269967,35.647664045463685],[129.4483597311675,35.64768433658135],[129.44824272709087,35.647739046697176],[129.44837495028247,35.64775808547698],[129.44818425774204,35.647825615270364]]],[[[129.44846118624253,35.64783679711686],[129.44841846610265,35.64782905243149],[129.44848124437067,35.647770704220925],[129.44846118624253,35.64783679711686]]],[[[129.44817655049965,35.64787493548346],[129.4481287886657,35.647901754741],[129.44809706380073,35.64785001294744],[129.44817655049965,35.64787493548346]]],[[[129.44893599858906,35.648132395626575],[129.4488439107062,35.64808751329891],[129.4488857417897,35.64803488487103],[129.4489547679272,35.64805122916334],[129.44893599858906,35.648132395626575]]],[[[129.44840710876778,35.6481618638542],[129.44842279721675,35.64809838295255],[129.44854676800284,35.64811453152323],[129.44840710876778,35.6481618638542]]],[[[129.44870344740232,35.64826748993583],[129.44864464249707,35.64815966388718],[129.44870273880588,35.648162448490545],[129.44870344740232,35.64826748993583]]],[[[129.4491440516621,35.64840468892313],[129.4491031871977,35.64834378941156],[129.44912676937125,35.64833338139489],[129.4491440516621,35.64840468892313]]],[[[129.4491137711649,35.64851659647909],[129.44914066941448,35.64848880024408],[129.44916120854535,35.648506739797824],[129.4491137711649,35.64851659647909]]],[[[129.4488912668609,35.64859820785173],[129.4488143857665,35.64851801003576],[129.44886772882242,35.648413199791364],[129.44896488841056,35.648514114330325],[129.4488912668609,35.64859820785173]]],[[[129.4486862848099,35.64860451416362],[129.44855569994093,35.64850544571071],[129.4485838828517,35.648458645468445],[129.44878533310296,35.64858705757466],[129.4486862848099,35.64860451416362]]],[[[129.4489745198057,35.64877904540048],[129.44887374235714,35.64874020665895],[129.44899931363815,35.648663318788735],[129.4490450913848,35.648714106238266],[129.4489745198057,35.64877904540048]]],[[[129.44925469708215,35.64883728674497],[129.449133230739,35.64874199634515],[129.44925330564237,35.648776212469706],[129.44923643636372,35.648687958594486],[129.44931444217966,35.648807186361395],[129.44925469708215,35.64883728674497]]],[[[129.4487728646483,35.648711056742926],[129.44888061419647,35.648796024054924],[129.4488424091718,35.648896766997666],[129.44871097218189,35.64875410619889],[129.4487728646483,35.648711056742926]]],[[[129.4487697034485,35.648972979321115],[129.4486737566109,35.6489233156997],[129.44868160923141,35.64883661961348],[129.44862188455036,35.64885879716224],[129.44865784129166,35.64878629072755],[129.4487652472535,35.64887702775729],[129.4487697034485,35.648972979321115]]],[[[129.44885310964995,35.649370762473545],[129.4489034008465,35.64932824239789],[129.44894593677824,35.64939364303209],[129.44885310964995,35.649370762473545]]],[[[129.44895102326362,35.64952911330354],[129.4488906118055,35.6494836795043],[129.44893569224365,35.649465115814344],[129.44895102326362,35.64952911330354]]],[[[129.4492156926068,35.64993127633014],[129.44930435330303,35.649985013144345],[129.4493096208303,35.650014883081354],[129.4491759796665,35.650027100070076],[129.4492156926068,35.64993127633014]]],[[[129.44932161776697,35.65004070279874],[129.44935357248445,35.65010714812391],[129.44925350746342,35.650130694924684],[129.4492194603607,35.65006690675011],[129.44932161776697,35.65004070279874]]],[[[129.44936861716,35.650226691161606],[129.44933424887498,35.65024744344787],[129.44929158095533,35.65017105518612],[129.44936861716,35.650226691161606]]],[[[129.4501390897939,35.6501276942421],[129.45018950420368,35.65021407760695],[129.4501441101334,35.650257404141335],[129.450055162455,35.65014279218342],[129.4501390897939,35.6501276942421]]],[[[129.44978192624237,35.65039237091634],[129.44977450491422,35.650428521384185],[129.44970986390513,35.65038061525007],[129.44978192624237,35.65039237091634]]],[[[129.44971587602888,35.65054188248325],[129.44956061240856,35.65036674067241],[129.4496111232839,35.650366100325556],[129.44971587602888,35.65054188248325]]],[[[129.4501463618503,35.65060321073331],[129.44997468180782,35.65052035376799],[129.4498671551029,35.65055727727129],[129.4498535600155,35.65047531599897],[129.4500418107545,35.650463565960216],[129.4501463618503,35.65060321073331]]],[[[129.4505723918385,35.65078798049408],[129.45055460658494,35.650802067565806],[129.4504866594037,35.650722972904695],[129.4505723918385,35.65078798049408]]],[[[129.45016937654654,35.65085307022271],[129.45015258862466,35.65087824368492],[129.4501163856125,35.65084448108123],[129.45016937654654,35.65085307022271]]],[[[129.4500544060704,35.650754155351656],[129.45004032010937,35.65081059967866],[129.45007768767908,35.6508829032663],[129.44998771759006,35.650785503533484],[129.4500544060704,35.650754155351656]]],[[[129.45026129383467,35.650903309901324],[129.45014993607816,35.65074439552275],[129.45018319989876,35.65074840015803],[129.45026129383467,35.650903309901324]]],[[[129.3558725689099,35.67942801948147],[129.35497350059453,35.67930664863271],[129.35355703509256,35.679409920665904],[129.35312985019485,35.67881195547258],[129.35251202063657,35.67861724088242],[129.3520132943028,35.67875486590797],[129.35120944595974,35.67843901208678],[129.35057667280867,35.6780568754878],[129.34982346610425,35.67778990391503],[129.349158463692,35.67744593370904],[129.34833106879933,35.676863398332976],[129.34799444728438,35.676289895963244],[129.34782136979433,35.67552558909161],[129.3473076629644,35.67535847314909],[129.3469172043608,35.67467109683377],[129.34646773148336,35.67419540053654],[129.3464252911663,35.67396055291772],[129.34612648051174,35.673845814776804],[129.34588540007178,35.673904632980296],[129.34480183755974,35.673552265979176],[129.34429195767453,35.67288119774082],[129.34355861936555,35.67229544687258],[129.34331977589227,35.67190929007933],[129.3430796386531,35.67172264040952],[129.3430303987401,35.671423938111595],[129.34239393982674,35.67116347867122],[129.3418668038676,35.67063922113809],[129.3416077299517,35.67062050351749],[129.34105857993345,35.6703728779066],[129.340545323191,35.66984671083444],[129.34008135605274,35.66956170931993],[129.33988148991617,35.66963278574982],[129.33887991789427,35.66951308813027],[129.33815535134218,35.669227067343385],[129.33712953940437,35.66907497568301],[129.33665529559107,35.66918555455613],[129.33572947194858,35.669129275866325],[129.33416037224765,35.66979111977858],[129.33383243600738,35.66937462760358],[129.33367794621748,35.66867933200777],[129.3331194344893,35.66800844826949],[129.3332225648337,35.66723181882274],[129.33306013247497,35.666905086077456],[129.33255097181103,35.66653722116274],[129.33262726082586,35.665856319367066],[129.3328678010149,35.665412287304974],[129.33288430495904,35.66521736160627],[129.33273903076199,35.6651004714296],[129.33254605910054,35.66506587092332],[129.3310237166069,35.665550367673795],[129.3303524278252,35.665065418848094],[129.32983734143062,35.66436157046454],[129.32989381608957,35.664149906086905],[129.330236702952,35.66382570071415],[129.330187126729,35.663691267841195],[129.3295094506519,35.6634138399465],[129.32904799727842,35.66299743345009],[129.3288672238029,35.66293670193019],[129.3286338234793,35.66265674483208],[129.32869678935072,35.66045289032833],[129.32938825344556,35.660613611544775],[129.3300655250366,35.6602691436951],[129.3301861853485,35.6599479414914],[129.32988489336861,35.65979967451063],[129.32990436237782,35.65913321912394],[129.32977273923805,35.65872927556282],[129.32909995281412,35.65812694629016],[129.32874583745945,35.658240945542936],[129.32782908383487,35.658802918808554],[129.32699691385184,35.65838064467179],[129.32651084824334,35.65803094585724],[129.32565705562743,35.657681903391904],[129.3236724898055,35.65857051486818],[129.3226628734248,35.65806157595811],[129.32225521356582,35.658112322610336],[129.32089813227785,35.65722597365962],[129.3207874011146,35.65704228942153],[129.32074298609442,35.6566487482932],[129.32022526249128,35.656599079361406],[129.3193576165391,35.65634129202377],[129.31910069298777,35.656419228914444],[129.3189225923017,35.656910518003166],[129.3190521239163,35.657201438157486],[129.31919944115052,35.65731466535873],[129.31910368390064,35.657940861956234],[129.31805504171314,35.65881833190039],[129.31736549875606,35.65911406936923],[129.31642061398813,35.65937080396055],[129.31612079378002,35.65931227282025],[129.31487315550473,35.658255149699585],[129.31362528665596,35.65952445582417],[129.31263174916842,35.66027644577299],[129.31217477289738,35.66024282468445],[129.3111397716973,35.66054347954412],[129.31048358974536,35.66023023393335],[129.30959159743134,35.6594845007839],[129.30914485511386,35.6590249193774],[129.30914181274846,35.65858055599743],[129.30895789656276,35.65835563124402],[129.308238076952,35.65809592444764],[129.30773958055613,35.65765470310806],[129.30771526489937,35.65717671379945],[129.30568414339635,35.657596277092516],[129.30510023284143,35.65733870652092],[129.30448328518168,35.65719383631577],[129.30425827314386,35.65702629481523],[129.3040350565117,35.65665334407461],[129.3040931759055,35.65572272203756],[129.30402618630683,35.65506793559088],[129.30384429237247,35.65473793288315],[129.30374364597589,35.65373014260737],[129.3040804612332,35.65250549897726],[129.30407313450183,35.65166907960426],[129.30393087729635,35.65160223536639],[129.30337819117372,35.65171223684575],[129.3025783371415,35.65172305981308],[129.3020762988999,35.651191297134034],[129.30205564192622,35.65096042316117],[129.30275250728897,35.65039307426831],[129.30332741209656,35.65009195527794],[129.30338537763382,35.64991476578875],[129.3033764328754,35.64968306122894],[129.3029913538575,35.64940224868883],[129.30307079251705,35.648301366282624],[129.30293386244827,35.64775249747631],[129.30278660055976,35.64778303130303],[129.30253331632252,35.647993572287206],[129.30170956461805,35.64806465610997],[129.30074459410883,35.64793455202708],[129.29966053309232,35.64737059838997],[129.29913236762707,35.64736836223378],[129.29871089768542,35.64764836023582],[129.2985776559077,35.64757472619174],[129.2983612550303,35.647662210358284],[129.29786689716522,35.64714803337362],[129.29698793874925,35.646489670095065],[129.29684122346694,35.64514972446727],[129.2962668711861,35.64477524121054],[129.2962372495127,35.64418937702493],[129.29642258883425,35.64351263642875],[129.29712826759268,35.642857031120236],[129.2972859632322,35.642576312659564],[129.29718681177837,35.64228410038029],[129.29675011265178,35.64184590330821],[129.2967157778322,35.64119906484338],[129.2963438461871,35.63934331516058],[129.29618460609763,35.637908946211674],[129.2965028993815,35.63732999866106],[129.2966338846557,35.63647146371985],[129.29655549448822,35.63572049901449],[129.29677366168525,35.634939917163564],[129.29711517985413,35.633985041515395],[129.29795379510932,35.63296593047559],[129.29816437106956,35.63200600836056],[129.29813886530084,35.631420533849],[129.29762884195796,35.62985054921531],[129.29750106053785,35.629126424769126],[129.296975338332,35.628271809814116],[129.29635292194686,35.627539342742395],[129.29568244071928,35.62712723889338],[129.2947817963138,35.62641429011887],[129.294597528943,35.62602425741883],[129.29492926462197,35.62568281993794],[129.29489878019697,35.62509329362257],[129.29468505377588,35.6243583477919],[129.29463224496243,35.6235431099057],[129.29442515173676,35.62310168196522],[129.29507981909913,35.622335161193206],[129.2952741253869,35.622251745999655],[129.29525360326454,35.622018222438506],[129.29448255727888,35.621478455224604],[129.29401428424694,35.620627950969755],[129.2941123271905,35.620178816075864],[129.29462904198624,35.619812352141246],[129.29453918802915,35.61872319777837],[129.29472235188464,35.618363385754634],[129.29542968845797,35.617918399975096],[129.29660132056375,35.61759255699094],[129.29684188227773,35.61738684952246],[129.29794225141063,35.61694459384132],[129.29864052639735,35.616348657301984],[129.2989258026836,35.61575174750601],[129.29913939637163,35.615745014370525],[129.2997831326892,35.615037698731435],[129.30017611421212,35.614269507469054],[129.29953254070765,35.61426875308247],[129.29951593733105,35.61350906494565],[129.29903758239527,35.612894274234634],[129.29902727299356,35.61249816209643],[129.29930596036363,35.6119651007665],[129.2995084362383,35.61062983410861],[129.29915524181797,35.60994616710037],[129.29927481740643,35.60966385951053],[129.2985560796479,35.608943352115126],[129.2985108938659,35.60873617846251],[129.29781109988537,35.60837224316306],[129.29693673528766,35.60825298749034],[129.29605091651618,35.60777870056979],[129.29587844079242,35.60711897709985],[129.29610005398794,35.606484507229965],[129.2958473325207,35.605906272942484],[129.2959941764452,35.60542378457201],[129.2956201990416,35.60493341009925],[129.29527638261763,35.60424525334363],[129.29447301399358,35.60400547084527],[129.29352459052336,35.602974612499075],[129.29307704328463,35.60241137571675],[129.29307477603479,35.60178750092103],[129.29230035305133,35.6013650312184],[129.29283057946427,35.60081082692661],[129.2928276903346,35.60044562905728],[129.29172318887348,35.59969267414793],[129.2919846848254,35.59911367109093],[129.2915000589707,35.59837434872975],[129.29092641718452,35.5979831031409],[129.2907311745482,35.59771667422162],[129.2902084811213,35.597480350741655],[129.29002773163495,35.59726968372979],[129.28987543031184,35.596664140834065],[129.28952217578077,35.596302365737095],[129.28942162221364,35.595586068069174],[129.29035853275485,35.594325301758694],[129.29032405178722,35.59383115075465],[129.29047930556686,35.59323501836704],[129.29136538213606,35.59274086429686],[129.29294532454685,35.59265435101853],[129.2936768595928,35.59243591024188],[129.29467463523457,35.59245839975425],[129.29506916162472,35.5925745339024],[129.29533358300804,35.592799462594925],[129.29557107408206,35.593203400398835],[129.2958991894341,35.59337379628109],[129.29607977427867,35.593725009798945],[129.29664001033754,35.59384246629402],[129.29710099079836,35.59411340810192],[129.2979617251306,35.5944108826054],[129.2984027438153,35.59430585718111],[129.2986724011506,35.59440028754478],[129.298709378131,35.594325154410456],[129.2989667279845,35.594256644872246],[129.29944425363527,35.59443657721063],[129.30014959950887,35.59426822917097],[129.3017183321387,35.59427435397159],[129.30234027924274,35.59411039110533],[129.30293064528388,35.59424413820345],[129.3038788765061,35.594252351720954],[129.3040244720133,35.594159503253415],[129.3040999596543,35.59368743666693],[129.30436925032163,35.59342289100739],[129.30451107445143,35.593105308707564],[129.30472696478526,35.59296904189713],[129.30501062916443,35.59292572646898],[129.3057118753666,35.59244394984044],[129.3056279095134,35.59218863846826],[129.30540812288612,35.591962421149454],[129.30512589440218,35.59184741437318],[129.30508918707866,35.59170186017317],[129.30520110418064,35.59148841322494],[129.30580755959997,35.59089774122253],[129.30592739661304,35.590473904864005],[129.30607311280534,35.59032522977337],[129.30664270534814,35.59022502835338],[129.306893718242,35.5900678659938],[129.30697150652213,35.58969205612137],[129.30734735955087,35.58921462155021],[129.30792122412112,35.58920415134291],[129.30865841680992,35.589425350710876],[129.30959934957414,35.58908682231283],[129.31030852580795,35.58937350237158],[129.31099542695438,35.589839378779445],[129.3122474420492,35.59118432884854],[129.3141607002656,35.59265473212696],[129.31501180173893,35.59310426131681],[129.31576441274743,35.59330160411323],[129.316345025061,35.593575106456974],[129.31686613386776,35.593857685354855],[129.31734869315756,35.59427250685272],[129.31755635968426,35.594288451892915],[129.31941885358052,35.59387841269014],[129.319740375543,35.59393615031579],[129.32109071908914,35.594467811243334],[129.32214319682657,35.59552085551667],[129.32226803182752,35.59575560396154],[129.32238996194528,35.59637434434559],[129.32234155408918,35.597356018672336],[129.32237826016654,35.59762204075846],[129.32251393561182,35.59784308240554],[129.3228280820117,35.59818022419811],[129.32356431443367,35.59852473208565],[129.3240136953194,35.598636983857176],[129.32459331855128,35.598650565908144],[129.32507630713312,35.59848382044481],[129.3258327381276,35.5979710439147],[129.3266346865227,35.59771306299653],[129.32782512500538,35.598041555523366],[129.32980047005452,35.59886492004251],[129.33109493971304,35.59912500349658],[129.3314657316378,35.59905481579751],[129.33168753336665,35.59889166456077],[129.33193593937904,35.59788576917549],[129.33177113335435,35.597330274107165],[129.33122460251272,35.59659312251625],[129.3310538416346,35.59617936850329],[129.3311564072931,35.59566771622131],[129.3313897178981,35.59540171639407],[129.33266542818356,35.59450019274755],[129.33390425014105,35.59382525179724],[129.33462563296777,35.593658314011506],[129.3356686709462,35.59386340701339],[129.33719145096927,35.59483438235787],[129.33719935443642,35.59491939812537],[129.33908652181583,35.595735884691315],[129.34179720378785,35.59621642088483],[129.3457230589941,35.596041555032855],[129.3462031266526,35.595863232903014],[129.34812842938987,35.59487704816403],[129.34800469909996,35.59449236007633],[129.3483592481434,35.59387623773625],[129.34855285756436,35.59313062722589],[129.3483015238241,35.593085149379185],[129.34816938862073,35.59317263889189],[129.3480404833254,35.593443249703824],[129.34803424903598,35.592954537774716],[129.348349240725,35.59270507388984],[129.34835343563452,35.59243632556523],[129.3486896815535,35.591909773303115],[129.34870563959316,35.591381449551506],[129.34857256411118,35.59095258910614],[129.3486930920859,35.590617216046375],[129.34858657415316,35.58873889127437],[129.34819648294157,35.58872112287459],[129.34815102247057,35.58551570302465],[129.34818799843063,35.585559475437336],[129.34828284653005,35.58534655835243],[129.34845516997225,35.58447737654038],[129.34853850034602,35.582753274907375],[129.34879591286335,35.58146093702119],[129.3492554206237,35.58008115777482],[129.3499513953468,35.579189998836235],[129.35031317608636,35.57848367758079],[129.35156994120464,35.576584057385695],[129.35215159096964,35.57485729799768],[129.35230388028683,35.572825055769854],[129.352258445035,35.57168214619232],[129.35210547508592,35.57107055593912],[129.35200263392974,35.568085138485294],[129.35234257931893,35.566909537716356],[129.35303714528334,35.565649585998045],[129.35368674784462,35.56265393290214],[129.35359557757235,35.561805436467836],[129.35321056882916,35.56025180133257],[129.3522028622618,35.55964113917666],[129.35012875052865,35.55886470464305],[129.34958944182063,35.55844927609707],[129.34931074582784,35.557943951955565],[129.34951917814024,35.557636460725],[129.34963957588178,35.55685632095781],[129.35020634538037,35.55569255382153],[129.35044557271885,35.55499083047239],[129.35059008040682,35.5539658630304],[129.35040938094588,35.553415893818624],[129.34955758597744,35.55212137361282],[129.34973274597294,35.55177970878222],[129.34988400578152,35.55194011698194],[129.35099440355702,35.55044566300724],[129.3509339634836,35.55016872099512],[129.3517322474939,35.54910186988322],[129.3519016115258,35.54855469121432],[129.35037089238148,35.54924155126928],[129.34998224312915,35.549525130699976],[129.34931480434813,35.54963797825782],[129.34943409596016,35.549397257291254],[129.34931023515963,35.54941735542819],[129.34861365184562,35.54975670675845],[129.3482023089667,35.54982764081188],[129.3481251146306,35.54924438247861],[129.34988590919286,35.548457153013665],[129.35138807890044,35.54762858240327],[129.35422296336944,35.546765980307754],[129.35593404521424,35.5463755240391],[129.35777739644865,35.545756298656805],[129.35843311928707,35.546989593922646],[129.36031793469962,35.54620401693642],[129.36028227175433,35.546610318585394],[129.36006330059348,35.546880473410944],[129.36013832141865,35.547524274759844],[129.36020882845608,35.54749655170876],[129.3601599721643,35.54694443201879],[129.36035597049676,35.54669202974653],[129.3604179563645,35.54614784558922],[129.36178555813618,35.54559853657019],[129.36380257976467,35.545387089098064],[129.36464987201478,35.5454090942866],[129.36539208105165,35.54555264075002],[129.36583703901823,35.54543863838826],[129.36600032318262,35.54595082153173],[129.3683394366714,35.5450912189311],[129.36899028092424,35.54463430655661],[129.37464890760427,35.53951667262639],[129.37811271118667,35.53692994493967],[129.37812550962232,35.536819168692766],[129.37943356127616,35.53557798084699],[129.3867853907518,35.528027399897645],[129.3873269688715,35.52759603029325],[129.38907467514017,35.526472848753485],[129.39022188779157,35.52542567890665],[129.39188361589186,35.522965943136384],[129.39242475229491,35.522469648883025],[129.39306198579487,35.52210185144667],[129.39388337938462,35.52185308327675],[129.3945182570212,35.521785033173146],[129.3959282049354,35.52184790211004],[129.39675731200865,35.521708569283014],[129.39759986942573,35.5212982739367],[129.397722160998,35.52107108865871],[129.39766135868115,35.52079295784148],[129.39834725331872,35.52067079870908],[129.3988278605901,35.52029845034243],[129.39908004031875,35.520402302456546],[129.39966617419742,35.5204422648912],[129.40140404317052,35.520102742346104],[129.4014880008489,35.52023915017673],[129.40156896007235,35.52017630257435],[129.401692479476,35.52020143398679],[129.4017690314814,35.52032501461448],[129.40200285000037,35.52029212517908],[129.4021266368569,35.52037249426474],[129.40247534937268,35.52038788259702],[129.40269070558554,35.520251922123784],[129.40318983282563,35.520127529502446],[129.4033642434737,35.520163647612385],[129.40409030618952,35.519558063242144],[129.4043493873474,35.51949815439112],[129.40451187452646,35.51910998628286],[129.40515939343214,35.518709186601335],[129.40550511289575,35.51837709303422],[129.40535923662227,35.51786541856954],[129.40547331468167,35.51752888052588],[129.40618032704035,35.51713761268597],[129.4065827878149,35.51667596200455],[129.40676127642112,35.516575128359264],[129.40702686271624,35.516461161471916],[129.40727358067713,35.51648581911166],[129.40793162819764,35.516323713297055],[129.40831541171576,35.516089534908346],[129.40901888296338,35.516649652119874],[129.40926330016566,35.51737398766858],[129.40916995880553,35.51758108390863],[129.40933228853044,35.518435637282984],[129.40970101236633,35.51911237101192],[129.40943261494414,35.51968083216758],[129.40952255934138,35.520830588583095],[129.4090554655365,35.52111895045882],[129.4102076081471,35.52193906846498],[129.41043811537753,35.522257488969224],[129.4105712805525,35.5231063535725],[129.40992299057686,35.5235028203432],[129.4103677394,35.524060565625085],[129.40889170440244,35.52516261476995],[129.4084549436612,35.525177689021525],[129.40759606393024,35.525772029769094],[129.40714464445955,35.52593325016739],[129.40621569877786,35.526849622474444],[129.40525774403952,35.52744074971171],[129.40518945027324,35.52738208451082],[129.40386249472508,35.52755494444536],[129.40355820161153,35.52778430060164],[129.402404968135,35.5279670282323],[129.40193488475026,35.52815949230309],[129.40181568696497,35.52869659104618],[129.40121171242637,35.52940484585983],[129.40174126523942,35.530180092911515],[129.4024694372019,35.530540617201844],[129.40272405038303,35.53166441093202],[129.40384217633624,35.53318916986884],[129.4043821658122,35.533300020189664],[129.40491730262937,35.533820385051875],[129.40558973992592,35.53468253426441],[129.4057043128904,35.53537208987427],[129.40554801529154,35.535744278595224],[129.40565741893775,35.53677057413165],[129.40640670468176,35.5371571298692],[129.40663177636387,35.53745659375162],[129.40657402116773,35.53829362369425],[129.4063905318469,35.53883100704555],[129.4058713329709,35.53921962785463],[129.40569627714711,35.5401474374977],[129.40539442975367,35.54067217793653],[129.40558805118667,35.541653029352936],[129.40691740920028,35.54285222644864],[129.40753998140917,35.543144094161256],[129.40765221943775,35.54403432131244],[129.40796599558433,35.544924910398315],[129.4084893000489,35.545296774389584],[129.40844793307366,35.54547684388802],[129.40854152027447,35.54548264450953],[129.40806864913108,35.54635077545557],[129.4075699836082,35.54654244914674],[129.4076154481995,35.54765091081847],[129.40740284131803,35.54796264919491],[129.407447758555,35.54813314933645],[129.40710151694492,35.54855567566602],[129.40728775497803,35.54965956960701],[129.40715998094117,35.550108552642],[129.40743223940498,35.550397156049435],[129.40769284912193,35.551063018410645],[129.4081884410404,35.551741928218945],[129.4093015509181,35.552280275438285],[129.4100288579565,35.55233072877772],[129.4113264989516,35.55286699807849],[129.41183542611685,35.55317610443588],[129.412759494207,35.55432507333125],[129.41328309557892,35.55469313992494],[129.4134676444095,35.554975189790774],[129.41395631590444,35.55645955088998],[129.4142630449577,35.55704704426832],[129.4143691274976,35.55801968432617],[129.41337760048393,35.558743988236216],[129.414879610759,35.559863034034194],[129.4169255802531,35.56084249546778],[129.41794074944966,35.56177716119234],[129.4188891582478,35.5623403758019],[129.4196643956153,35.5634273330935],[129.42006018400704,35.56375486978109],[129.42120906886885,35.56375635570267],[129.42237175569102,35.56447519462116],[129.4228853160452,35.56459831158763],[129.4231894566941,35.56481711565558],[129.4235468829124,35.564853658999006],[129.42403258920973,35.56466931931059],[129.42430168908854,35.564950639607524],[129.4245899858753,35.56500998978193],[129.42451805736164,35.56521407370804],[129.42457304975588,35.565282945006075],[129.42524523611308,35.56522240930177],[129.42557231063478,35.56531547100202],[129.4269161436677,35.56533707360808],[129.4275388496043,35.56561357054195],[129.42821443496743,35.56565793645809],[129.42886674062615,35.56617722971132],[129.42892679512678,35.566515137005716],[129.42924910511854,35.5666871174902],[129.42953455415014,35.56699720187706],[129.4306616558929,35.56706943333864],[129.4311421782807,35.566847817312905],[129.4314030697416,35.56717257840909],[129.43225563967314,35.56695156487057],[129.43337064698855,35.566925503889024],[129.43381971806377,35.56700326072603],[129.43435603602657,35.566726885151],[129.43460573771637,35.56678776543847],[129.4349079810844,35.567128066424075],[129.43522450150977,35.567308538137375],[129.43645130216504,35.567068865898825],[129.43702236343194,35.5667094338366],[129.437366640501,35.56677794826817],[129.4375577222252,35.566984509108124],[129.43766755997962,35.567686014533436],[129.4380137776327,35.56797916726285],[129.43876237526283,35.56768873328763],[129.43901502027998,35.56781453103417],[129.43899122982353,35.56790424977147],[129.4391422609174,35.56803150362548],[129.44013703658896,35.56838246342145],[129.44045384520646,35.56842516597492],[129.44094474234882,35.56827466823633],[129.4409211562407,35.5681591074009],[129.44044291807364,35.567859371625886],[129.44033407008484,35.56767025337065],[129.4404120816705,35.567478439275206],[129.44066709391032,35.56746820012308],[129.4418431782797,35.56810104381697],[129.44225166463835,35.5681532959107],[129.4424565560858,35.56800451103504],[129.4425292760781,35.56780750542039],[129.44293863089112,35.567654678294936],[129.44327014241756,35.567619053834136],[129.4438359168515,35.567960133022815],[129.44414820467742,35.56802295151641],[129.44460399174702,35.56772799080845],[129.4449846386122,35.56733656199935],[129.44517124810997,35.567336578214594],[129.44563278918793,35.567834639025655],[129.44579847049664,35.568279478885785],[129.44599034829835,35.56852229079812],[129.44712080481855,35.56885112611641],[129.44777717921878,35.569150250075474],[129.44749395322154,35.56981702276027],[129.44750773460078,35.5701135549786],[129.4477550686273,35.57043272885911],[129.44810035367914,35.570666418083434],[129.44810606530714,35.57077305393941],[129.44890391823745,35.57059109168686],[129.44889553784768,35.57051443298242],[129.4493814672324,35.57033439981515],[129.44977715077866,35.57035899342682],[129.4502937782713,35.570566746440896],[129.4506378851983,35.57124417802373],[129.45086430526794,35.57145003309859],[129.45184126577837,35.57152851159517],[129.45284998718006,35.57183929296071],[129.45281571718866,35.57295809189185],[129.453074471718,35.57359085634361],[129.45288427306883,35.573759498910846],[129.4527629568431,35.574127064195004],[129.45289219562108,35.57528369066484],[129.45319309843484,35.576072016335864],[129.45302377189552,35.57674295866117],[129.4532075793064,35.57709746600142],[129.45314224588154,35.57719140884604],[129.45363200656493,35.577675902226964],[129.45387792120346,35.578157607333495],[129.4536839950766,35.57813447067861],[129.4534417440859,35.577646677517],[129.45316752336788,35.57734454224097],[129.4528693330009,35.577562224556836],[129.45274440031483,35.57792434473865],[129.4528854146738,35.5782338396726],[129.45299107238833,35.57896082723904],[129.4532913971098,35.57895666957189],[129.45335514362066,35.57835576686021],[129.4532722277879,35.578289978127714],[129.45332520194012,35.578203219389316],[129.45349182323477,35.57824210473885],[129.4534409570893,35.57901615105208],[129.45301473054107,35.579130279444136],[129.45313657547257,35.579579140854634],[129.4533641968178,35.579940710113796],[129.4538134272179,35.58046759816105],[129.45410622174634,35.58064704096519],[129.4542266392383,35.580605254933914],[129.45430027196974,35.58074409041603],[129.45459705950216,35.58069052579664],[129.45485188156437,35.580797899460705],[129.4551503422681,35.580804262397585],[129.45534500917984,35.58074471824541],[129.4553742739026,35.58055101151764],[129.45554431205028,35.58070515571435],[129.45556683812782,35.580579963101954],[129.45593146668,35.580466680411966],[129.45605263225085,35.58050265255836],[129.45619004959644,35.580744803807285],[129.45609884816528,35.58077686554063],[129.45614904426077,35.580879539462615],[129.45654531130927,35.580864637011686],[129.45799015700314,35.58020751618532],[129.45856477524387,35.58022566461203],[129.45797211866838,35.580255857608094],[129.4565389222538,35.58092292898743],[129.45614055995108,35.580900931544],[129.45614504927084,35.58099992118658],[129.45647583996566,35.58107497206584],[129.45616921232994,35.58101781014687],[129.4563581942984,35.58169289842562],[129.45665446076467,35.582167250113024],[129.45721566996403,35.582390111069685],[129.45789909577118,35.58310535642857],[129.4586733144451,35.583307914552535],[129.45865242473286,35.58336913776271],[129.45853473158402,35.58335697601602],[129.45780823912014,35.583186781034634],[129.4573659312731,35.58267013904395],[129.45719231037776,35.582766136076806],[129.45723012874492,35.58281038060078],[129.45699063697796,35.58317371470494],[129.45702789298429,35.5840354375256],[129.45724903612722,35.58442650590774],[129.4575090789683,35.584641792217525],[129.45747200563594,35.58481820584613],[129.45796454309456,35.5851030711835],[129.45862632900162,35.58516827777711],[129.45891570422344,35.58503166802436],[129.45915408511323,35.58466931649621],[129.45959838772941,35.58453294441933],[129.459951404518,35.584239319477696],[129.46025659405487,35.5841911248075],[129.46100505822008,35.58426707372607],[129.4615955889687,35.58444012261588],[129.461985767621,35.58470132584724],[129.46241789552326,35.58486228816482],[129.46278706836628,35.58490444825471],[129.4631129388061,35.58503886751799],[129.46327325704866,35.58530771752483],[129.4636770080289,35.585556074051716],[129.46386455202006,35.58580823472752],[129.46406841944707,35.58587948146641],[129.46405190824498,35.58592829554646],[129.46395355778935,35.58589224374038],[129.4640192205355,35.586022866719674],[129.4642200305435,35.586061362525406],[129.46418075357792,35.586532030371885],[129.46390619622403,35.586688847812795],[129.46367859579928,35.58663908958835],[129.46349301817136,35.587130201927295],[129.4635743472736,35.587478623495066],[129.46379178357887,35.587784089425945],[129.46379122217166,35.58854778713211],[129.46397797405294,35.58881265050519],[129.46378414646233,35.58866961451286],[129.4636277922889,35.58874730249682],[129.46351447815064,35.58899090562178],[129.46360413261144,35.58911999465414],[129.46340664789,35.58920412310423],[129.46301068908917,35.589789145784295],[129.46325596566217,35.59076829748878],[129.46358611790922,35.59126808052088],[129.4634995042118,35.59179720622436],[129.46394993604468,35.59228152802077],[129.46386351027635,35.59236096566628],[129.4637529762949,35.59231638158639],[129.46382521040633,35.59269762603478],[129.4637024622804,35.592737502669046],[129.46361713038695,35.592664232659175],[129.4634650483667,35.59267839095147],[129.46377267432584,35.59304952813194],[129.46340465782555,35.59295045032875],[129.46338678634635,35.59285920134845],[129.46298809449453,35.5927294876233],[129.462679421089,35.593013524012996],[129.46263646422562,35.59331073437693],[129.46277397649268,35.5936617440049],[129.46290199844168,35.5937767248285],[129.46341567664888,35.59368100776627],[129.46374265307242,35.593448002537905],[129.46380713653213,35.59348406730443],[129.4636296690371,35.59367349763476],[129.46326807267744,35.59380623223123],[129.46352856664177,35.594177956790084],[129.4636090624214,35.5945012175242],[129.46351529624152,35.594410323036854],[129.46354660548917,35.59452387290435],[129.46347906414962,35.594558742378304],[129.46327969514863,35.594459916604194],[129.46303275537917,35.594887822525735],[129.46340945619693,35.595980894588635],[129.46355161448375,35.59603775999513],[129.46357323389634,35.59645533241345],[129.46373219426619,35.59652855428133],[129.46361191534066,35.59672957939162],[129.4636946066693,35.59690098358734],[129.4635994133228,35.597171816275086],[129.4635184857511,35.59716661130459],[129.4635326176404,35.596913169758636],[129.46325748391837,35.596848118866745],[129.46308815464957,35.59702656556563],[129.4630553221157,35.597227246016075],[129.46309662569882,35.597309500375424],[129.4632872458141,35.59732126935051],[129.4634012114848,35.597226845028864],[129.46329867152073,35.59741771669817],[129.46341752837205,35.597549594818844],[129.46328729536341,35.59764578523894],[129.46351739136625,35.59778049836584],[129.46354627852637,35.59787196705083],[129.4634752835177,35.59791480786043],[129.4637211752858,35.59800037661796],[129.46382675046846,35.5982073822061],[129.46379239188153,35.59833837242055],[129.46395726644735,35.59848347547614],[129.46392093257165,35.59861998885378],[129.46403881246394,35.59857837297156],[129.46407357441325,35.59876389475932],[129.46421968283954,35.59879885194533],[129.46432299696153,35.598980765982006],[129.46441306810763,35.59939555044883],[129.46432615958,35.59948441772088],[129.46425636449746,35.59945821652872],[129.46429974042465,35.59959891127569],[129.46423130456256,35.599683904692135],[129.46410167311637,35.59967628319913],[129.46386931176986,35.600123475501995],[129.46382096992588,35.60063474419898],[129.46391174091897,35.6007675140524],[129.46392070322838,35.60104320078435],[129.46367257354314,35.60099590096665],[129.46355985676038,35.60127912158537],[129.46355123617738,35.60169020279351],[129.46308168402655,35.60220573090449],[129.46293616020986,35.60253208692373],[129.46305047035352,35.60267418547058],[129.46295138989862,35.602656621021396],[129.46294953715412,35.60274122286476],[129.46287620794365,35.602728417743684],[129.46287974480322,35.60287106835186],[129.4627523376473,35.60303030154673],[129.4627429797784,35.60342911918937],[129.46297002452073,35.60392034766321],[129.4629062649422,35.604197259989135],[129.46249556087835,35.60447501753815],[129.46217781873267,35.60486377976111],[129.46198923306005,35.60528192272896],[129.4619779006084,35.60542628042898],[129.46214472092302,35.60558724076638],[129.46186844964603,35.60576699688697],[129.46184298984826,35.60588048533292],[129.462091379068,35.60625059159535],[129.4617803055718,35.606272477163905],[129.4615892316065,35.60637933594233],[129.46146798550075,35.60669433912948],[129.46152633835754,35.60694488884584],[129.46136702650588,35.60719036838669],[129.46108189962428,35.607347705579464],[129.46093051755804,35.607550470354205],[129.46083465827155,35.60776645103128],[129.46088966545176,35.60799570660522],[129.46070328896752,35.60798552298865],[129.4605719364587,35.60768570874338],[129.4603424598836,35.60765540994423],[129.4604460807029,35.60783648817042],[129.46041298761958,35.60819565792762],[129.45983130464103,35.60850147675609],[129.45971105028167,35.608358658885315],[129.45973941964866,35.60825550680514],[129.4598507193802,35.608289745308454],[129.4602616833003,35.608054230304695],[129.46020478511565,35.607656206288],[129.460133441812,35.60766705098656],[129.45978401084372,35.60655684149751],[129.45908250888743,35.60650002219258],[129.4590590691422,35.606610329271696],[129.45864191394477,35.60688967534741],[129.4584157436148,35.60717355690819],[129.45904401685527,35.60765589329742],[129.45936489547663,35.6077264572715],[129.45941524133144,35.60781859284237],[129.45928408000717,35.60789319650965],[129.45909709322345,35.607795416988516],[129.45910077680787,35.607935958552424],[129.45882597512292,35.60781913506243],[129.45859597412178,35.60759259867324],[129.4581805748623,35.60756747414492],[129.45751693862923,35.60805668834736],[129.4570902847308,35.60892306214781],[129.45732460906396,35.610235134838774],[129.45732203788597,35.61037864751081],[129.4572569637462,35.610306656041935],[129.45716517709945,35.61038154977565],[129.45710900409279,35.610677184976325],[129.45723496177948,35.61077896652176],[129.45724541892878,35.61101643359796],[129.45823643867178,35.611646793060814],[129.45776638986428,35.6116708501022],[129.45795331942827,35.61177090328371],[129.4576812886497,35.61183836199804],[129.45767927526137,35.61191686241282],[129.4578409863373,35.611945341408926],[129.45816968699177,35.61183250356592],[129.45843737186712,35.61191271853754],[129.45862394738074,35.61218647571024],[129.45861274282643,35.612309813832134],[129.45850263592072,35.61229410016865],[129.45863580394956,35.61249621952542],[129.45858060565664,35.612629332918594],[129.45880595996354,35.612808893485294],[129.45858064130536,35.61279422234779],[129.45863615323248,35.61270053917056],[129.45837701663612,35.61266256255827],[129.45812617954832,35.61242307295613],[129.45800258816305,35.612525883113975],[129.45792124519238,35.61249887453388],[129.45787181188493,35.6126987054272],[129.4578491722172,35.61250071678783],[129.45772157302343,35.61236516158404],[129.45751795431028,35.612387196548525],[129.45742709464818,35.61263492556155],[129.45762654067263,35.612742457325346],[129.45777101848253,35.61273497781076],[129.45778237947837,35.61279182358876],[129.45763871723656,35.61280889875758],[129.45794384836105,35.61310673053559],[129.4580523777206,35.613139836481764],[129.45809414901166,35.61305192914659],[129.45820840436963,35.613065284155944],[129.4586218549092,35.6132758736744],[129.45835524764408,35.613337120206864],[129.45837422474403,35.61347117748592],[129.45772400005703,35.61392651646145],[129.45732888943562,35.61405085265156],[129.45653663940482,35.614030828726364],[129.4564027915922,35.61408938788272],[129.45645614355638,35.61422698257058],[129.45622393377846,35.614289870728676],[129.45618976521138,35.61413683570293],[129.45599687015613,35.61411622338096],[129.4554785024441,35.61386681653859],[129.454646868829,35.61389858225191],[129.4542969910037,35.61397918821137],[129.45293253730648,35.61398482054755],[129.45243229800408,35.61424016748553],[129.4524212569425,35.61431599797302],[129.45197338896827,35.614593507139915],[129.45199351353367,35.614684353330944],[129.45239051806792,35.61479824488105],[129.45268037553046,35.6150574468394],[129.45280147432518,35.61540146248669],[129.45280388362156,35.615795746194756],[129.45290550356114,35.61598120838537],[129.4527355485905,35.616134235654854],[129.45255475514892,35.61604452589543],[129.45236692686407,35.615650126997934],[129.45212110814376,35.61577536350925],[129.45111381322693,35.614476235569064],[129.45073464778207,35.614423379603004],[129.45059496178644,35.614724948591686],[129.45025077862095,35.614834488331184],[129.45008909070083,35.61481060449422],[129.4495944857742,35.61661972097702],[129.45066896008572,35.61809993840293],[129.4524144903996,35.6180889263189],[129.45375335686347,35.616540517501846],[129.45368371863137,35.61641138296931],[129.45375119070974,35.6162822636226],[129.45391338032687,35.61617722961716],[129.45407526867032,35.616188913355366],[129.45424616325593,35.61631572864833],[129.4542286940894,35.6164296267626],[129.4531070770302,35.617815885042106],[129.45236559217275,35.61853372140064],[129.45178439151601,35.61853183688508],[129.4508661456062,35.618865803586935],[129.45034501462743,35.61929393328466],[129.4497476555937,35.61949036355069],[129.44926275660995,35.620140077837554],[129.44921850267863,35.62034501406743],[129.44931898945995,35.620626316087474],[129.4489754625615,35.62048298691864],[129.4485130413491,35.620661081037355],[129.4473101990612,35.62165266358396],[129.44620228563275,35.6223351839939],[129.44532685452054,35.62314032097148],[129.44465629711996,35.62388628249513],[129.4440174799703,35.624717105652955],[129.44326431069717,35.6261921492154],[129.44164803792677,35.63006575265391],[129.44139941769043,35.63095741726151],[129.44134092577795,35.63156533810036],[129.44116579517595,35.632011833842],[129.44116829777306,35.632833098646806],[129.44138764364595,35.63330997312742],[129.44165970091055,35.63355469230544],[129.4419844604802,35.63362633372955],[129.4421187539507,35.63360883370531],[129.44208991836985,35.63329012013085],[129.44229503875886,35.63328983629298],[129.4422885855893,35.63358130738791],[129.4424092718091,35.63395341701727],[129.4425683909197,35.633947253321836],[129.44276097752822,35.634054167704384],[129.4426182149295,35.63411359055523],[129.44272057061053,35.63417021194724],[129.44264461308808,35.63427799518489],[129.44273064814433,35.634474158751885],[129.44287754277826,35.63460135689499],[129.44290410563733,35.634483308417565],[129.44291935391382,35.63454167401063],[129.4430455803205,35.634526518935914],[129.44300269433973,35.63456939666055],[129.44314887000542,35.634558242185754],[129.4430866060913,35.634630564910275],[129.44315666183692,35.634691738534194],[129.44333629801946,35.63461004294372],[129.44337927589766,35.634705762776484],[129.44324831453022,35.63474719887681],[129.4434033453283,35.63478614975822],[129.44321906244147,35.63488400376707],[129.44336305493968,35.63532504745487],[129.44324035881968,35.63572180964779],[129.44312279675793,35.63583282027303],[129.44282202460408,35.63587869261067],[129.44234515583784,35.63657906226449],[129.44180838620514,35.63837715616573],[129.44149066235923,35.641440967588814],[129.44147189831466,35.64254799640881],[129.4415636112845,35.643791090807795],[129.44172400802498,35.64445289800916],[129.44194629013762,35.64484883384071],[129.4419067201543,35.64489946003191],[129.44199789485037,35.64492244124218],[129.44191487371972,35.64507482780328],[129.44242398043488,35.64552193967066],[129.44280773727124,35.64564482457927],[129.44304615496702,35.64566801170127],[129.44307666813947,35.6454349915263],[129.44323387319037,35.64521410423375],[129.44320330884727,35.64541375969673],[129.44352432712745,35.64569246148868],[129.44396363609056,35.64596692222034],[129.44408750582025,35.64592766583264],[129.4442546092586,35.64609097412667],[129.44469183963471,35.64627644817061],[129.44586107589868,35.646114500489816],[129.445765358151,35.645782931802735],[129.44527267317608,35.645302227867674],[129.44534043611554,35.64518900249241],[129.44547896935893,35.645190004043734],[129.445950037627,35.645718762802225],[129.4461141880438,35.64619237114576],[129.44615880668556,35.64623985654616],[129.44626005868642,35.646303400424706],[129.44641477021196,35.64627863649716],[129.44636008659324,35.6463948692954],[129.44648973037786,35.64637748975798],[129.44665167066856,35.646653608971945],[129.44673297466116,35.646614498085306],[129.44682629403886,35.6467858730547],[129.44699163297184,35.64679573182503],[129.4471592015571,35.64699540130012],[129.44710887244486,35.64703101683748],[129.4471059775111,35.64709616306559],[129.4474179885353,35.64738760422874],[129.4475826777575,35.647387389632094],[129.44758271230265,35.64747874224655],[129.4477483386047,35.64756928217411],[129.4478851937444,35.64750637785852],[129.44788512756605,35.64759547839834],[129.44811254497577,35.647790858926705],[129.44806190531816,35.64779058750524],[129.44809885626472,35.6480248185465],[129.44824522334585,35.64805735992982],[129.44840059107304,35.647971655450625],[129.44836502589914,35.64809638084621],[129.44823405840222,35.648102645185645],[129.44837822635134,35.648263392430614],[129.4484034801625,35.64820626541281],[129.44847994023706,35.64824460925516],[129.44840545942856,35.64845561484317],[129.44861066669768,35.64860411990226],[129.44854885322553,35.648922068491075],[129.44865731000803,35.6490290521823],[129.44856741390026,35.64910570668676],[129.44863662522374,35.64925761159066],[129.44853572306354,35.64927367013032],[129.4487469867364,35.64936146056797],[129.44866051656248,35.64945044149721],[129.44882190738062,35.649461989631405],[129.44872501407153,35.64950181763208],[129.4488320222372,35.64959032084143],[129.44873143333356,35.64968415764774],[129.44885945271153,35.64977818845834],[129.44894251220637,35.649685335759834],[129.44910943120388,35.64970805708157],[129.44905559224725,35.649755800148164],[129.44918102277362,35.64982336094105],[129.44908902075986,35.649867045902006],[129.4489159553036,35.64981551634612],[129.44889474806988,35.64991122974453],[129.44908929155994,35.6501310277359],[129.44922332365053,35.65014179671612],[129.44927962294335,35.65024281805909],[129.44918872294224,35.65027782926314],[129.44920867261771,35.650387792229374],[129.44929880383518,35.650452797145064],[129.44947493734307,35.650364022654564],[129.44966464948791,35.65054516407712],[129.44964088423708,35.65066910643021],[129.449759030907,35.6505849377516],[129.4499498163277,35.65058948158797],[129.44990263253655,35.650646477286664],[129.44996692409643,35.6506814500547],[129.4496673415294,35.65074350878358],[129.45002028539182,35.650846965276614],[129.45005608243437,35.650973191878975],[129.44992090098523,35.65092302263271],[129.44988894808964,35.651082928681355],[129.44943151016756,35.65108466165383],[129.44945173802944,35.65103305443602],[129.44865998763424,35.65113513558381],[129.4479124706483,35.65147563465535],[129.44669165488932,35.65251705612075],[129.44604312947658,35.65282241893972],[129.44608622019126,35.6530357757624],[129.44564447318015,35.653158093975804],[129.4455039149749,35.65325507930892],[129.44540599461902,35.653480030910195],[129.44422617441234,35.653982455685885],[129.4438578653438,35.65398554271438],[129.44360099075956,35.65418796758329],[129.44315231934632,35.654284449414654],[129.44247037610717,35.6546992142134],[129.44248046481715,35.65461320810547],[129.44205897939102,35.65498418751315],[129.4417558132619,35.6546623384348],[129.44126822606472,35.65457174040581],[129.44060897492466,35.65464776590564],[129.43929944494727,35.65523777335327],[129.43767782387323,35.654666327149364],[129.43688197463806,35.65422432009234],[129.43652522488438,35.65361503339072],[129.4365007308036,35.65329689120478],[129.4350516882662,35.65243985699088],[129.4344389084063,35.652663442901186],[129.43360877134566,35.653557566563606],[129.4330914676247,35.654307474220246],[129.43312124334392,35.65531482422933],[129.43282703703042,35.655943279642095],[129.43279571155986,35.65661536017379],[129.43166441140008,35.65653998016699],[129.4311242190809,35.65619384728039],[129.4297022950397,35.655656453218576],[129.4295558930762,35.65577276863801],[129.4289520596689,35.655509192822834],[129.42853852290665,35.65560570659882],[129.42825489084146,35.65554738416847],[129.42814630401477,35.656723078974146],[129.427535521258,35.65684623286903],[129.42700264875515,35.65712093497972],[129.42571875722575,35.65710454279202],[129.42506853814976,35.657524482399985],[129.4231221647818,35.658448890725325],[129.42184641554613,35.65928736224251],[129.42140080790523,35.65947223757951],[129.42005054994462,35.65945777590134],[129.41878170055287,35.66056692242157],[129.41747219253753,35.66048651611591],[129.41703244950543,35.66121313970384],[129.41580424864526,35.662053865247586],[129.41360003754593,35.66297168063657],[129.41212025457483,35.66336851074501],[129.41097904832037,35.66379934686652],[129.41021726494628,35.663867202528294],[129.40910825999896,35.66354740116181],[129.40790091071253,35.66357444971831],[129.40681954699429,35.66282219516953],[129.4061185671231,35.66278891487813],[129.40488786300756,35.66291722218646],[129.40373687036632,35.662904348710185],[129.40335610394533,35.66299988714979],[129.40304830079796,35.66325956804789],[129.40264602519053,35.66412803541976],[129.40202502067268,35.6647617882497],[129.40116053957647,35.66654602486449],[129.40083603044044,35.66687232058429],[129.40072902035084,35.66721372660844],[129.4001507239884,35.66744507530451],[129.39999943619623,35.667578108291636],[129.39921877296868,35.6675991128894],[129.3989017507037,35.66777600225712],[129.39863129688712,35.66780514038109],[129.39799633422666,35.6678445639926],[129.39738355561812,35.66776585018528],[129.39690770783497,35.66798132510488],[129.39639670908184,35.667906589715656],[129.39614592846186,35.668123718116526],[129.3953298710074,35.66801911569364],[129.3946319772346,35.66809365080151],[129.39370214997305,35.66807522231087],[129.39346837757049,35.668396073918764],[129.39289669227483,35.6686239405236],[129.3919801050888,35.668491796262686],[129.38980003897228,35.66913400809113],[129.38879920625243,35.66932225762533],[129.388468102321,35.6696042684149],[129.38787129668594,35.66982447509384],[129.3874368797128,35.669965539685755],[129.38691272512634,35.66994814892695],[129.38640769114502,35.670341441142284],[129.38582760631718,35.670272857756814],[129.38391231860226,35.67055156947303],[129.38320290245267,35.67095251127867],[129.38184479338335,35.671160757876066],[129.3808246163059,35.67098247943072],[129.3777825045549,35.670123362874925],[129.37614729802013,35.669807939948974],[129.37446005899017,35.66966711452625],[129.37264140748766,35.669208887124924],[129.37277535631264,35.670129830217604],[129.37158337547717,35.67207171017539],[129.3705468875592,35.67291050426094],[129.36946724213135,35.67304686004541],[129.36819734850914,35.67300383843366],[129.36786863121011,35.67316176580127],[129.3672995829368,35.6747157598218],[129.36672905053973,35.67527972843084],[129.36505827107968,35.6756947443035],[129.3641530433962,35.67679289858588],[129.36435593305688,35.67827257025187],[129.36410512513706,35.678640032677585],[129.36411459891357,35.67890932654918],[129.36313429832123,35.67860653046102],[129.36056476762184,35.6788683752519],[129.36006494955726,35.679123848001254],[129.35928023542746,35.67934169445612],[129.35844838451214,35.67919800365381],[129.35767946996594,35.679281962520434],[129.3574775475376,35.67938572487837],[129.3566449081429,35.67940320211501],[129.356471141961,35.67925302224804],[129.3558725689099,35.67942801948147]]]]}}
