{"type":"Feature","bbox":[126.96034148793298,37.2851927425788,127.03968542902116,37.35179927796688],"properties":{"regionCode":"41111","version":"vworld-20260909-3f8952dfda77-p2","name":"경기도 수원시 장안구","attribution":"국토교통부/K-Geo플랫폼 · VWorld 법정구역정보, CC BY 2.0 KR; 두꺼비집 가공"},"geometry":{"type":"Polygon","coordinates":[[[127.01803931639935,37.35179927796688],[127.0182164232392,37.35098738470816],[127.01731857427916,37.350503680635725],[127.01623929795205,37.35020187298201],[127.01599686178672,37.35023368797014],[127.01508394492156,37.34969554390348],[127.01464444243096,37.34961374752623],[127.01427793432298,37.34942490378527],[127.0140459882579,37.34790931355276],[127.01304922861227,37.347543046996414],[127.01269579486728,37.34714673072878],[127.01259763414737,37.34694477205803],[127.01264803088708,37.34544582002475],[127.01255268615826,37.34519562551343],[127.01189824297401,37.34420150642914],[127.0109356182081,37.34336725002618],[127.01106692536177,37.342983530072694],[127.01095187384453,37.34286578653767],[127.01098266714467,37.342778487892744],[127.0101135908341,37.34186126143914],[127.01010891367103,37.34116900585277],[127.0097707875077,37.340498387530026],[127.00914754636548,37.340174072073665],[127.00887157472827,37.33915309375191],[127.0087030334449,37.339097321306134],[127.00737832504251,37.33913813840956],[127.00652341277777,37.33904377930269],[127.0058131818464,37.33913628551575],[127.00481379418348,37.33909877179687],[127.0043069667751,37.33855924521381],[127.00338226859972,37.33843237364009],[127.00206647405413,37.33864762403608],[127.00056966335228,37.3384912986697],[126.99905337797894,37.33701246207988],[126.99677637865027,37.33640474074086],[126.99569552395765,37.3360026288485],[126.99485151453824,37.33553177861328],[126.9944768407288,37.33478941314266],[126.9939707512864,37.334781201371314],[126.9922323166409,37.334113562614654],[126.99162231217139,37.334016342967345],[126.99115409621399,37.3333946476644],[126.99051417508149,37.333223668710346],[126.98996411558848,37.33259461245288],[126.98955892433106,37.332414544500615],[126.98971199263788,37.33060539922848],[126.98943290063842,37.33012641712675],[126.98897838861365,37.32978412873273],[126.98778092832859,37.32960876063325],[126.98736956006644,37.32961660580521],[126.9867085988444,37.329438286032385],[126.9857373236394,37.328871749609256],[126.98517077548973,37.32880033900531],[126.98419140483624,37.32806365464835],[126.98391899617582,37.327430903611706],[126.98336875474962,37.32695136409988],[126.9829122083297,37.32667226651173],[126.9815969337029,37.3265748134604],[126.9814712558615,37.32661495120193],[126.98053038267324,37.32711120907141],[126.97968031687596,37.327353632652155],[126.97863124103851,37.327771808362144],[126.97823512780502,37.328353112808706],[126.97742875103816,37.32846447140084],[126.97704592630143,37.328675434228195],[126.9756295722468,37.328934505692125],[126.97455562860453,37.32937076075237],[126.97339553707404,37.33040677205889],[126.97288511080434,37.33108528620268],[126.97228031511985,37.33140598813261],[126.97130806032571,37.33173055296309],[126.97130770605285,37.331595866859146],[126.97106004480437,37.33121608026003],[126.97066463827363,37.330874887418425],[126.97062379191368,37.32991539952575],[126.97069551437636,37.329657997146015],[126.9703362470729,37.32932358997646],[126.96987036914489,37.32813315682267],[126.9693398471102,37.32801388733419],[126.9688660385648,37.32800958903443],[126.96851307284436,37.327015167096704],[126.96859502494836,37.326509480866505],[126.96837697763902,37.326065606906944],[126.96851577920884,37.32552519338901],[126.96839876233526,37.325121866691056],[126.96779931453581,37.32484046433895],[126.96762539983347,37.32457383706131],[126.96684665235396,37.324035540078164],[126.9670592554155,37.32380982702805],[126.96704139706952,37.323452185903655],[126.96687805617492,37.32328571273471],[126.9668734646301,37.32316397826612],[126.96719062286618,37.322930668595966],[126.96739822032848,37.322358107058115],[126.96811356767459,37.32219344210998],[126.96822121625249,37.321713398407226],[126.96931624371139,37.320966488506855],[126.96963245709055,37.320555261801154],[126.9692469922688,37.32026480219852],[126.96852264113951,37.31872986537667],[126.96801028812914,37.31826499980586],[126.96657632304651,37.31761229701148],[126.96623541188383,37.31761014679003],[126.96628077606482,37.31662129862901],[126.96639120315751,37.31651179170839],[126.96632973668656,37.31648362568645],[126.9665300010672,37.31424817589251],[126.96663900291121,37.3115093047106],[126.9664818070501,37.30962736022009],[126.96621527614228,37.308437582533756],[126.96581258508927,37.30730353511787],[126.96588338637642,37.306990451910025],[126.96496917781005,37.30544789116815],[126.96318566130257,37.30348920633348],[126.9619807403907,37.30237379491173],[126.96082667380186,37.30234609830246],[126.96034148793298,37.30223068179981],[126.96066710099117,37.302186375701126],[126.96113651191257,37.301865394026954],[126.9618201844601,37.301534613418575],[126.9639162842475,37.30090215018076],[126.96372470199583,37.30055576273797],[126.96365605046586,37.30013197120577],[126.96369428765748,37.298728615935495],[126.96455698096456,37.297715302349474],[126.96465600608998,37.29771753415247],[126.96465360445181,37.29736865224614],[126.9648596450205,37.29689172988373],[126.96527334070684,37.29672001234589],[126.96588843414135,37.29666171444697],[126.96618966355473,37.29587084504848],[126.96701664677444,37.29531661140907],[126.96803407811325,37.2942872142379],[126.96813028933472,37.29329540619228],[126.96829029383649,37.29305002998837],[126.96825814857506,37.29254665873091],[126.96885348246316,37.29112342962884],[126.9688643492058,37.290560127872546],[126.96851073668783,37.289960113352784],[126.96854213489692,37.28980119895205],[126.96937180804119,37.28935252350213],[126.96971905393785,37.28906452127527],[126.96990254287218,37.28855813002573],[126.96970214459971,37.28827110637265],[126.96955229913888,37.286655838521924],[126.97036422207877,37.286661570032905],[126.97093017778029,37.286794637523826],[126.97137043697273,37.28674244731721],[126.97173474852416,37.28682305439636],[126.9720559379257,37.287138585415846],[126.97206992232628,37.28728456552754],[126.97254571315038,37.28741988311713],[126.97259052160813,37.28749250757708],[126.97291672209954,37.28739914350757],[126.97306382901063,37.287279564020395],[126.97317475280795,37.2868478075101],[126.97372827603411,37.28618584333905],[126.97375914622185,37.28598397567434],[126.97364590488509,37.2858638325853],[126.97466780127684,37.28555025765727],[126.97536872159561,37.285604458920055],[126.97839823063742,37.28664055314107],[126.97733753116944,37.288359436491746],[126.98381328609327,37.29080254936007],[126.98402664858345,37.29107510416593],[126.9842324816824,37.29084774078623],[126.98469842654657,37.29102846518008],[126.98615964782039,37.28940050218128],[126.98601712267599,37.28930371235441],[126.98654896686145,37.28869801741326],[126.98664315339364,37.28874742366395],[126.9865074235735,37.288905159420864],[126.98772778593155,37.289840667494765],[126.98801637342002,37.28983124009337],[126.98854882255281,37.28957171281607],[126.99048854789612,37.286351182379384],[126.99702278047437,37.28878175352063],[126.99835475775143,37.28915523892025],[126.99959715675183,37.28929100560132],[127.00068263546527,37.28965160253823],[127.00252251737163,37.28793573203927],[127.00563094084852,37.286381221896406],[127.00610371648503,37.28589490156847],[127.00688547625042,37.28573047527388],[127.00714235493182,37.2851927425788],[127.00778094718979,37.285700606659056],[127.00953321246907,37.285461194039044],[127.00965445994828,37.28567440652242],[127.00958599114911,37.28580422236586],[127.0111425538981,37.2864430191144],[127.01276928397317,37.28750070619073],[127.01347267008794,37.28853901031704],[127.01397504904622,37.288774803830705],[127.0139324777365,37.28891772201192],[127.01407261222678,37.289067360297025],[127.01419786227315,37.289098709184486],[127.01438808821901,37.28898491587105],[127.01464017102366,37.28912650540292],[127.0147700694799,37.28936023664815],[127.01481434017609,37.289273982019196],[127.01488652214918,37.289315420933086],[127.01487340734604,37.289191152006275],[127.01498356815851,37.28910129768191],[127.01639535886204,37.288553086140915],[127.01643809109628,37.2886257757767],[127.0165132481419,37.28859213283058],[127.01646099487517,37.28850980992763],[127.01697233828544,37.28814116848898],[127.01730336184986,37.287633701972766],[127.01815112154335,37.28762953035159],[127.01828875445905,37.28751437724415],[127.01841118036377,37.28722526402104],[127.01876492082674,37.28704856450543],[127.01891389960416,37.28704772247329],[127.019283792103,37.28727620627017],[127.01963320781738,37.287368887025416],[127.02048355666568,37.28713364850595],[127.02123981902037,37.287422088307416],[127.02133593151024,37.2873809571606],[127.02134643674124,37.28744437281778],[127.02188278358051,37.28765933722177],[127.02242091024351,37.288023360338116],[127.02281354719831,37.28855714475349],[127.02321374390606,37.28865110133016],[127.023615412455,37.28910621001471],[127.02381396430403,37.289124084911045],[127.0242004897236,37.28941652162661],[127.02452638723551,37.289369776293725],[127.02467589444194,37.289162269137826],[127.02481980107004,37.28908133780488],[127.02488690857754,37.28917869777489],[127.02525993528678,37.288991524453124],[127.02535031414779,37.288788412402894],[127.02540819027088,37.28882667775297],[127.02528552709512,37.28900726802496],[127.02491497336976,37.28920125324605],[127.0250735152515,37.289551335167204],[127.02598040315897,37.290840617416194],[127.02668756509473,37.29136937347331],[127.02882399660143,37.29195405629376],[127.02897109318067,37.29180316223012],[127.03165037863617,37.292513062366105],[127.03289671562774,37.29259644635964],[127.03288205391142,37.292675162799625],[127.03373519341538,37.29299007875569],[127.03408290212207,37.29336234216125],[127.03404539153992,37.29346625999949],[127.034324281625,37.29369657662882],[127.03523147100624,37.29418855440352],[127.0350463296809,37.294286098604275],[127.03502799606862,37.294397110296366],[127.03514933788566,37.29440216058127],[127.03436081891553,37.29566246280527],[127.03412758296818,37.29589037001137],[127.03388299064815,37.296471179309336],[127.03386012786149,37.29704408649196],[127.03417150816368,37.29781382102792],[127.0336506104335,37.29826788540841],[127.03352448336416,37.29850997390181],[127.0335712566463,37.29877909679439],[127.03286254453954,37.29996311405916],[127.03271219656064,37.300507437325756],[127.03258085988732,37.30049262446573],[127.03273958714362,37.3008207727719],[127.03278115445492,37.30118319251465],[127.0329060707223,37.301212630992126],[127.03289687327319,37.30160693434695],[127.03304696767088,37.301883437292176],[127.03309281488808,37.302445126660594],[127.03300382548467,37.302832584561614],[127.03320368263745,37.303154819064865],[127.03310518505185,37.30346417021838],[127.03332268822824,37.30496958714526],[127.03330868886096,37.30528880642956],[127.03306011878273,37.3057188446252],[127.03323967912986,37.30654963241368],[127.03318471001592,37.30689257047763],[127.0329593064608,37.30730272584928],[127.03324644827238,37.30789495654182],[127.03286501730373,37.30825282680779],[127.03264410741777,37.30945763656794],[127.03239058006702,37.30964098056979],[127.03260618141394,37.310135803567405],[127.03313391902952,37.31093545431837],[127.03296647001666,37.311690901752996],[127.03372397391381,37.31240699628743],[127.03429739124523,37.31364411969549],[127.03464045527947,37.313723350050516],[127.03515554430925,37.31403379135763],[127.0354008803615,37.314279095640956],[127.0358907579548,37.31450155491879],[127.03660468350493,37.315172493317874],[127.03710372058207,37.315279232722446],[127.03789611983123,37.3157249918942],[127.03840742315137,37.31635848114229],[127.03880647719038,37.3173180481612],[127.03864473496402,37.31782008950274],[127.0386944582979,37.318889600100505],[127.03890781168981,37.319102544129365],[127.03892914397913,37.319532623756054],[127.03878731042195,37.320153017175976],[127.03885136392908,37.32048460201086],[127.03968542902116,37.320939755983936],[127.03928484394663,37.32146378985864],[127.03933739189969,37.322696032365435],[127.03967449948242,37.32312766955839],[127.03940275061667,37.32330381911655],[127.03929019749268,37.32357293677358],[127.03872040865942,37.323972657426445],[127.03846370885958,37.32429482123832],[127.03813430199179,37.32431001322721],[127.0376778050036,37.324574946875906],[127.03732612984201,37.32569779473993],[127.03691620568411,37.32607998840828],[127.03678279759929,37.32682346604833],[127.03783834498648,37.32755311327503],[127.03823770533435,37.32840889897556],[127.03750739336962,37.328476511438375],[127.03742493600868,37.328735958344474],[127.0367634740853,37.329439101696444],[127.03683503308216,37.32995006141635],[127.03652663610322,37.33031199464936],[127.03614101947743,37.33058989381333],[127.03602216350917,37.33121739360506],[127.03582369250623,37.33162621959371],[127.03606614809694,37.33178466585074],[127.0360067584961,37.33234565384545],[127.03534919251764,37.33313249033204],[127.03533876504522,37.33365689815566],[127.03457775340429,37.33449708415867],[127.03415713915824,37.33451564503144],[127.03281252956252,37.3352906387562],[127.03280903599745,37.335820448446796],[127.03241584420707,37.3360581259992],[127.03213431112468,37.336381098294964],[127.03176106609895,37.33648166733454],[127.03177884390682,37.33666131854762],[127.03159735548586,37.336825650702885],[127.0317439494051,37.33730153233546],[127.03157884220467,37.33760469545524],[127.0316713724755,37.3380477618184],[127.03144051914633,37.33857133387819],[127.03142452601458,37.338906571594244],[127.03173952554465,37.33969503908795],[127.03204763984444,37.34219137097401],[127.03244314295038,37.34247235076015],[127.03288846616698,37.34314520736412],[127.03312714858194,37.343920240699305],[127.03359679776146,37.344547181248366],[127.03261474238077,37.345035625176386],[127.03137626161444,37.34551924424816],[127.03086770894325,37.346075726834464],[127.02990538421207,37.34688162902559],[127.02921629226263,37.34707112374522],[127.02875330003995,37.34763186428886],[127.02728786388944,37.348039084784425],[127.02629932721459,37.348511343059236],[127.02528544032573,37.34844354028956],[127.02426007192757,37.348760588802186],[127.02365631112296,37.34942718072109],[127.02327216658514,37.34952582180105],[127.02301882231212,37.349757447086006],[127.02247202979423,37.3498167171057],[127.02193177823722,37.35019882629516],[127.02147209594044,37.350323635176046],[127.02065670381813,37.35083411576412],[127.02015364987872,37.35089743179752],[127.01983082229899,37.35112942269127],[127.01899716405481,37.35112101335233],[127.0182441217576,37.35100230810454],[127.01803931639935,37.35179927796688]]]}}
