{"type":"Feature","bbox":[127.03239058006702,37.23125490688564,127.08964502946715,37.320939755983936],"properties":{"regionCode":"41117","version":"vworld-20260909-3f8952dfda77-p2","name":"경기도 수원시 영통구","attribution":"국토교통부/K-Geo플랫폼 · VWorld 법정구역정보, CC BY 2.0 KR; 두꺼비집 가공"},"geometry":{"type":"Polygon","coordinates":[[[127.04694768234253,37.31695682851828],[127.04601981366076,37.31721062833814],[127.04559117264112,37.317996315757824],[127.04455096779853,37.31819244437834],[127.04233601299502,37.3189883130724],[127.04170798342084,37.31943066349181],[127.04035105721984,37.32083108629486],[127.03968542902116,37.320939755983936],[127.0393538067556,37.32080646825936],[127.03885136392908,37.32048460201086],[127.03878731042195,37.320153017175976],[127.03892914397913,37.319532623756054],[127.03890781168981,37.319102544129365],[127.0386944582979,37.318889600100505],[127.03864473496402,37.31782008950274],[127.03880647719038,37.3173180481612],[127.03840742315137,37.31635848114229],[127.03789611983123,37.3157249918942],[127.03710372058207,37.315279232722446],[127.03660468350493,37.315172493317874],[127.0358907579548,37.31450155491879],[127.0354008803615,37.314279095640956],[127.03515554430925,37.31403379135763],[127.03464045527947,37.313723350050516],[127.03429739124523,37.31364411969549],[127.03372397391381,37.31240699628743],[127.03296647001666,37.311690901752996],[127.03313391902952,37.31093545431837],[127.03260618141394,37.310135803567405],[127.03239058006702,37.30964098056979],[127.03264410741777,37.30945763656794],[127.03286501730373,37.30825282680779],[127.03324644827238,37.30789495654182],[127.0329593064608,37.30730272584928],[127.03318471001592,37.30689257047763],[127.03323967912986,37.30654963241368],[127.03306011878273,37.3057188446252],[127.03330868886096,37.30528880642956],[127.03332268822824,37.30496958714526],[127.03310518505185,37.30346417021838],[127.03320368263745,37.303154819064865],[127.03300382548467,37.302832584561614],[127.03309281488808,37.302445126660594],[127.03304696767088,37.301883437292176],[127.03289687327319,37.30160693434695],[127.0329060707223,37.301212630992126],[127.03278115445492,37.30118319251465],[127.03273958714362,37.3008207727719],[127.03258085988732,37.30049262446573],[127.03271219656064,37.300507437325756],[127.03286254453954,37.29996311405916],[127.0335712566463,37.29877909679439],[127.03352448336416,37.29850997390181],[127.0336506104335,37.29826788540841],[127.03417150816368,37.29781382102792],[127.03386012786149,37.29704408649196],[127.03388299064815,37.296471179309336],[127.03412758296818,37.29589037001137],[127.03436081891553,37.29566246280527],[127.03514933788566,37.29440216058127],[127.03502799606862,37.294397110296366],[127.0350463296809,37.294286098604275],[127.03523147100624,37.29418855440352],[127.034324281625,37.29369657662882],[127.03402515929037,37.29341460279842],[127.03437099655842,37.29323361348965],[127.03580686537688,37.29342530679612],[127.03586813085815,37.29348115202213],[127.03579448362649,37.293479733757955],[127.0358201887069,37.293609491450226],[127.03714839039236,37.292919928278536],[127.03808355445183,37.29300762993737],[127.03892649721574,37.29263325656238],[127.03924937905963,37.29240564363979],[127.03943588271997,37.29212220972917],[127.03981735768775,37.292024508085774],[127.04024368491429,37.29164575365353],[127.04076299164127,37.29137662593392],[127.04068414944696,37.291354485615024],[127.04079804698617,37.29112459516146],[127.04099312427383,37.29107749879505],[127.04115206261837,37.2909367922891],[127.04120115232847,37.290783421633414],[127.04083912955292,37.290752905576404],[127.04053596804661,37.290489636217536],[127.0403188957757,37.290745688878694],[127.04036249661416,37.290881732056405],[127.04027747418094,37.29112224356853],[127.04001435090063,37.29152644241212],[127.03955434099501,37.29175680335893],[127.03907626314756,37.29171866341456],[127.03882292135862,37.29162503615022],[127.03923376824241,37.29140604520332],[127.03946950450025,37.290802729774995],[127.03832669897855,37.290451689391716],[127.03822281861224,37.29019006109153],[127.03968546699538,37.29012859935213],[127.04031872691775,37.289978280952504],[127.04131716128992,37.28942886155701],[127.04250252739944,37.288411103857015],[127.03960720371833,37.28610849387937],[127.03921185807533,37.285692524520606],[127.03875363330364,37.28467252061594],[127.03867300986006,37.28353373414489],[127.04009994694677,37.28382484052172],[127.04014000508701,37.2843106561741],[127.04028652349587,37.284567423389184],[127.04041239270592,37.28462702543754],[127.04047806104265,37.28492218152184],[127.04075081690107,37.285085358087926],[127.04117134965857,37.28556898200949],[127.0413702795544,37.285586755902735],[127.04203748221876,37.28593018240347],[127.04292216751021,37.28597763220766],[127.04341093333754,37.285828969032124],[127.04327206362063,37.285323089630516],[127.04286918183163,37.28503319089814],[127.04270643983834,37.28470849570087],[127.04262727509278,37.2846598049263],[127.04238078428627,37.28474949079667],[127.0417512571341,37.284072967465285],[127.04205746404617,37.283176308378046],[127.04181629964498,37.282716710784065],[127.0420507438478,37.282547635293945],[127.04207895047944,37.28238710641396],[127.04224475014642,37.282314850304154],[127.04274221625656,37.28161978315176],[127.04282123408393,37.281114124205935],[127.0427644261285,37.28018758340573],[127.04357433498566,37.27962970388325],[127.04376438565366,37.27651685779212],[127.04369764725087,37.276578149485935],[127.0438923489869,37.27601132138952],[127.04380783369808,37.27594072851954],[127.04345096919232,37.2759346763199],[127.0436229705809,37.27589047360177],[127.04386068183834,37.2759448171712],[127.0439127338035,37.275309086574765],[127.04415043030069,37.275137019329975],[127.04427423427455,37.27480158454494],[127.0459654350689,37.27429033522873],[127.04563796233103,37.27417300815257],[127.04085677944474,37.275568457449694],[127.04052886973876,37.275191230295846],[127.03985191829973,37.27514348074973],[127.03937057268921,37.274807291026804],[127.03841444094401,37.2747537918268],[127.03764618468149,37.2750490251066],[127.03725846069531,37.27496646408667],[127.03679463962841,37.273813019329786],[127.03746865823622,37.27331980003871],[127.03760894716096,37.273101725921244],[127.03806831684315,37.27284065312178],[127.03861424710622,37.27232194788779],[127.03689025247272,37.27157694243749],[127.03836202962651,37.26947041669321],[127.03394472082154,37.267546558225376],[127.03375434836259,37.26712438522462],[127.03365004040518,37.26706774000746],[127.03325943488097,37.2671571369676],[127.03317706733856,37.266995785346424],[127.03774306746355,37.26593782964937],[127.03783464969129,37.265782015184506],[127.04056099601188,37.26515799078616],[127.03833404281461,37.25992350964224],[127.03814355320155,37.25996690804772],[127.036062485663,37.25507896302264],[127.03695332638002,37.25483974573544],[127.03861724614885,37.25469777408569],[127.03953660660356,37.25404089629269],[127.03996170408085,37.25396370355789],[127.04050241070338,37.2525461216084],[127.0414343518046,37.25145672785292],[127.04217136091354,37.25098121571769],[127.04115832094968,37.2499721844723],[127.04112737482444,37.24963944181],[127.04141450566988,37.24887877801579],[127.04120068681748,37.24822514699586],[127.04090619066416,37.248043956847454],[127.03967044126755,37.247628533076785],[127.03936205058255,37.24737399785607],[127.03915719926611,37.2470322111445],[127.03909858293223,37.24679075101305],[127.03924348516551,37.24643267049751],[127.03979414221551,37.24585054939781],[127.04027337799111,37.2455676648315],[127.04046882103312,37.24525529230383],[127.0402021789482,37.24444084846858],[127.04023361100205,37.24420801684668],[127.0401325044428,37.24452567887837],[127.03936461345398,37.24357533226177],[127.03923809865094,37.2435658477066],[127.03910213460334,37.24368425984864],[127.03895941743833,37.243552074935984],[127.03894558393606,37.2431056884458],[127.03913065382628,37.242671179628445],[127.03822483805574,37.24191343834988],[127.03834328487196,37.24155751796998],[127.0387080144392,37.24152340620153],[127.03862974987238,37.241325390403],[127.03818732034928,37.24103143068847],[127.03792901124417,37.24067697033008],[127.03761221477325,37.240571879151624],[127.03730248458533,37.240679132811614],[127.03719123695836,37.240574906568476],[127.03698354365838,37.240257352296595],[127.03669177590777,37.23893194857938],[127.03741026476028,37.238950790584745],[127.03765818492703,37.23877924009629],[127.03956530596058,37.239127480393016],[127.04148430123308,37.23922585564387],[127.04284989077729,37.239082075426566],[127.04396307704454,37.2387465113191],[127.04376917075872,37.238303116278544],[127.04370557379846,37.236853056529036],[127.04438209451335,37.235961301976644],[127.04556793683253,37.23593604639255],[127.04588116617471,37.235866123924374],[127.04593395334864,37.233595422349204],[127.04576454419909,37.23331553347428],[127.0458242538911,37.232823514362615],[127.04594834816007,37.23276983049648],[127.04668774123108,37.23286706932716],[127.0476489047175,37.23326755425915],[127.04769507305849,37.23321296154342],[127.04801353518333,37.233255128900666],[127.04956404899816,37.23405817401129],[127.05151307921712,37.23432236550746],[127.05348294385989,37.23351388714851],[127.05356670819764,37.23340408701902],[127.05376245861754,37.232323616099514],[127.05249496777604,37.23153438269592],[127.05243679314461,37.23139106737101],[127.05269818958237,37.23125490688564],[127.05366925347575,37.23176517554593],[127.05456588234077,37.23204041364804],[127.05547196779492,37.23259663068247],[127.05591981834016,37.23272964668275],[127.05826338340346,37.23413974426708],[127.05931206114943,37.23504561913542],[127.05970135333484,37.235498735203144],[127.06001406061205,37.23607673022883],[127.05997896333206,37.23650959081241],[127.06007962562963,37.2367763752864],[127.0616982157354,37.23757896551787],[127.06244982374601,37.238329910234285],[127.0633500573569,37.23895227096496],[127.06412860081016,37.239082863805145],[127.06452932234068,37.239249135520744],[127.06513482491431,37.240118555521924],[127.06606487365177,37.24019373123764],[127.06644899553332,37.2400872163385],[127.06691779606692,37.24019592335647],[127.0670838741077,37.24047491880516],[127.06686185087821,37.241018168121116],[127.06658224688383,37.24115661318775],[127.06610881481303,37.240995019906386],[127.06602302288789,37.241166748392644],[127.06625926275144,37.242597351925944],[127.06647284352333,37.24299009567866],[127.06631894248905,37.24351078499846],[127.06632667729247,37.24377678908871],[127.06583324133311,37.2436411142095],[127.06541036529724,37.243697558996914],[127.0654955984069,37.24379753583678],[127.06616920018755,37.24388997690092],[127.06789384148243,37.2446963526632],[127.06910117891454,37.24562406392337],[127.06928377911083,37.24600531317602],[127.07072505382557,37.246458511363485],[127.07134175290733,37.24653581932667],[127.07149514670267,37.246654127821444],[127.07202651281007,37.246713010689305],[127.07332016646187,37.24704714582332],[127.07390703317485,37.24698815144163],[127.07609376074699,37.24743838476726],[127.07772788774943,37.24737098132018],[127.07841294562388,37.24748761964448],[127.07962690325219,37.24735511944159],[127.08006126252056,37.24742886270095],[127.08110646412074,37.24832432665948],[127.08104572804388,37.24837294415045],[127.08174215327062,37.24875832479291],[127.08192895764712,37.24917725414998],[127.0823274127299,37.24966713716878],[127.08251781247067,37.250176868877844],[127.0822331230032,37.250442984270876],[127.08194652378366,37.250900508649494],[127.08265875840519,37.2516453622392],[127.08218033429867,37.252290850894994],[127.0817534888496,37.252687921383895],[127.0818861247399,37.252814154669764],[127.08223560826647,37.25403041490676],[127.08212875041781,37.254250373701076],[127.08236566436723,37.254378196693374],[127.08294980720545,37.25451679306483],[127.08306811165112,37.25466586010775],[127.08376996586169,37.25502785914277],[127.08364943184506,37.255400776240656],[127.08387315678135,37.25552024074588],[127.08399721023405,37.25591557985291],[127.08467292447207,37.25651674951053],[127.08447590933798,37.25703554261915],[127.08387474700633,37.25793193426132],[127.08387755787712,37.2582680291935],[127.08367487060924,37.25877099215235],[127.0828571792909,37.25854681929261],[127.08097254920717,37.25846965890023],[127.0808030321408,37.25990768658917],[127.08209158194447,37.26208925732074],[127.08449509249591,37.26256082371137],[127.08622576769444,37.26487814104884],[127.08564703500126,37.26705626240214],[127.08551988933388,37.2688018353855],[127.084899950206,37.26992332498478],[127.08240478759734,37.26817510348639],[127.08156946182076,37.2677552116996],[127.08096275550272,37.26754669668054],[127.07849103949638,37.26694656341708],[127.0777073005399,37.26686048327293],[127.07717808013685,37.2668827175258],[127.0773347435287,37.26568987219494],[127.0756025357493,37.265790445733046],[127.0759723491379,37.26564904562021],[127.07636132547728,37.26535154788458],[127.07665402574813,37.264944107494074],[127.07666589389068,37.26458645256764],[127.07753951986878,37.26360682063937],[127.0773838406048,37.26316171624506],[127.07714723924755,37.26285155190289],[127.07573224170122,37.26126996005703],[127.0750579888754,37.261970151635076],[127.07497193233075,37.26249411285768],[127.07480027371193,37.26277307174956],[127.07478092354054,37.26339706767615],[127.07427439120045,37.26370150928732],[127.07456972529904,37.264444857908195],[127.07451258718932,37.264793463959414],[127.07470275405947,37.26503939723971],[127.07486807344269,37.26605342670559],[127.074330813068,37.26624317261045],[127.07340741827055,37.26605162673339],[127.07225016600282,37.26606849156505],[127.07178881828362,37.26639343367978],[127.07109851795282,37.26659872098081],[127.07058026372229,37.2666175473754],[127.07004255933333,37.26696016504575],[127.06974058807687,37.267415478729525],[127.06968664564266,37.267637386488566],[127.06938607208788,37.26784124745304],[127.06901456193326,37.26794109612554],[127.0688711962437,37.26809364275574],[127.0687969881281,37.268229607563285],[127.06898440775842,37.268404866866064],[127.06883334782032,37.269029784075016],[127.06815943418417,37.26940743523064],[127.06811619719458,37.269646514949166],[127.06757240792268,37.26974316955899],[127.06722849555932,37.26995140695026],[127.06657222495292,37.26996330489758],[127.0654436826485,37.27025810634433],[127.06490134187156,37.27020812047646],[127.064721746958,37.270349676940185],[127.065665116128,37.272519670772624],[127.06592398616009,37.27278812798807],[127.06676951415741,37.273215025782505],[127.06681906790732,37.27380382483891],[127.06698853673558,37.274070976310554],[127.06795820390141,37.27447761275749],[127.06821486355388,37.275289117986546],[127.06822579879574,37.2757989196627],[127.06876056345327,37.27640969930545],[127.06941120814234,37.27672414655369],[127.06952931532167,37.27690878856671],[127.0695131959403,37.27716496558706],[127.06901780908468,37.27823927759722],[127.06896482587162,37.278630444577786],[127.06978183922477,37.27885604469835],[127.06998027611262,37.279087677524835],[127.07048109472848,37.279406263509905],[127.07084803553612,37.279435780944084],[127.0710087934131,37.279520653853034],[127.07124298514547,37.27987822792658],[127.07175658251569,37.280345559470184],[127.07184144231466,37.280536260566016],[127.07214084048933,37.28056040616183],[127.07221419751401,37.28074813948668],[127.07317344378713,37.28074539698251],[127.0738132110356,37.28083096741378],[127.07420549971066,37.28117663391528],[127.07517044284593,37.28146382712673],[127.07497443759975,37.28213044304453],[127.07549938600184,37.2825414745701],[127.07600252701397,37.282641315179035],[127.07630603759823,37.28291258735153],[127.07662137031245,37.28293840838646],[127.0784468649895,37.28362987694078],[127.07965434377259,37.2834572419034],[127.07999726818193,37.28376954709185],[127.08139116661485,37.28371216599513],[127.08149362484527,37.2843306172189],[127.08185698444055,37.28485836812285],[127.08263321413182,37.285209998137944],[127.08384999269599,37.285369125331385],[127.08444548125011,37.28557646099658],[127.08492953234607,37.28542167751562],[127.08530728629127,37.28509470514384],[127.08564974507287,37.28495127767937],[127.08594810560894,37.285084824708385],[127.08636297795309,37.285613082708366],[127.08744439438604,37.28554621187525],[127.08767750703657,37.285614502416394],[127.08779074412895,37.285760412312314],[127.08936430482916,37.28682146347229],[127.08886267089481,37.287856373609735],[127.08882211967718,37.28804973835731],[127.08900779250862,37.28844502829231],[127.08854610142046,37.28880148002022],[127.08848073602219,37.289073935786654],[127.08803199298595,37.289883428005666],[127.08800922172277,37.29090594422411],[127.08843317382822,37.291165958296546],[127.08833248025498,37.29186687058995],[127.08821037754859,37.29213064390356],[127.0883054686413,37.29313271338666],[127.08923741520975,37.29337734952699],[127.08935982081405,37.29355823294934],[127.08919389020537,37.29418069656299],[127.08943002491597,37.29463397137223],[127.08946182721712,37.29503901573384],[127.08896440157177,37.29626138822104],[127.08907235376097,37.29718305371031],[127.08964502946715,37.29825810742082],[127.08912631588558,37.29805506409386],[127.08885187330444,37.29775976530142],[127.08850439892556,37.29775674501653],[127.0879324943342,37.297909931557484],[127.08752840939424,37.29785245204587],[127.08698287815288,37.29819164325056],[127.08652164509662,37.298285171039595],[127.08586402645396,37.298611912902864],[127.08539579969859,37.29779496436538],[127.08469273767614,37.29732035066726],[127.08346139284937,37.297769737859355],[127.08283246522484,37.29763087453854],[127.08262765965947,37.29701182604002],[127.08212093823852,37.29681709884338],[127.08153549641897,37.296196507370944],[127.08108143091458,37.29608724882556],[127.08067806498809,37.295496624148996],[127.08023330501136,37.29522192418382],[127.07964605321871,37.29511247975211],[127.0791917873707,37.293274793943034],[127.0602746470022,37.296615526625985],[127.06044733166024,37.29718398285101],[127.0606216759662,37.298743126162954],[127.06053864328237,37.29871631610455],[127.05995474197724,37.29962582797055],[127.06090048858873,37.30134108660329],[127.06084785523934,37.30182390199016],[127.06105685689167,37.3021812725599],[127.06086060731101,37.3036683549226],[127.06054258407761,37.30415925020142],[127.06030396463812,37.30409978620181],[127.05935767528638,37.30427939475577],[127.05823107499016,37.30479366847518],[127.05889859645683,37.30599643745491],[127.0589663873442,37.306277833382055],[127.05953747838956,37.3066804204156],[127.05956676463877,37.30692091725474],[127.05975353309056,37.307091201325896],[127.06026348682721,37.30742389623449],[127.06032366045027,37.30768160697788],[127.06079986164083,37.30827429065333],[127.06099274395882,37.30911021428343],[127.06036670452127,37.30967433371006],[127.05996485689339,37.309826681978045],[127.06027812286443,37.31020067063957],[127.06043503189649,37.310733450483674],[127.06068789598383,37.31092595524318],[127.06032382838306,37.31103753811631],[127.0598126770075,37.311419763657895],[127.05881391837353,37.31238647895719],[127.05879379697488,37.312748718713394],[127.05834388466685,37.314002201611196],[127.05785636785046,37.31424585605665],[127.05759198500715,37.31488128920145],[127.05777736753691,37.31533580381333],[127.057696449386,37.31553611243236],[127.05691938371498,37.31560388592344],[127.05544774543202,37.315437082125534],[127.053851138615,37.31617616564566],[127.05355244142758,37.31597516725164],[127.05278873631198,37.31605939718885],[127.05229265177793,37.31583684185644],[127.04995928139962,37.31575723003036],[127.04896113949073,37.316103041845246],[127.04869952599108,37.31652290210796],[127.04773951981116,37.31682035884409],[127.04752479997168,37.316597300099],[127.04694768234253,37.31695682851828]]]}}
