{"type":"Feature","bbox":[127.02772796534734,37.333382123158295,127.19584248028572,37.474823987205234],"properties":{"regionCode":"41130","version":"vworld-20260909-3f8952dfda77-p2","name":"경기도 성남시","attribution":"국토교통부/K-Geo플랫폼 · VWorld 법정구역정보, CC BY 2.0 KR; 두꺼비집 가공"},"geometry":{"type":"Polygon","coordinates":[[[127.17384076506355,37.405526868975656],[127.17258444879582,37.4052244080436],[127.17384039019184,37.405526808450645],[127.17416317511078,37.40572507841576],[127.17442697401412,37.40613404244969],[127.17516495479136,37.40657159066365],[127.17531595818734,37.407325507988226],[127.17579258798007,37.40764087368832],[127.17610873066239,37.40799475723602],[127.17620450301985,37.408379822767806],[127.17687433230797,37.40905761761198],[127.17701053619245,37.40944792356081],[127.1773311419186,37.40985452485286],[127.1771873665888,37.410180084598785],[127.17759944591548,37.41063924893657],[127.17752349502453,37.411498414151666],[127.17738352143081,37.411844945016824],[127.17791095357845,37.41248121701964],[127.17790807097492,37.4130050620008],[127.17770231274633,37.41338469091859],[127.17778218512338,37.41395687773984],[127.17727995756304,37.41429508417369],[127.17724062692376,37.41479973292094],[127.17761034999747,37.41508268307139],[127.17800386995658,37.4151139498035],[127.17839470268645,37.41530544190114],[127.17880651639561,37.415631289299476],[127.17921909307475,37.41570700373289],[127.18038486854327,37.41615184969035],[127.18049674314312,37.415763200309726],[127.18109544712388,37.41548148281613],[127.18183401644409,37.415545402697326],[127.1821130214411,37.41521218082109],[127.18315670805323,37.41499992501766],[127.18409356444324,37.41544895212779],[127.18473933737631,37.415479027807876],[127.18495439499739,37.41592894061265],[127.18531096765838,37.41621845676149],[127.18536686746116,37.41637346011634],[127.18532209543206,37.416876474519476],[127.18557622772269,37.418539099926306],[127.18706561484758,37.41900342210254],[127.18771816065637,37.41973569259895],[127.18794081664075,37.42019051424346],[127.18784884926804,37.42030943867199],[127.18805994133176,37.420404450980534],[127.18853204345496,37.420437853221785],[127.18878129799091,37.42090573393836],[127.1892299310379,37.42119410852302],[127.18934468875942,37.42138989679029],[127.18949284041848,37.42141370193791],[127.19035370256512,37.42193288775955],[127.19106759522948,37.42209215903511],[127.19135725704326,37.422048915916406],[127.19183696107173,37.42223899823878],[127.19254824424222,37.422991542447505],[127.19255895451884,37.42337008470243],[127.19292193192288,37.423691445292725],[127.19388635302002,37.42419851999963],[127.19432852415014,37.42462204841264],[127.19448759410383,37.42536200335643],[127.19412150035969,37.42581861786639],[127.19386465070359,37.42583329077479],[127.1934029096134,37.42615041454016],[127.19406502396173,37.42790156253003],[127.19392249234127,37.42819010024757],[127.19444068199392,37.42922620759431],[127.19439726535491,37.42978628492062],[127.19489320970658,37.430096706675585],[127.19542991015732,37.43094492974199],[127.19451598818029,37.431291682519145],[127.1945774586748,37.43191880269259],[127.19440076823642,37.43256580452348],[127.19385307294381,37.43376170514325],[127.19375526739718,37.434785716553264],[127.19413849254414,37.43619440128188],[127.19370204526454,37.437669314342486],[127.19341928304623,37.43789551088021],[127.19399540992187,37.438673873518766],[127.1936844081753,37.43915931882623],[127.19371244079058,37.43930875251099],[127.19409468070792,37.43967708054683],[127.19411484153106,37.440497314950726],[127.19456016383339,37.441344382875236],[127.19474208068762,37.44141820110815],[127.19481080537,37.44175125534664],[127.19523820496288,37.44246885527915],[127.19533145990249,37.44288662566779],[127.19567693545841,37.443247072995405],[127.19584248028572,37.44356002822263],[127.19575378815875,37.443963825494166],[127.1954468069591,37.4443845776546],[127.19556129076997,37.44480596825958],[127.1952601423952,37.44534115501249],[127.1953779208868,37.446310189731285],[127.19525376620886,37.446509570333134],[127.19519304053568,37.44694537827219],[127.1953642303305,37.44736071729005],[127.19542581285296,37.448922579214354],[127.19507595060003,37.44903655142828],[127.19478713671093,37.449238902867826],[127.1946331901202,37.44973956294059],[127.19466491794682,37.4504096068917],[127.1948397401191,37.45116713059798],[127.19417531595997,37.45199953078073],[127.19390096051592,37.452935930414654],[127.19329610596235,37.45345560315933],[127.19265340327533,37.45440555519165],[127.19215436876574,37.45491057579707],[127.19189346574242,37.45514040507634],[127.19124088469904,37.455325222454945],[127.19099164349316,37.45576562038977],[127.19147755518807,37.456193194645174],[127.19169829503217,37.456570334212905],[127.191656750368,37.45705910539373],[127.19049886483637,37.45744914436642],[127.18971479851704,37.45785323290272],[127.1893885251016,37.45835309742363],[127.1880766107536,37.45829328654179],[127.18738087681997,37.458163996287595],[127.18475891916705,37.45883440315801],[127.18465690432915,37.45930397155847],[127.1839381063324,37.46028974827269],[127.18437384472402,37.461464594530355],[127.18429144749122,37.461734799536615],[127.18443078473959,37.462112670408445],[127.18457950755173,37.46222273701441],[127.18461524717644,37.462536561038256],[127.1838785187059,37.462950896900836],[127.18356087023498,37.4628675859175],[127.18327220171697,37.462966943823446],[127.18302758560806,37.46322301397264],[127.18221620692091,37.46376210307267],[127.18157967857914,37.46437002840904],[127.18141230217942,37.465216953711035],[127.18195125629289,37.46587316665312],[127.18200153970652,37.46712184829754],[127.18219153080823,37.467784726102394],[127.18186019152122,37.46841022750975],[127.18177551671123,37.46911343775642],[127.1820830113578,37.47014183361632],[127.18192945582348,37.47085802740397],[127.18147798989644,37.470839029115034],[127.18132790620345,37.47094617021121],[127.18137023935658,37.47122699362624],[127.18100405459573,37.4718575396583],[127.18108355831339,37.472130360181275],[127.18097978651384,37.47236064078732],[127.18105861038212,37.47320476219355],[127.18094775508466,37.47345950653878],[127.18059976367852,37.47368911445066],[127.18047005532952,37.47400842996298],[127.17997673830192,37.4742217301974],[127.1794991821322,37.47430728973436],[127.17879801815299,37.474823987205234],[127.17868852881908,37.474429459608956],[127.17896566958292,37.47368291302869],[127.17898029104502,37.47333056422122],[127.17891219855659,37.473266758017566],[127.17854305573344,37.47331250734632],[127.17818576125289,37.47307999702712],[127.17767587978183,37.473276520412206],[127.17727892399301,37.472808840656334],[127.17690703676567,37.472801464329876],[127.17599615167755,37.472070315798156],[127.17543455149405,37.47181811694922],[127.17475432257,37.47174641583726],[127.17419465700287,37.47147680561032],[127.17338962226822,37.471297571784724],[127.1722987680165,37.47088981874105],[127.17191492785183,37.47062737964447],[127.17135989264729,37.469968230315374],[127.17069008891617,37.46945718761523],[127.16896393857448,37.4688077172756],[127.16779847077201,37.46875168767739],[127.16646140909964,37.46913484127839],[127.16637742714182,37.469349756080476],[127.16673647240967,37.46966270544301],[127.16581347368616,37.46990424571816],[127.16539642111292,37.46992216456558],[127.16546141445708,37.47025789875805],[127.1645093248044,37.470519590238844],[127.16352111203085,37.47091347742671],[127.16310492875799,37.470831083818204],[127.16024816921929,37.471222199128285],[127.15952623457216,37.47139731095659],[127.15925308545232,37.47126375134759],[127.15804779565936,37.47154021150292],[127.1576786731807,37.47174974256062],[127.15722635584962,37.47169032380188],[127.15582110604936,37.47212095373694],[127.15542719783471,37.472545874508],[127.15456423312516,37.47293855450215],[127.15460042557753,37.47352144510327],[127.1475163108322,37.473827802821724],[127.14686125874613,37.4737859614618],[127.13639672541423,37.47417087963216],[127.13528708838778,37.47425744316889],[127.13285582129781,37.47462685589327],[127.13273902433114,37.4745557627567],[127.13268681535622,37.474286182254225],[127.13259233833955,37.472795380927664],[127.13282862578198,37.47170379493998],[127.13282401545264,37.471201323049904],[127.13265652953581,37.4712079232824],[127.13249075060763,37.47061870746526],[127.13198255268836,37.469798640072284],[127.13279937607938,37.46839405790667],[127.1319591172299,37.46817777484869],[127.13082979129582,37.46774565219597],[127.1302024120832,37.467801305858735],[127.13014054133755,37.46775112242466],[127.12889328147581,37.46808372814656],[127.12703415286357,37.468419114165386],[127.12637260482124,37.4687990774523],[127.12602637547275,37.4691126582174],[127.12521120023506,37.46963243529727],[127.12488742136325,37.46960660230589],[127.12502593830074,37.469018981559714],[127.12517596421281,37.46876677750954],[127.12521134837274,37.46784049234015],[127.12508133395356,37.46768872243253],[127.12504765829821,37.4672650724399],[127.12476701332191,37.466919345767906],[127.12448785169573,37.466643830580715],[127.1237896497143,37.46634350076989],[127.12293688889336,37.46581851285133],[127.12278783971436,37.46560142069108],[127.12269203543185,37.46559934815179],[127.1221809653442,37.46522294492595],[127.12185991226123,37.465133638126815],[127.1214400015941,37.464371990695334],[127.1207454774339,37.46389190403352],[127.120105022074,37.46349290282363],[127.11832698403705,37.462694970930336],[127.1174714828509,37.46219746233041],[127.11698776666515,37.46146924032311],[127.11689601908539,37.458633988946495],[127.11588191644944,37.45859543557398],[127.11548727354258,37.458708003924755],[127.11512845585285,37.459077703591305],[127.11396800479088,37.45951304679917],[127.11331195559744,37.460017830968155],[127.11323306525613,37.460353467347424],[127.11276815613009,37.46052738698938],[127.11331097441368,37.46083857679305],[127.11333208837344,37.461090559998944],[127.11297475650159,37.46113479212358],[127.11182005003458,37.46164462177558],[127.1098908612324,37.46194140768553],[127.10945897998114,37.461870999562215],[127.10815329240914,37.46227443764345],[127.10731628420389,37.46218119806733],[127.10688683105826,37.46237076085049],[127.10645657647221,37.46243450661177],[127.1059260412515,37.46235440081111],[127.10560874344462,37.462178350920865],[127.10434648389494,37.462159385121836],[127.10478096286963,37.46115987106098],[127.10447289808693,37.461029214782855],[127.10402521432417,37.460558761321586],[127.10394349781266,37.46005659727405],[127.10344021512468,37.459757169884725],[127.1026891182375,37.4597326807245],[127.10263587443215,37.45986469620616],[127.1018178416785,37.45918254626159],[127.10138195426673,37.45897235618544],[127.1011670020988,37.45853408925042],[127.10127760129521,37.45824160822436],[127.10076558663879,37.45775983839541],[127.09973848859931,37.45735456157856],[127.09909550764029,37.456218822342436],[127.09889299717817,37.45611609135913],[127.0982371498096,37.45637116792747],[127.09636497034589,37.45634674301572],[127.09576897171144,37.45651976047015],[127.09523001887163,37.456395987774876],[127.09521356331481,37.45632122607953],[127.09431201123691,37.45622530280709],[127.09377337248297,37.45607774647871],[127.09354021063588,37.45588845082217],[127.09314236873355,37.454905754003455],[127.09321730713854,37.454716120855174],[127.09272525584697,37.4536339116465],[127.09188190209855,37.45346674604322],[127.09095878536937,37.45278266139553],[127.09030263853641,37.4512668565976],[127.09014021073862,37.4510957545747],[127.0896192843819,37.45088682149762],[127.08954253088324,37.45016620856994],[127.08882078105525,37.44974964091688],[127.08895926669538,37.44946194168192],[127.08843189330558,37.44899471185881],[127.08832654007679,37.448627835031715],[127.08835997544122,37.44837322837879],[127.08864213103789,37.447596920145195],[127.08836907315364,37.447240421898336],[127.08827667305128,37.446554386539255],[127.0883862313184,37.4463977091497],[127.0882234994998,37.44603271259539],[127.08827622534602,37.44541375773988],[127.08795058896351,37.44487791464803],[127.0875754039884,37.44478774008085],[127.08738801706932,37.44461305513838],[127.08653048007076,37.444249081677434],[127.08582906186116,37.444404126540306],[127.08395401192647,37.443908311340174],[127.08390865771234,37.443428544038206],[127.0833896903653,37.44294422835346],[127.08329066097438,37.44254271589745],[127.08303907486223,37.44232187471346],[127.08250530249616,37.4415970752222],[127.08215656726573,37.441338357726856],[127.08147489034582,37.44123667268328],[127.08128351542396,37.44112531303223],[127.08030077942551,37.441029729211465],[127.07972676362702,37.441375629805805],[127.07920750315012,37.4412925716334],[127.07871496419631,37.44152975114224],[127.07817869396327,37.44155198345814],[127.07780300333627,37.441819634059065],[127.07768069497361,37.44169352731829],[127.07746433169739,37.441629120980195],[127.0772035825812,37.441642437380146],[127.07684378857535,37.44192163513823],[127.07614421415786,37.442132952134834],[127.07534087438637,37.44194719159121],[127.07489306259204,37.442212212160605],[127.07385272776567,37.442213127701514],[127.0729931303452,37.44201767317496],[127.07213815418717,37.442263175198164],[127.0716256714279,37.441523871127146],[127.07185639055517,37.44106728575793],[127.07221142557155,37.439382846842626],[127.0720074682935,37.43885684090402],[127.07360002371757,37.43792438200672],[127.07387980672192,37.43742341373325],[127.07366754509891,37.43706672627064],[127.07323933713666,37.43669237718024],[127.07308444403705,37.436424448126175],[127.0727921846346,37.43629539496771],[127.07209333616386,37.436160905638374],[127.0716885463108,37.435981011579464],[127.07143918288887,37.435863490300115],[127.07128087012279,37.435615464037255],[127.07129523594531,37.43535744943655],[127.0715022923029,37.43507069296406],[127.07151949730269,37.43411699317225],[127.07111884590346,37.433401764962476],[127.07073053165078,37.43294067821522],[127.07057085029737,37.43241688700828],[127.0706183905007,37.43211117066539],[127.07090732177967,37.431860190384405],[127.07120638361587,37.4308177148088],[127.07118054037761,37.43050446507776],[127.07090597292554,37.43021434956554],[127.07033834375711,37.43048569684859],[127.07003218919327,37.43091035593846],[127.06987340005398,37.43097220536721],[127.06991108186897,37.43086337669417],[127.06961506368621,37.43061160018038],[127.06897372583076,37.43045180203445],[127.06830883811617,37.43071885307764],[127.06788802935185,37.43046211680546],[127.06655351897462,37.430064878721744],[127.06594534055209,37.42954306191052],[127.06568580597879,37.42919401731074],[127.06565506047497,37.429022805259685],[127.06509118752177,37.42902395532176],[127.0646398055087,37.42922835519037],[127.06437927660235,37.42916157008238],[127.06329018384093,37.42979974470791],[127.06288767736423,37.429757232914234],[127.06086647614532,37.43012162625746],[127.05998219140002,37.42986456786731],[127.05975117008308,37.429719494730456],[127.05889276421264,37.42980503540585],[127.05786177977365,37.430149886864115],[127.05618259643512,37.42973033574008],[127.05588397411587,37.42973793762862],[127.05534721040128,37.42949158259729],[127.0551092647655,37.42956484663504],[127.05493612502843,37.42942131416357],[127.05454061458914,37.42940348612963],[127.05369615373944,37.4291176563327],[127.0535048439859,37.42912486953759],[127.05319679906128,37.42887316520972],[127.05233991176755,37.42858887147928],[127.05213296880099,37.42843624996284],[127.0514174477222,37.42905373278119],[127.05135878448296,37.42919822693976],[127.05019104528095,37.42990504502605],[127.04986501558865,37.430309640393716],[127.04957950064157,37.43027007962471],[127.04755454346872,37.430607531306045],[127.04736010990975,37.43075494419612],[127.04612137753519,37.429548548357836],[127.04595805055774,37.42925521383438],[127.04519769915757,37.42946676011479],[127.04501305855845,37.429102161998124],[127.04422264750384,37.428670341627154],[127.04407425107081,37.42848890495114],[127.04292970211311,37.42851440140913],[127.04232483199957,37.428075481563674],[127.04224846204083,37.42778231808931],[127.04224634924988,37.42689764661339],[127.04239673764884,37.426079828787735],[127.04207504136265,37.425107629499735],[127.04206704534307,37.423894688084154],[127.0422966116443,37.42325202906867],[127.04275000797128,37.42315100935781],[127.04284103712592,37.42234203310093],[127.04243871374416,37.42060388961821],[127.04318165199317,37.41955648316028],[127.04291818493101,37.419283948275606],[127.04253029648919,37.4191086580854],[127.04221018504538,37.41830181273681],[127.04213240173837,37.41784890939349],[127.04239092327164,37.41745693575279],[127.04207584038691,37.416341357001805],[127.04229597064662,37.41553061597588],[127.04197054191442,37.415589597915414],[127.04242565981814,37.41540052542204],[127.04298847464753,37.41541478260422],[127.04398335384909,37.414805867927036],[127.04430338044513,37.414384098755455],[127.0449108717392,37.4142363638988],[127.0454999892052,37.41396131755891],[127.04689350430093,37.413707850069855],[127.04718777771478,37.412915358715715],[127.04682071646883,37.41227101673859],[127.04699273347052,37.41129020818971],[127.0467314142782,37.41069328741213],[127.0459820106224,37.41045064045506],[127.04568404317361,37.41011309896338],[127.04501594131484,37.409616445807444],[127.04491373496008,37.40928932546226],[127.04397883960272,37.40900918196323],[127.0433756671606,37.40850415459714],[127.04280605850603,37.40826455688225],[127.04230298748415,37.407261192985395],[127.04284244328831,37.40611035686707],[127.04286298910854,37.40524606238531],[127.04327539000573,37.4046160185867],[127.04331127216388,37.403878649594475],[127.04258532937288,37.40370437506361],[127.04218106197845,37.40348443006585],[127.04191905231086,37.403203845151765],[127.04015714845916,37.4022759415619],[127.03923026334616,37.40232944509506],[127.03819340012802,37.40202942568815],[127.03756912993381,37.40169916332581],[127.03722075489621,37.40127637734747],[127.03761859854717,37.39965488352287],[127.03827000907694,37.398167862854585],[127.03819355785994,37.39713628092141],[127.03835521793178,37.39613525862074],[127.03822238537988,37.395253593739724],[127.03831476393972,37.39477062999534],[127.03857039622163,37.39447756503261],[127.03830460740025,37.39422728292448],[127.03830139431805,37.39382613411426],[127.03845562690533,37.39305001488849],[127.03862049497566,37.3926928285144],[127.03861943478594,37.39228519179221],[127.03886995247132,37.39196717943945],[127.03849431069975,37.390556108643025],[127.03798544308835,37.39027925425757],[127.03730325476944,37.389585408436844],[127.03685635106855,37.38938834343482],[127.03610354883389,37.38927880494252],[127.03576860753395,37.38892742500256],[127.03536452566435,37.38881828582087],[127.03469545529465,37.38879977098683],[127.03520247947141,37.38797511494977],[127.03540283019055,37.386866476935],[127.03555885922339,37.386609875847334],[127.03495076576743,37.38598925734273],[127.03397892503808,37.38586781814476],[127.03386178401065,37.385337806927545],[127.03384647394059,37.3846282642466],[127.0332182805933,37.38390495379461],[127.03313339690408,37.38362099338855],[127.03313482251394,37.38306237359435],[127.03206664145122,37.38218451320667],[127.03229554123423,37.38143120250541],[127.03218872084497,37.38033773881304],[127.03192409310994,37.38004722892125],[127.0319799812,37.37959376089569],[127.03143864205629,37.379360572747224],[127.02930831718386,37.379542707523356],[127.02821489428867,37.379181797398815],[127.02820412280077,37.37848189731932],[127.02805723843663,37.37827577112659],[127.02803227585738,37.377157225497555],[127.02840454140693,37.37667466366675],[127.02802959963454,37.37600278650719],[127.02795007497649,37.37562298286909],[127.02794548450416,37.37409543134875],[127.02772796534734,37.37287355647833],[127.02793477048024,37.371971615937156],[127.02867106434155,37.37195932278815],[127.02911595305797,37.37210541095015],[127.02926966924323,37.37231462879429],[127.02966198147284,37.37212020474226],[127.03038467339213,37.37211161279352],[127.03059126754549,37.372065150235976],[127.03077959693285,37.371876286334114],[127.03158357343823,37.37173239263904],[127.03210549029205,37.371454400306426],[127.03233989953873,37.37151934961841],[127.03450926446412,37.37094709271833],[127.03469072437142,37.37064984347027],[127.03491568771852,37.370520772955466],[127.03517285967935,37.37051960081378],[127.03547760046665,37.370657088334305],[127.03599731672657,37.37047595204843],[127.03669996689925,37.370400174850836],[127.03726851844242,37.37017165849095],[127.03748646178555,37.37018067475678],[127.03834542397276,37.36967118128022],[127.0389629076875,37.36957037298069],[127.03951051143615,37.369381498701536],[127.0409169134781,37.36936136687078],[127.04234958519551,37.3690270271255],[127.04336569189866,37.369029553727984],[127.04423362720887,37.36878702687098],[127.04484211846103,37.36884215305654],[127.04510847244515,37.368562576623496],[127.04571332033015,37.36831165163668],[127.04609640630105,37.36831641966434],[127.04630817891008,37.36820393602392],[127.04636048820096,37.36795226063414],[127.04725402130248,37.366587047774615],[127.04856912757695,37.366016080240264],[127.04907013312038,37.36572964358593],[127.04949185846166,37.365343961984415],[127.05012648317908,37.36518854586551],[127.05030097686358,37.364934936458305],[127.05090275653525,37.36487838352018],[127.05238656558657,37.36405323314499],[127.05268307300007,37.36380864673934],[127.05320149833776,37.363208450844475],[127.05319703747612,37.36261423145711],[127.05290557723322,37.362136330535236],[127.05296729774308,37.36135668038888],[127.05310506923594,37.360928563870914],[127.05429916833931,37.36014033563243],[127.0557360566523,37.3599687081486],[127.05684576513363,37.360433696435365],[127.05774389963062,37.360724221610205],[127.05813628738252,37.3607629854064],[127.06038772634292,37.360781267145974],[127.06106720444619,37.360695726515814],[127.0620401117202,37.360401680587664],[127.06319034441769,37.36045289579675],[127.06493860345523,37.35978260365463],[127.0666370620086,37.35935919152234],[127.06730332957956,37.3590593055407],[127.06884970631523,37.35863829046192],[127.07062025700952,37.35800551965855],[127.07223297060118,37.357196466801234],[127.07214951705764,37.3571446347821],[127.07402139115693,37.35545904586043],[127.07466210816193,37.35415784813873],[127.07518157085428,37.35335150829121],[127.0753553858834,37.352716017703976],[127.07627059771336,37.350551117017844],[127.07710009736235,37.35005524555886],[127.07809365176962,37.34961803495459],[127.07943510752726,37.34966416352018],[127.08070034941666,37.350130801275924],[127.0819146504223,37.351159483166526],[127.08266587707631,37.35160816356539],[127.08332081115913,37.35185342026407],[127.0843083924755,37.35186884533064],[127.08594417025888,37.351674426509526],[127.08664616474063,37.35122672000623],[127.0873692769416,37.34971748233025],[127.0881771367292,37.34898006331579],[127.0894385503613,37.348176438567386],[127.09106358934903,37.34782126670492],[127.09297840833229,37.34699463467035],[127.09316061816234,37.34671495985366],[127.09308887373759,37.34620400330159],[127.0932140924438,37.345850676718655],[127.09386511433323,37.34557283540529],[127.09484326843636,37.345364950010556],[127.097872565207,37.34292397956261],[127.09803015024366,37.34285075839365],[127.09964867658687,37.342924815026585],[127.09955310555215,37.34283264586358],[127.09916594380535,37.34274614485315],[127.09910373642589,37.34252561578331],[127.09930781174006,37.342548218015],[127.09940452998704,37.342690389278125],[127.09986124865662,37.34270188619669],[127.1001753639132,37.342625463358054],[127.1004933473252,37.342728309353674],[127.10052720440008,37.342944608219],[127.1001556013778,37.342937162149646],[127.10185943824746,37.34311140076532],[127.10235154980073,37.34233011024581],[127.10247320179329,37.34190653641393],[127.10238703003684,37.34037461226036],[127.10288580927711,37.33978992194697],[127.10337397191009,37.33949382289663],[127.10379773995218,37.338563355302156],[127.10396430957798,37.33843771992074],[127.10437917087596,37.338384739947806],[127.10463698132523,37.33810529065947],[127.10701066920116,37.33696403314775],[127.10770300644997,37.33643216949283],[127.10813478063433,37.33597847612485],[127.10855535906789,37.33583086925867],[127.10914465831439,37.33577672426696],[127.10924846875108,37.335538037577024],[127.10945739784466,37.335397837149756],[127.10955789951407,37.334967812795455],[127.11014752011454,37.33470566173191],[127.11045020226824,37.33442273100489],[127.1107268206526,37.33461205104031],[127.1108887461489,37.334923028372316],[127.11134387080402,37.33533572414556],[127.11249608742386,37.33579245917814],[127.11317398100462,37.33529319664012],[127.11307656659653,37.33580641952217],[127.11371971764474,37.335698050804666],[127.11439485876589,37.335401149726174],[127.11507283695127,37.33488702526896],[127.11532653587341,37.33447065446165],[127.11641347644373,37.33391783318797],[127.11675505112993,37.33348023520124],[127.11693216763096,37.333382123158295],[127.11744734898595,37.33342847177604],[127.1177382950934,37.333899600706474],[127.11848797973403,37.33388759829356],[127.11975017422367,37.33408781595116],[127.11997380323761,37.33422012971038],[127.1205890755428,37.334336194689485],[127.12074765982908,37.334507140936914],[127.12132183994417,37.33475154863009],[127.12142537558849,37.33535774338155],[127.12161373156266,37.335513968517425],[127.12191141737648,37.33644000775666],[127.12245990342458,37.33676399951784],[127.12282173456545,37.33707925610078],[127.12306403212241,37.33695259570467],[127.12398903836426,37.336760352912954],[127.12459720925645,37.33679441322361],[127.12493810083222,37.33685875007918],[127.12560378601465,37.33748904011829],[127.12675529717792,37.33731266801827],[127.12756987138961,37.337418753840964],[127.12846222358814,37.337680446709044],[127.12927564554958,37.3374218702988],[127.1304556590593,37.33763206239801],[127.13112280192988,37.33798343521043],[127.131628127839,37.33858912426337],[127.1323687901331,37.33878873796468],[127.13288023712411,37.338693421672],[127.13318515026803,37.33877208497398],[127.13404155426281,37.338615534262495],[127.13452070048963,37.33890027608528],[127.13466814650197,37.33918139976598],[127.13509622182234,37.33935450888226],[127.13533826411378,37.3396393721468],[127.13574647476425,37.339794153786265],[127.13627430601692,37.339773109660655],[127.13654139858207,37.339927699799716],[127.13707058351316,37.33988004375244],[127.13741986803406,37.33965283142051],[127.13792705583313,37.33979770694912],[127.13704339296206,37.3407928536857],[127.13702584792419,37.34098309870233],[127.13666001745568,37.34097326294354],[127.13636057607965,37.3411348619473],[127.13629607780074,37.341756855326004],[127.13608866725305,37.34243897861259],[127.13646803781184,37.34303033637509],[127.13654129036229,37.343294657572734],[127.1364220282431,37.343534998067575],[127.13701935651376,37.34390291298972],[127.13732590752794,37.34452003408985],[127.13653909407176,37.344822712264985],[127.13638993589147,37.34535423361309],[127.13602260291749,37.345772933294384],[127.1350692648867,37.34654997314806],[127.13424827823793,37.34670383709027],[127.1340794765737,37.347904600936396],[127.13316965503826,37.34847378225596],[127.132831582745,37.3488769234379],[127.13258123702866,37.34955373512798],[127.13274635143905,37.349597809060505],[127.13266186840676,37.35030844811084],[127.13288828099206,37.351155228363034],[127.13319726790361,37.351372805769486],[127.13375806946635,37.351498676601445],[127.13429585565596,37.35177101890836],[127.13456281311832,37.352848835961424],[127.1343696101285,37.35322312826756],[127.1342684088498,37.35410501000518],[127.13384947299609,37.35472406632813],[127.13361035582133,37.35534150404989],[127.13372898713085,37.35592273760043],[127.13425137682104,37.35652316843291],[127.13460657559519,37.3574095096469],[127.13481276893881,37.357661815397044],[127.13481819788205,37.35789773234183],[127.13523978751019,37.35842029869953],[127.13582078693571,37.35852391457164],[127.13625648574494,37.35897175907224],[127.13730731223062,37.35946704377829],[127.13821039492986,37.35947003112949],[127.13931443300572,37.359949706369946],[127.13965649376034,37.359946604351755],[127.13980509499751,37.360123255761756],[127.14024952537766,37.36015069521023],[127.14095927452259,37.35993280418593],[127.1416043880227,37.36000768159767],[127.14180197363424,37.35963928347735],[127.14207683404777,37.35944843540541],[127.14354315280025,37.35962503111284],[127.14405937036518,37.35944899142974],[127.14504058010556,37.35956852400812],[127.14548017822781,37.35980292211313],[127.14570443896805,37.360024579023474],[127.146074659499,37.360072735059404],[127.14710066946726,37.36047761207571],[127.14730589061834,37.36059174439832],[127.14721455490535,37.36064770302723],[127.14726527696637,37.360678905151325],[127.1473772961867,37.360631590217196],[127.14753071652775,37.360716419676535],[127.14802765461964,37.36070366838317],[127.14894765120884,37.361146845360395],[127.14966599035843,37.361160561495275],[127.15019242539918,37.36130779659552],[127.15052920383583,37.36150045053388],[127.15073898522981,37.36222224531889],[127.15125752697841,37.36243979180826],[127.15178640981459,37.363019384498266],[127.15219889525478,37.36312681078684],[127.15278878448655,37.3634625171252],[127.15309403506605,37.364013719786534],[127.15325867647097,37.36455196766142],[127.15355463577511,37.36488658726718],[127.1539448497191,37.36516702306907],[127.15416525479728,37.36574479521921],[127.1547455271081,37.36644415711612],[127.15466276825465,37.366870703999155],[127.15483868465707,37.36796553742088],[127.15617620849332,37.36847770194451],[127.1569097960364,37.36919463564922],[127.15745404689557,37.36946044076458],[127.15822403251497,37.370477401184054],[127.15836815163914,37.37099162883151],[127.15884489888515,37.37144326153953],[127.15918459191009,37.371508087581496],[127.1595954358336,37.37205440227912],[127.16057566444216,37.37265675204456],[127.16068488586365,37.37286210008725],[127.16045800401496,37.37317669825502],[127.16083593067215,37.373711178030135],[127.16074711263853,37.37467186379704],[127.16117068266585,37.37582878349868],[127.1612367916054,37.376337425917654],[127.16086930128299,37.37733870872937],[127.16136222641035,37.37854992971262],[127.16156817767705,37.378836550889766],[127.1618003615268,37.37964459283531],[127.16301487234196,37.37995998981119],[127.16443651323159,37.37969481670114],[127.1662708916375,37.380273053095166],[127.16672454959505,37.380212872651974],[127.16708190445323,37.38031060094603],[127.16792116389884,37.38027427506488],[127.16872844321789,37.38081001691786],[127.16911843108203,37.3808760225357],[127.16975274028265,37.38122728344095],[127.17125553363118,37.38248765815292],[127.17208857584122,37.38234908151574],[127.17262674411693,37.382551042291524],[127.17338431217539,37.38270333135466],[127.17417047487578,37.383186220737],[127.17443205071042,37.38371248300287],[127.1750129195682,37.384146499104325],[127.1761601971041,37.38478936873596],[127.17658233768644,37.38525369651247],[127.17675419624223,37.386137908526266],[127.17703687225703,37.386548884590354],[127.17726067505895,37.38708988022353],[127.17674384082046,37.387383801254934],[127.17598333927391,37.38750532889958],[127.17544458249635,37.3879621076766],[127.17472482939661,37.38825086748488],[127.1744005950963,37.38855302000484],[127.17340126900517,37.38863374734704],[127.17299996770598,37.388836147358774],[127.17269585543852,37.38998681405897],[127.17238513963298,37.390048480538084],[127.17209137590278,37.391371582726386],[127.17129523640222,37.39146874042025],[127.17085748552654,37.39131508872215],[127.1704235671076,37.39159034760647],[127.16984602091844,37.391726323050456],[127.16958465769892,37.39198585277227],[127.16855251608433,37.39238491716496],[127.16825224883857,37.3926471750924],[127.16860900611883,37.3931965248685],[127.16854980342441,37.393681189953554],[127.16841149871559,37.39394055256442],[127.16819851497087,37.39557809474244],[127.16863628946366,37.395718440212235],[127.16915801260019,37.39624071404283],[127.16906355750817,37.39670803442452],[127.16938425403343,37.3972092813032],[127.17036172478633,37.39786143720656],[127.1707419703933,37.3984011621154],[127.17063186306018,37.39864463681241],[127.17167446421682,37.40102642905984],[127.17143130681146,37.401431497140095],[127.17185362361022,37.402120756488635],[127.17306228566989,37.402674988881856],[127.17337333592864,37.40290947842601],[127.17317032032818,37.40313801517316],[127.1733313246046,37.403891748532885],[127.17364330475274,37.40434876655442],[127.17363990967537,37.40480433314752],[127.17397406660012,37.40515758450091],[127.17384076506355,37.405526868975656]],[[127.13274707504758,37.417200163298766],[127.13269549454279,37.4170904548051],[127.13266558196503,37.41710799155486],[127.13274707504758,37.417200163298766]],[[127.13578665634816,37.416599829950016],[127.13494125795138,37.416829475804334],[127.13548023363494,37.41668928981177],[127.13578665634816,37.416599829950016]],[[127.11286057503565,37.40760226426152],[127.11239901524878,37.40749340453934],[127.11463249167582,37.408141487770806],[127.11286057503565,37.40760226426152]],[[127.11836328707618,37.41518635939899],[127.1176848963993,37.41486867661465],[127.11898121292376,37.41554435573625],[127.11836328707618,37.41518635939899]],[[127.13235731807238,37.41723868440171],[127.13224625443736,37.417244435448644],[127.13231575253596,37.41724938612317],[127.13235731807238,37.41723868440171]],[[127.11748361084253,37.42132554572247],[127.11731190886461,37.42137113929291],[127.11710910956515,37.421458436836915],[127.11748361084253,37.42132554572247]],[[127.11799355812674,37.421277295200895],[127.11778881470728,37.42124450144282],[127.11772808148001,37.42126062870938],[127.11799355812674,37.421277295200895]],[[127.1194217000297,37.420963242676365],[127.11969373745569,37.42034183145949],[127.11935234188056,37.42103854636287],[127.1194217000297,37.420963242676365]],[[127.11974181265185,37.41939738841901],[127.11969373745569,37.42034183145949],[127.1197602000742,37.41992407108105],[127.11974181265185,37.41939738841901]],[[127.11972149469591,37.4188153992794],[127.11895896825536,37.41659947054759],[127.11972524504155,37.4189228251859],[127.11972149469591,37.4188153992794]]]}}
