{"type":"Feature","bbox":[126.74147042980304,37.45838133095458,126.83362042149994,37.554242496899526],"properties":{"regionCode":"41190","version":"vworld-20260909-3f8952dfda77-p2","name":"경기도 부천시","attribution":"국토교통부/K-Geo플랫폼 · VWorld 법정구역정보, CC BY 2.0 KR; 공공주택 복덕방 가공"},"geometry":{"type":"Polygon","coordinates":[[[126.82093858937726,37.49058189288725],[126.820995851151,37.49064787015404],[126.82092518292201,37.49072679100808],[126.82001708967528,37.49005372556088],[126.82096164320038,37.49080078251364],[126.82032517851044,37.4907377369368],[126.820030469107,37.490799358265946],[126.81943422802087,37.491125414851055],[126.81926063372984,37.49132210987448],[126.81857727186042,37.49157314531535],[126.81790395998749,37.491553089423775],[126.81588747873467,37.49262875718623],[126.81549907780949,37.49320338906174],[126.81457302049964,37.49319685778506],[126.81431742706826,37.49375872868537],[126.81435251778055,37.494425078287136],[126.81381795719145,37.494982139520395],[126.8129810982255,37.49648184749922],[126.81325633718869,37.496820835913994],[126.81398923904894,37.497354558247885],[126.81412142133084,37.49821339758449],[126.81428506127173,37.49834928330249],[126.81467061401194,37.498095372360204],[126.81516504861867,37.498114896749804],[126.81576029939839,37.49774770371612],[126.81613006743036,37.49774346788441],[126.81651195487316,37.49786994091784],[126.81687182235376,37.49811345550216],[126.81755569184222,37.4983133203406],[126.8182082536622,37.49895964478751],[126.81890701756498,37.4988451905342],[126.8196714276496,37.499355490833764],[126.81943233628006,37.50080209457904],[126.82000008208362,37.50143445776093],[126.82061210614081,37.5017676877135],[126.82134094726582,37.50202081303866],[126.82161098638637,37.50223641673322],[126.82159007052142,37.50289876795813],[126.82205609184125,37.50398276653441],[126.82186155456449,37.50455946718602],[126.82208467603857,37.50512890452242],[126.82237852652337,37.50534787619849],[126.82255030469486,37.50568520002146],[126.82249259257688,37.50606150774011],[126.81554530618988,37.50574903650125],[126.82243410937826,37.50607116013348],[126.8222152089326,37.50763464909663],[126.82259933376272,37.50763466777012],[126.82349945535337,37.50803979288659],[126.82469433957043,37.50832062149612],[126.82390405158986,37.50909528253373],[126.82434457294998,37.51022625590695],[126.82405131736655,37.51049503042781],[126.82389385016063,37.510837528591814],[126.82417696880057,37.5123838916776],[126.82442619658359,37.513043400004015],[126.82426682485044,37.51444280849102],[126.82379558135602,37.51466362689034],[126.82340105519707,37.51495341237766],[126.8231123346235,37.51618603863448],[126.82451610312185,37.51755667424528],[126.82462878996678,37.51795750890156],[126.82559443472712,37.5198752571042],[126.82567343754134,37.52100724964252],[126.82554158236017,37.5214514386355],[126.82558895372956,37.52175199293282],[126.82548437025838,37.521752527771824],[126.82566044364495,37.522235213088166],[126.82519551965389,37.52280818115568],[126.82513841009906,37.523007905165905],[126.82582045185099,37.52370812520999],[126.82646223831794,37.524923797377674],[126.82669854056465,37.52511594365432],[126.82719339567693,37.52522530662002],[126.82817927620262,37.52583420651384],[126.82824320890992,37.52623797504255],[126.82884174190639,37.526506013376725],[126.82842465728613,37.5267027732022],[126.82800337990857,37.52798117013927],[126.82797990000155,37.528388953377096],[126.8283117813858,37.52904040737607],[126.82713732361407,37.52964572293156],[126.82646172008796,37.52979310848475],[126.82566580737432,37.52982992918221],[126.82541812835966,37.52991544404584],[126.82471827340858,37.53058901288696],[126.82454582921916,37.53125279794144],[126.82407643829428,37.531702463316094],[126.82396491504663,37.53206804700901],[126.8234972686928,37.53261807395901],[126.82347452408177,37.533447229974044],[126.82355251891138,37.53376323591353],[126.82328110522423,37.53380670668148],[126.82270263401912,37.53375474473229],[126.82258149575074,37.53427564296133],[126.82186773855518,37.53490305296989],[126.82243382317348,37.5365430886576],[126.82233861905813,37.53795948305702],[126.82160264381719,37.539756204397875],[126.82220020488055,37.54068535776608],[126.8207942392426,37.540789065592605],[126.81942710170722,37.54077541276113],[126.81631213349416,37.54055185442419],[126.81534808574567,37.540575160428965],[126.81473254912333,37.54072120214375],[126.81306730482547,37.54070077169305],[126.81256843747457,37.54077647110482],[126.81036089731707,37.541695863900756],[126.80825851537602,37.54322779438561],[126.80739375604199,37.54357859886291],[126.8068721119427,37.543605896991316],[126.80537230246182,37.54332720711646],[126.80442512878663,37.543278051459694],[126.80352149144298,37.5431422375421],[126.80166720769668,37.54267160817929],[126.80042821308038,37.54180579753173],[126.79967756614613,37.54146044387845],[126.80057548606536,37.54154193835638],[126.80082087502696,37.54128079075454],[126.80089761028736,37.54088082709471],[126.80080708625462,37.5408745441532],[126.80081430984886,37.540812291507564],[126.7994407244465,37.540657514420374],[126.7994401140823,37.54028396723769],[126.79937794900081,37.54025993094591],[126.7988931211782,37.54034525153306],[126.79876161630739,37.53947710468045],[126.79925855142561,37.53936407705193],[126.79943447443475,37.53909915436197],[126.79945021927563,37.538963184611035],[126.79915568199625,37.538964085013376],[126.79942097929691,37.538205174360385],[126.79946201053279,37.53772585445735],[126.79928763986631,37.53772667484821],[126.7990878179074,37.53756528057547],[126.79825387614517,37.53770510324597],[126.79836599655108,37.537253388864485],[126.79826882409569,37.537229569413896],[126.79817185602799,37.53732681593515],[126.79781371962801,37.53705167716479],[126.7970174324465,37.53706381441063],[126.79676568959962,37.536960164443975],[126.79674648912123,37.536843171102795],[126.79663561502193,37.53679032387167],[126.79611485547942,37.536771399625344],[126.79543343238024,37.53641432114566],[126.79479420425201,37.535964068290106],[126.79443194744965,37.53583537739823],[126.7943793446484,37.53625367759416],[126.7939733662903,37.53736738433394],[126.79404762507593,37.5380004611939],[126.79423260329197,37.53829951847017],[126.79418301302877,37.53858943288335],[126.79394135679583,37.53902965705942],[126.79394536048166,37.53943369351734],[126.79389321955868,37.539557210021464],[126.79327463281544,37.539710413377286],[126.79409070641849,37.54017479025467],[126.79426771524905,37.54015888322081],[126.7943761753222,37.54023413552956],[126.79440485910641,37.54044703462946],[126.7948885576485,37.54105098611763],[126.7949442147634,37.541371999933254],[126.7929759562977,37.54160647439182],[126.79213017053416,37.54176097358951],[126.79180634780383,37.541920173892144],[126.79176487234821,37.542180962888025],[126.79158848191072,37.542454794353915],[126.79153568234655,37.542831126863234],[126.79158307250808,37.54306462807119],[126.79178446608948,37.54332582469551],[126.79182959210534,37.543754155330284],[126.79123238608908,37.54374126126019],[126.79076161104001,37.54384854064253],[126.78938837558567,37.54447199162543],[126.7883405057912,37.545069262450426],[126.78774875431193,37.54574308873775],[126.78726916235753,37.54608544287326],[126.78695522092023,37.545997025877774],[126.78548713173585,37.54601349512609],[126.7844839375482,37.54612738069134],[126.78394355598788,37.546020797630334],[126.78339369760307,37.54601697329421],[126.78256545287955,37.546159598794155],[126.78204371443606,37.54633290745161],[126.781837075128,37.5460749055722],[126.78048545715788,37.546400675308234],[126.77921495856532,37.546561317730294],[126.77874788118741,37.54672204633737],[126.77784136383626,37.54666459006346],[126.77757512507183,37.5467099807802],[126.77674757864067,37.548207430790015],[126.7752973179153,37.5489741608695],[126.77258668672957,37.548758330640375],[126.7719523635347,37.54837980870254],[126.77155326926383,37.54833088310196],[126.77135906159535,37.5486396611372],[126.7710869508372,37.54869544295029],[126.7710256240338,37.549031220986485],[126.77084303259716,37.54935549897772],[126.7703242241411,37.549837043657874],[126.77030804236651,37.55002258905852],[126.76987572919887,37.55036411755407],[126.7698704347064,37.55068357286543],[126.77027078376705,37.55109356797144],[126.77016601713792,37.55118065233628],[126.76978952911978,37.55107770436808],[126.76934985517354,37.551373929949214],[126.76932593423732,37.55158134604345],[126.7688761116905,37.55157708327693],[126.76876813751636,37.55149803411917],[126.7685611047785,37.55160489628604],[126.7681556999246,37.55164408370694],[126.76805441326755,37.551804935356216],[126.76747128286709,37.55196201067016],[126.76772158165669,37.55284013403599],[126.76754343987581,37.55292087066589],[126.7673697664669,37.55313191435082],[126.76762499738896,37.55353037828047],[126.76734992358074,37.55358570392788],[126.76728782819147,37.5536843469393],[126.7676411909874,37.5539545327449],[126.76763752880787,37.55410501025517],[126.76740353052048,37.55423434197685],[126.76702222076666,37.55408745283523],[126.7667331495807,37.55407280749805],[126.76653014329332,37.55381068273701],[126.76636515262722,37.553763420752766],[126.76635737268141,37.553963660807185],[126.7662041454611,37.554242496899526],[126.76568185130485,37.5540138030943],[126.76568963867062,37.553862374263986],[126.76583803137585,37.553738784280455],[126.76656125126793,37.55340403846627],[126.76648895128697,37.55311502011817],[126.76577434473838,37.55263716972875],[126.76561274266876,37.55227431655952],[126.76564005755691,37.551970493493066],[126.76554879495586,37.55187530321043],[126.76503301213744,37.55155700520757],[126.7645693158545,37.551098499745024],[126.76384617587816,37.55086344865591],[126.76387598668524,37.55075243445161],[126.76406273171438,37.550659197679686],[126.765270271942,37.550536607913465],[126.76549195236602,37.550439068742044],[126.7656493941414,37.55002435918101],[126.76553408258509,37.549919389376626],[126.76520584573827,37.54988522517851],[126.76386590567958,37.549981563964806],[126.76371666886448,37.54982728490558],[126.76387400343175,37.54952701293948],[126.76431032557333,37.54930623978355],[126.76452372140965,37.549061227631846],[126.76389313202633,37.54840249981314],[126.7638553408396,37.54820898266866],[126.76400039004444,37.5477381724139],[126.76351581293721,37.54699472884732],[126.76334267205242,37.546562752290704],[126.763331045141,37.54527036509208],[126.76301777050894,37.544705488856145],[126.76324512210644,37.54411534886623],[126.7629894747292,37.54386235876811],[126.76238324930029,37.54367337128555],[126.76235964184121,37.54355962785838],[126.7626794149534,37.54330291866182],[126.76370439405726,37.54317575922462],[126.76387798759718,37.54307417884807],[126.76387815456646,37.542910874971334],[126.76247337880497,37.54205012574084],[126.762105841665,37.54198547478733],[126.76170300638556,37.54203628187582],[126.76153087905791,37.54200454191276],[126.76145919475691,37.54189617965471],[126.76189875905928,37.54144500925583],[126.76266404408076,37.54097024998824],[126.76259276023977,37.54075737319619],[126.76235113275285,37.54066042461926],[126.76190792399497,37.540671157185244],[126.76163692890971,37.54054133374407],[126.7616396318257,37.54027999059129],[126.76184450101535,37.539965327962754],[126.7623212695502,37.53950296114516],[126.76226844154839,37.5393188169933],[126.76174529855827,37.53902330380983],[126.76113106699219,37.53909359557288],[126.7609007302381,37.53896448091584],[126.76089113102233,37.538634636302206],[126.76144645773921,37.53837949803528],[126.76182404400289,37.537826416414596],[126.76181673928967,37.537711545260755],[126.7615030051653,37.537540115190545],[126.76120714965242,37.53758022020242],[126.76090437416367,37.537727816596046],[126.7606887299073,37.537678326037174],[126.7607650679426,37.53712331083366],[126.76055947723663,37.536660657559295],[126.76098300938818,37.536354505671916],[126.76080307753897,37.53602361102562],[126.76093361746945,37.53600051550899],[126.76090830420304,37.53589881192814],[126.76089537413056,37.535852329930776],[126.7607316586664,37.536020655504785],[126.76042398159902,37.53582321260786],[126.76014349794028,37.53549059292126],[126.76020518380359,37.535311453752115],[126.76063287055345,37.535033254423276],[126.76071552369416,37.53461745292965],[126.76040563640419,37.53385314671124],[126.76051638730152,37.533452335704666],[126.76036874261538,37.53266498830176],[126.76052914922577,37.53212338126715],[126.76055870727296,37.53158278443406],[126.76020098445628,37.530880289323804],[126.76066335452475,37.53053887396163],[126.7603939137288,37.530183918221574],[126.76038649181886,37.5292004871647],[126.7604873054075,37.528626355706834],[126.76030270030928,37.528081268045455],[126.76050745220192,37.52768456240595],[126.76047877574992,37.52688936952287],[126.76054445922583,37.52680807226739],[126.76030512351512,37.52567317957901],[126.76029160228524,37.52483806708351],[126.76040202631532,37.52395142938601],[126.76060018212277,37.52360504001391],[126.76060616423413,37.51971036373464],[126.7605238449667,37.51956388288193],[126.7603982000776,37.517986474745584],[126.76039041202759,37.518086946598444],[126.76014978396958,37.51808403879666],[126.76010415790155,37.5174239328548],[126.759754461391,37.51724224429523],[126.76050895397499,37.5168636487384],[126.76050887101492,37.51645649646975],[126.76027598236233,37.51591562481461],[126.75940598290254,37.51556418439938],[126.75899153852318,37.51565248734011],[126.75854507559664,37.51595180169413],[126.7584755397307,37.515827733122975],[126.75817313576877,37.51579578332255],[126.75701432662389,37.51586436366947],[126.75683821887478,37.51629513308053],[126.75612819897643,37.516412032979225],[126.75569270058507,37.51638463934621],[126.755214578145,37.516526925599166],[126.75490393240841,37.51654189351462],[126.75478093472209,37.51653076016102],[126.75461071542426,37.516374805328894],[126.75432317404687,37.51639756453485],[126.75383876554123,37.51665131441331],[126.75345096654401,37.51666826974882],[126.75320803545873,37.516544728008995],[126.75297993226592,37.516223548076155],[126.75283083987043,37.51614765461642],[126.75217861808868,37.51652365605059],[126.75202066643251,37.51645494597578],[126.75181090658269,37.51588206513979],[126.75197244744506,37.515673477147395],[126.75238980506369,37.51556914995544],[126.75239471992165,37.51542130472014],[126.7509288131749,37.514927317083725],[126.75061700365367,37.51495016845605],[126.75021024767037,37.514804074034636],[126.7500540961549,37.51444407360952],[126.750007160932,37.514021310081624],[126.74988032211722,37.51398043803802],[126.74921522324301,37.51434062653845],[126.74895428690577,37.51459364329171],[126.74825604678828,37.514666590626774],[126.74792090389934,37.51461683812694],[126.74775543326338,37.51478270698525],[126.74757219923745,37.514801235091525],[126.74720094539822,37.514628226937866],[126.74715357582986,37.51437126996608],[126.7470624768518,37.514328340502885],[126.74658318370062,37.51451137200438],[126.7465148278495,37.5147016225018],[126.7461405707208,37.5151292709716],[126.74593035016458,37.51512621284665],[126.7458019171929,37.51498945209567],[126.74588454947659,37.51496518735346],[126.74560098165549,37.51473289198697],[126.7451889216188,37.514123168958704],[126.74510895293996,37.51413672334889],[126.74491421137591,37.513730133253965],[126.74365256413436,37.510253150566186],[126.74278185555589,37.50964109214783],[126.74147042980304,37.50898797366601],[126.74162616969762,37.508825228222385],[126.74183980173909,37.507948579889565],[126.74219133701385,37.50751786393265],[126.74229523833222,37.50635166905049],[126.74257188993049,37.50516854667897],[126.74284416672947,37.50456277380633],[126.74287817922355,37.503849980689154],[126.74321592067727,37.50318092017232],[126.7437600774899,37.5016156363085],[126.74321615475115,37.499337451046365],[126.7427368109186,37.49827881071607],[126.7424565290305,37.49744360350883],[126.74230717721599,37.49664941023677],[126.74183962596832,37.49558983566096],[126.74175718092438,37.49507998790873],[126.74201084614658,37.49222236556248],[126.74224672934125,37.491661436330276],[126.74241034693539,37.4905624245487],[126.74236648699167,37.489419962838966],[126.74248472927516,37.489035703207286],[126.74250786007241,37.488440143324986],[126.74245866976626,37.48688555821137],[126.74320505113862,37.48645236955636],[126.74380838877863,37.486410727459244],[126.74487715696101,37.486108480425166],[126.74547981620795,37.486052054139115],[126.74629081219379,37.485541084506636],[126.74704736042459,37.48538222374815],[126.74920028812072,37.4851275596153],[126.74945543582699,37.485186912199175],[126.7497950532955,37.485429518446196],[126.75000593440042,37.48541250590069],[126.75042992707306,37.48519178034481],[126.7508511642885,37.48507695146765],[126.75147776345143,37.48471779671151],[126.75238066238185,37.48459708699429],[126.75396953895321,37.483916776808385],[126.75435189856212,37.483684163848174],[126.75493753704163,37.483146751578886],[126.75554601392999,37.48291375955544],[126.7554297429277,37.48259938431218],[126.75544517370521,37.48217929048471],[126.75538401369688,37.48219825701046],[126.75509075682648,37.481353525826535],[126.75509803735764,37.48103691860761],[126.75530001923194,37.48096079121227],[126.7552739410878,37.480897984837654],[126.75573962117083,37.480922396641084],[126.7557814473073,37.480799881868485],[126.7558756218808,37.48079770069022],[126.75609972639367,37.47993155018754],[126.75663651200186,37.47972677642154],[126.75741508226203,37.479077845797796],[126.7578654949751,37.478835982744904],[126.75834352690585,37.478778503860816],[126.75835470900219,37.47835533607566],[126.7586844679476,37.47747598955931],[126.75915248869723,37.47692962057663],[126.7596644944103,37.476638618292526],[126.7598689150901,37.47664746855186],[126.760274734613,37.47641435550827],[126.76131882208153,37.47659899639728],[126.76218736345588,37.47603513740908],[126.76218570164465,37.47573654557893],[126.76362689313005,37.47558913041574],[126.76435661633256,37.47530706089126],[126.7649611270112,37.47529194704398],[126.76515946042892,37.475182150501126],[126.76583949403287,37.474516219773655],[126.76582440799102,37.474356374158205],[126.76633846066157,37.47425726564863],[126.76661159630422,37.473951741156235],[126.76708088950956,37.473649871996656],[126.76760545169579,37.472817775619355],[126.7675466712331,37.472355967936295],[126.76774192605575,37.47185865049345],[126.76796585234901,37.47181724094665],[126.76979442290846,37.4720891778281],[126.77081071174257,37.471879430706984],[126.77130407753846,37.471930785066945],[126.77159764009679,37.472047928531566],[126.77208952296606,37.472408158339114],[126.77280428174994,37.47243517080256],[126.77313805667595,37.472225486181124],[126.77341961727221,37.47222349713365],[126.77455216432413,37.471478973649795],[126.77524481457382,37.4717458079509],[126.77604752059497,37.4717194753899],[126.77711580458497,37.472252252370254],[126.77776724706995,37.471835080209104],[126.77880701791142,37.4718291430649],[126.7792999223543,37.4716146326224],[126.77978999428558,37.4715203612691],[126.78025378285629,37.47163237712742],[126.78049140895476,37.47157708603782],[126.78196076675796,37.47190177897123],[126.78293914759065,37.472203724654236],[126.78431152628144,37.472394089609146],[126.78425834651624,37.47154339186896],[126.78434452406587,37.471263248885315],[126.78512402054199,37.47014973310812],[126.7856844830423,37.47003369157871],[126.78630242207025,37.469675191711005],[126.7870808759944,37.46964945239836],[126.7878276950814,37.46935093189871],[126.78787464150128,37.46685998075802],[126.78872577190036,37.465996276219244],[126.78921756223534,37.46565280559159],[126.79145645607727,37.46531780461245],[126.7924390493161,37.465296464289935],[126.79423836039274,37.46577547000335],[126.794753503405,37.465730196155576],[126.79625114315981,37.46434385681071],[126.79647189617987,37.464026916638346],[126.79734684922944,37.464031531333625],[126.79810288995678,37.46444053799173],[126.79883829190443,37.46458399013435],[126.7996686587654,37.46422275717098],[126.80104865200897,37.463803491126974],[126.80092230064076,37.46297135489967],[126.8014471887844,37.46300160687187],[126.80238313316814,37.46269880059932],[126.80266802044657,37.46223343607939],[126.80312686820405,37.461769008508625],[126.80383094293602,37.46158248227646],[126.80407886961913,37.46154136081021],[126.8047463828288,37.46173585814462],[126.80541980648633,37.461719137662925],[126.80573510211131,37.462029073684924],[126.80610771948403,37.462038393824095],[126.80657467167624,37.462156647135636],[126.80743861689089,37.46199510360811],[126.80784219464066,37.462095905204336],[126.80891636182277,37.46217243474071],[126.80896296992623,37.461734731574744],[126.80944352927825,37.46136544333264],[126.80996758265267,37.4612315022096],[126.81014600814022,37.46091803310181],[126.81056099978429,37.460801100226206],[126.81061142546524,37.46066593870465],[126.81088101991668,37.460424420984765],[126.81111153847027,37.46035701685023],[126.81123999987862,37.460092555284426],[126.81151262295023,37.459922305904115],[126.81176264420732,37.459388700413115],[126.81183627311736,37.45886429945091],[126.81218395641142,37.45922206896892],[126.81242479712277,37.45916698886987],[126.81260886804638,37.459218243620725],[126.81314036223124,37.458972442658826],[126.81341872222046,37.45874763423889],[126.81345634937992,37.459239300044835],[126.81320752070208,37.459937749753955],[126.8133443649925,37.46028068431798],[126.81359399337998,37.46034281744787],[126.81400390052823,37.46032133162819],[126.81445710878832,37.460466916720264],[126.81440873268161,37.4605091494113],[126.81450258096255,37.4605810145308],[126.81551035297677,37.461002112651535],[126.81576345527074,37.46067156586025],[126.81607361820998,37.460503210636546],[126.81637455925707,37.460020684115825],[126.81666333081398,37.45997220107531],[126.81689126172992,37.459563816540104],[126.81767404671393,37.45918028172984],[126.81844969126053,37.45930703213532],[126.81880264983177,37.45928916173192],[126.81968118437946,37.459501191255306],[126.82014157737115,37.459230559573655],[126.82042758601469,37.45884981148589],[126.82071605459642,37.45862254174401],[126.82275641654492,37.458508027560015],[126.82319424029205,37.45838133095458],[126.82387507898984,37.4593643069598],[126.82506910903281,37.45927813156441],[126.82551061554858,37.45907559467261],[126.82596417579116,37.459484216647226],[126.826092109212,37.459479734650394],[126.82651568868324,37.46045474911616],[126.82646924214093,37.46068084381592],[126.82678497473452,37.461750888932166],[126.82748123189718,37.46286903601588],[126.82779530103444,37.463256235657184],[126.82862845386332,37.46382271975872],[126.82893564426261,37.46416789661321],[126.82999354010329,37.46463985738545],[126.83107774606822,37.46488235165168],[126.83098724934038,37.465758213186376],[126.83117230389809,37.465947159188815],[126.8313157499505,37.46633998505427],[126.83176245238235,37.46641521542404],[126.83213335544926,37.46613847074728],[126.8323338296978,37.46582179641933],[126.83254015655058,37.465725790478736],[126.83293115558547,37.46574381179467],[126.83301691535765,37.46586077451055],[126.8330909340437,37.46687760793701],[126.83337466375609,37.46692165829819],[126.83352337041838,37.46724313009168],[126.83350963702603,37.46785381841203],[126.83361789204778,37.4679415413806],[126.83352143531637,37.46842175697366],[126.8335990246444,37.468558144226776],[126.83333531663891,37.46876080648838],[126.83339918060773,37.46898724205201],[126.83330808059009,37.46928444305737],[126.83352197791551,37.469366115517396],[126.83352899674422,37.469441953682754],[126.83362042149994,37.46940338474631],[126.83350064060022,37.469560871792694],[126.83328025575656,37.46965901732454],[126.8328408108415,37.470284357901086],[126.8322954019346,37.472384163573786],[126.83202706796234,37.47284902591764],[126.8322181800598,37.473792402193375],[126.8324169744842,37.4738382940327],[126.83246990862726,37.474021948457136],[126.83245640224372,37.47500008517418],[126.83228179262841,37.476287989288736],[126.83242934031203,37.476428981812695],[126.83291923069478,37.476640286015915],[126.83279463074543,37.47698136696656],[126.83287526074504,37.477179702842285],[126.83198903002892,37.4774889878375],[126.8317474517224,37.477651194970925],[126.83045722803259,37.477339592572314],[126.82963020696911,37.47690044960168],[126.82955790926069,37.476606725253056],[126.82920415900898,37.47619566040205],[126.82787185408918,37.47598972976874],[126.82622375119671,37.47614631820429],[126.8243331254489,37.47614020691721],[126.82433450157562,37.47625279028034],[126.82417285712441,37.47619470463959],[126.82416346549418,37.47632394021593],[126.82400667086222,37.476444496168114],[126.82386130432519,37.476363188814474],[126.82370099591417,37.47610728824446],[126.8232180240054,37.47611556796114],[126.82320768775325,37.475934513296814],[126.82299779612158,37.47594771356898],[126.82214691458655,37.47572230084114],[126.82194258895804,37.47525768563231],[126.82174966841555,37.475194612976686],[126.82165496179877,37.475352704866864],[126.82164283243488,37.47624167563994],[126.82132297096707,37.47618871759725],[126.82106929847671,37.47630380705752],[126.82018031396296,37.4762698232763],[126.82006806243463,37.47619947297687],[126.81959887750897,37.47635529851616],[126.81935220659858,37.476303095506736],[126.81908408514698,37.47610253535453],[126.81908989484688,37.47546071037162],[126.8194746248474,37.47514045858047],[126.81895825098225,37.47523791487107],[126.81888797535521,37.4751544635524],[126.81844768211978,37.47519713562229],[126.81872392786794,37.47411918539984],[126.81794870242076,37.47366550701631],[126.81764024270142,37.47318790488718],[126.81707599983685,37.47328811503606],[126.8169527209315,37.47367895869715],[126.81656215048183,37.47399405698059],[126.81556478228902,37.47404572344549],[126.81464594318987,37.47472054621084],[126.81496454044684,37.475860136333736],[126.81529520579437,37.47636206532027],[126.81610847071329,37.47674500137001],[126.81609168619387,37.47710759438796],[126.81641120228211,37.477537187860705],[126.8172101570762,37.47813553357362],[126.81825607478191,37.47816427654288],[126.81899710450038,37.47916246955469],[126.81936712926053,37.47986347942755],[126.81954261037244,37.480323532192],[126.81957776266317,37.480792650912434],[126.81998623169177,37.48164426632461],[126.81995383161515,37.481944018507335],[126.81955515403475,37.48251694655674],[126.81951872389186,37.4829682414075],[126.81939042415733,37.48330939262069],[126.81957294503583,37.48365221609578],[126.81930734274076,37.484183252034484],[126.81946744747054,37.48451991462566],[126.8194912553095,37.48480840880338],[126.81929694751237,37.48548093849216],[126.82128137752059,37.48615794645302],[126.82162894268872,37.48649888085435],[126.82237911009537,37.48670950455186],[126.82247618605481,37.486907854030015],[126.82359091613816,37.48774525221578],[126.82350612526237,37.487735133969146],[126.82301043763997,37.48815029654491],[126.82304680195537,37.48929103508539],[126.82283373722287,37.4896357924829],[126.82276202807,37.489979418374936],[126.82151262716717,37.49032972281781],[126.82093858937726,37.49058189288725]],[[126.76059919321894,37.51795548582825],[126.7603982000776,37.517986474745584],[126.76575654992385,37.517984134540264],[126.76059919321894,37.51795548582825]],[[126.76143131866709,37.487299043966296],[126.76079591810867,37.48742462138871],[126.76109666695795,37.48740264325924],[126.76143131866709,37.487299043966296]],[[126.8058077812209,37.48308315823518],[126.80434436865973,37.48265950503534],[126.80598386316962,37.48314077436533],[126.8058077812209,37.48308315823518]],[[126.8146507198188,37.48605688138935],[126.81350794710514,37.48560241710746],[126.81499983073813,37.48624216356215],[126.8146507198188,37.48605688138935]],[[126.81583675509663,37.486686332976234],[126.81560298893446,37.48656227058686],[126.81879525283915,37.48908732908318],[126.81583675509663,37.486686332976234]],[[126.79381926581102,37.51694328493764],[126.79388361573967,37.517245880239145],[126.79390294880645,37.51725024248215],[126.79381926581102,37.51694328493764]],[[126.79390478474645,37.51600419499836],[126.79386534869555,37.51626344061868],[126.79386461078202,37.51627432689438],[126.79390478474645,37.51600419499836]]]}}
