{"type":"Feature","bbox":[127.00622058803923,37.8603678604527,127.15537080023762,37.98104925870487],"properties":{"regionCode":"41250","version":"vworld-20260909-3f8952dfda77-p2","name":"경기도 동두천시","attribution":"국토교통부/K-Geo플랫폼 · VWorld 법정구역정보, CC BY 2.0 KR; 두꺼비집 가공"},"geometry":{"type":"Polygon","coordinates":[[[127.05569154547334,37.98017445218773],[127.05464486810276,37.9808416133241],[127.0536775228833,37.98104925870487],[127.05325612000628,37.98068006484764],[127.05308517807575,37.98038283100297],[127.05262976110045,37.98019383951211],[127.0521512265667,37.9794913260376],[127.0511267157858,37.97930256700983],[127.05045502706194,37.979077617545855],[127.04945327353916,37.978861808512654],[127.04942895732863,37.97647436576764],[127.04954237546754,37.97586169076777],[127.04938292198256,37.975681570726856],[127.04893890032456,37.9754655284757],[127.04826724300234,37.975222547165664],[127.04778918031091,37.97515066317843],[127.0473791979633,37.97473639696371],[127.04733334290921,37.97421387780993],[127.04654803163926,37.97420517144838],[127.04620654551451,37.97413322791414],[127.04610396771287,37.973881007133784],[127.04550037831106,37.97323256905809],[127.04496538343541,37.973088618332916],[127.04466912771339,37.97249412214253],[127.04463467976277,37.9719715918662],[127.04489570371075,37.970719208615286],[127.04507752846767,37.97026867868941],[127.04543020387216,37.9700613389739],[127.04507675714999,37.968962335785214],[127.04509941168247,37.96878214149369],[127.04443874496576,37.96774631955788],[127.04458635292849,37.96716066271613],[127.04414239658047,37.966944602463414],[127.04397133845988,37.966323024059065],[127.04395970962564,37.96589058325762],[127.04344752289936,37.96573761009431],[127.0431740941376,37.96519715011144],[127.0431965190196,37.96459352269581],[127.04267255310832,37.96370178905248],[127.04282036735013,37.96348550994982],[127.04276329905369,37.963179219563514],[127.04231900310376,37.962287454907475],[127.04180671487822,37.961882215174384],[127.04161248348309,37.96044980619261],[127.04182847343846,37.960062332596436],[127.04152110360776,37.95981017750516],[127.04099752179283,37.959540077180364],[127.04046235142555,37.958855549842134],[127.03971101045602,37.958207127318026],[127.03951738209055,37.95783780806596],[127.03928979185214,37.95781085355384],[127.03892552661671,37.95753168429675],[127.03840205695761,37.95741472712162],[127.0377080214418,37.9575410729328],[127.03730973163094,37.95745109792566],[127.03636505590772,37.956937856584716],[127.03595542665518,37.95693797206023],[127.03562557657519,37.957226366580514],[127.03501119805324,37.957361682172916],[127.03407804808246,37.95712770640624],[127.0333726250216,37.95724502091819],[127.03261003028605,37.95670466585024],[127.03245062633577,37.95647047235898],[127.0318929883404,37.95622736192015],[127.03124421185402,37.95570499436599],[127.03103937945882,37.95566900344562],[127.03091426718605,37.955777150601186],[127.03031120163372,37.955750268232414],[127.02993576149892,37.955885494368914],[127.02925308836441,37.95598476640688],[127.02883205287982,37.955876748669496],[127.02852460332868,37.95523716619068],[127.02844485400442,37.954948887312966],[127.0285813528734,37.9548497499211],[127.02846747590475,37.95456147939592],[127.02777311754878,37.95378683278671],[127.0278526053474,37.95334536306915],[127.02757944922254,37.953102164829275],[127.02792069820414,37.952849836852856],[127.0280343345414,37.952453406210246],[127.02836410050261,37.95193979918734],[127.02827299673017,37.95169656966614],[127.02835241329805,37.95107490875232],[127.02812466056882,37.950516384498506],[127.02835202787396,37.95001181300901],[127.0289549042048,37.94966031228759],[127.02893196744095,37.94917381572058],[127.02872711659633,37.949011695043254],[127.02865872293937,37.9486603486474],[127.02872691045536,37.94845311860186],[127.02791880816454,37.94757039163926],[127.02722460692307,37.94698494061936],[127.02722446955835,37.946606550321036],[127.02740625147034,37.945894776052185],[127.02732648742038,37.945534420613605],[127.02738314607214,37.944894748816345],[127.02765603153105,37.94445323234326],[127.0277695471384,37.94375048177996],[127.02743949654709,37.94337216462],[127.02651794153093,37.94319217718505],[127.02642649230764,37.941894855544724],[127.0260622503491,37.941264274069624],[127.02549337965836,37.94109322084068],[127.02509507279461,37.940642836555575],[127.025038115839,37.940408606145375],[127.02353630699956,37.93982328968477],[127.02242143939762,37.939724391228935],[127.02148874296192,37.940202047511036],[127.02040797889427,37.94002204427502],[127.02024850077197,37.93917518958532],[127.01995268848478,37.93900405901757],[127.01928122950439,37.93781493311039],[127.0185303180759,37.937319532326306],[127.01808664820952,37.937184456505506],[127.01755192924517,37.93686920343168],[127.01685799984224,37.93670712861707],[127.01655078303479,37.93640085431785],[127.01634593560851,37.93586931742114],[127.01597042998672,37.93529277885557],[127.01589062846358,37.93438284586652],[127.01532170123754,37.93346396450926],[127.01531014915885,37.9325179817654],[127.01503707936413,37.93210358796466],[127.01457066696656,37.931842371100444],[127.01420660672684,37.93142798300369],[127.01427479028473,37.931085621868135],[127.01441125966613,37.93091442936341],[127.01410405416432,37.93036489412361],[127.0136717389618,37.92984239898695],[127.01263662452207,37.929554201203494],[127.01170382605926,37.928761466008055],[127.01108962631818,37.928860618591905],[127.0106801101938,37.928563343787474],[127.01028201079136,37.92850031241449],[127.0097246490397,37.92823006788672],[127.0100772113182,37.92792372576491],[127.00998611486546,37.92702279972804],[127.0091101834445,37.9256804691814],[127.00920110910313,37.92505881905325],[127.01016774757362,37.924013668843756],[127.01096372355644,37.92269824422941],[127.01121385884767,37.92212162797246],[127.0119644462784,37.92180623570248],[127.01356791059605,37.92088713087143],[127.01337435587287,37.91954475782439],[127.01327194704578,37.91921142322915],[127.01293067865184,37.918661887318514],[127.01221419237561,37.918607899358754],[127.0086658023858,37.917337850017816],[127.0086089111665,37.917040544009126],[127.00719865091968,37.91599553569616],[127.00680061175761,37.91584239673747],[127.00622058803923,37.91522077696242],[127.00675503509414,37.91462613736627],[127.00722118065731,37.91320263795912],[127.00783517071271,37.91215752176315],[127.00861972550307,37.91123852242032],[127.0086424580387,37.91112139754458],[127.00951801546982,37.910661865717096],[127.0098591100772,37.91023840422986],[127.01049589564708,37.91015727083769],[127.01040484774727,37.90951761569563],[127.01042746815793,37.908490546178584],[127.01058654152469,37.9074995054476],[127.01051826819467,37.90711210764641],[127.01066603703094,37.90667964657293],[127.01060913949966,37.90632828572666],[127.01039307053655,37.906130096074534],[127.01027932643686,37.90580576727885],[127.01050664006539,37.90499490797767],[127.01079086941941,37.904715596299695],[127.012155317209,37.90461637834],[127.01239407759049,37.9044722066753],[127.01205290529956,37.904075824791704],[127.01237115133628,37.90321089658569],[127.01369007376103,37.903021572257316],[127.01484985870867,37.90312054931201],[127.0151681798558,37.90286825040857],[127.0151226547514,37.902634012282235],[127.0155660782331,37.902552875532585],[127.01641877134115,37.902201406031146],[127.01666886281575,37.90195812044866],[127.01794227776674,37.90179578063787],[127.0182720498414,37.90196691351231],[127.01851079616766,37.901858764926295],[127.01889725149529,37.901318146351855],[127.02084123858043,37.90023672020995],[127.02063633428519,37.89928175875885],[127.02140930209167,37.89865097367221],[127.02190953573302,37.89854277779652],[127.02369452318047,37.8984253332398],[127.02406968589685,37.89832615773335],[127.02449022161625,37.897884618824435],[127.02571825492785,37.89828078533063],[127.02678702268825,37.89837065519234],[127.02716227260152,37.898532742939516],[127.02877687764801,37.898874736795065],[127.0310619160841,37.89823451855325],[127.03208497230924,37.89774775185425],[127.03346060978437,37.89759422771436],[127.03413131654774,37.897395837827766],[127.03535881567016,37.89653059137092],[127.03648407350997,37.8958996068091],[127.03669997266906,37.895656286834964],[127.03720009595706,37.89541288463514],[127.03780261500462,37.89532260748194],[127.0383028846544,37.89538551746924],[127.03875558171129,37.895641963196795],[127.0403193571708,37.895610980208176],[127.04050854915364,37.89550192806021],[127.04057667228723,37.89533072725631],[127.04083808352746,37.89518649030425],[127.04292995497637,37.89512270969281],[127.0434298751699,37.89456394985005],[127.04371403352341,37.8944467282198],[127.04427108379599,37.894401478747966],[127.04458713547955,37.894505131876734],[127.04461593281246,37.89443540612071],[127.04473668702745,37.89446835152558],[127.04469508084118,37.89460900237164],[127.04524942439225,37.895437197574715],[127.0458514989943,37.894626129303134],[127.04656555000707,37.891022104173075],[127.04795092350788,37.888516957736854],[127.04813211719149,37.887417740808],[127.04784738554167,37.88656195877047],[127.04758495859382,37.885003437331996],[127.04770965255156,37.88444480807823],[127.04820902181217,37.88318329371424],[127.04909497782155,37.88211983202747],[127.04983338912358,37.881434817264726],[127.05092379640328,37.88020908476068],[127.05309293084609,37.877460288373115],[127.05363791189932,37.87660415404703],[127.05392132723176,37.8755589361999],[127.05487557923526,37.87487379335665],[127.05585266322132,37.87435080012012],[127.05761376938443,37.87355714782089],[127.05815922707663,37.873430754161774],[127.05912374185743,37.871412177727954],[127.05929354642669,37.87053817892453],[127.05968029939865,37.870970443498024],[127.06008892375915,37.87030354285405],[127.0603950599364,37.869393438816935],[127.06049724494886,37.86926725566527],[127.06074732719566,37.86933019680188],[127.06083808873159,37.86913194396365],[127.06122434035314,37.86893354160713],[127.06179253392062,37.868861175788126],[127.06378181808009,37.869346650298056],[127.06405483052725,37.86964381721754],[127.06445283146967,37.86990487644145],[127.06474901069502,37.8707065563218],[127.06555642880029,37.87126470344538],[127.06593154940734,37.87133657525951],[127.06617038649973,37.87152564228411],[127.0663066558705,37.8713904251683],[127.06656800947266,37.87133622513016],[127.06688608232633,37.87115586142826],[127.0673293311382,37.871155614644564],[127.06768149753509,37.8709752289572],[127.06818145793953,37.870848813626814],[127.06835173349059,37.87062348303084],[127.06890876126722,37.87076731695836],[127.06917048555209,37.87111853231637],[127.07018190052771,37.871009835555824],[127.07072761277392,37.87119871449217],[127.07135315070299,37.871666832269476],[127.07164859118731,37.87160359230853],[127.07227370695776,37.87162123669374],[127.07324023942162,37.87210715953258],[127.07341107126162,37.87246743203613],[127.07374095397246,37.872755532426034],[127.0747862490153,37.87241252767179],[127.07499056302153,37.87213310422848],[127.07568350678764,37.87179031874405],[127.07620623475607,37.87170890299913],[127.07651274514909,37.87135734110767],[127.0767058464393,37.8712491039564],[127.07736492704736,37.87114056806207],[127.07780777628166,37.87075287931441],[127.07781892789076,37.87054564917396],[127.07817088685582,37.87019405835502],[127.07896622436591,37.86997731150763],[127.07930717029987,37.86996807782252],[127.07988707973281,37.87023797545357],[127.08037560142499,37.870066469845966],[127.08058021392064,37.870102370502394],[127.0810238250661,37.87044443013116],[127.08158088715051,37.87059721281694],[127.0815358222467,37.87097562912407],[127.08161559961339,37.871173792097814],[127.0823091862296,37.87144359949205],[127.08254782787205,37.87140740859561],[127.08297981527203,37.87150620367828],[127.08326392981591,37.87148798935948],[127.08369598695967,37.871631828326294],[127.08430972723721,37.871649427172436],[127.08541272470599,37.872135155167705],[127.0858447478246,37.87225196864992],[127.0875836816735,37.87225971948195],[127.08834504614249,37.87215104864149],[127.08835647479653,37.8722050956287],[127.0886743360303,37.87188953342846],[127.09063962742438,37.87111325256574],[127.09128745212035,37.871112759639466],[127.09150354810939,37.8712387277757],[127.0923333295094,37.87132818491269],[127.09301494156496,37.87107539285222],[127.09357046468105,37.86996680224545],[127.09455775017165,37.86878579299485],[127.09509143543828,37.86841598382361],[127.09526113353742,37.86780320783656],[127.09591996118772,37.86754141008627],[127.09632918575151,37.86761315524306],[127.09704470228566,37.86725220009555],[127.09780515724154,37.86649479465926],[127.09844138729441,37.866350118418644],[127.09881686964223,37.86669216650342],[127.09953317666245,37.86694383746993],[127.10041973032075,37.86702417877934],[127.10102194134103,37.86693357763319],[127.10298642572593,37.865760677337214],[127.10356589423525,37.865670081079585],[127.1044960625841,37.86443498147472],[127.10514318415359,37.86397493326521],[127.10587005189277,37.86365896073761],[127.10599480423953,37.86347866286882],[127.10726621242478,37.86251351824711],[127.10775413969787,37.86200855128097],[127.10770740755419,37.86111666145572],[127.10802486744068,37.86061184620851],[127.10830860769974,37.86036833454952],[127.10883133739371,37.8603678604527],[127.10957058153146,37.86078161783598],[127.11044722082204,37.86188896923878],[127.11087936859018,37.8621047954321],[127.1111074095421,37.86261811973238],[127.1109379226006,37.86327596557722],[127.1112452865669,37.86363605742043],[127.11150686307428,37.863770953952134],[127.11170079313946,37.86426629153412],[127.11162206099789,37.86481594007657],[127.11242913352423,37.864950323457265],[127.11280404668014,37.864877895037786],[127.11395275371974,37.865471425437775],[127.11532777093923,37.86541604837847],[127.11674936621161,37.866081362857955],[127.11862457638885,37.86611555082369],[127.11887423703438,37.86589006662054],[127.11968110593523,37.865880250242],[127.11979492450048,37.86598824814744],[127.12107961112821,37.86629327241857],[127.12140909696346,37.86623888038663],[127.1218755728485,37.866562743959776],[127.12322864527076,37.866975785776994],[127.12342251243756,37.867381009267596],[127.12329797410779,37.86766943964201],[127.12333442811808,37.86910189995693],[127.12357453375037,37.86997556301072],[127.1243826705404,37.87070448501191],[127.12620329841361,37.871999927742415],[127.12619264719986,37.87242338102981],[127.12684174882494,37.87317047307669],[127.12746725780156,37.873404049606684],[127.128286529565,37.873952744988856],[127.12880960132503,37.87409633093439],[127.12963931998736,37.8741044400885],[127.1313315264705,37.873363815114644],[127.13252525658521,37.8735516908268],[127.13269594819076,37.87366862337859],[127.13325288574816,37.8736770112023],[127.13350328280603,37.87387493693677],[127.1343559563366,37.87400911915899],[127.13504891237123,37.873810128618366],[127.13601618138284,37.874457705526005],[127.13652844752986,37.874898579550894],[127.1367335934517,37.87520466396724],[127.13718874320014,37.875483433149064],[127.1381769340318,37.87513092217442],[127.13868873941712,37.87531051606778],[127.13923443614799,37.87538195408278],[127.13972307620053,37.87532732614792],[127.14056454387317,37.87553355153956],[127.14083797262543,37.87587558570214],[127.14167913044842,37.875910624595335],[127.14200860889936,37.87583815615371],[127.14363414537084,37.87593530922845],[127.14457674324241,37.87552874452256],[127.14558815648877,37.87544642734103],[127.14594078528577,37.8755901450611],[127.14604364095706,37.875878320278986],[127.14653303561612,37.876211066975635],[127.14683993809969,37.87621969774863],[127.14752451792518,37.87754323319431],[127.14753696797183,37.8780927904367],[127.14785611898539,37.87854286369823],[127.14753933374931,37.879291036659275],[127.14799719028518,37.88090315068289],[127.14813419819899,37.8812092988139],[127.14872685395939,37.88200138608111],[127.14895532450932,37.882568692090864],[127.14928578057942,37.882973700868696],[127.14921799270286,37.883181000662994],[127.14932134139394,37.88370341578185],[127.14899276686134,37.88424439223926],[127.14940318003765,37.884838496299906],[127.14945036314265,37.885694328890736],[127.14975772040079,37.88591016852809],[127.14999750689492,37.88644141946399],[127.15056756136218,37.88726956292717],[127.15082958514743,37.88754852221357],[127.15100019262782,37.88759335241318],[127.15109191739867,37.887980638451474],[127.15162825808677,37.88898900756968],[127.15239148212079,37.88975382907365],[127.15309682617585,37.890005184884295],[127.15345003643444,37.89039213423987],[127.15324661021758,37.89097800565653],[127.15363455958226,37.89167122741601],[127.15391925502243,37.891905101934725],[127.15379511102911,37.89234672301793],[127.15433057026206,37.89289560168785],[127.15443475153864,37.89379640232925],[127.15483400465668,37.89444455908757],[127.15482319558522,37.89471485314261],[127.15537080023762,37.89562408684943],[127.1546999118686,37.89557090517739],[127.15396138636828,37.89579709752815],[127.152575662282,37.896438549778615],[127.15234835128784,37.896474877091734],[127.1516784284518,37.89689917449335],[127.15063328920095,37.89731493366888],[127.15034967177361,37.89762161204702],[127.14927059050409,37.89812749471127],[127.1498413601056,37.89927096802054],[127.15005957017486,37.90036082506843],[127.15029895556242,37.90066684145326],[127.14992431051856,37.90094660386864],[127.14973230575701,37.9015865115788],[127.14932361573094,37.90190235253298],[127.1477899611976,37.90256195096454],[127.147244299658,37.90261668426076],[127.14686949302084,37.902824362922644],[127.14661934557405,37.90282467211028],[127.14656406885635,37.903626573571636],[127.14696453152864,37.904896399067745],[127.14740872740327,37.90527424155944],[127.14754663230111,37.906012837546285],[127.14796884821348,37.90676909862794],[127.14756081653823,37.907436297887266],[127.14674367070216,37.908230132269836],[127.14618858882547,37.90930292786071],[127.14635974247622,37.909600025712024],[127.14638402120444,37.91038380929562],[127.14664639132158,37.91080692640174],[127.14546611834685,37.912015628253315],[127.14392070776672,37.91260311462359],[127.1426134233115,37.912847941435246],[127.14181748739168,37.91289393962105],[127.14138599233658,37.91322779891994],[127.14072653255991,37.91328263622907],[127.14014721191879,37.91362567629027],[127.13863547378523,37.91401484887973],[127.13838524111625,37.91398811208107],[127.13741773278124,37.9135027278558],[127.13657572509945,37.91323341669662],[127.13580255496363,37.91329736590612],[127.13506314294582,37.913163067685204],[127.13476804589543,37.91347872809594],[127.1346664157072,37.91387525450449],[127.13472374273525,37.91413646115905],[127.13454255702513,37.91456010570349],[127.1338380747702,37.91488523523881],[127.1337588078756,37.91507452086146],[127.13335013525038,37.91548039918621],[127.13344140316956,37.91564246474537],[127.13318043511096,37.91597610365212],[127.13269175200097,37.916156836454554],[127.13232771216606,37.91608516593759],[127.13171362521474,37.91609485642569],[127.13145231983451,37.916239295278444],[127.1308836718671,37.91622190270568],[127.13047447624865,37.91633947282544],[127.13032702764139,37.916564867894564],[127.13011111213287,37.91665519717582],[127.1294855223998,37.91659281353278],[127.12861013443205,37.91675592928174],[127.12817716677775,37.916278902095755],[127.12776742819742,37.916081136502726],[127.12714176789737,37.91597369330192],[127.12685700648645,37.91570371723455],[127.12642521239722,37.91591139093244],[127.12603869295957,37.91599288455707],[127.1257543278226,37.91595714727773],[127.12478802082227,37.91615636872368],[127.12382142456016,37.916184404961164],[127.123151036973,37.91653646319435],[127.12258271872089,37.916717236008054],[127.12227538627566,37.916546375193306],[127.12150202170595,37.916520137753864],[127.12079803102324,37.91719655431295],[127.12051385172693,37.91727792412052],[127.12055957297751,37.917422029529895],[127.12041211057752,37.91765642139567],[127.12043586877485,37.91828705041494],[127.12063072831492,37.91923283435544],[127.12037114002541,37.92046737593094],[127.12049699787461,37.92093573361046],[127.12039539592159,37.92140432203901],[127.11962299163646,37.92200872548682],[127.11935069809347,37.922423426833625],[127.11880522603967,37.92270326157328],[127.11846519689725,37.92344236507786],[127.1185454546546,37.92384770498768],[127.11834177112335,37.924505588763104],[127.1180353410517,37.924920321250525],[127.11720611237159,37.925587829165906],[127.1168428109622,37.926011624349414],[127.11644731340316,37.92766972605514],[127.11606126462011,37.928102551197256],[127.11632394427821,37.928796013352134],[127.1162108224424,37.92919253374391],[127.11552871270882,37.92941842784753],[127.11543820391377,37.92973384161045],[127.11504061603885,37.93006757130422],[127.1146197901679,37.93008599535816],[127.11301757633981,37.93113260519248],[127.11292702966244,37.931429998081114],[127.11218819338453,37.93177305004681],[127.11235970387354,37.93236750209995],[127.11234912675728,37.93289906202312],[127.11181481993682,37.93310677878081],[127.11191821628559,37.93379138939821],[127.11160040407721,37.93425116217147],[127.11161228911264,37.93459350602211],[127.11107858035626,37.93521564661776],[127.1105216765575,37.93554049878042],[127.11019229912442,37.93588315652381],[127.1100112061579,37.9365049680415],[127.10973855351133,37.936748469040694],[127.1092838393483,37.9369561000575],[127.10923870626593,37.9372084027787],[127.10937578879265,37.93760468662801],[127.10931913646247,37.93775789705397],[127.10903495695433,37.937902304931576],[127.10869417255157,37.93823596153939],[127.10885446718243,37.93894755077434],[127.10876402402393,37.93933503191406],[127.10858240099685,37.93960547767668],[127.10710435106678,37.94017439837172],[127.10593307220037,37.94049076897796],[127.10460216613407,37.94055500803427],[127.10410188442245,37.94074463988781],[127.10303351520405,37.94145730213355],[127.10207790447171,37.94144911358705],[127.10054254470487,37.94176574156253],[127.09960975849711,37.94181156908794],[127.09787030163005,37.94265987948317],[127.09774563186068,37.94302035552385],[127.09737070132392,37.943399050279574],[127.0965973007986,37.943552836904914],[127.09543779210944,37.944256494413175],[127.09621199040576,37.94471534689483],[127.09642918955137,37.94552600922741],[127.09642964079768,37.94587737077885],[127.09673781666606,37.946651923170094],[127.09640920446222,37.94767924702966],[127.09643238684781,37.948012571344904],[127.09596643192448,37.94840935607875],[127.09583059628913,37.948950022783364],[127.09636656867627,37.949913585725355],[127.09733427272604,37.95039029447431],[127.0978691347993,37.95047995108898],[127.09881483844048,37.95151524014563],[127.09890627379895,37.95183049035561],[127.09886102655823,37.9520287329883],[127.09927182142619,37.95292932113997],[127.09879453912382,37.95338017996617],[127.09834125214533,37.954776993604284],[127.0973407543723,37.95538143436515],[127.09604415948404,37.955796910269946],[127.09525972552191,37.95632908645998],[127.09496397581829,37.956401395893614],[127.09447530412945,37.95687927419833],[127.09415690857456,37.957041692120605],[127.09385062458094,37.957789703508716],[127.09341857169652,37.95806032080328],[127.09317996569351,37.95833979290654],[127.09237264897313,37.95880890260384],[127.09235015760456,37.95902514075385],[127.09255535498434,37.95933129900127],[127.09238529297204,37.959835949989426],[127.09277315889149,37.96062846586192],[127.09301218938519,37.96068233576471],[127.09301265790583,37.96106072434654],[127.09336600755105,37.9615379410965],[127.0934805534617,37.96214147322356],[127.09369737959322,37.96263681248864],[127.09314054785777,37.96324987795829],[127.09334678286828,37.96437587682283],[127.09335883477294,37.96491642381876],[127.09371244201962,37.965582833489464],[127.09383819637804,37.9660422062522],[127.09411181175692,37.96643840037326],[127.09418055593689,37.96680772463874],[127.0946019477697,37.96706866242628],[127.09428376948105,37.967438292921884],[127.09368112733891,37.967844183419786],[127.09340894462893,37.96860117503829],[127.09347752995829,37.96884437081073],[127.09315961868768,37.96943922940268],[127.09323953974264,37.969646380472525],[127.09281902898023,37.97010618018757],[127.09239816949179,37.970286691128706],[127.09214851631972,37.97087248560553],[127.0919097659763,37.97107087307541],[127.09169353039084,37.97107103843661],[127.09162559982866,37.9713593881009],[127.09137555110608,37.971629856365716],[127.09073821344155,37.97162133350787],[127.0902259587174,37.97152261930527],[127.08938396606187,37.971685418519655],[127.08915690092128,37.97214505891875],[127.08878169410343,37.97245165239713],[127.0881448062229,37.97283051608044],[127.08716642687034,37.973164570363345],[127.0871211850361,37.973407853173],[127.08659803913288,37.973741576270484],[127.08619975066495,37.97378690946384],[127.08618863815451,37.97402115845156],[127.08536996165691,37.97469743770613],[127.0851768878487,37.97505794638869],[127.08484716595966,37.97535548623839],[127.08406204632195,37.975527214661504],[127.08325348084158,37.97509533433412],[127.0823770173574,37.975005848260054],[127.08161542584106,37.97588927555977],[127.08084201981082,37.976385308340255],[127.08040955856794,37.97642163592598],[127.07998836481923,37.976349838616464],[127.07680186952608,37.97668526914694],[127.07636930592399,37.976622479524764],[127.07540135453803,37.97610956468534],[127.07500292961228,37.97603773798618],[127.07333046302034,37.9766694146703],[127.07218020623033,37.97592234424977],[127.07196390625698,37.97586842195882],[127.07161116614982,37.975958724900046],[127.07091688657388,37.9759501287264],[127.0707576123569,37.97602229594798],[127.07039330365143,37.9759143941449],[127.07015433349221,37.97595958413659],[127.0689477383648,37.97578910565293],[127.06833274484013,37.97534800451794],[127.06704669736875,37.97541179125097],[127.06613602777034,37.97523210980648],[127.06561264734853,37.97542159004445],[127.06545346502085,37.9756018616474],[127.0647480397729,37.975863511916415],[127.06405379282488,37.975890907923365],[127.06365552259749,37.97598121471558],[127.06407792449359,37.97750355336677],[127.06414762972086,37.97917022814475],[127.06224689034622,37.97923429032348],[127.06076751095065,37.97958640507153],[127.06001630396655,37.97959578925611],[127.05861648579503,37.97982170503053],[127.0579221973125,37.979849069984326],[127.0574442107231,37.97992137364504],[127.05668187886447,37.9802911110085],[127.05616946875297,37.98001206463125],[127.05569154547334,37.98017445218773]]]}}
