{"type":"Feature","bbox":[126.75951924738123,37.57379911677255,126.99435735605817,37.74848500900917],"properties":{"regionCode":"41281","version":"vworld-20260909-3f8952dfda77-p2","name":"경기도 고양시 덕양구","attribution":"국토교통부/K-Geo플랫폼 · VWorld 법정구역정보, CC BY 2.0 KR; 공공주택 복덕방 가공"},"geometry":{"type":"Polygon","coordinates":[[[126.92909642073401,37.74848500900917],[126.92707003186034,37.74827342621405],[126.92566985952864,37.74820552941106],[126.92446830650907,37.74758111411425],[126.92365318229113,37.747373357612275],[126.92288944252537,37.74702204011942],[126.9196837609717,37.747010284031234],[126.91830276768243,37.74757213903221],[126.91793723087352,37.74786469191724],[126.91705662156838,37.74803271572776],[126.9156780863957,37.747673019457984],[126.91541654726979,37.74786175079396],[126.91522584363504,37.747806148925406],[126.9144938081832,37.74721097321954],[126.91302837238703,37.74704376729321],[126.91230330256172,37.74746329355905],[126.91173168489446,37.747347986456326],[126.91094374164429,37.746539898079654],[126.90936297512467,37.746900741142966],[126.908727780515,37.745604833710566],[126.90811838769054,37.74494862317863],[126.90788447389079,37.74403311625126],[126.9068044811874,37.74361527921249],[126.90588386621845,37.742656985752234],[126.90351756875138,37.741596133967406],[126.9035334224374,37.74073347681306],[126.90304481436657,37.74049655798689],[126.90179851571482,37.73897598824948],[126.90197524237907,37.73844738520429],[126.90159739679302,37.73772939588908],[126.90091810233635,37.73721413477339],[126.90120491233822,37.73655752366489],[126.90127459609876,37.73562396071581],[126.90237399241015,37.734538389452865],[126.90302620987781,37.733396681920375],[126.90314397203052,37.73294461443212],[126.90275440667216,37.73225702083082],[126.90216623401662,37.73175902879832],[126.90198379365368,37.73033957446339],[126.90271721711433,37.7290242223079],[126.90264077248,37.72866574624652],[126.90192296126561,37.72811752684783],[126.90087591103278,37.727918417390434],[126.90014450013767,37.72722602141811],[126.8992752586175,37.72688121994825],[126.89733660495236,37.7268876856596],[126.89686031776698,37.727173040104695],[126.89521970210144,37.7269902537963],[126.89411160138035,37.727114258152284],[126.89335339705673,37.72600283944379],[126.89313184732886,37.7260074297171],[126.892300646901,37.72553874822643],[126.89163524034792,37.725658324918676],[126.89124924915907,37.725402317144514],[126.89075522471158,37.72521293056477],[126.89010401779097,37.724299531846235],[126.88853399039859,37.72296489188567],[126.88833294088265,37.723472895209994],[126.88734272082687,37.72349587082953],[126.88648164676938,37.724820577228975],[126.88604174471926,37.72504651364256],[126.88576246339416,37.72502175249661],[126.88538437405882,37.724829079002],[126.88502004690916,37.7247867710462],[126.88459174775367,37.725300175164946],[126.88363674449721,37.72500696928259],[126.88318271973701,37.72541955098832],[126.88269014519298,37.72555560631597],[126.8821425269588,37.72586110204493],[126.880754820866,37.725606576349364],[126.87978256229667,37.726118283087715],[126.87883136010747,37.72588445163417],[126.87763362146565,37.72618840067181],[126.87732283619374,37.72571506884771],[126.87646393452516,37.72540079624861],[126.87529460534516,37.72536575430524],[126.87494888427257,37.72584966031858],[126.87436666959911,37.72595039294419],[126.87365770887358,37.725962013776844],[126.8734059818299,37.72639730350312],[126.87300296648887,37.72679863038894],[126.873068151898,37.727431628544366],[126.8732556636113,37.728060543307166],[126.87302166377086,37.728799356770025],[126.87300086384816,37.729244462938006],[126.87247533619451,37.729444632517506],[126.87223952215659,37.73010545615174],[126.87174782451284,37.72971046601313],[126.87154172888604,37.72938166632886],[126.86947777880063,37.72914231040173],[126.86887849277157,37.7287621074739],[126.86797830539487,37.728448565243184],[126.86791840150741,37.729435619570744],[126.86708416168308,37.729993268145364],[126.86644227672934,37.73081381705337],[126.86625694417944,37.7316548764911],[126.86575409666492,37.73164894709966],[126.86561734876321,37.731796602311135],[126.86527942382767,37.73193698765119],[126.86494491012161,37.732635972621445],[126.86415177333352,37.73260098555484],[126.8635483267519,37.7327427490523],[126.86282706928432,37.73255720661031],[126.8622904454926,37.73269847580143],[126.86195317816333,37.73258010505765],[126.86148117715376,37.732757205170856],[126.86112735966526,37.73267625702891],[126.8602944785494,37.73294104631066],[126.86008037736678,37.73321079839941],[126.85881006267232,37.73335680019571],[126.85891024399947,37.73417369634475],[126.85846606912527,37.734248055738725],[126.85771107395529,37.734833321424475],[126.85603291648775,37.73558638424156],[126.85418532279877,37.73506012302404],[126.84965380830805,37.73406190461578],[126.84905890752265,37.73416587395136],[126.84759244809203,37.73349218806802],[126.84671624969636,37.73293473576606],[126.84636032293231,37.73257355933719],[126.84571277821932,37.732340996535115],[126.84495913571375,37.73215558066827],[126.84347676477458,37.73207899255266],[126.84294089188874,37.73193637220379],[126.84274711134957,37.73178801054317],[126.84197218759434,37.73153554143784],[126.84168961257384,37.731634263963926],[126.84149660692005,37.731544474805304],[126.84089449844805,37.73104699922109],[126.84087653687588,37.73066631171832],[126.84073342760628,37.73045439343493],[126.84028524646119,37.73025415889912],[126.84020300265094,37.7298466506415],[126.84031709920619,37.72945882455812],[126.8399532708991,37.72927278331634],[126.83966454316082,37.7293509418204],[126.83940595526234,37.72869879484081],[126.83908578841746,37.728561802771864],[126.83897462845304,37.72857938969217],[126.83841200987692,37.72819767694817],[126.83747916659628,37.727962411125084],[126.83703785881374,37.72747105240827],[126.83675961689788,37.727456725540655],[126.83692180733537,37.72710893119536],[126.83692182603859,37.726654250417894],[126.83721225913133,37.72604377608437],[126.8372391310257,37.72529774319973],[126.83808769808859,37.72487821138648],[126.83868157744413,37.72399853762137],[126.83904197258764,37.72387839697703],[126.8411850702827,37.72040155708979],[126.84068838552083,37.720341867590264],[126.84055292427865,37.71956488961665],[126.84091911023674,37.71876557556616],[126.84094132005843,37.718059863119414],[126.84086390252206,37.7172447630448],[126.84058358343178,37.71635110306042],[126.84200358731067,37.7161015626955],[126.84280863953157,37.71539660812038],[126.84311040606774,37.71485803225207],[126.84351582373112,37.71264800318803],[126.84354738456965,37.711928508046256],[126.84386645426402,37.71074483117843],[126.84381477875,37.71040518782098],[126.84551561218008,37.708343142240224],[126.84703978900963,37.70520114489571],[126.84810622496589,37.70353269520608],[126.84775467359361,37.702455122086654],[126.84814445803782,37.70145948474188],[126.8490189996057,37.700551085144774],[126.84931447694039,37.69993039253664],[126.8511359885102,37.69767275308138],[126.85249078250993,37.69633058096294],[126.85324367171131,37.695913281726924],[126.85470746199834,37.695339232859986],[126.85567834680838,37.69465908092041],[126.85588975861751,37.694278853965244],[126.85597221843551,37.69408868007249],[126.85607045114166,37.69273091624644],[126.85559813552364,37.692167003175726],[126.85507408490031,37.69129094485985],[126.8549757479296,37.6915873045378],[126.85489053082665,37.69167918700397],[126.85480532135779,37.691653134070236],[126.85343148177353,37.68982364823849],[126.85387697303105,37.68970214727375],[126.85365554147627,37.68914132936719],[126.85383905396031,37.68796336107022],[126.85340442611684,37.68822580916736],[126.85276005750836,37.68843805464191],[126.85241105636308,37.68872819884244],[126.85200839798983,37.68873812054829],[126.85191835212537,37.68932749386478],[126.85178090694055,37.68951909966679],[126.85156901823473,37.689513271293826],[126.85145715527813,37.68965326611767],[126.85104207240992,37.689665251405266],[126.85067789678594,37.6898047498927],[126.85032131938911,37.68968080810817],[126.85013545317273,37.68981383320435],[126.84961663097188,37.689881296793864],[126.8492843444792,37.69012736437732],[126.84927720981433,37.690305241606495],[126.84912566588945,37.690430505711966],[126.8481994667908,37.68618775150058],[126.84807661355985,37.68603662622978],[126.84766354820346,37.68594249356061],[126.84703015194845,37.68559132428937],[126.84597307514463,37.68567101288373],[126.84551804480456,37.686005076749275],[126.84424869891053,37.686658476011395],[126.84391532350845,37.6864841004102],[126.84323330159374,37.68548749843852],[126.84253638962532,37.685156571818034],[126.84234309656078,37.68510904524025],[126.84170547641304,37.685551766993875],[126.84001989499218,37.68345973580427],[126.84030694219592,37.682809548068654],[126.83969846938797,37.682311325203976],[126.83929248789225,37.68262817758166],[126.83816352512974,37.68292870630464],[126.83601095204163,37.68293228204829],[126.8347485450503,37.68316056517415],[126.83422852218311,37.68286408673341],[126.83444716488081,37.68146717290531],[126.83323743152998,37.68007579591087],[126.83324873690985,37.67908519703893],[126.83351568156061,37.678489676300906],[126.83355373865683,37.677799407012344],[126.83332862129988,37.67779421932719],[126.83222861668229,37.67723710692039],[126.83164057600773,37.67681433580201],[126.8296888092048,37.67676366726173],[126.82934835268323,37.67698075522975],[126.82857396309639,37.67680681730021],[126.82803291011015,37.67680890578669],[126.82707711862285,37.67597328643573],[126.8269599651202,37.6756584939432],[126.82724355321965,37.67529193014738],[126.82743656898049,37.67481742216047],[126.8271174424668,37.67436339316385],[126.82716280239947,37.67407406732462],[126.82665656633122,37.67387812358609],[126.82601513521163,37.67375628717545],[126.82573793196354,37.67351212576315],[126.82529066432414,37.6735483897309],[126.82400465096057,37.67270834103877],[126.82332409921149,37.6726267604849],[126.82312976562517,37.67274403338301],[126.82296032740558,37.67270591096959],[126.82232615003336,37.67237926485105],[126.8223091275384,37.67226029319834],[126.82165125732432,37.672078169844255],[126.82095766091331,37.67156869070751],[126.82066385490288,37.67096414084106],[126.82069125690903,37.670555050553276],[126.82086233949218,37.67030457350403],[126.82096845151628,37.669875151755036],[126.82073278635245,37.66948074154836],[126.82106684656462,37.66800723799531],[126.82094598509826,37.66768599957848],[126.82073779972863,37.66750712715406],[126.82036522279077,37.66737667908679],[126.82049389334628,37.66680501244769],[126.82136140037979,37.66597671859695],[126.82191810881922,37.665722366848804],[126.8221016355301,37.665334229336295],[126.82200646621226,37.6647155516034],[126.82211012011794,37.664401359970775],[126.82232917160505,37.664064934787426],[126.82279221989634,37.66381576407198],[126.82292581015889,37.663375827930025],[126.82274415553705,37.6631803154055],[126.82140193685703,37.66341349234863],[126.81956965934162,37.663803577693606],[126.81815701141254,37.66425740058043],[126.81729279992103,37.66403997368092],[126.81725174124048,37.66372666792193],[126.81655130623072,37.663367435209786],[126.81634073905815,37.663271458599965],[126.81577132738678,37.6632082962312],[126.8155249323874,37.66325086754408],[126.81503949932473,37.662908298620316],[126.81481127170608,37.66258910086747],[126.81470948495344,37.66184784544253],[126.8144344801838,37.66141867302273],[126.81432145150423,37.66051053806845],[126.81323339679349,37.65989390971927],[126.81244890067701,37.65970092824498],[126.81201014088138,37.65977338365003],[126.81143836227842,37.65961970436914],[126.81107598637716,37.65935484753245],[126.81109439018574,37.65915869046658],[126.81080554126484,37.658749272244684],[126.810693654243,37.658408523035085],[126.81073767312756,37.65816857515002],[126.81101289999103,37.65818603739932],[126.81125715780117,37.65761177354043],[126.81180897440923,37.657526404747],[126.81225451560258,37.6566259395501],[126.8131088226275,37.65666575818537],[126.81381347958636,37.65705296898546],[126.81432206661516,37.65719874427662],[126.81436268774391,37.65713213625198],[126.8145953127217,37.657427429533925],[126.81502789172387,37.65732257542657],[126.81520682513931,37.65696427004103],[126.81536660954951,37.65692118578961],[126.81545687145892,37.65703938317841],[126.81601911634556,37.657112408256296],[126.81613055246396,37.657093681264215],[126.8161476099548,37.65696640023132],[126.81630050950398,37.65691137548921],[126.81641435398149,37.65701621868742],[126.81664032774526,37.65639837186625],[126.81689251105743,37.65624848363577],[126.81684566821603,37.65612731925516],[126.81698649633346,37.65595842763394],[126.81697552396248,37.65581146231804],[126.81592580785598,37.65517093395839],[126.81572440437434,37.654362894705415],[126.81574926773898,37.65366269642609],[126.81556725956172,37.653032538809114],[126.81594701482159,37.652724354384105],[126.81604998032422,37.652148974708545],[126.8162325216734,37.65174526322847],[126.81637412192534,37.650877775170216],[126.81654405260986,37.650804073157474],[126.81660737944823,37.65062929324399],[126.81692860082545,37.650595920826326],[126.817061870837,37.65040917402369],[126.81704549720153,37.65024823648183],[126.81762069704139,37.649986789467796],[126.81782821415909,37.64974335321635],[126.81779114921463,37.6492323980901],[126.81708895844265,37.64940829689923],[126.81647172094301,37.64899169419548],[126.81567313056486,37.648905782544254],[126.81549471743095,37.64858647610234],[126.81548329538519,37.64844149169459],[126.81569150217138,37.648239550355356],[126.81551985581184,37.64809413393102],[126.81629367164831,37.647453136439225],[126.81632937012185,37.64722308295595],[126.81606649615607,37.646901652773934],[126.81650054263227,37.64605703924226],[126.81628705518389,37.64528465841732],[126.8160035306699,37.64497337626265],[126.81561241721158,37.644863464129756],[126.81468581502497,37.64502020501748],[126.81404256474211,37.64481774351966],[126.81364187767518,37.644446950125975],[126.8130415923799,37.64459767153495],[126.81277531990908,37.64495583344508],[126.8132475376112,37.645385001553436],[126.81322416732175,37.64566092237496],[126.81335282517847,37.6459889929802],[126.81263071273347,37.64764698442458],[126.8118729341255,37.648031827357336],[126.81154788579965,37.64789362761041],[126.81097682683172,37.64732571291217],[126.81061978345362,37.64713938302693],[126.81061519668098,37.64702377900706],[126.80928233619336,37.64652381897036],[126.80835437893714,37.6463149082897],[126.80796160152411,37.64614034761448],[126.8074036323595,37.645342817025345],[126.80665823736624,37.6447546035809],[126.80617100689132,37.64410883283861],[126.80577422993386,37.64379813276924],[126.80545884267774,37.64369000625616],[126.80474341817565,37.64359580718593],[126.80418836433279,37.6433178659335],[126.80384294999752,37.64329287853516],[126.80286098497986,37.64355384667876],[126.80208757391729,37.644908482764905],[126.80053738720173,37.64423120092806],[126.79929788942161,37.64401486716558],[126.79908617594772,37.64410983699043],[126.7985120999449,37.64404790160109],[126.79787837024543,37.64386306394298],[126.79759755810487,37.64334651810798],[126.79776530710112,37.6430391970001],[126.79756503945019,37.642584182763834],[126.79718039045497,37.6426381446038],[126.79701356610288,37.642269380189866],[126.79733360413249,37.64206556872849],[126.79686650693125,37.64124591703696],[126.7952243482024,37.64042945797601],[126.79506401215183,37.63961187457639],[126.79486499075382,37.63933348454536],[126.79466099716925,37.639198494547],[126.79462926426243,37.63888790012916],[126.79498718927567,37.63885678508947],[126.79488882789113,37.63800208626297],[126.79470486588177,37.63784269451444],[126.79453084729967,37.63747253679486],[126.7946294213833,37.63714340234168],[126.79443698331981,37.63655346621702],[126.79453363228586,37.63606044076813],[126.79431162365212,37.63551180936084],[126.79437764475774,37.6350740504767],[126.79453503508904,37.634932818848284],[126.79420161643549,37.6317188641948],[126.794115025034,37.631733846315505],[126.79403654873899,37.631502340029556],[126.7946020411519,37.62930841793217],[126.79439896699044,37.62892219001391],[126.79396597105615,37.62870331046756],[126.79385968837317,37.6285158207337],[126.79404055975922,37.628225394217665],[126.79269497849225,37.62701887917085],[126.79256776842576,37.62708661576664],[126.79230930400273,37.62705166973869],[126.79181352704694,37.62620923274565],[126.79094005116698,37.62562300507625],[126.78982824534464,37.62652232416824],[126.78992314661579,37.62660901736679],[126.7898401556805,37.6266772839199],[126.78973809880162,37.62658871968512],[126.78871735558242,37.62734053284097],[126.78834485054698,37.627758186215175],[126.78547327541187,37.62937362197976],[126.78297605617703,37.63044139264942],[126.78172257872438,37.630850892338835],[126.77944731356992,37.63123196202805],[126.77587333899942,37.63133115461933],[126.77454371836725,37.63178620970664],[126.76908629583882,37.633275623691375],[126.76854079510005,37.633718015172455],[126.76758756966002,37.63390559488531],[126.76690724155347,37.63416153674354],[126.76559647012697,37.63492270801334],[126.76401771388156,37.6353322862719],[126.76287111581716,37.635326369126815],[126.75951924738123,37.629694099284194],[126.76856213575766,37.62515751008359],[126.77042968551056,37.624109290926356],[126.7888097202231,37.6133315393171],[126.79716740077097,37.60777375318832],[126.80046166402704,37.60604332935287],[126.80198868548342,37.60540875614642],[126.80586385998052,37.602580252924625],[126.80823968262999,37.601208196202776],[126.81136892012779,37.59896082292531],[126.81395323363004,37.59761940072715],[126.81655626681528,37.59568160699525],[126.81752598820502,37.595330332808174],[126.81861957011746,37.59437324881463],[126.8227850237833,37.59129762722206],[126.82332072029207,37.59116565064465],[126.8252892108069,37.59008250797547],[126.8270510880654,37.58820096127302],[126.83278921466454,37.583587168356715],[126.84670139818749,37.57739418198255],[126.84796217243752,37.57644316205283],[126.85100830109931,37.574514189464864],[126.8536282861577,37.57379911677255],[126.85928568974488,37.57491530149407],[126.8592941270621,37.575240527539385],[126.86494118637724,37.577472439820546],[126.86837937146538,37.577521135675276],[126.87060053208823,37.57800846944],[126.87391525095916,37.57828070029552],[126.87519538309499,37.57827448116014],[126.8762604863453,37.578185234318795],[126.87725774891925,37.57798715531277],[126.87749667965807,37.579408047244854],[126.8776315588623,37.57974814659984],[126.87736742032953,37.5801149666334],[126.87747682334741,37.58038340405878],[126.87741784545145,37.580639565864765],[126.87666271459166,37.58125960121084],[126.87662537665577,37.581375564280876],[126.87667137170027,37.58163250261103],[126.87704965515417,37.58220611613008],[126.87709841514413,37.582892918920095],[126.87698775209135,37.583387799773526],[126.87725077916909,37.58377425197185],[126.87733124569043,37.58404784020112],[126.87729370970875,37.58417365943679],[126.87716498886763,37.58423827697248],[126.87662344191324,37.58416450076242],[126.8765379336295,37.58444005296418],[126.87719330550773,37.58493562275721],[126.87726572172927,37.585571610774046],[126.8775422725087,37.586247481647334],[126.87846515667206,37.58636895481621],[126.87913302239872,37.58677199305905],[126.8794373513793,37.58787471773588],[126.88034913934285,37.589506159835125],[126.88075499060811,37.58982811025081],[126.88198613431817,37.59053982495419],[126.88188690658383,37.5906394991219],[126.88232302782939,37.59112655403267],[126.88334879719135,37.59178784473988],[126.88357514957605,37.59185254448988],[126.88447527880373,37.59289154677999],[126.88500371022626,37.593639038836024],[126.8854099947265,37.593882705191994],[126.88636544920767,37.59395403045649],[126.88684567474318,37.59380499132268],[126.88733768860197,37.59391977746163],[126.88671518342565,37.59317333095456],[126.88656643696231,37.59269649137031],[126.8862252445282,37.59230666222548],[126.8861523290173,37.592099751963666],[126.88559976278945,37.59149522570738],[126.88543439385987,37.59102184123563],[126.88570643101795,37.590788499940885],[126.8858699305719,37.58993049323793],[126.88580884689281,37.58953764922901],[126.88655753215605,37.58916210308398],[126.88715894749637,37.58853278871638],[126.88828467997799,37.588781285223334],[126.88925345347508,37.58882767623703],[126.88957886566975,37.58913206647787],[126.89022431404007,37.58892467310795],[126.8909366162994,37.5885665728323],[126.89139128147947,37.58847815856527],[126.89223551773813,37.5885221027336],[126.89329053751227,37.58907546767525],[126.89384057788388,37.58907127769221],[126.8942674724388,37.58882023777821],[126.89523121960515,37.5888644646365],[126.8959544339706,37.588733903475394],[126.89641391455014,37.58873825681249],[126.89685903491998,37.58856662221779],[126.89757232328411,37.58896281662768],[126.8979620870157,37.58909046835996],[126.89801021046823,37.58927070423124],[126.89949395440136,37.589778208713085],[126.8996557019255,37.589772788842126],[126.8997500881419,37.58993804828199],[126.89959249155936,37.59060023821918],[126.89973964031563,37.59093399753725],[126.89971243624653,37.59131234083993],[126.89896134153153,37.59267842963007],[126.89929918328966,37.59286820055552],[126.89951632499087,37.59321097451289],[126.89977788965456,37.59338658980723],[126.89999257808043,37.59378198862572],[126.90037337067649,37.594219070026476],[126.90183806656073,37.59511345971695],[126.9016278530035,37.59600048117214],[126.90121252279611,37.596323536497266],[126.90121825041369,37.59678660332574],[126.90107043189589,37.596971405824156],[126.90101153573151,37.597337109030846],[126.90125350799103,37.597908855597765],[126.9011711616036,37.598207503881426],[126.90132236595498,37.59936647698152],[126.90101853700106,37.59997918688678],[126.90100906438559,37.600201557591575],[126.90022966605132,37.60142965247359],[126.89998194623178,37.60204016949638],[126.90020420598614,37.602567796206756],[126.90015265671903,37.603116445560644],[126.90077091248298,37.6033698086559],[126.90130683998616,37.60339898559098],[126.90210829984136,37.60374168499783],[126.9020295825388,37.60426914311205],[126.9015054098255,37.60535653890696],[126.90174952943615,37.60571527340522],[126.90141386441762,37.60619071251183],[126.90077575215984,37.60843925148712],[126.90060115042385,37.60931952203749],[126.90070504293004,37.61031892233727],[126.90030432393982,37.61119134488044],[126.90089424688918,37.61232708468161],[126.90090927987141,37.612854187017724],[126.9017342405693,37.61406922341449],[126.90179918175103,37.61447021655406],[126.90172886869834,37.614776202730035],[126.90191709623866,37.615092548916074],[126.90182230210972,37.615753507805046],[126.90214881521999,37.616369515107564],[126.90247292343217,37.61666539794036],[126.90247804968008,37.61689929539853],[126.90312528139951,37.617304469565326],[126.9030077737954,37.61778599349272],[126.90305141058884,37.61809375461111],[126.90333996314104,37.618305996835005],[126.90336101010404,37.618839393988864],[126.90427428754629,37.61883133364125],[126.90523109233673,37.619074545550056],[126.90518892446107,37.61981377904638],[126.90555725818207,37.620622977862354],[126.90627822022398,37.621352052218654],[126.90711746955172,37.62194146240621],[126.90714280772755,37.62331265619432],[126.9069995407553,37.623936749136256],[126.90662682578335,37.62449562219129],[126.9074379364792,37.62508587266904],[126.90861082753727,37.62626565591212],[126.90890219660683,37.62745458412311],[126.90880164525367,37.62908792074996],[126.90876968526426,37.629327565172304],[126.90838209484366,37.62999412140661],[126.90811827206575,37.630060638082234],[126.90729415738689,37.6308672062105],[126.90692939749866,37.63180449137053],[126.90675716655124,37.632736170009956],[126.90620219490094,37.63322013549293],[126.90709624965038,37.63339795103382],[126.90912214765542,37.634333044214756],[126.90980636141634,37.63494201014076],[126.91085420484524,37.63531654345424],[126.91121000127372,37.63583319286311],[126.9100917937525,37.638509469787394],[126.9111514786721,37.640979146064495],[126.91217525989123,37.64414183174077],[126.91226063441925,37.644258742605544],[126.9124698293033,37.64417402374617],[126.91249961730571,37.64421495625085],[126.91014072469912,37.64513073593721],[126.90770489899717,37.64628978107321],[126.90731824479208,37.64695150964279],[126.90699949182542,37.64725387652759],[126.90709281138321,37.6471948270409],[126.9048020245105,37.64920101490199],[126.90516454619707,37.64896921201939],[126.90554053287836,37.64888983512496],[126.90596397582347,37.648688415970625],[126.90973589823183,37.647546781351],[126.91074475317573,37.64703054390771],[126.91328570617917,37.64501014467505],[126.91372082569912,37.64475565617252],[126.9146067470017,37.64490863929853],[126.91518684148517,37.64511751319822],[126.91748552525554,37.64527504596107],[126.92128327214465,37.64575831008105],[126.922862143874,37.64587758378835],[126.92412291130124,37.6461063038231],[126.9271337433233,37.648092087071994],[126.92799207923024,37.6488877733846],[126.92928081660003,37.649834818706964],[126.92969937568732,37.65004815667811],[126.93028473156035,37.650225047659696],[126.9308629333861,37.65030142070546],[126.93143107283913,37.650331319303234],[126.93190056745601,37.650230651766385],[126.9322214016511,37.65038669286116],[126.93315474861842,37.6505454634395],[126.9352692326393,37.65105950638019],[126.9357024357481,37.65119994115381],[126.93603052807825,37.65141446433146],[126.93715874940781,37.652301105132025],[126.9374282320634,37.65268335307192],[126.93773994121919,37.65344692181789],[126.93845937840275,37.6547711615424],[126.93880982114517,37.65527562912072],[126.93966595561092,37.65624105676859],[126.94033493477195,37.656767845073105],[126.94209995850022,37.657722161771105],[126.94333829737602,37.658058580007676],[126.9441229585384,37.65810733427636],[126.94502226767062,37.65832505642831],[126.94642592243714,37.65875610086103],[126.94756485282981,37.65921538518805],[126.94800190581623,37.658572369827546],[126.94792262605758,37.65825985591524],[126.94804109379207,37.65788825764264],[126.94776716209581,37.65728466053665],[126.94789612678647,37.657129752021724],[126.9488269817225,37.65698070027162],[126.9492225253947,37.65677040850586],[126.9496335752326,37.65608793209452],[126.95075208119184,37.655548002529294],[126.95137574411065,37.65494955386249],[126.95185972415489,37.654864922559106],[126.95321049729951,37.654933077915736],[126.95394550747581,37.65529657754692],[126.95419412607262,37.65521127415747],[126.95403219272318,37.65507608924919],[126.9540372397072,37.65498197654516],[126.95434529180275,37.65460089621289],[126.95523592364712,37.654313929058915],[126.9555346253566,37.65377806157163],[126.95585100402688,37.6536623139036],[126.95616298567647,37.653360928243764],[126.95653246500724,37.65317042632312],[126.95641253223758,37.65317010987343],[126.95710782808027,37.652837191252104],[126.95745980319712,37.65187183981115],[126.9576846301952,37.65071020610607],[126.9577891841047,37.64980863863292],[126.9575619848074,37.64904245218578],[126.9578546906949,37.648445532176204],[126.95783916200114,37.64804769056164],[126.95837706593117,37.647650294632925],[126.95902701503418,37.646783379775044],[126.95891956372277,37.64613649355126],[126.95914588707964,37.64574987662074],[126.95890654123885,37.64476036525376],[126.95912223109256,37.64434627279373],[126.95901970565488,37.643879044023],[126.95936533458512,37.64319965135963],[126.95932746215269,37.642138674650376],[126.96001142952572,37.64142863967188],[126.96014284108887,37.64052539423736],[126.96051025648117,37.639830896430375],[126.96084666720883,37.63880111764935],[126.96168533979773,37.63799440174065],[126.96173460398103,37.637011083000985],[126.96263337646711,37.63578280278727],[126.96340127304997,37.633233826186036],[126.96161913648939,37.63188794081871],[126.95979765336531,37.62973004789239],[126.96143966955987,37.629959318237084],[126.96376722317957,37.62979311681236],[126.96433141800559,37.63036006595414],[126.96522847811879,37.63076804216042],[126.96604731308358,37.63081558803147],[126.96680161054461,37.630688269317],[126.9682355502945,37.63073007309751],[126.96938883077483,37.63101589640226],[126.97058274841586,37.63148499373486],[126.97132755875057,37.63161865766932],[126.97302977186087,37.63237476690854],[126.97367211216756,37.63203114314696],[126.97445345856804,37.63198008618746],[126.97536907450976,37.631698169588674],[126.97557987478405,37.63175255509701],[126.97582848903068,37.63200910861863],[126.97622422008105,37.63223161873853],[126.97700602149698,37.632968901068075],[126.97733171282654,37.63358303870018],[126.97780476720843,37.63391058707054],[126.97845792984948,37.63404558412953],[126.97919821074689,37.63407866496731],[126.97965239255166,37.63420658203537],[126.98060688796389,37.63481575227552],[126.9814156804818,37.634829687088065],[126.98151360565116,37.63472102780062],[126.9816794204757,37.63493531724728],[126.98216064395852,37.635281436258246],[126.98251597409929,37.635786032991916],[126.98278787359061,37.635809447705775],[126.98358680440067,37.63641210082651],[126.98395943707116,37.63643805833669],[126.9841987744497,37.63633752701824],[126.98446134949985,37.636547651316256],[126.98474438351174,37.63664821320109],[126.98493670102495,37.63716489675503],[126.98508430387041,37.63731441656446],[126.98495993097515,37.63780712725441],[126.98523355600517,37.63806591701749],[126.9851922526119,37.63830297569015],[126.98539382669767,37.63859018975241],[126.98553344392163,37.639701232041965],[126.9856762310049,37.64004445960442],[126.98613253851555,37.64042800420084],[126.98565714044614,37.64074018242425],[126.98526788297183,37.641350263683734],[126.98532945418529,37.64154764089691],[126.9852242634913,37.641635898624784],[126.98495630096868,37.64146427210654],[126.98425704905354,37.64164491496587],[126.98383097884275,37.642148841461406],[126.98387460478364,37.642560187328435],[126.98369090375036,37.643039371673986],[126.98324743828653,37.643683503600734],[126.98347275309182,37.6439408742248],[126.9837260811754,37.64405016586365],[126.9839023582094,37.64426557030351],[126.98419018720948,37.64442807707888],[126.98419368289359,37.64460348948483],[126.984643211966,37.645337561724055],[126.98482060087669,37.645368841288075],[126.98485827095413,37.64559578529074],[126.98541340984515,37.645946675009874],[126.98568054820922,37.64599485899031],[126.98571824885917,37.64609284523471],[126.98510051642471,37.64592949855512],[126.98492915290477,37.64606683501861],[126.98476310150805,37.64675999538525],[126.98481283930994,37.64683687383718],[126.9846787863427,37.646963260282845],[126.9847130777825,37.64725186785287],[126.98460321867918,37.647612521233754],[126.98398093300084,37.6481820177216],[126.98388398489183,37.64860067814069],[126.98401979427219,37.649317532110075],[126.98393720980975,37.64961005768308],[126.98249556807623,37.65054037099606],[126.98229849835138,37.651254084022824],[126.98187379372835,37.6516884452652],[126.98167673583046,37.65231629246757],[126.98104806817868,37.65271261480401],[126.97994435802559,37.654815058671],[126.97965839148047,37.65603864653626],[126.98119362202772,37.656487706402295],[126.98285678789523,37.65644970036781],[126.98300999093597,37.65700353817595],[126.98340604531549,37.657233905506615],[126.98374157238625,37.657329406926586],[126.98433520962105,37.657733807049176],[126.98461681753511,37.65822853750254],[126.98602052221344,37.658943320014366],[126.98654402978309,37.65948509822727],[126.98727674480372,37.660600143542055],[126.98722498437911,37.66084761742226],[126.98736526834136,37.661618256479244],[126.98775075915619,37.6627324090993],[126.98780195298525,37.66359369235367],[126.98826825693688,37.66439110606258],[126.98945328673292,37.66453003688791],[126.989997217448,37.6644994228608],[126.99123850522531,37.66499364986238],[126.99222451934466,37.66523164303325],[126.99274903994532,37.665532660918984],[126.99312299894326,37.666056379678984],[126.99401724939301,37.66678312909667],[126.99412914914268,37.66703006572559],[126.99356059019257,37.667804018874776],[126.99383039776438,37.66862279596418],[126.99435735605817,37.669566876745606],[126.99435060060122,37.66981098609931],[126.99380243119606,37.670197243910124],[126.99407385516486,37.67276108664556],[126.9935434365364,37.67410294005439],[126.9937958130883,37.6742262818591],[126.99398135994547,37.674907087221705],[126.99380969468493,37.67525226694999],[126.99312508331721,37.675831930677774],[126.99307222119407,37.67658255430043],[126.99326664918458,37.67700151980053],[126.99311979279273,37.67722533626055],[126.99324726964285,37.67766063271985],[126.99292441741287,37.678821736803776],[126.99243321398626,37.679148301113216],[126.99219762942897,37.679626950567744],[126.9907886060077,37.67984641959708],[126.99062980575361,37.6804860954511],[126.98993820707767,37.68107166125388],[126.98702458338991,37.68207141547419],[126.98480232814914,37.68345861589977],[126.98411064358667,37.68408919597173],[126.98240985094,37.68517910628704],[126.97912180489152,37.68629573023466],[126.97704703176765,37.686556600416985],[126.97663892395938,37.686466418307056],[126.97494962930352,37.6866462431265],[126.97428063790684,37.68692539110254],[126.97337337323083,37.687691001706426],[126.97133215973959,37.68891581738304],[126.97079919104887,37.68917696072116],[126.9685994432169,37.68978001663099],[126.96821370870707,37.6903475184856],[126.96753335789762,37.690545538240414],[126.96641069037791,37.69103173224077],[126.96578683113658,37.69161717525764],[126.96551443585226,37.69220272123423],[126.96537833715772,37.69229277780651],[126.96512886399815,37.692319817495765],[126.96512864323381,37.6928242712883],[126.964040098948,37.69299511555714],[126.96309906490421,37.69294075522436],[126.9622035240914,37.69261611023212],[126.96189758497427,37.69226463011776],[126.95915412757482,37.69166903606393],[126.95789563936555,37.69163253835225],[126.95635307250049,37.6926410430775],[126.95507158606543,37.69310003882121],[126.95373399496015,37.69262199202873],[126.95345096733746,37.6919641703817],[126.95312234119099,37.691693744055414],[126.95295263151849,37.69114408396606],[126.95229559702386,37.690296899982705],[126.95236391357962,37.68985545342947],[126.95227351665307,37.68939592098822],[126.9513901043073,37.68803508446549],[126.94887375987261,37.687259153709576],[126.94849962345941,37.68726799701535],[126.94792161372331,37.68700645469808],[126.94711683478936,37.68678084248692],[126.946289631776,37.686230866973496],[126.9452129145089,37.68582492135332],[126.94522519700156,37.68457257911493],[126.94553197629969,37.68366274441527],[126.94537403059131,37.68264457291488],[126.94352754320911,37.68088678633277],[126.94304087704067,37.679877458452765],[126.94308696900944,37.67892245195457],[126.9443465268581,37.677274292864254],[126.94458492046321,37.67682392219367],[126.94448334287726,37.67624725040719],[126.94412076320982,37.67603985157115],[126.94414395290195,37.67536413451731],[126.94331794621006,37.6734716891748],[126.94287703819828,37.67199387698404],[126.94177770226527,37.67180412008473],[126.9408942133938,37.67102883439779],[126.93942098703994,37.67067668819656],[126.93880930768911,37.67020785780381],[126.938196891851,37.6706129687695],[126.93726731271445,37.670765630888525],[126.9369950160591,37.67107181271479],[126.93658684482182,37.671206735883096],[126.93631494314268,37.67105341941095],[126.93487539787458,37.671088653424775],[126.93458050715684,37.67129571034804],[126.93385488987558,37.6715025213584],[126.93323161642108,37.67134899604551],[126.93299356693723,37.67136687804175],[126.93289146241486,37.67146592452185],[126.93213202065864,37.671474489787116],[126.93159902916915,37.67174446716144],[126.93044252116651,37.67211317565919],[126.93011406602751,37.67184268388612],[126.92952473212056,37.67176123985993],[126.92924117553015,37.67195026923124],[126.92913920686301,37.67190515815112],[126.92872002548708,37.671688666317394],[126.9283463725753,37.671282998316435],[126.92741752707812,37.67066975765392],[126.92678261285216,37.670840540016684],[126.92622729345331,37.670759100631805],[126.92510473190842,37.67117282614965],[126.92355147037775,37.671550218616254],[126.92312069861948,37.67159498153561],[126.9219419901278,37.671486074087944],[126.92179446549136,37.67164814984573],[126.92035496611788,37.671620139012525],[126.92010576739561,37.671466802219484],[126.92016284558765,37.67109744435661],[126.92035560367974,37.67103450745975],[126.9202541712279,37.67050286401087],[126.92037910875102,37.670268696331505],[126.9201979992783,37.670043331120375],[126.92014184688936,37.6695657752932],[126.91969985981255,37.66951141097492],[126.91937107844227,37.66958326021411],[126.91922389037532,37.66943900342168],[126.91875929358817,37.66933056168755],[126.91770513314032,37.66937486484211],[126.91734216789618,37.669608859055536],[126.91712651626356,37.66986998646146],[126.91641225859622,37.67002264036399],[126.91601534334504,37.670202545877984],[126.91547139679196,37.67010304326803],[126.91540354502683,37.66996784838561],[126.91524494243379,37.6698956562059],[126.91464433642695,37.66978709803643],[126.91439521650756,37.66957968969016],[126.9140439509974,37.66948933460155],[126.91379531284197,37.66887648718681],[126.91328492177676,37.66916441699522],[126.91301298172606,37.66909213657984],[126.91203812074791,37.669172487136805],[126.91176659037284,37.668757834398434],[126.91122262589275,37.66868534117804],[126.90982785266236,37.669206830141526],[126.90964611162265,37.66952202914382],[126.90905659399526,37.66962067470515],[126.90844426891356,37.66982741641166],[126.90818330380537,37.670043444561045],[126.90775235048689,37.670232305288025],[126.90762746568458,37.670394382303634],[126.90843042660651,37.67183657346854],[126.90684227143836,37.6728353884807],[126.9065134073999,37.67295225149431],[126.9062965097957,37.674150369205414],[126.90653420530712,37.674420851554444],[126.906658399194,37.6748083694856],[126.90675712806004,37.6747680819649],[126.90692145834714,37.673900397231435],[126.90759604872079,37.674395250892644],[126.90799691894739,37.67405262216546],[126.90832584155821,37.67389971755101],[126.90879067087536,37.67382799634769],[126.90950460262813,37.67397271907526],[126.9114532996761,37.67476708069979],[126.91244990399706,37.67552465301192],[126.91278943109228,37.67597539353342],[126.91300433513325,37.67637198301296],[126.91308324555423,37.67674144052746],[126.91316045538929,37.678543441205036],[126.91386228646785,37.679381866822155],[126.91463062434731,37.68154476498398],[126.91427891303987,37.68178776861112],[126.91417690910012,37.68176967436815],[126.9143920575192,37.68197705661196],[126.91440164387623,37.683463663209615],[126.91419581018395,37.68498615122944],[126.91525775279536,37.68820339455065],[126.91703585767087,37.689844446764916],[126.91689907216049,37.69049304492215],[126.91771472783827,37.69107925862292],[126.91730604646963,37.691538460788074],[126.91763451065376,37.691836015564554],[126.91765689082574,37.69209731216589],[126.91787188693706,37.692475872201165],[126.91868787628361,37.69279178678062],[126.91885729741855,37.69337753509256],[126.91872022785336,37.6942874178471],[126.91914918781168,37.69599955782434],[126.92002172471412,37.69648667792278],[126.92039551674307,37.696838312779235],[126.9206215380203,37.69753222319451],[126.921097191414,37.69806412003365],[126.92104005789979,37.698469516711505],[126.92144794066718,37.69876711349144],[126.92167432377734,37.699136663856635],[126.9216965184161,37.69958716273773],[126.92231935503031,37.70035340497404],[126.92203521986096,37.70096587121003],[126.92205738011167,37.7014523992568],[126.92247659310486,37.701777038983366],[126.9225102855846,37.702083391008244],[126.9221695742809,37.70257869387035],[126.92215778955931,37.70298412193579],[126.92237306280121,37.70316445906544],[126.92223649533138,37.70361485929186],[126.92253052632712,37.70438087102395],[126.92288186738062,37.7045703081117],[126.92356202852933,37.704786993019574],[126.92336874935062,37.70526437140265],[126.92335618693696,37.70642661533855],[126.92363940787195,37.70669709385636],[126.92375256521332,37.70693141058001],[126.92443253130806,37.70736433861409],[126.92534977560828,37.70865330829599],[126.92456665752732,37.709256447086375],[126.92457777593056,37.709472685486354],[126.92447560737547,37.70957172532415],[126.92480406727037,37.70997737505848],[126.92456398401313,37.7118422175955],[126.92245339476536,37.71293999974953],[126.92095589175527,37.71338045852728],[126.92050177685617,37.713803602772416],[126.9209098183486,37.714029122964064],[126.92172639309699,37.71402967888519],[126.9221901860753,37.71515619897086],[126.92241700611227,37.71516536099328],[126.92314232938344,37.71567038610539],[126.9237981825436,37.71754482773985],[126.92366115621316,37.71842768216638],[126.92398940667502,37.71906758433155],[126.92485064237117,37.719806937543865],[126.92486150189039,37.7202754415272],[126.92465677420057,37.72082490116983],[126.9241686225311,37.721239025616676],[126.92398675872771,37.72160830258226],[126.92404282356331,37.72223000497001],[126.92383832952807,37.722545207179486],[126.92379232733897,37.72314882413503],[126.92417751001639,37.723599558569326],[126.92373487876507,37.72385153755868],[126.92364369258334,37.724274930674035],[126.92315565506694,37.724553905324385],[126.92306470267752,37.72475205724131],[126.92309805646894,37.72539176332298],[126.92342618354287,37.7261758211812],[126.92335770685258,37.72657219882487],[126.92344771533398,37.727275010974296],[126.92334500939927,37.727860568667495],[126.92337817000453,37.72869847729499],[126.92173277417614,37.72922895250193],[126.9216295800501,37.73025598150951],[126.92183351557442,37.73049036965152],[126.92210433328604,37.731832987421924],[126.92331706591553,37.73286089482776],[126.92552895976853,37.73307857397384],[126.92653758455347,37.73407928896644],[126.92659316251311,37.73521453484305],[126.92713777228063,37.73514280235188],[126.92856618491174,37.73616178364918],[126.9306310371453,37.73603690748516],[126.93043745333503,37.73679359954165],[126.93114001981401,37.73764993568114],[126.93045704347507,37.74003707395988],[126.93036234782167,37.74414540029343],[126.93307241753227,37.74588586139589],[126.92909642073401,37.74848500900917]]]}}
