{"type":"Feature","bbox":[127.10086366838775,37.556333713333736,127.20243108978795,37.64627911772351],"properties":{"regionCode":"41310","version":"vworld-20260909-3f8952dfda77-p2","name":"경기도 구리시","attribution":"국토교통부/K-Geo플랫폼 · VWorld 법정구역정보, CC BY 2.0 KR; 두꺼비집 가공"},"geometry":{"type":"Polygon","coordinates":[[[127.14651413759317,37.64337539853477],[127.1460604939065,37.644252874019735],[127.14580816025354,37.644357965603575],[127.14454019400256,37.644438995181986],[127.14335162853244,37.64492432372919],[127.14275568025575,37.6452755565559],[127.142423449722,37.645575483103315],[127.14140831425863,37.646125015130835],[127.14042416645057,37.64627911772351],[127.13973906419857,37.64613552445681],[127.1391645744788,37.64589000408495],[127.13751319905964,37.644545698469265],[127.13540369499557,37.643950288653606],[127.13295990496968,37.642897848831474],[127.13160333737422,37.64190918685351],[127.13108584018828,37.64175481696488],[127.12926809239596,37.641800187043394],[127.1272473664049,37.641217120807354],[127.12542089758963,37.64188457749085],[127.1247707836342,37.64196622174022],[127.12455704331515,37.64191532178438],[127.12380996174717,37.64211982742776],[127.12256141619838,37.64230430169675],[127.12217671752096,37.64246767481014],[127.12074452508743,37.64253589153729],[127.12028030304914,37.6427764513005],[127.1197574259443,37.6429053479024],[127.11870240271676,37.64303197097519],[127.11817511426928,37.64316834994325],[127.11649021004762,37.64335366053211],[127.11560923619592,37.64379796597583],[127.11522646482625,37.64376829356133],[127.11468221589946,37.64335617074889],[127.11420136206394,37.64360287773268],[127.11369634018011,37.6431249519719],[127.11302340526989,37.64362400939573],[127.11254709777104,37.64364415484206],[127.11184787513673,37.64344508049427],[127.11184764848055,37.64357359812794],[127.11178088251773,37.64275086924046],[127.1112394144571,37.64244510676501],[127.11149851243242,37.64195789479314],[127.11144366234151,37.64133492089425],[127.11170040675532,37.6411131244586],[127.1117868048737,37.64057949294413],[127.11228475142381,37.64018092286968],[127.11202435968589,37.6398275780474],[127.11170913648272,37.63974379079945],[127.11105155239025,37.63972652009942],[127.11063409199296,37.63931215003218],[127.11054931028453,37.63912619686097],[127.11061999526328,37.63873684755907],[127.11075681941819,37.63876344512196],[127.1109028963964,37.63826400407164],[127.11118409085229,37.63830849467426],[127.11145377242289,37.63822213609303],[127.11248326826104,37.63648907179818],[127.11221341450668,37.63628418205736],[127.11225177198365,37.635564281226465],[127.11254865650275,37.635251308778805],[127.1123469620908,37.634756474499895],[127.11240729819548,37.63425124047102],[127.111615869416,37.633855408145074],[127.11220353876186,37.632642864414926],[127.11163235170115,37.631503279549435],[127.11105399023211,37.63093642724394],[127.11025131673112,37.630417155842544],[127.10888466734406,37.629301589682],[127.10704608785568,37.628053796380335],[127.10590874266154,37.62758376077352],[127.10596351369584,37.62733067659553],[127.10543413492283,37.62578248984285],[127.10501998644456,37.62525831328492],[127.10492905586881,37.62400628446913],[127.10435670921531,37.623292556999765],[127.10407036534406,37.62164720371542],[127.10489520017612,37.62155380961775],[127.10491823266099,37.62139181993522],[127.10532633408371,37.62095591907513],[127.1057519821146,37.620246031134926],[127.10658576054306,37.62058054589043],[127.10696588648463,37.62054102685985],[127.10708529023107,37.62046549358932],[127.10912786364216,37.62051471963694],[127.11001820972557,37.620703947839786],[127.11051903147428,37.621054571243114],[127.11214286252635,37.620306930767384],[127.11350524094516,37.62003732593413],[127.1150210101275,37.61953768196104],[127.11571504595294,37.619634316633146],[127.11620318044714,37.61893297295439],[127.11587303253297,37.6185832609244],[127.11714666469103,37.6178884460802],[127.11700962259953,37.61736856253615],[127.11725498351821,37.61673435485513],[127.11667165703227,37.6160154569454],[127.11679621750002,37.61495471845288],[127.11667678813106,37.61467599557106],[127.11706079121359,37.614144423632375],[127.1172438279959,37.61262821030073],[127.11749011295217,37.61182757134232],[127.11728694296369,37.61118040891494],[127.116787976534,37.610282040218095],[127.11677006213769,37.609844027701676],[127.11687820128438,37.609509046146705],[127.1166832687758,37.60883352043817],[127.11726454995747,37.60863404842025],[127.11803410113977,37.608153932769554],[127.11847694258546,37.60761297728195],[127.11806085883444,37.6065914060853],[127.1179978463258,37.60588599863041],[127.11809375601418,37.605566839804766],[127.11804699801678,37.60460242914993],[127.11737707324508,37.603937181558486],[127.11687186743352,37.6030526231435],[127.1157226581012,37.60210848399626],[127.11558436943407,37.60171824122697],[127.11496420143934,37.60076636413309],[127.11408197661991,37.600120825644474],[127.11402222388907,37.59996649015081],[127.11406389313328,37.59952095131645],[127.11572667624483,37.597314548611266],[127.11687746109321,37.5954971205458],[127.11666451942303,37.59401636334457],[127.1165490645616,37.593917492710005],[127.11544651060125,37.593519938511776],[127.11359328582577,37.59333507942413],[127.11319721806838,37.593209113189],[127.11064329859292,37.5891646772601],[127.11035414941206,37.58803819216413],[127.11011026586995,37.587481597720696],[127.1099363727754,37.585993392493485],[127.1097062313899,37.58521739030677],[127.1093138693971,37.58455198251645],[127.10934375817831,37.58407362950913],[127.10900199682636,37.583304418380465],[127.10851684949442,37.58319342543122],[127.10789710255492,37.58282648270095],[127.10732035124188,37.58228662622475],[127.10598779240901,37.58186738696522],[127.10454452770637,37.58105468548358],[127.10342895945493,37.58053429887544],[127.10291104193803,37.57991426315119],[127.10302537528409,37.57890697025301],[127.10195745537656,37.57755239426737],[127.10173318995551,37.57696689836641],[127.10114352458443,37.57607079781571],[127.10124834299904,37.57516614840498],[127.10090244472413,37.57439181446896],[127.1009490431116,37.573824803124744],[127.10086366838775,37.573731844931494],[127.10096790372056,37.57345028755753],[127.10170210534994,37.5724693564337],[127.10231097167015,37.5722209978773],[127.10317272091025,37.57235261593731],[127.10376786122623,37.57196397346729],[127.10429503508247,37.5714514295081],[127.10394145971848,37.57061559351591],[127.10350588463108,37.57011032345219],[127.10326247471806,37.56884865523446],[127.10272332354519,37.566929627806225],[127.10232420929198,37.564907276761154],[127.10231428065858,37.564312867126596],[127.10188527346058,37.563770008405506],[127.10168997062758,37.56326139493914],[127.10171525011218,37.56269652579156],[127.10125087791043,37.561605415440475],[127.10116661759258,37.56107291334269],[127.10135322985789,37.56048866187137],[127.10191343731674,37.55952693304741],[127.10227022108786,37.559156540521],[127.102706217657,37.55902308146565],[127.10285107649285,37.55873322891046],[127.10426574051152,37.55759038642174],[127.10494104038938,37.556413231923685],[127.10540049534667,37.556333713333736],[127.10604025469368,37.55636572776694],[127.10639320668763,37.556460054299244],[127.10667716947812,37.556813458268785],[127.10714142722259,37.55710477793268],[127.10751703885283,37.55760505548583],[127.10830596812805,37.558029782325356],[127.1085437998849,37.558245309276494],[127.10921507139366,37.55839299322089],[127.1095286213127,37.558553829551094],[127.11034142838754,37.55826015562592],[127.11142135009679,37.55851520648148],[127.11229700655895,37.559000616917075],[127.11355797732563,37.558577279142334],[127.1139650378484,37.558523300187],[127.11396252182686,37.55684860598845],[127.11577018240216,37.556880188300674],[127.11601990119341,37.557515117614976],[127.1176932126071,37.55924393461128],[127.11962737990879,37.560733474166646],[127.12049934389951,37.56100417557368],[127.12343688508095,37.563333080251795],[127.12901792554122,37.56594398185529],[127.13569197305476,37.56788396389193],[127.13806302374303,37.5682006907995],[127.1493618074352,37.56818646909449],[127.15277408096128,37.57019090708182],[127.15360114113558,37.57040369690074],[127.15601320783254,37.572068082033525],[127.15743832732622,37.57273997506156],[127.16127329599308,37.57538269372899],[127.16297209771504,37.57646492732777],[127.16715946460796,37.57869458898811],[127.16865916676898,37.57870399256353],[127.16866019937937,37.57898824722339],[127.17039592106376,37.57903918707161],[127.16866023441997,37.578997718714746],[127.1686625530018,37.57963607255831],[127.1734917885975,37.58256643956764],[127.17796285003725,37.58616707959409],[127.17998406511755,37.58752754328956],[127.18357354104221,37.59156330842681],[127.18565629451653,37.591553546148745],[127.1969857994478,37.59089481906195],[127.2000646655274,37.5899496751637],[127.20243108978795,37.58893459850751],[127.20216738731285,37.58918471779903],[127.20004212401808,37.59008729544356],[127.1965048041415,37.59124175564427],[127.18518162984232,37.59187927069925],[127.18309565313095,37.59188889695167],[127.18134184127855,37.590078124696255],[127.17952401415859,37.58783238263386],[127.17748827635884,37.58647193184218],[127.17302315954426,37.58286522171013],[127.17028321196321,37.581182622833836],[127.16557603210983,37.58418475922387],[127.16358371260915,37.58431400651908],[127.16238641220744,37.58459397606876],[127.16126056485504,37.585378344451236],[127.16079426960329,37.58599033945622],[127.16050427648318,37.58677618003634],[127.16068012101162,37.587771296598696],[127.16114778734078,37.58857028806601],[127.16201083645589,37.58935901106389],[127.16263745534434,37.58969410812333],[127.16379000439349,37.58991124351869],[127.16496283919663,37.58971367855114],[127.16614232576968,37.58987570489189],[127.16701220988737,37.590245865646295],[127.16788084987145,37.590485000011554],[127.16847815071846,37.59084117788862],[127.16888889363817,37.59163703116345],[127.16896006443943,37.59179270894738],[127.16886477403958,37.59251630756606],[127.16826975998094,37.59344572078977],[127.16770579055289,37.59405439231675],[127.1666516845883,37.59483022991545],[127.16551995595503,37.59517130979952],[127.1647959259247,37.59547241967954],[127.16326684163326,37.595901789468144],[127.16157562082111,37.59576074058674],[127.1604843458313,37.5955532952514],[127.1593141380681,37.59563844824858],[127.15713372468763,37.59602681656015],[127.1561095820508,37.596301542255276],[127.15365614727521,37.5974396728181],[127.15209196436909,37.598772041849095],[127.15142112732214,37.59902415315822],[127.15061251454024,37.59994470738759],[127.15042950564983,37.60095305936668],[127.14932891430296,37.60263072132252],[127.14903869548947,37.60372128201927],[127.14801159931098,37.6062362916018],[127.14783146651305,37.607417242065075],[127.14794759385333,37.60853779367309],[127.14793037833243,37.60963498455404],[127.14783841144762,37.60984043144312],[127.14801464459998,37.60984021360003],[127.145946794343,37.61252192676786],[127.14554118785344,37.613447181796964],[127.14561215757604,37.61412323590715],[127.14649079620315,37.61569439666221],[127.14633159811208,37.616141190227516],[127.14630425084768,37.61705016817594],[127.14596096878822,37.618146217112304],[127.1442234189198,37.61983794616542],[127.14350155572721,37.620657493808636],[127.14298499592138,37.622009637488354],[127.14282651947029,37.623220391272135],[127.14290226801567,37.62426216590006],[127.14473201612276,37.63006697167095],[127.14487633517912,37.63030020391174],[127.14665456180175,37.63112932611846],[127.14804485727542,37.63250943700781],[127.14883160112062,37.63357490053851],[127.14930792831716,37.63506604415424],[127.14940760103886,37.63937552710715],[127.14897440882554,37.63976384907576],[127.14866123044075,37.640829644743285],[127.14651413759317,37.64337539853477]]]}}
