{"type":"Feature","bbox":[126.99492451185857,37.125327918535135,127.1031419555625,37.200848871973285],"properties":{"regionCode":"41370","version":"vworld-20260909-3f8952dfda77-p2","name":"경기도 오산시","attribution":"국토교통부/K-Geo플랫폼 · VWorld 법정구역정보, CC BY 2.0 KR; 공공주택 복덕방 가공"},"geometry":{"type":"Polygon","coordinates":[[[127.02736096106686,37.20041018584548],[127.02720048581811,37.20049008954861],[127.02697653416905,37.200848871973285],[127.0267958529861,37.200797002913575],[127.02673982268135,37.200588466416484],[127.02686541982132,37.20025948688383],[127.02731702264309,37.199982651229],[127.02738304916208,37.19970717872384],[127.02714780346521,37.199510197180395],[127.02647698237176,37.199474236069555],[127.02565309286584,37.19879619296199],[127.02508422489699,37.198027290163196],[127.02245267012077,37.19751617245157],[127.02134913309894,37.196989766126485],[127.02098420667113,37.19659148209651],[127.01935637478392,37.195866162221215],[127.01863768334091,37.19580857495417],[127.01807255839174,37.196180911911966],[127.01650916380657,37.19583679547077],[127.0167458068975,37.19545167776363],[127.01659612766775,37.195097044097096],[127.01633240936302,37.1948078229563],[127.01601891508852,37.19425043913825],[127.0154811491455,37.19426766179137],[127.015206243167,37.19453326729754],[127.01438362068536,37.19501413089299],[127.01410331189484,37.19507773755615],[127.01351629667342,37.19502624974136],[127.01263130015536,37.19434666714737],[127.01237064487168,37.19391839102806],[127.01169971185502,37.19361435383148],[127.01156501842736,37.19330222809867],[127.01164426872162,37.192651160128044],[127.0115240984215,37.192427547214194],[127.01124244711534,37.192336964454306],[127.0109897926615,37.19236818855387],[127.01053886695338,37.19259735918844],[127.01019829186195,37.19267154434164],[127.00996811376217,37.19284232270004],[127.00994261200049,37.19340982987944],[127.00982302328634,37.19364726266914],[127.00953583950064,37.19365874424231],[127.00830380467194,37.19320154150587],[127.00790064985613,37.19296530051915],[127.00778935485435,37.19274973962087],[127.00784358760387,37.19225003511625],[127.00820524316872,37.1917799111838],[127.00847102976968,37.19114484776054],[127.00912038338663,37.1905507036129],[127.00918049975104,37.19027463059086],[127.00910633469543,37.18983376161563],[127.00911623711674,37.18838648127857],[127.00932324153604,37.18811851627151],[127.0097600857543,37.187850278029565],[127.00988730440923,37.18766160838719],[127.0098025617186,37.18729656358516],[127.0095434159328,37.187023952626376],[127.00915032931353,37.186836993084746],[127.00898015964759,37.186605984265746],[127.00881998189168,37.186129017628076],[127.00837550142518,37.18583234599018],[127.00727887522098,37.18591297701116],[127.00651671949653,37.18647856304617],[127.00620034114154,37.186542054121375],[127.00595264164498,37.186486695601275],[127.00596460755689,37.18639003821334],[127.00552719177298,37.18594268301044],[127.00531194326396,37.18502861287075],[127.0049220253161,37.18446536523664],[127.00394602015082,37.18403944314536],[127.00375253400688,37.18365205063379],[127.00347767795937,37.183339366070534],[127.00254750366481,37.182719844771825],[127.0023212801309,37.182368907697196],[127.00233892541513,37.182091988777294],[127.00273268200971,37.181814706395976],[127.00466655815302,37.18157423507467],[127.00493194949114,37.18150113328824],[127.00507360364149,37.18128661891289],[127.0050670301326,37.18110307416425],[127.00475795264255,37.18050035543404],[127.00368169507067,37.17956968593102],[127.00312472170646,37.1792143770677],[127.00252377476909,37.1783316879605],[127.00072661449711,37.177434858968226],[127.00002000075024,37.17738523347357],[126.99894561110774,37.17776480608816],[126.99880226800889,37.177955934419195],[126.99877948943107,37.17821108211873],[126.99894065580483,37.17847432812049],[127.0001068737735,37.179222057030984],[127.00041573172992,37.179656362812686],[127.00038944490286,37.17995863050401],[126.99982885733769,37.180579876230816],[126.99947900791855,37.18069645784544],[126.99923599413192,37.18064792513536],[126.99900354218734,37.18034965515503],[126.99851960260037,37.17996788700053],[126.99811670389578,37.17974337423951],[126.99750019770133,37.179590443687],[126.99710914383049,37.17934334432572],[126.99671468851915,37.178929602479585],[126.99631946688154,37.17826355963307],[126.99515117971775,37.177155600692046],[126.99497958775672,37.17654237457889],[126.99492451185857,37.17564574774979],[126.99513824383425,37.174969593969],[126.99528171596782,37.174816320608016],[126.99603680279756,37.17493208412321],[126.99633235320104,37.17489063841254],[126.99676608755256,37.17468544521816],[126.99727131082982,37.174284540100494],[126.99842603797404,37.173789203144814],[126.99946425112572,37.17375962821151],[127.0004189991519,37.17318902827017],[127.00145141719595,37.17280022047511],[127.00162684697686,37.172688707976874],[127.00170671790461,37.17211256859082],[127.00194623956632,37.17173623376978],[127.00269217021832,37.171396271080724],[127.00315554000426,37.170820244861005],[127.00331451802444,37.17049295214689],[127.00414467323444,37.17010826188705],[127.00450627112126,37.1697567263114],[127.00526505091986,37.169386726365566],[127.00567426968809,37.16908684103918],[127.00623882193098,37.16829860210221],[127.00687261596774,37.168458538789686],[127.00711681111746,37.168339360955244],[127.00755617355406,37.16853554382342],[127.00909450188223,37.16846695641591],[127.00969902200795,37.168138377306725],[127.01062483760072,37.16796786827766],[127.01165441078312,37.16803617151844],[127.01217004923576,37.16771430750458],[127.01323036001371,37.16757522113389],[127.01390376545241,37.167824573793],[127.0141626270239,37.16783286015552],[127.01466258240254,37.167650850214535],[127.01508498330912,37.16772936594468],[127.01554930839245,37.16752803258072],[127.0160015292356,37.16780219420497],[127.01657672823197,37.167986531100865],[127.01678927228603,37.16786369856997],[127.01735303127397,37.16778141417182],[127.01762693481818,37.167577361604984],[127.01910541301534,37.16704054046483],[127.0196091013051,37.167120253304205],[127.01985428807525,37.16724982305974],[127.02006193513546,37.167227469165255],[127.0207779671333,37.16656258066812],[127.0213641815866,37.16644709512233],[127.02146352351863,37.166218191380445],[127.0222981126852,37.16582267699195],[127.02290781810673,37.16535343838227],[127.02366111177587,37.165388754478315],[127.02378430408226,37.16526904486402],[127.02472009643635,37.16528280552776],[127.02527885750447,37.16484734333881],[127.02652533072192,37.1635362143924],[127.02732183507565,37.16229955894969],[127.02739741793957,37.16162042626333],[127.0272750150769,37.1607064076619],[127.02799000498689,37.16031869453287],[127.02903897511942,37.159511039644855],[127.02950408049956,37.159341813779434],[127.02982182324475,37.15912876627892],[127.0300724229904,37.15852754951057],[127.03006399793873,37.1572887958003],[127.03056493735053,37.156724049697864],[127.03059927167806,37.15621949565728],[127.0302626984591,37.15590158840584],[127.02964403625603,37.155506265568775],[127.0289645944385,37.15543379880322],[127.02885538183784,37.1549807572136],[127.02780957730457,37.154193063426774],[127.02787365388957,37.15396991837098],[127.0277283388099,37.15371600320426],[127.02789244581201,37.15333203386976],[127.02779481723415,37.15289580086032],[127.02848118120868,37.15150559590773],[127.02922638585325,37.15090613406079],[127.02994710898973,37.1495910133985],[127.03013919619185,37.14901078620334],[127.0300945984936,37.14856308086363],[127.02972699750937,37.14801103948368],[127.03018077993165,37.147617566256244],[127.03056850220067,37.14759294532755],[127.03082867239677,37.14746623093787],[127.03131859734901,37.14674494180723],[127.03108232268094,37.14596778932619],[127.03105306596723,37.14573358396194],[127.03116971153233,37.1454480488408],[127.03088899826801,37.144333201378856],[127.031188758925,37.14398168620712],[127.03177387269957,37.142994750669985],[127.03176004273803,37.14249247198411],[127.03164830446637,37.1421954043349],[127.03191035954545,37.14144536494604],[127.03209203293649,37.1411787582375],[127.03216493482513,37.14073597883355],[127.03264482495135,37.14025260235328],[127.03273926173041,37.139966961589565],[127.03370724007465,37.13916627804675],[127.03374239588102,37.13883632767994],[127.03358596235282,37.13827293984608],[127.03377245057324,37.13767764607581],[127.03400603390642,37.137397543395025],[127.03480574473907,37.13713801521842],[127.03573174182176,37.136459725922684],[127.03643009659012,37.136239385201534],[127.03750162742195,37.13614305772665],[127.03844028199768,37.13620719582391],[127.03813919748619,37.135847290872704],[127.03783415344415,37.13522922447391],[127.03744860018705,37.13496709290277],[127.03726351239993,37.13467678935601],[127.03722538810497,37.134282634078744],[127.03737484049763,37.13360804894489],[127.03784891525478,37.13246925161811],[127.03811093056144,37.13212066269946],[127.03902035920905,37.13125748323321],[127.03973379220912,37.13071814258341],[127.04041214562656,37.129958083460195],[127.04065632768531,37.12947822578359],[127.04130144851128,37.128879941215516],[127.04226783746516,37.12802568223235],[127.04368408440176,37.12725014475645],[127.04404370218357,37.12658834601261],[127.04440356244727,37.126325088249516],[127.04472957136205,37.12624335993504],[127.04489458833926,37.12608602940669],[127.04512798370673,37.12608200163184],[127.04562634294804,37.12582945384538],[127.04533874972941,37.12617556765337],[127.04554059323493,37.12628801621163],[127.04551585013694,37.126467847586085],[127.04565344166431,37.12679713579924],[127.04548753191266,37.1272556882707],[127.04545857589743,37.1279719846385],[127.04530785476092,37.12838951928563],[127.04531705197606,37.12862162040768],[127.04516067130874,37.1288236280873],[127.04520719303193,37.129273715685954],[127.0455621526232,37.12941053443704],[127.04648264438543,37.12939519647794],[127.04661292600399,37.129509231710124],[127.04726158493861,37.12959544506464],[127.04740986606446,37.129750540933614],[127.048653067854,37.12997099131221],[127.0489244564718,37.12990871065491],[127.04995152003669,37.12930234507719],[127.05004732271266,37.12935832428632],[127.05010254707847,37.12967981824436],[127.05034141175564,37.129747613170736],[127.05046240575771,37.12988247852798],[127.05086520429168,37.12963734373019],[127.0519622067643,37.129601008680844],[127.05206649532512,37.12992421776385],[127.05233915831127,37.130210827014],[127.05257786349311,37.13029907175856],[127.05245586399869,37.13129197834757],[127.05263580152591,37.1316628111586],[127.0534687586194,37.13218036779841],[127.05428973612017,37.132428534241164],[127.0545688037015,37.13258139955147],[127.05522106891101,37.13335705747165],[127.05565872563935,37.133634347957205],[127.05614221340278,37.133557265616744],[127.05660910500112,37.13331501961186],[127.05724735849613,37.132672231591634],[127.05758744637785,37.132438289586666],[127.05808407137698,37.13224944575032],[127.05846904049987,37.13219847916353],[127.05893361654982,37.13238447689333],[127.05941047646924,37.13231905238008],[127.06014380858477,37.13238344333233],[127.06043599551265,37.132313349564086],[127.06056509857267,37.13208878801408],[127.06096683498505,37.132273554174304],[127.06491743320385,37.13196332878013],[127.0648512299651,37.13119643884511],[127.06649530087424,37.13122131015339],[127.0662704505393,37.13017822815117],[127.06594662192742,37.12990862462638],[127.06633597787268,37.128671347795695],[127.06616009783464,37.128101426500066],[127.06615064532515,37.12774315550588],[127.0664986994739,37.127418565807886],[127.06656135858405,37.1272243368423],[127.06671002305691,37.127194492643476],[127.06678756815579,37.12741530939592],[127.06674614454549,37.127246805860274],[127.06684713358071,37.127170195726634],[127.06677908620563,37.126710263383586],[127.06701038415291,37.12667480564902],[127.0676465010762,37.12738887140843],[127.06793318383507,37.12760515504488],[127.06889190668126,37.128079136110095],[127.06912172934095,37.12773554040704],[127.07049463362566,37.12670234645987],[127.07122050734458,37.125541371132805],[127.07269965786966,37.12594766201217],[127.07302254109207,37.125327918535135],[127.07329313101728,37.125426907469716],[127.07422614476353,37.12555861571508],[127.07440783335859,37.12568419999993],[127.07488697934407,37.126334196602144],[127.07537686010781,37.12648639515236],[127.075708607642,37.12667788828191],[127.07570612606622,37.12674209093166],[127.0761893402877,37.12683868630834],[127.07707216508884,37.12727650952782],[127.07771997734385,37.12743516600154],[127.07821962105395,37.127470138493045],[127.07913582030423,37.12812860031407],[127.07923870921843,37.1257174804167],[127.07975038978022,37.12579201269591],[127.08050913683572,37.126198650213986],[127.0812679978491,37.12627505632279],[127.08126623598594,37.126324110628815],[127.0818315679608,37.12615663066278],[127.08218978481982,37.12629379674002],[127.08260749605222,37.126312631255246],[127.08300320466796,37.126813879451625],[127.08295897399034,37.127028605472766],[127.08338685703345,37.12729437477502],[127.08394110381602,37.12724002955826],[127.08414205921393,37.12729494227693],[127.08450241905265,37.127140073181984],[127.08512036358243,37.127099879785305],[127.08532074219212,37.12697791241704],[127.08574363778565,37.12694363711727],[127.0864540932329,37.126692572359595],[127.08774143948149,37.12741881187369],[127.08844114402198,37.12764842362389],[127.08854573959576,37.127762824980294],[127.088938527169,37.12790441566021],[127.088902558898,37.128204484467894],[127.08923143612498,37.128779800103366],[127.08969383081744,37.129327279700384],[127.08982068668398,37.129303353397646],[127.09019784066558,37.129741381655755],[127.08993180135374,37.12996863914166],[127.09066935554604,37.12981068727443],[127.09075017374045,37.1300178883545],[127.09132977533544,37.129710775781135],[127.09181415212113,37.12961703322722],[127.09187048013705,37.12955170857471],[127.0925273343191,37.12956178344476],[127.09247898608092,37.129517390126985],[127.09289414514129,37.129310944395],[127.09295064076507,37.12951133230031],[127.09285374953254,37.12958786159368],[127.09293893440804,37.12959335710831],[127.09101651289565,37.13103049103574],[127.09145862294935,37.13122801054378],[127.09321997134482,37.12995065192396],[127.09323930074301,37.13001410408662],[127.09213917758024,37.130958926592946],[127.09159622927835,37.13125172141801],[127.09128673614758,37.131565028335984],[127.0910408485701,37.131637433939765],[127.08972764866161,37.132555294218704],[127.08958166846463,37.13295856215638],[127.08880408818733,37.13356145877878],[127.08785687766719,37.13453401182305],[127.08775957044956,37.13479881057961],[127.08797540644821,37.13478921813436],[127.0887386401879,37.13509509949078],[127.08903832853694,37.13544518155222],[127.08910732046515,37.13597450050323],[127.08978450710109,37.136219824368325],[127.09006108525749,37.13641298377326],[127.09091963590082,37.1366415326992],[127.09151314031962,37.13728402095144],[127.0920107584531,37.13708926573911],[127.09232992911424,37.13684043007284],[127.09289908528832,37.13674159700327],[127.09398138124101,37.13634468191768],[127.09445456522947,37.13642685586357],[127.09490132324672,37.1363425722742],[127.09560643433511,37.136791804562456],[127.0976822457801,37.13679436274922],[127.09791531239055,37.13736820894761],[127.09752500305537,37.13794814618689],[127.09750894001373,37.13823092709485],[127.09766947324941,37.138654438005496],[127.0981152850519,37.1393061847614],[127.09909435107893,37.139548685411],[127.09971978883208,37.14001861940283],[127.09962083808807,37.1410495424558],[127.09987478955941,37.14146609491755],[127.10017063939547,37.14259719583388],[127.10090546628105,37.142349989245616],[127.10137576684465,37.14243016710869],[127.10181039392141,37.14288210214711],[127.10172410416278,37.143363993657786],[127.10231812833975,37.14341542717225],[127.10307034908266,37.143820178040954],[127.1031419555625,37.144594372810715],[127.10283978823243,37.145693204125415],[127.10079092138758,37.14614205840937],[127.10053428909444,37.146782894655146],[127.10080289765891,37.14745975780481],[127.10080384043461,37.14798139331961],[127.1003586801462,37.14800853651854],[127.0996162523996,37.14913418877712],[127.09970095728922,37.1495088953086],[127.0994723628095,37.14998778353119],[127.09928960992588,37.15107782088248],[127.0977251473899,37.151732092981234],[127.09761932675427,37.15202075946914],[127.09806744585134,37.152574316571936],[127.09847994499226,37.15351816431134],[127.09877153511877,37.15395473104143],[127.0983092906648,37.15437516918488],[127.09813329977433,37.154867276101335],[127.0981895306183,37.15569837868376],[127.0972406995806,37.15624140176847],[127.0965105246219,37.15696630073343],[127.09575928881854,37.15743336423813],[127.09558180723035,37.15761985237792],[127.0956148143127,37.157717779115075],[127.09525676800861,37.15839791674728],[127.09474794705713,37.15864226540606],[127.09440202665441,37.158927668149616],[127.09460348330528,37.15890580229751],[127.0939601528174,37.159090624991414],[127.0936840684477,37.15938922175596],[127.09331740331788,37.159498381707806],[127.09280629124852,37.15930097691299],[127.09181658823988,37.159433865844264],[127.09136391388,37.15959500359295],[127.09121202357959,37.159738898653],[127.08918642318434,37.16048375509919],[127.08940698410137,37.160962570785046],[127.08879883469447,37.16085121918265],[127.08874432722602,37.16059957661678],[127.08394791230867,37.16116085105647],[127.08381211335303,37.16086645444063],[127.08361188756716,37.16149237301934],[127.08341111897518,37.16166964940929],[127.08320994016715,37.16169869404625],[127.08310918947255,37.16156179380451],[127.08133024012473,37.161573107238745],[127.08052369905344,37.161693045460765],[127.08017103855636,37.16160019159073],[127.07987401618009,37.16138517268814],[127.07892120050796,37.16252668301453],[127.07857062635293,37.16220416294639],[127.07822919115775,37.16239173090408],[127.07787563411469,37.16242600210872],[127.07764147924475,37.162354816257924],[127.07743526032183,37.16218566860004],[127.07681732364009,37.1622561480422],[127.07619702109895,37.162115928880596],[127.07624086630373,37.16216958624651],[127.07606488598472,37.162303773762744],[127.07599709912414,37.16225882665014],[127.07544068067654,37.162598943670034],[127.07584292221811,37.16275942185368],[127.07566663846833,37.16309338928424],[127.07586821389368,37.16327230188187],[127.07590640804565,37.163713162005536],[127.07576160753861,37.16381876147055],[127.07560936737079,37.163777095794586],[127.07557735506091,37.16393165611098],[127.07534405347484,37.16409183581297],[127.07496405030841,37.16416373299356],[127.074718625731,37.16433991489303],[127.07462693673588,37.16445788340871],[127.07480270915549,37.16462354275387],[127.0742904454461,37.16505591156494],[127.0733930489843,37.16556268473271],[127.07338646996728,37.16584264648952],[127.07356331344789,37.16641536158534],[127.0732686067806,37.166921760721976],[127.07238876874374,37.167318916446234],[127.07214062097954,37.167358688800334],[127.07205137503071,37.16742496095386],[127.0721674529659,37.16758971084699],[127.07131499525384,37.168246417556375],[127.0712684906653,37.16861965678331],[127.07143508713756,37.1690051904801],[127.07129204116112,37.169314334548204],[127.07138478973128,37.1695659616078],[127.0709604609359,37.17000008482095],[127.07072454256739,37.17058437179454],[127.07088036195013,37.17108641040841],[127.07069178107189,37.17241652026318],[127.07072699722713,37.17282007198795],[127.07060479141218,37.17311431627812],[127.07087942412272,37.173386570562144],[127.07076331435968,37.17359916935095],[127.07078320756254,37.173966578443576],[127.07236647151989,37.17405555880476],[127.07263694355004,37.174301651302166],[127.07312284012201,37.17455972756666],[127.07261906381476,37.17503529631311],[127.07240056535225,37.175547853495196],[127.07237920136481,37.1758475004208],[127.07205737530612,37.17615778089459],[127.0720059772473,37.176512759517834],[127.07225954323741,37.1774104762921],[127.07212975643638,37.177934854931706],[127.07224936856181,37.178948742670435],[127.07204114078915,37.179684869041125],[127.07189661782377,37.179866651470725],[127.07221931894661,37.18070647135818],[127.07203917172436,37.18163542360794],[127.07215622376526,37.18195324305622],[127.0719995499277,37.182212089929436],[127.07161890357668,37.182550586732106],[127.07176146721518,37.183215771684225],[127.07147351607999,37.1835606585988],[127.0715549107988,37.183765713219536],[127.07119381311297,37.18406166786775],[127.07055887356711,37.18403955349508],[127.06984831302145,37.18415410671571],[127.06878057010297,37.18386773504303],[127.06843907661793,37.183932408054034],[127.0679198699529,37.1843805743392],[127.0667431283148,37.184182744928655],[127.06641230377139,37.18419209564033],[127.0660916861793,37.18439012583923],[127.06555735512254,37.1852579271469],[127.06568345084186,37.18601163901705],[127.0652044947292,37.18640101479246],[127.06555908026527,37.186697043304],[127.06573396811599,37.18673791786957],[127.06605334665835,37.18769050284914],[127.06623221619415,37.1878539457023],[127.06635509535501,37.188128158322385],[127.06726017847083,37.18858007362548],[127.0675896263477,37.18888782794156],[127.0680741630004,37.18916196456845],[127.06791133163587,37.18970187528704],[127.06801659001147,37.190290828350165],[127.06868835558468,37.19062275629169],[127.06838532819297,37.19083087830396],[127.06716005905736,37.19105278125656],[127.0656833558785,37.19214179931295],[127.06567502067801,37.192459623664305],[127.06544287786363,37.1931621678747],[127.06580809829165,37.1938773261934],[127.06564565492617,37.19418712191019],[127.06637259511744,37.195080148033675],[127.06635148931201,37.19542395634643],[127.06621172033043,37.1958570101929],[127.06557155133646,37.19659548497952],[127.06542107402237,37.197092889550674],[127.06513170892818,37.1974644860279],[127.06456953873538,37.198633436378714],[127.06446310911427,37.199074097495014],[127.06395405289565,37.19905767979785],[127.06349748666366,37.19918457849998],[127.0621340849672,37.19915201812396],[127.06117380824173,37.19946244877986],[127.0605630355399,37.199455067479576],[127.06020921357094,37.19933370351526],[127.05945476899615,37.198609685856816],[127.05807669880627,37.19789098438168],[127.0571812492635,37.197736402861],[127.05679335255998,37.19749320436449],[127.05675644032091,37.19724346165367],[127.05661552189244,37.19720841049692],[127.05617873689937,37.1971382086476],[127.05546987996419,37.197345780329094],[127.05448076915172,37.19749062899201],[127.0527905298068,37.19703836227115],[127.05233579896152,37.19710487581235],[127.0518214934759,37.19700245700191],[127.05131560751128,37.19669996665003],[127.05063523223032,37.19648271815659],[127.05027586560692,37.19624495369551],[127.05008602305443,37.196003950613374],[127.04893916078385,37.19598922525122],[127.0488223120253,37.19608178732508],[127.04830043295861,37.196061415398226],[127.04783856482304,37.19620538551768],[127.04767288895894,37.19612709698911],[127.0471702234564,37.1961766036862],[127.0465422920557,37.196050898613976],[127.04625694647567,37.19609271477497],[127.04597929547471,37.19628712079494],[127.04518198335933,37.19652965939954],[127.04428274275747,37.19712236426617],[127.04379849205355,37.1972313679174],[127.04279632294347,37.19761214125991],[127.04252946083287,37.197686381984546],[127.04190088053598,37.197489016965626],[127.0414828611413,37.19753229698817],[127.0413498096392,37.19772545783349],[127.04100217652397,37.197827113199224],[127.04088016387185,37.19805599027331],[127.04055696496351,37.198246866323736],[127.04014296485815,37.197985808640205],[127.03957326063285,37.19850057856887],[127.03938681668558,37.198535762161384],[127.03911350516044,37.19846908321811],[127.03803423046433,37.198740526333296],[127.03754617495257,37.199031937417004],[127.03755396765644,37.19931297172215],[127.03746357527841,37.199430407173935],[127.0372523347183,37.19957941188805],[127.03707113743796,37.19988005431783],[127.0368198949481,37.19995034812387],[127.03571691292373,37.19999302973191],[127.03518415828223,37.2001396741199],[127.03290789027018,37.20017006364722],[127.03237626134157,37.19999943434591],[127.03164868894109,37.2000322034538],[127.03141530373054,37.19989778255652],[127.0308363405857,37.19985147009287],[127.0304911581827,37.19964657626916],[127.0297919451106,37.19969228417435],[127.0293958166619,37.2000605519735],[127.02829771501472,37.20023183407624],[127.02834762106161,37.200402957037134],[127.02826933858556,37.20047123858795],[127.02785606738482,37.20048520993085],[127.0275785412672,37.200679993047],[127.02736096106686,37.20041018584548]]]}}
