{"type":"Feature","bbox":[126.62865986128284,37.30878861585375,126.88169605406138,37.472394089609146],"properties":{"regionCode":"41390","version":"vworld-20260909-3f8952dfda77-p2","name":"경기도 시흥시","attribution":"국토교통부/K-Geo플랫폼 · VWorld 법정구역정보, CC BY 2.0 KR; 공공주택 복덕방 가공"},"geometry":{"type":"MultiPolygon","coordinates":[[[[126.6900532826243,37.355089300387675],[126.68990571832627,37.35526972468133],[126.68944263098524,37.35533166412],[126.6891333897585,37.35505606783238],[126.6893083051356,37.35494863519913],[126.68950242509449,37.354970507588035],[126.68946427394384,37.35471427748183],[126.68958000633698,37.35469122035394],[126.68962713639199,37.35481294718347],[126.68973643820833,37.354831089599074],[126.68977531142498,37.354681567965244],[126.68999293892966,37.35473805523866],[126.6901736685939,37.35463629014957],[126.69047794523394,37.35483804691377],[126.69046165185789,37.35494632993979],[126.6900532826243,37.355089300387675]]],[[[126.68974622190112,37.35541493545377],[126.6897618267056,37.35546020703073],[126.68972935564881,37.355459491555656],[126.68974622190112,37.35541493545377]]],[[[126.78431152628144,37.472394089609146],[126.78317086921686,37.47225120601151],[126.78049140895476,37.47157708603782],[126.78025378285629,37.47163237712742],[126.77978999428558,37.4715203612691],[126.7792999223543,37.4716146326224],[126.77880701791142,37.4718291430649],[126.7781501680176,37.471872680177626],[126.77819714507078,37.47179512458218],[126.77787843254343,37.470628331688154],[126.77788342264475,37.47002216212013],[126.7785711793381,37.469408500511385],[126.77943357720393,37.46830063811197],[126.77938567798438,37.467950869879836],[126.77918594234228,37.46778240649148],[126.77959429942368,37.467134447224936],[126.77969980902249,37.466323835734784],[126.7795337983566,37.466041727663],[126.77977806249768,37.465845647328656],[126.77924474470473,37.464836956683065],[126.77821895154052,37.463334332453236],[126.77771382970157,37.46280715671557],[126.7784501403205,37.462089185861046],[126.77882590248777,37.460160721171675],[126.7787852639934,37.459712556985345],[126.77825513541848,37.459330035950764],[126.77774660333748,37.45914816337562],[126.77753737159551,37.4581127021616],[126.77735489482056,37.45765325048359],[126.77736810701012,37.45711189853986],[126.77803769920385,37.4569658516973],[126.78041317383084,37.454945854807065],[126.78021758233025,37.4546153897133],[126.78000675758494,37.45445389681937],[126.78015404977818,37.45404202401385],[126.77999541768277,37.453385535473586],[126.77940435046291,37.45212552583067],[126.77905601878365,37.45103186189566],[126.77830446233165,37.45106513164989],[126.77374213772978,37.45051659325544],[126.77162591492176,37.44931706966554],[126.77096587796724,37.44880212797198],[126.77067935561251,37.448472289351315],[126.77035541275754,37.4475236440251],[126.7710563323857,37.44688283127081],[126.7711592260449,37.44643300797295],[126.77030392140158,37.4455055911127],[126.7687450596807,37.4441576826479],[126.76824001850173,37.443496071201864],[126.76868383438449,37.44325344029958],[126.76894202310665,37.44272377654602],[126.76939364682849,37.442222713804945],[126.76926822459968,37.44139396608226],[126.76972949580433,37.44096020093409],[126.77016583869852,37.43951166796947],[126.77028251337433,37.43864298474332],[126.77051441902636,37.43801676365016],[126.77045546169803,37.43779512564781],[126.77120242369182,37.43647939175701],[126.77123473263272,37.43543809070106],[126.77113957309517,37.43477367406872],[126.77083040857248,37.43442065875686],[126.77070934860676,37.43370035727628],[126.77019486823022,37.43292843194386],[126.76951095318583,37.43251860171983],[126.76901295083943,37.43200091443432],[126.76955893597636,37.431637042284635],[126.77019293651692,37.43152562433055],[126.77109462658795,37.43149662469238],[126.77120235353287,37.43128038438073],[126.77090421219532,37.43094410679764],[126.77078469923592,37.43056404475793],[126.77076036925645,37.42980749297899],[126.77059117467148,37.42979727681469],[126.76968279714531,37.42866385431384],[126.76920583230579,37.42750608618363],[126.76801330455176,37.42718152670499],[126.76732091088478,37.42670688301356],[126.76570902713777,37.42641937630349],[126.7645252862987,37.42603418209014],[126.76216462567041,37.42634774088782],[126.76245354125346,37.426956859223864],[126.76140374675956,37.42642564996981],[126.76053745591955,37.42630839611173],[126.75998944716763,37.42642513124185],[126.759737698389,37.42656195487561],[126.7595051702286,37.42693001016875],[126.75898095114351,37.42690168805574],[126.75842633174156,37.42645720161495],[126.75867614949506,37.42580552916941],[126.75856614867467,37.42524098205926],[126.75837901250242,37.42501471376485],[126.75800529046595,37.424895787734236],[126.75737998775023,37.4248526366546],[126.75680245874894,37.42438737194439],[126.75601816636068,37.42409616972632],[126.7556892741236,37.4238290819564],[126.75563376125811,37.42353006734627],[126.75514528999088,37.42318297804219],[126.75510810447511,37.422861687101246],[126.75498164900091,37.42270729872458],[126.75468185656975,37.422718195587755],[126.75452111367024,37.42282309700939],[126.754402730351,37.42310837931371],[126.75381741518768,37.42287310910036],[126.75368293484617,37.42292549706609],[126.75324540301932,37.422697279884225],[126.75504242422265,37.41820441610651],[126.7550341170176,37.41793003512426],[126.7543715190849,37.41750810486316],[126.7557088436592,37.41530286934947],[126.75522680361908,37.41529691851349],[126.75459774123826,37.41493667161796],[126.75468624357198,37.41433503669527],[126.75522464522486,37.41367182022535],[126.75541573988558,37.413612146102686],[126.7554078075895,37.4134401852018],[126.75464577330979,37.41299390081402],[126.75417952234574,37.413282292408795],[126.75405590538477,37.413488057261574],[126.75409368330536,37.414382435372715],[126.75379501160634,37.41437414186893],[126.75368566442451,37.41378813033092],[126.75323810678908,37.41274618239701],[126.75360310810494,37.41241875556246],[126.75326223705063,37.41121859830998],[126.75336106532764,37.41040235412055],[126.75317507689927,37.40981017374136],[126.75333435593443,37.40926357819973],[126.75332917416561,37.40830815035068],[126.75360345460898,37.4075220409013],[126.7534095296664,37.40709453238007],[126.75288678381993,37.4071402398547],[126.75271313668514,37.407301452208394],[126.75274697659631,37.40743458432907],[126.75263138140426,37.40766775671345],[126.752458038639,37.407684781761255],[126.75225422003093,37.40747014533642],[126.75146342167184,37.40754699012901],[126.75145566154606,37.40766950258228],[126.75108679097306,37.40784298770697],[126.75105317201479,37.407769321080934],[126.75127336014901,37.4076498811482],[126.75133210659848,37.40751054951282],[126.75115776802413,37.40695036213437],[126.74918185848641,37.404223009782285],[126.74904477667981,37.4039372748971],[126.74900995268686,37.40358849384324],[126.75016087530608,37.40094927430071],[126.75052271514099,37.40066932881942],[126.76390394119508,37.39931340765558],[126.76397088358615,37.39935810381929],[126.76391353747174,37.39929276400556],[126.76642503657929,37.397403550977735],[126.76635772451917,37.39737223282455],[126.76690792195016,37.396436291841276],[126.76629909645912,37.39539710724073],[126.76628984923907,37.395136018711895],[126.76648524829832,37.394963709616995],[126.76677236934508,37.39490745345506],[126.76824494447946,37.39526902689183],[126.76950353491318,37.39508616181528],[126.77123300421042,37.39509686085111],[126.77160152492144,37.39518653320709],[126.77163752460609,37.39525456633939],[126.77155476905962,37.39591612052727],[126.77201402594228,37.39593983356155],[126.77200899584676,37.395870961870806],[126.77252336374882,37.39581573371174],[126.77292342788238,37.39553958119853],[126.77351190477788,37.39536354217283],[126.77426399307977,37.39454030151408],[126.77468175065677,37.394274548708104],[126.77510440526885,37.39419445668031],[126.77634933512921,37.39414645007675],[126.77792942192906,37.39353352501619],[126.77815533987362,37.39351274166065],[126.7785188567975,37.3936837172447],[126.77885067042081,37.39455538092435],[126.77932881353773,37.3950196231429],[126.77958720441485,37.395143790414565],[126.78014327097507,37.395234225367794],[126.78063075703636,37.39502694004249],[126.78168403325243,37.39387926027187],[126.78229192813944,37.3933484029809],[126.78279549679515,37.39398566730496],[126.7827857560324,37.39366533009052],[126.78243294923887,37.393380362231866],[126.78250688356269,37.393314374027284],[126.78287387879313,37.393628722958105],[126.78289975625712,37.39401969338463],[126.78318101409613,37.39385348003187],[126.78269641700646,37.393106518302126],[126.78275722960394,37.39296223444687],[126.78323895505419,37.392464008623264],[126.78352878259744,37.39228003355332],[126.78410324231821,37.39212674761188],[126.78448137863397,37.392141470695],[126.78493082076331,37.392288204996824],[126.78555386465959,37.39314027048493],[126.78601874811275,37.39355687323036],[126.787696579237,37.39480616385648],[126.78936516114928,37.39576265703453],[126.78955344531884,37.39594961282829],[126.78904905037065,37.39635196514447],[126.78846481607125,37.39649592302968],[126.78855228959152,37.3976547471925],[126.78926698339998,37.397895394697976],[126.78961777367675,37.39812331336199],[126.78976624654689,37.39832898345621],[126.78974091544698,37.39847335237089],[126.78954379345616,37.39866333834648],[126.78853922617611,37.39928221340933],[126.78861161274226,37.40102494681577],[126.7887277848342,37.4010801628951],[126.78878668410226,37.40133135401448],[126.78874666788867,37.40164365382937],[126.78828298057606,37.40174279513236],[126.78818227039459,37.40166362153127],[126.78633566458434,37.40236028075328],[126.78608989942255,37.40256690375462],[126.7859218350226,37.40304268372922],[126.78597736758853,37.40357162429934],[126.7861606582667,37.40356552557887],[126.78710671775384,37.40695441744599],[126.78715218134631,37.40691411674191],[126.78762474577918,37.407665487965374],[126.78769546210586,37.407940768261476],[126.78813516526783,37.407932821974455],[126.78780394996504,37.407705618234544],[126.78736449813645,37.40687957834917],[126.78601272698329,37.40289028035865],[126.78666556809385,37.40296917196865],[126.78694218209257,37.402606665522605],[126.78736214076352,37.402306741509626],[126.78836413109111,37.40206879200563],[126.78849904876935,37.40228891827147],[126.78866045630417,37.40307872104333],[126.78860094717942,37.40424428866988],[126.79153371210228,37.40559841084414],[126.7919934361751,37.40529574061],[126.79185900451435,37.40533362381071],[126.79137143115679,37.40523892752596],[126.79045985037936,37.404857840810045],[126.78925187096209,37.40423643437576],[126.78886870782459,37.403808339132766],[126.7891992249593,37.40300736535655],[126.78977922550077,37.40277995310799],[126.79019946486412,37.4028190612394],[126.79079678933937,37.40274896014913],[126.79115134839226,37.402938899833956],[126.79149111022392,37.40334867159615],[126.79175895933685,37.403342472370454],[126.79211740064869,37.40299911380867],[126.79212153069203,37.40293205547386],[126.79079390676691,37.40239510729188],[126.78904901893657,37.40252872354196],[126.7889778953434,37.40201014358446],[126.78913767604396,37.40159733531574],[126.78898917404945,37.40004850748477],[126.7890573021536,37.39975097141269],[126.79016793980104,37.39865455353557],[126.79030023623412,37.39834639080127],[126.79023764909041,37.39836254613345],[126.79007787355847,37.39794260413297],[126.78935197157419,37.39759425958108],[126.78939179966285,37.39717488336489],[126.79217644416585,37.39697540639906],[126.7921640832263,37.39688820112938],[126.7902769033331,37.39699058847837],[126.79008743081805,37.396400941380485],[126.7903756120257,37.395994937348654],[126.79013325846942,37.39555707087608],[126.79031606296623,37.39523390779252],[126.79025321830096,37.395168623336296],[126.79095295706865,37.39447941978864],[126.79107784938604,37.394285003391985],[126.7911281096063,37.39393502182067],[126.7914126309984,37.39352758515676],[126.7919043959028,37.39311102872129],[126.79176448623896,37.39300330516507],[126.79127028086943,37.39332677508509],[126.79076456635772,37.39427896580308],[126.79031839236423,37.39472876200767],[126.79031847877384,37.39464998147073],[126.78995747076591,37.39494513013549],[126.78955921205464,37.39538570622236],[126.78799355905791,37.394365483577914],[126.78770780509754,37.39397494549751],[126.78619461275635,37.39289682203746],[126.78518846394037,37.391780756785444],[126.7851883602349,37.39187566985233],[126.78486883571716,37.39153182861755],[126.78512093875239,37.390911743082576],[126.78392303869943,37.389664153886635],[126.7843096145875,37.38930577341706],[126.78418702269981,37.38921275323679],[126.7837576099443,37.389534554254105],[126.78237459742196,37.38848192345605],[126.78216586636445,37.3886396645232],[126.78254879354873,37.38902791687816],[126.7826933272595,37.38893674994084],[126.78329319283843,37.389402735172965],[126.78472736136806,37.390979274643506],[126.78457713634741,37.39121910051725],[126.78425132938844,37.391436557054426],[126.78429766961555,37.3915940860099],[126.78360468898163,37.391661892406404],[126.78313532507462,37.3918953964135],[126.78092213767734,37.39391000972307],[126.78027206596087,37.394677133660224],[126.7800764204628,37.39477533782794],[126.77990004259291,37.39481505052786],[126.77956621915145,37.3945972071087],[126.77922787339736,37.39406420753038],[126.77890836508145,37.39318093819231],[126.77837106583486,37.3928157356219],[126.77816363424046,37.392863395557626],[126.77745649523065,37.39243096835124],[126.77722291492809,37.3921624738319],[126.7774729817868,37.391915023690004],[126.77722216999379,37.391870850929024],[126.77687114811818,37.39192846342127],[126.77280740957467,37.394105674509696],[126.76433135712095,37.39408282400358],[126.76301016980548,37.39088726586952],[126.76234462530833,37.3910730079379],[126.76373270631916,37.39444847828216],[126.76275077238917,37.39694707242118],[126.76256831266217,37.39717620751902],[126.76223866581027,37.39735491578802],[126.7618331213388,37.39740456815241],[126.7568814723096,37.396829764821156],[126.74467475552177,37.39847601529816],[126.74435062456095,37.398480926186],[126.74394890969555,37.39835929012668],[126.73978320715656,37.39537696527322],[126.73967964399954,37.395401262590575],[126.73943899217963,37.39590187063932],[126.73924588043728,37.39590089602717],[126.73920019383455,37.395827506158405],[126.73949385465032,37.395304544168035],[126.7346657328198,37.39037177053774],[126.73404053023177,37.389495097428124],[126.73391598350455,37.389077536756524],[126.73396479522967,37.38841746897796],[126.73420454214512,37.38792699605843],[126.73452713431054,37.38760047954696],[126.73521824882347,37.38719974111479],[126.73564827572422,37.38724634848927],[126.73746994862394,37.388336467342924],[126.7408848975268,37.38698715284016],[126.74047549599766,37.386364048204626],[126.7402725073322,37.38644124394146],[126.73991739613423,37.385867116480085],[126.74011432331424,37.385789133356354],[126.74005719067769,37.38568981456594],[126.74045217492362,37.38553634613681],[126.74025303047624,37.385213307225804],[126.74159684904511,37.38467457508027],[126.74157549027906,37.38459074290293],[126.74201229570484,37.384468202693014],[126.74243452731089,37.38463473029165],[126.74365945241972,37.3866108539538],[126.74383294682191,37.38661558158177],[126.74479573402773,37.38826910879659],[126.74500579381663,37.3888213379718],[126.74513508403693,37.3884562433888],[126.74567256402739,37.38767517914854],[126.7451471034739,37.38701026602059],[126.74476208798608,37.386868876025844],[126.74456028973084,37.386622489234604],[126.74420961678413,37.38671344580417],[126.74409080331203,37.3864874293836],[126.74436323221731,37.386350594965265],[126.74330515883311,37.38452400530661],[126.7428185824617,37.38390581110164],[126.74224874124802,37.3828508547064],[126.74165528299693,37.383051936725224],[126.74082689754847,37.383037707958906],[126.73254685055171,37.38635134675521],[126.73205911032522,37.38642131594949],[126.73139148213576,37.3863764801515],[126.73045004458675,37.38606155854939],[126.72994197369545,37.38563583742028],[126.72499445807517,37.380351650167476],[126.72464479343135,37.380010772782455],[126.72456062220425,37.38001940667611],[126.72453249867587,37.37985813064656],[126.7188987427153,37.37386139649879],[126.71828819669075,37.37380142291725],[126.71789667503539,37.37348362478384],[126.71784764587119,37.373360170648745],[126.71799876176773,37.372904329970495],[126.71575521012046,37.37055310082371],[126.71550735186008,37.37045377978386],[126.71484464390727,37.37082244128893],[126.71473611112937,37.370794230013864],[126.71475343191604,37.370710197286776],[126.71534392465485,37.37032260266338],[126.71532570597084,37.37010083546996],[126.71474758529376,37.36948117836244],[126.71437436085975,37.36944565122255],[126.70886527339253,37.363558519567775],[126.70856304639332,37.363729664183026],[126.70821265222042,37.36334744429529],[126.70849150862114,37.36317756561857],[126.70837669225372,37.36290675915423],[126.70544906007498,37.35976350805312],[126.70541385650196,37.359716314954326],[126.70554191443082,37.35963920888368],[126.70075266463985,37.354514343144984],[126.70056064011132,37.35401649130891],[126.7007049268208,37.353548881532966],[126.7032215536752,37.35122809902751],[126.7026839862773,37.350904371058675],[126.7023493699662,37.35091411683899],[126.70179832473299,37.35142028543316],[126.70152562122477,37.35149649152831],[126.70068664538695,37.352172339079026],[126.70053687580109,37.35218803465887],[126.70035478343938,37.35237638270228],[126.70022033422774,37.35239654045073],[126.70001908153752,37.35228861016712],[126.70024551968942,37.352140073847174],[126.70029163413373,37.3518597372353],[126.70046078650812,37.35173787849636],[126.70105535125258,37.35161363592075],[126.7013571448387,37.35131708648806],[126.70125964876672,37.351149636709984],[126.70152576762172,37.35083517463212],[126.70144682638947,37.350468348161165],[126.69761668915689,37.34949192743953],[126.69758346946358,37.34934378611714],[126.6974091888714,37.34944440857173],[126.69612150981688,37.34900270444733],[126.6945442962441,37.34866762354972],[126.69356135557582,37.34836872534497],[126.69371917033426,37.34884076666591],[126.69365413307487,37.349034129654584],[126.69376054250392,37.34938065137873],[126.6936807639197,37.3494045742796],[126.69354856481871,37.34912499508075],[126.69326880476365,37.34890756458295],[126.69302367400242,37.34824362923968],[126.69244038479006,37.34825185407287],[126.68858979136702,37.34876451994987],[126.68847298310807,37.34864888106285],[126.68815134865969,37.347606690891595],[126.68788271454007,37.347147162202376],[126.68770146082439,37.346425277442314],[126.68726092760639,37.34553320632684],[126.68681949445946,37.34553665169091],[126.68606900991978,37.34570668617281],[126.68621387379872,37.34620276168865],[126.68585852820956,37.346333124774105],[126.685634461634,37.34575580072387],[126.68430499404123,37.346073070598685],[126.68447148583489,37.34654146312165],[126.68438980982846,37.34655230950133],[126.68419739946987,37.346047752897476],[126.68243162169783,37.34645866064457],[126.68230682957952,37.34706500395358],[126.68207468769937,37.34708672640761],[126.68223683060289,37.34628654598832],[126.68246370539268,37.34622858885425],[126.6827232617447,37.34631327827099],[126.68559600041159,37.34563942107689],[126.68538108470908,37.34502480598801],[126.6857168075243,37.34496606606539],[126.68593905808686,37.345413102196005],[126.68606648978786,37.345417306002055],[126.68685696865593,37.34525278337128],[126.68711371350848,37.34506610379643],[126.6863181776008,37.343033858355604],[126.686405571227,37.34285494780396],[126.68627806881943,37.342849744281196],[126.68621228634055,37.34271137910208],[126.68577791101221,37.34149648036372],[126.68579310055536,37.34109288802464],[126.68791377172505,37.34049925472488],[126.69011132879304,37.340024777243876],[126.6901860802283,37.33975391526885],[126.69083890406864,37.339573173829656],[126.69098205795426,37.3396049129424],[126.69149216264331,37.33934632409724],[126.69183768882036,37.33736808147102],[126.6913122681227,37.335743402901464],[126.69082149972091,37.336063878906906],[126.69068917690747,37.3360590997053],[126.69026638448804,37.335807147984646],[126.69022471775779,37.335561382498256],[126.69041942006457,37.33531276663113],[126.69030200953317,37.33518042291436],[126.65534528945368,37.32544197584521],[126.65518396076149,37.32551788641042],[126.6549017783921,37.32587360038285],[126.65466875634529,37.32634185173263],[126.65450206597353,37.32629446650943],[126.6547502285466,37.32557750397193],[126.6546512473196,37.32523195898952],[126.62865986128284,37.31801511082732],[126.62896340923209,37.31726274140678],[126.65000000546543,37.32313862164549],[126.6555145390864,37.32459221308394],[126.66132861902504,37.32624066095137],[126.66201812775006,37.32633800600798],[126.66287875921707,37.3266739591806],[126.66831485682299,37.328128282727526],[126.67124324817335,37.32903768273231],[126.67145552914585,37.3289085325044],[126.67358814336167,37.325826475430674],[126.67433991762127,37.324926301278026],[126.6753148177982,37.323937145860796],[126.67603412011441,37.3225047327219],[126.67595638640391,37.32221036945152],[126.67603918619956,37.321984294155946],[126.67643890010781,37.32171640308839],[126.67699633666695,37.32169070600678],[126.6772943044186,37.32159957842673],[126.67723056085089,37.32111149630413],[126.6768400382489,37.32093616251584],[126.67643428520286,37.32034829455432],[126.67648051607796,37.32019869698961],[126.67663318279918,37.32017522777009],[126.6772158086405,37.32045090282031],[126.67777576534233,37.31994623908812],[126.68013389408334,37.31971448568262],[126.68046196602583,37.31936081659852],[126.6805546639695,37.31940728153259],[126.680583120685,37.319670170151525],[126.68082258458126,37.31972995125557],[126.68129049462993,37.32001693818911],[126.68174464327363,37.31994575364031],[126.68448411075099,37.3201127073651],[126.68552568985766,37.32006684229057],[126.69188449246762,37.31895423704041],[126.69275367087201,37.319511387722585],[126.69337642557224,37.32007844402047],[126.6935446782883,37.319815788648434],[126.69350924226917,37.31964889817136],[126.69325213101507,37.31940154816043],[126.69297216649527,37.31888733342914],[126.69294802988152,37.318669312075734],[126.69303788194365,37.31848510427872],[126.69763668892239,37.31564494719397],[126.69825418680881,37.315329775064306],[126.6986337282875,37.315231736792605],[126.69915480682629,37.31490609725782],[126.69927554127068,37.31489663687848],[126.69936986826197,37.315019930154236],[126.69904035345093,37.315448127514024],[126.6990049473055,37.31563341529686],[126.69929040099535,37.31585892157747],[126.69952191323159,37.31587917878657],[126.69998614067349,37.31562296854567],[126.70008196047257,37.315435086406744],[126.7031662091413,37.31398436715356],[126.70357082664647,37.314121253109136],[126.70643091027283,37.317328634509046],[126.70672597492978,37.31784572785353],[126.70735067913024,37.31827632244303],[126.70764816540212,37.31860303391472],[126.70789565515425,37.31905415072571],[126.7084238215825,37.31939313687792],[126.70914777271624,37.320134983081424],[126.7094536556315,37.320662917724235],[126.70996754635365,37.32099023791238],[126.71024056545778,37.32126020850678],[126.71060342814653,37.32184873022465],[126.70640670793809,37.32444269089346],[126.70701913839282,37.32503927857594],[126.71185975687867,37.32204812651076],[126.71112370945704,37.32150353722693],[126.71085609532551,37.32102400527319],[126.71055191556627,37.32070107002744],[126.70998898487953,37.32033209347007],[126.70972139454187,37.319852549155115],[126.70942105543946,37.31953052178319],[126.70895959511475,37.31906276904524],[126.7084314409355,37.31872378534785],[126.70818394900805,37.31827266960807],[126.70784767648,37.31790802067861],[126.70726174577536,37.317515367589735],[126.70700003539237,37.31703935464351],[126.70655452445591,37.31657108192546],[126.7065958739619,37.31646639626775],[126.70617606797535,37.31603260607227],[126.70603886672055,37.31603821870182],[126.70589874479114,37.31589353399282],[126.70596259642359,37.31577538884395],[126.7043798385297,37.314141004697795],[126.70422261014632,37.31416269445697],[126.70405676712699,37.31399145232636],[126.70668613428603,37.31239336199726],[126.70718191742804,37.31215949222918],[126.70952468941577,37.311500852204205],[126.71289947955084,37.31108079272761],[126.71412456529846,37.31080132948793],[126.71554834484415,37.3102330963697],[126.7180531540958,37.30878861585375],[126.71821834389888,37.308959115901935],[126.71595862731128,37.3102587571886],[126.71511469232529,37.31066798167589],[126.71374683780259,37.31111867159981],[126.71143470798567,37.311501215435555],[126.71138049296208,37.31161001667193],[126.71262286478556,37.31289271791111],[126.71273334592344,37.312911008125155],[126.71378595337207,37.31248760285042],[126.714928811766,37.31366723092817],[126.71503577945323,37.3136011749943],[126.71632353404635,37.31492997954929],[126.71645772554149,37.314943998487344],[126.71627534744523,37.31505673678811],[126.7182685971404,37.31711412867556],[126.7172947223544,37.317715894281136],[126.7179055999574,37.31830235864536],[126.72393048312139,37.31458995593857],[126.73854685150572,37.32967294623038],[126.7465523446901,37.32472511502337],[126.74763802974996,37.32483485396511],[126.74755401275708,37.32522598953913],[126.74758873266553,37.32570468773742],[126.74932087400758,37.332887914096666],[126.74964293148466,37.333523820488935],[126.75027647849059,37.33404442644482],[126.75753236796352,37.33795472820161],[126.76005969056881,37.34047862857313],[126.76061648098614,37.34113457979473],[126.76092472646879,37.34099073891537],[126.76177930148145,37.34099095759097],[126.76226274148631,37.340863788318075],[126.76246616250707,37.3409225623581],[126.7631335233573,37.34083256470201],[126.76488929758638,37.34243818544933],[126.7659049170306,37.34240230611931],[126.76709821937123,37.34272260240327],[126.7680352184757,37.34271210236843],[126.76823842343369,37.342462776521316],[126.76881739620181,37.3421853296074],[126.76879981521111,37.341954885440444],[126.76912459263993,37.34169381276425],[126.76952662144284,37.34185230880333],[126.77022268809333,37.34195783957501],[126.77101097807649,37.34241096975874],[126.7711629412176,37.342663631143466],[126.77185620043285,37.34295687354554],[126.77207396095079,37.343121522318256],[126.77236511095185,37.34319024029126],[126.77268642756098,37.34308524686824],[126.77327484450034,37.342394790849184],[126.77349607764398,37.342368704729914],[126.77379189615951,37.34219725039612],[126.77385848706191,37.341651038622],[126.7740277175273,37.341412331334986],[126.77520296173482,37.34157062274025],[126.77544972884239,37.34171100687713],[126.7756781679566,37.341969330925764],[126.77645065456208,37.34204105706336],[126.7768941609593,37.34192728904058],[126.7773270444512,37.34170353217201],[126.77792456066676,37.34110418642998],[126.7787904593707,37.340652804544895],[126.78031657742167,37.34053205564722],[126.78096035373292,37.34029023277188],[126.78135603053232,37.34028029182101],[126.78158351086553,37.3401757928704],[126.78198925094571,37.34059289632037],[126.78280426631598,37.340603648503425],[126.78352143029615,37.34037679206908],[126.78387186356848,37.33974918091891],[126.78411155563201,37.33906670084398],[126.78400956159858,37.338762701452836],[126.78397482183789,37.33758557978693],[126.78433503122451,37.33710940081314],[126.78439325066101,37.33678244287607],[126.78497977929037,37.337361044313745],[126.78558544510967,37.337554053773914],[126.78655148528797,37.33803623734919],[126.78714827183069,37.33849152531378],[126.78772318773551,37.33910360757467],[126.78801780793987,37.33920428324745],[126.78816611375913,37.339127623389096],[126.78906048066823,37.339816880958054],[126.78937780518213,37.34056460569968],[126.79103253489858,37.34244423449244],[126.7925606035766,37.343332564596494],[126.79320031903175,37.34358397914912],[126.79420954834185,37.344518427098855],[126.79417833406318,37.34456305348457],[126.79403490115084,37.344483024684756],[126.79354466580163,37.34398463544271],[126.79306538659691,37.34363415451229],[126.79219001160283,37.34451770740446],[126.79150684118109,37.34570511982119],[126.79096713912385,37.34700717171166],[126.79088019236868,37.34763386276381],[126.7906215282117,37.34798113187798],[126.79049043195124,37.34877094033873],[126.79065447040131,37.34918032284224],[126.79031176535322,37.34996663544123],[126.79029168857404,37.35027772059135],[126.79045629658097,37.350655598366096],[126.79108341449677,37.35119838903841],[126.79119729650357,37.35164369616072],[126.79132112482304,37.35180051587251],[126.79149986148013,37.35181416428173],[126.79140910885576,37.351858153817005],[126.79152099887794,37.35224912664046],[126.79170906248038,37.35252300950229],[126.79227257435983,37.352656908057355],[126.79431777862149,37.35385384189523],[126.79481505017692,37.354317224063784],[126.79542268528964,37.35508047697488],[126.79565485107742,37.35484851550442],[126.79600135068488,37.35474051636975],[126.79620970799114,37.35450529063684],[126.7962680932658,37.35399201887274],[126.79682574724328,37.35342155852355],[126.79775119485507,37.35369904859796],[126.79816550213694,37.354146413416636],[126.7996989187076,37.35442679811441],[126.80000214901497,37.35460987848572],[126.80036555941733,37.354384466580086],[126.80061899432806,37.35408970626143],[126.80129292923617,37.35444948180717],[126.80245462905927,37.354133274053865],[126.80373740949186,37.35364369476678],[126.80391610324125,37.35328145773944],[126.80473253385077,37.353110872247576],[126.80583725322475,37.35354677546613],[126.80623437325607,37.35400734084917],[126.80643458193168,37.3545303692691],[126.80755254577164,37.35569841345997],[126.80835309007578,37.35549464241466],[126.80874466785042,37.35525546845628],[126.80952401820545,37.35506955515006],[126.81053720051635,37.355605445300824],[126.81093073475077,37.35568664180856],[126.81151460118095,37.35562167983397],[126.81190449951748,37.356091763952165],[126.8120596075834,37.35642920936401],[126.81354542860844,37.35722668559925],[126.81457260065356,37.35698228004382],[126.81485055199836,37.35720973797303],[126.81464300974608,37.356964728199095],[126.8151374005598,37.35636897473079],[126.81626512651466,37.35547210810711],[126.81623936971756,37.355733468770325],[126.8166868638601,37.356621345804854],[126.81656767439058,37.35772354103856],[126.8173209446356,37.358476274325575],[126.81830016411585,37.35922407133354],[126.81876442452283,37.36015164124921],[126.81871890657237,37.361057148793435],[126.81936139874468,37.36167672384084],[126.82047024768455,37.36181323942853],[126.82147305846738,37.36383233977086],[126.8221651132675,37.36435405159127],[126.8229728266848,37.364739755645985],[126.82374387069167,37.3648096584615],[126.82374789973247,37.365220904795486],[126.82400092415892,37.36545528880359],[126.82407564007765,37.365697124478224],[126.82428045155837,37.36590665377015],[126.82519801089197,37.365790330797296],[126.82587300834732,37.365068068224346],[126.82594241808245,37.36452236924645],[126.82713178548923,37.36445325684855],[126.82764192083162,37.36408735475332],[126.82897206353482,37.36361746858295],[126.82922682504797,37.36325401519084],[126.83013668798634,37.36249363345886],[126.82993507115862,37.36239060944928],[126.82997743787425,37.36224870680265],[126.83032570325902,37.36208322415786],[126.83079901466058,37.36217272850355],[126.83086805834758,37.36195183604539],[126.83200620289249,37.36165625484974],[126.83242949999921,37.36213906037658],[126.83273203048512,37.362263200761696],[126.83467150805679,37.3621912560446],[126.83484627165191,37.36247631703201],[126.83600156126843,37.362887773777885],[126.8366581786835,37.362969034647634],[126.83690168357364,37.36310600418359],[126.83719018249853,37.363751310447874],[126.83800621037405,37.3632243994197],[126.83839443664549,37.36309442336428],[126.83883667788086,37.36283303414027],[126.83944205912626,37.36297349449732],[126.8400701540121,37.36324012630887],[126.84060470888798,37.363722242552385],[126.84163799533353,37.36321995663979],[126.84146868024686,37.362795448663725],[126.84183887005568,37.36314576677134],[126.84217903489821,37.36303708605021],[126.8430821641136,37.363005042858],[126.84344940919559,37.363164986085636],[126.84401776547534,37.363109124982394],[126.84425887626344,37.36337747173973],[126.84496081897227,37.36369793928685],[126.84574618211064,37.36389629199745],[126.8464328184768,37.36394227955171],[126.84718305665749,37.364151504699755],[126.84812025609477,37.364767902114494],[126.84827922523625,37.364777253761766],[126.8486158613403,37.364501117897476],[126.84928761293797,37.36423784716767],[126.84958775990847,37.36379062382267],[126.84964493567549,37.36311307034844],[126.85035383029721,37.36222281382483],[126.85034274548683,37.361744827293776],[126.85092499501347,37.36110618900185],[126.85120938301687,37.36115866599059],[126.85232111734062,37.36063727376528],[126.85348505926362,37.360344834624996],[126.85432588878861,37.35986184791496],[126.85589843274788,37.35954820960249],[126.85704828645872,37.36057690724032],[126.8576123429076,37.36053560099463],[126.85878340947819,37.360933493636395],[126.8593487168722,37.360870374477656],[126.85989234270644,37.360943576105626],[126.86089219147162,37.36129071313061],[126.86199219624159,37.361492682276605],[126.8637663004409,37.361469706162794],[126.86507032942231,37.36185637351415],[126.86563869081613,37.36235362613056],[126.86593151071601,37.36343088568622],[126.86616983700831,37.363432458717746],[126.86621154996885,37.363607977630295],[126.86741543521049,37.36361149299821],[126.86775037925707,37.363830107344086],[126.86800075708533,37.36437838408853],[126.86833294321175,37.3643268496195],[126.86913747213393,37.365111366409884],[126.87005749639506,37.365510150112534],[126.87072016862002,37.36624186062637],[126.8718049230385,37.366814786948865],[126.87231723137631,37.36717158406266],[126.87277922061935,37.36810853472452],[126.8734220485581,37.36858884553725],[126.87375482391127,37.36899824828884],[126.87515786860773,37.36997210964055],[126.87544375335979,37.37033948847206],[126.87558252092396,37.370758833771475],[126.87558798545007,37.371275601254624],[126.87616377930652,37.37195396849175],[126.87621092975694,37.37216646326],[126.87687550742295,37.372630976912404],[126.87953278279265,37.373730098472535],[126.88007534819569,37.37429443980858],[126.88072503827608,37.3747390299139],[126.88098081666332,37.37511129428365],[126.88070139251828,37.375641795769454],[126.88074358219433,37.375953671353706],[126.88169605406138,37.37595582092336],[126.88167577970634,37.37683449096652],[126.88128334219131,37.377496684407646],[126.88134244093501,37.37780573672687],[126.88122432979739,37.37881043085217],[126.88087625767231,37.379279443982746],[126.8808258062576,37.37981695587984],[126.88058603994315,37.380726647454026],[126.87986005956853,37.38155401839395],[126.88029186900982,37.38248015091173],[126.88027422039654,37.38265587437287],[126.8793993102505,37.38325322142621],[126.8792961849125,37.383805157173],[126.87912749593265,37.38392699862194],[126.87888626848486,37.38504198161468],[126.87864315789307,37.38543785176064],[126.87862513984207,37.38585707625393],[126.87878150537354,37.386017555661745],[126.87857624813014,37.386257249366906],[126.87827406677148,37.38640377953365],[126.87827906190752,37.38656685280313],[126.87790192009813,37.38697902268407],[126.87789682753007,37.38741188506075],[126.87814544720781,37.38769635175065],[126.87800327216763,37.388171174779565],[126.87802829318517,37.38896434760517],[126.87814671712836,37.38918871559164],[126.87729384503076,37.38961792946391],[126.8770826005028,37.390074837793655],[126.87711827971769,37.390372407313265],[126.87692042185985,37.39188194069591],[126.87698411254907,37.39225018808818],[126.8766600387647,37.393352871624714],[126.87655994714974,37.39354494122002],[126.87593956861559,37.39394763255251],[126.87590648680086,37.39479716375639],[126.87540295934052,37.395426553672216],[126.87544800230434,37.39569292333353],[126.87799693532006,37.396555640278265],[126.87765075771671,37.39712799037213],[126.87759291761012,37.39765338372881],[126.87773528731485,37.39824748932203],[126.87770684615607,37.399766829813615],[126.87726305973851,37.400108307470504],[126.8770967097627,37.4004376527262],[126.87714420171571,37.40055279666098],[126.877035309206,37.40083138378491],[126.87709889526953,37.40195761891455],[126.87637614838653,37.40168124633549],[126.87606202856499,37.401645917641474],[126.87511264380639,37.40173592604663],[126.87474408152676,37.40160960510158],[126.87388787925218,37.40183579366088],[126.87323473896322,37.40183107848565],[126.87259807302412,37.402020030184474],[126.87192116196512,37.402018219215684],[126.87137780736863,37.40213318719432],[126.87039830663286,37.402181255251996],[126.86798195268612,37.40197683202967],[126.86687780862505,37.401758191322934],[126.86575557177447,37.40172094975656],[126.86496759696655,37.40181877483552],[126.86341966198646,37.40179615522781],[126.86227235766762,37.40152449659618],[126.86172608516571,37.40151304001336],[126.86089223331153,37.40174842186536],[126.85917423734733,37.40179518530302],[126.85758726726779,37.40222297641598],[126.85737881666188,37.402296100032885],[126.85673881008715,37.40286641530604],[126.85614541999489,37.40325811644477],[126.85557197916168,37.40322176526254],[126.8550631126813,37.403477619664606],[126.85512676893349,37.40376646177849],[126.85504542913685,37.40411336859992],[126.85489634206542,37.40411847001046],[126.85463003698935,37.4043769130154],[126.85410073852128,37.40530738002121],[126.8538911518918,37.406006140102505],[126.85404270578529,37.406230059874254],[126.85400755552699,37.40629410636564],[126.85384638958422,37.40650815635164],[126.85343369331859,37.406701042245885],[126.85300758144606,37.40717709752122],[126.8531512702704,37.407850263736655],[126.8529144652306,37.4083052914084],[126.85237307656314,37.408512617413805],[126.85202798249387,37.40890288901034],[126.85132741340543,37.409109490881875],[126.85086635158414,37.40963111680031],[126.85039228442791,37.40977216892416],[126.85006399290965,37.410114430123784],[126.8500298707997,37.410293235610624],[126.84970480107617,37.41059540814622],[126.84899477009729,37.41062872149224],[126.84776821145282,37.41115048543706],[126.84758084164822,37.41130542376007],[126.84718283934393,37.41138254142535],[126.84690663521802,37.41157952350622],[126.84637756815943,37.41234350953431],[126.84619267902357,37.41392573383269],[126.84580537688075,37.41446585563524],[126.84570949724046,37.415027195798764],[126.84583611536925,37.415272310389305],[126.84555126423172,37.41564695238843],[126.84547798485298,37.41588687738795],[126.84553795360974,37.41626495660342],[126.8453619901653,37.41651584685258],[126.84600458577299,37.41787854292872],[126.84590962501406,37.4183057939408],[126.84574263170569,37.41851697694221],[126.845462528798,37.418654382429374],[126.84534333122343,37.41889751600363],[126.84512069121409,37.419068784009994],[126.84489086173035,37.41962675434408],[126.8449146407315,37.42010947245465],[126.84466313369784,37.42073528128389],[126.84483231112254,37.42140426974433],[126.84511027774822,37.42177612418801],[126.84498461696533,37.422029033681724],[126.84542470992085,37.42262165145558],[126.84540007828122,37.42288450572869],[126.84446577244225,37.42421563650899],[126.84423222084735,37.424425881927455],[126.84373026897937,37.42463306872456],[126.84360974875938,37.42500859945537],[126.84295394739073,37.42565196130791],[126.8425893428681,37.425847018835825],[126.84202351203066,37.42597295655367],[126.84182856479768,37.42614608477234],[126.84167323762115,37.4266480970221],[126.84174498468695,37.427059838604045],[126.8416615650178,37.42760033911312],[126.84175876791547,37.42797700437965],[126.84205634878623,37.42844257588365],[126.84203034397883,37.429101694427025],[126.84177115211234,37.42966015750238],[126.8418689475316,37.42993231116995],[126.84136240382232,37.430417903403274],[126.84069402481069,37.43077188440596],[126.84038088539052,37.431232288846516],[126.84018717219844,37.43172742335901],[126.84037058633665,37.432732056946286],[126.84064006650009,37.433331817334164],[126.84090586599002,37.43349279379581],[126.84136106574373,37.433517430716584],[126.84156141824876,37.433707661533106],[126.84151668001202,37.43450782452834],[126.84112395722715,37.43523956736019],[126.83978133925102,37.43658474575598],[126.83963496280789,37.43667066236732],[126.8388877191627,37.43679533465235],[126.838392596683,37.43662628125176],[126.83785260661801,37.43690996577109],[126.83767591052855,37.43780548502986],[126.83752103036373,37.43806304784807],[126.83762007524535,37.438133887415745],[126.8376741749666,37.43862191119333],[126.83799295990102,37.438798265362635],[126.83797716592554,37.43926841107637],[126.8382200453749,37.439663402391425],[126.83807040634345,37.44004105093137],[126.83735893456367,37.440409224961556],[126.83727318489908,37.44052531705461],[126.83733338944789,37.44063992181062],[126.83781560968703,37.440822654886645],[126.83790944963448,37.44105974068643],[126.83784391389983,37.441275593543416],[126.83759227905972,37.44156376517429],[126.83757682625776,37.44176221927131],[126.83773780945893,37.442016163732276],[126.83748354444307,37.44245665733176],[126.83822055489118,37.44255958076389],[126.83842194879009,37.44281923981812],[126.8384258598695,37.44291300490994],[126.83834252180277,37.442943290977944],[126.83793049555918,37.44293631639407],[126.83778734840661,37.4430228111058],[126.83776583843022,37.44333596168559],[126.83816626280407,37.44401861385175],[126.83813327257823,37.4442855902246],[126.83788833552276,37.44453415442546],[126.83806876734702,37.445035938679936],[126.83827254765852,37.445249436441344],[126.83830351657468,37.44556419140063],[126.83816929339505,37.44597154101065],[126.83850708436768,37.446581186088245],[126.83851299281395,37.44673753824648],[126.8382981098537,37.44704551229301],[126.83855941056373,37.44723042316279],[126.83866858032218,37.44748447819632],[126.83903181004968,37.44727793571615],[126.83919945301774,37.44700410650004],[126.83941424282357,37.446996354942186],[126.83951286452753,37.44718526853432],[126.83953715181057,37.447656566218214],[126.83949867170874,37.447871166627664],[126.8390031515784,37.44826570441805],[126.83895190272419,37.44888585905512],[126.83868040330819,37.44906850754445],[126.83845675910334,37.44880082507842],[126.83831061173977,37.44877466431446],[126.83816719470315,37.448959606043616],[126.83804871414627,37.449374292142515],[126.83810515712531,37.44952768419415],[126.83828011196857,37.4496270922722],[126.83889117863853,37.44964990936867],[126.83932481616682,37.44979793618402],[126.83951404082826,37.450062219399875],[126.8395037481855,37.45050092156978],[126.83915692133542,37.45072480544943],[126.83887603343359,37.45067887320067],[126.83854741135028,37.45076198741592],[126.83808087572208,37.45052886734339],[126.83773283613431,37.450896735834185],[126.83760570658004,37.451440782672876],[126.8376995071415,37.45173243266848],[126.83790610794186,37.451764589821494],[126.83832441149967,37.45157347767042],[126.83846190096645,37.45158110130205],[126.83883846135687,37.45179359821005],[126.83891870941392,37.452003744521754],[126.83891497302022,37.45213821347781],[126.83878783049849,37.45227333146013],[126.838165382825,37.452361688430216],[126.83804183327786,37.4525420378421],[126.83832676810181,37.453131030532234],[126.83826181883018,37.453390203893555],[126.83807464014639,37.45364333498169],[126.83805425712124,37.45392198017112],[126.83862095155126,37.455108098643805],[126.83857213181234,37.45545452905314],[126.83764635456093,37.45570650482638],[126.8369243057944,37.455808376007205],[126.83666348644005,37.4560140009777],[126.8367389011186,37.456170789964396],[126.8374356748774,37.45643896937049],[126.83756516805431,37.4565674645457],[126.83751545267819,37.45707243275011],[126.83775034791287,37.45734290907341],[126.8378461985398,37.45724210116431],[126.83797682136633,37.45723139837743],[126.83821528750582,37.457306041442735],[126.83828614559458,37.45746050905286],[126.8380566899997,37.4577586945658],[126.83796643540333,37.458056567082615],[126.83805010120764,37.45816355997156],[126.83833923816489,37.458123729407994],[126.83818991299269,37.4583042012439],[126.83747190258916,37.45852282039622],[126.83722844200169,37.45824964733634],[126.8368754741069,37.45806803752324],[126.83648859548987,37.458138353083974],[126.8362475029954,37.45808519997411],[126.83507798842845,37.45899118441834],[126.83487972658078,37.459506764345406],[126.83445595763092,37.45989594047263],[126.83376470143185,37.45999067534309],[126.83308026599016,37.4602952588656],[126.83269922729039,37.45998640133955],[126.832182476761,37.45901755940999],[126.83163800889096,37.45892063377783],[126.82934080728906,37.457767294353815],[126.82914721168636,37.45774156321984],[126.82914915352836,37.45857904470366],[126.82857285282437,37.459562162368044],[126.82810165283365,37.4596013431649],[126.82596417579116,37.459484216647226],[126.82551061554858,37.45907559467261],[126.82506910903281,37.45927813156441],[126.82387507898984,37.4593643069598],[126.82319424029205,37.45838133095458],[126.82275641654492,37.458508027560015],[126.82071605459642,37.45862254174401],[126.82042758601469,37.45884981148589],[126.82014157737115,37.459230559573655],[126.81968118437946,37.459501191255306],[126.81880264983177,37.45928916173192],[126.81844969126053,37.45930703213532],[126.81767404671393,37.45918028172984],[126.81689126172992,37.459563816540104],[126.81666333081398,37.45997220107531],[126.81637455925707,37.460020684115825],[126.81607361820998,37.460503210636546],[126.81576345527074,37.46067156586025],[126.81551035297677,37.461002112651535],[126.81450258096255,37.4605810145308],[126.81440873268161,37.4605091494113],[126.81445710878832,37.460466916720264],[126.81400390052823,37.46032133162819],[126.81359399337998,37.46034281744787],[126.8133443649925,37.46028068431798],[126.81320752070208,37.459937749753955],[126.81345634937992,37.459239300044835],[126.81341872222046,37.45874763423889],[126.81314036223124,37.458972442658826],[126.81260886804638,37.459218243620725],[126.81242479712277,37.45916698886987],[126.81218395641142,37.45922206896892],[126.81183627311736,37.45886429945091],[126.81176264420732,37.459388700413115],[126.81151262295023,37.459922305904115],[126.81123999987862,37.460092555284426],[126.81111153847027,37.46035701685023],[126.81088101991668,37.460424420984765],[126.81061142546524,37.46066593870465],[126.81056099978429,37.460801100226206],[126.81014600814022,37.46091803310181],[126.80996758265267,37.4612315022096],[126.80944352927825,37.46136544333264],[126.80896296992623,37.461734731574744],[126.80891636182277,37.46217243474071],[126.80784219464066,37.462095905204336],[126.80743861689089,37.46199510360811],[126.80657467167624,37.462156647135636],[126.80610771948403,37.462038393824095],[126.80573510211131,37.462029073684924],[126.80541980648633,37.461719137662925],[126.8047463828288,37.46173585814462],[126.80407886961913,37.46154136081021],[126.80383094293602,37.46158248227646],[126.80312686820405,37.461769008508625],[126.80266802044657,37.46223343607939],[126.80238313316814,37.46269880059932],[126.8014471887844,37.46300160687187],[126.80092230064076,37.46297135489967],[126.80104865200897,37.463803491126974],[126.7996686587654,37.46422275717098],[126.79883829190443,37.46458399013435],[126.79810288995678,37.46444053799173],[126.79734684922944,37.464031531333625],[126.79647189617987,37.464026916638346],[126.79625114315981,37.46434385681071],[126.794753503405,37.465730196155576],[126.79423836039274,37.46577547000335],[126.7924390493161,37.465296464289935],[126.79145645607727,37.46531780461245],[126.78921756223534,37.46565280559159],[126.78872577190036,37.465996276219244],[126.78787464150128,37.46685998075802],[126.7878276950814,37.46935093189871],[126.7870808759944,37.46964945239836],[126.78630242207025,37.469675191711005],[126.7856844830423,37.47003369157871],[126.78512402054199,37.47014973310812],[126.78434452406587,37.471263248885315],[126.78425834651624,37.47154339186896],[126.78431152628144,37.472394089609146]]]]}}
