{"type":"Feature","bbox":[127.10874790439708,37.083633078903055,127.42783036308676,37.3604426154504],"properties":{"regionCode":"41461","version":"vworld-20260909-3f8952dfda77-p2","name":"경기도 용인시 처인구","attribution":"국토교통부/K-Geo플랫폼 · VWorld 법정구역정보, CC BY 2.0 KR; 두꺼비집 가공"},"geometry":{"type":"Polygon","coordinates":[[[127.23872993617351,37.36013235514272],[127.2379401649155,37.3604426154504],[127.23775651235385,37.3599034701263],[127.23738152610392,37.359389421665185],[127.2361889821644,37.359056752679],[127.2357458709319,37.35877604378933],[127.23534070859664,37.35835273418858],[127.23517475194298,37.358026291858955],[127.2344242234996,37.35784763109992],[127.2337522837503,37.35790383992627],[127.23367744946546,37.35800336112664],[127.23314355656738,37.358137272001784],[127.23263903536795,37.35809596698685],[127.23226423497232,37.35824767157662],[127.23173501629392,37.35816232278529],[127.23108090847205,37.35836738465669],[127.23095567595493,37.35830923272589],[127.23039196191026,37.35851338763721],[127.23035861358188,37.358834783593196],[127.2300184209276,37.35920191174315],[127.2289492309911,37.35915739169372],[127.2282968805456,37.358654331692954],[127.22821380729114,37.35825754019295],[127.22769543783316,37.357824708679466],[127.2275009847995,37.357439608948155],[127.22638571847291,37.356792204735214],[127.22604208985385,37.35678960482045],[127.22582022253138,37.35665587315647],[127.2255988028948,37.3563379637419],[127.2252919857199,37.35608807069345],[127.22509009462831,37.35546517303118],[127.22482149968138,37.355211798067955],[127.22452240732088,37.3552440511847],[127.22361396538471,37.35494917455326],[127.2226525412069,37.35445852989497],[127.2217199095104,37.354496997499616],[127.2206369346658,37.354388414826815],[127.21951107660986,37.35449254502645],[127.21921098274063,37.355341904945455],[127.2185070651562,37.35574272598283],[127.21789837854678,37.35548282338945],[127.21745774284393,37.355514715588626],[127.21656255956317,37.35494528863785],[127.21661836192597,37.35468722574084],[127.2169930411584,37.354464948578666],[127.21735662513535,37.35297365609102],[127.21792718706592,37.35218876935505],[127.21858880443013,37.35175597963442],[127.21997369498702,37.35056567879002],[127.22048968935009,37.350356571337436],[127.22065408880154,37.34990716047618],[127.22153422048159,37.34944005287761],[127.22203986766053,37.34877326748398],[127.22255443540791,37.34794544812681],[127.22268987824799,37.3473791285027],[127.22227483584207,37.3465069676993],[127.22235115981123,37.34636749130982],[127.2222055744706,37.34612555969991],[127.22170114777731,37.34673243739852],[127.22054281099031,37.347371265513495],[127.21994047037512,37.3470602308271],[127.21907506066563,37.34613355033093],[127.21935379856465,37.34599762288356],[127.21874523277681,37.34548614020902],[127.21881784765928,37.345475671043246],[127.21871512153685,37.34503945278075],[127.21888471082698,37.34475361668359],[127.21883984233219,37.3444651561865],[127.21853190786004,37.34413966842968],[127.21783005630436,37.342633490303676],[127.21726171309406,37.34210137639696],[127.21719930232638,37.34099554869528],[127.21681983429849,37.340825695651326],[127.21618927866633,37.340302284578996],[127.21608902750921,37.33991502582592],[127.215830547307,37.339771935443885],[127.21568780577836,37.33929061714688],[127.21585954632774,37.33901646686006],[127.21521500509131,37.33881051290651],[127.21482094143173,37.33902120967181],[127.21453442989053,37.33865529779026],[127.21447342122926,37.33842256532951],[127.21407620513683,37.33804193763256],[127.21333715488343,37.337618811442475],[127.2127565697705,37.337385375072905],[127.21178245671317,37.337366431323545],[127.21166822470174,37.33680314571484],[127.21146484732475,37.33666164207998],[127.2114306042881,37.33637934641077],[127.21153979847777,37.33602588254103],[127.21121768941177,37.33565576175609],[127.21109277989943,37.334378740485896],[127.21063227255753,37.33428206426772],[127.20996938598901,37.333808268388616],[127.20940763858853,37.333603426698616],[127.20846788736885,37.33267023776347],[127.2085570295657,37.33223466996675],[127.20879476596305,37.331878078042266],[127.20872772955772,37.33136416259684],[127.20805250505632,37.33058678615707],[127.20763241068234,37.330602604827746],[127.2061651611539,37.33038220040929],[127.20547538896466,37.32983704672407],[127.20500621759793,37.32966486630527],[127.20412376730084,37.32911611076515],[127.20347093663214,37.32918906285674],[127.20237911241817,37.328737988403056],[127.20187913223087,37.328388254291056],[127.2018381355622,37.32825910804711],[127.20065735864488,37.32863383777288],[127.20046973696955,37.328635484828176],[127.20021097167553,37.32887166597898],[127.19953496006731,37.32991089379099],[127.19961137076747,37.33070570393714],[127.19955812976761,37.33108667250831],[127.19901789980203,37.33199579081338],[127.19786381320226,37.3326561688696],[127.19728343017793,37.33360634103311],[127.19735735192589,37.33435019383983],[127.19716659971388,37.33466919212684],[127.19705590956517,37.33577748860682],[127.19667897163612,37.336191653654666],[127.1968063267475,37.336152573193765],[127.19721871735108,37.33690834368052],[127.19753332597868,37.33731669125346],[127.19769686335356,37.337322221902284],[127.1977669576126,37.338543628618076],[127.19786811271914,37.33884277101436],[127.19820922832527,37.33935027574151],[127.19808476378424,37.34068592304982],[127.19814967617103,37.341210586325936],[127.1975856618824,37.3420693761218],[127.19727171099623,37.342713957553],[127.1961687538547,37.343804442513246],[127.19603238705253,37.34433991998738],[127.19539876369456,37.34481865564185],[127.19284222526417,37.34626353975747],[127.19182518984397,37.34724357202714],[127.19079033800749,37.347013942220244],[127.19040209239635,37.346725440370946],[127.18999434179271,37.3466556508559],[127.18864239832746,37.345999402733476],[127.18771647499172,37.34578496144321],[127.1867868715435,37.3453944479201],[127.18652308317432,37.345320996504825],[127.18590043942811,37.34552230842729],[127.1855602258895,37.345482401649214],[127.18501867675201,37.344978643439084],[127.1843485340239,37.34481315463794],[127.18377272000103,37.34480668087797],[127.1825390894366,37.344282153636286],[127.18206124216574,37.34399049224441],[127.1812412872862,37.343701197697484],[127.17994536770162,37.34361190487759],[127.1788375337807,37.34319089348122],[127.17867092416806,37.34317536266857],[127.17851159372671,37.343389847466646],[127.1780124944185,37.34368594777018],[127.17727973658434,37.34448047052385],[127.1767935837349,37.34423978913788],[127.17554793374836,37.34444724983638],[127.17471793642005,37.344365996536546],[127.17439056915914,37.344524686460126],[127.17428430883373,37.34437370374871],[127.17392536627617,37.344601970004625],[127.1732006914335,37.34451299560454],[127.17286991763804,37.344599306787075],[127.17220957156192,37.34450174991569],[127.17165872968725,37.344172321400514],[127.17099093370445,37.344126361263434],[127.17082523272919,37.344198204142394],[127.1702105100087,37.344125713433115],[127.16946793002218,37.343878402620255],[127.16931632069,37.34371586637101],[127.16867192348722,37.34337325274085],[127.16814146703288,37.34336826134358],[127.16786653473268,37.343174632736236],[127.16740035067959,37.34314865388492],[127.16693989629131,37.34338935733311],[127.16601542234054,37.34357913939944],[127.1657650536772,37.34340767005392],[127.16541802358864,37.34338857484827],[127.16464388443815,37.34355101577043],[127.16377575857032,37.34343622994912],[127.16344593829922,37.343463884109354],[127.16320217257261,37.343368501545385],[127.16210701943695,37.34339962058074],[127.1619106281694,37.34331779410331],[127.16176812359004,37.343034659696904],[127.16149400771329,37.342774745097806],[127.1595164023104,37.341997946504286],[127.1588353360096,37.34116589389265],[127.15827335175388,37.34095334205508],[127.15632255624891,37.34074039385238],[127.15498016581525,37.34015182921086],[127.15429462521617,37.340342986150745],[127.15384288804762,37.340139161539724],[127.15291875515585,37.33991198348099],[127.15200340084516,37.33999235374009],[127.1517447142035,37.34013696097705],[127.15126746138333,37.3397990170322],[127.15050786396661,37.339447657669844],[127.14961400652587,37.33882450633995],[127.1491283271205,37.33862928501154],[127.14891332431964,37.33811713177087],[127.14798867779372,37.33762148426191],[127.14842962666637,37.33746370781088],[127.1480588989115,37.337266070768514],[127.14742398194791,37.33708060209181],[127.14706898964003,37.33681231124735],[127.14629821259521,37.33675519250899],[127.14599398674461,37.33666574477101],[127.14612615547394,37.337116534411585],[127.14545243377849,37.3369223019997],[127.14474397216695,37.33715055509128],[127.14435295245052,37.336761145746706],[127.14404669215146,37.33668251254853],[127.14333150916644,37.33673987546241],[127.14226777308818,37.336615443567105],[127.14220315091805,37.336146382699106],[127.14200839216169,37.33577430310794],[127.14173613919489,37.33550806828522],[127.14166453236777,37.33517447610384],[127.1419445396916,37.33463722541333],[127.14238315336222,37.33449427864122],[127.1417689237746,37.33274248140189],[127.14172870215779,37.332392409416165],[127.1418289756655,37.3319772616537],[127.14222547180313,37.331608585844975],[127.14241826256438,37.33110588691632],[127.14211183293972,37.33085118550396],[127.14212826642003,37.330342311621],[127.14193965552231,37.33011602894913],[127.14182554937848,37.329467626186776],[127.14178321609671,37.32786598637658],[127.1418150183326,37.32720861541778],[127.1424090906386,37.326274150021405],[127.14244665957807,37.325722409131345],[127.14128934630875,37.32501484603876],[127.14087424322,37.32426023052177],[127.14029047559036,37.32413667607857],[127.1390747169438,37.32478303114177],[127.13864023822988,37.32493286252717],[127.13786048320243,37.32427467058625],[127.13756611719127,37.32418307157023],[127.13677473318698,37.32301369885873],[127.13672828330488,37.322780160538336],[127.13753011590767,37.32164936437492],[127.13742394667945,37.32139570459273],[127.13762478962272,37.321007805774336],[127.13709338816918,37.32043120985096],[127.13711686844924,37.3199049227777],[127.13725473611326,37.3196747691898],[127.13747363375933,37.319479464441784],[127.13769256973379,37.319473911793004],[127.1382733900834,37.319275693843935],[127.13899405987534,37.31924784504294],[127.13983254668557,37.31879565180279],[127.14006265561002,37.31876322589564],[127.14041075724317,37.31846590262105],[127.14102674000846,37.31821865760551],[127.14098569742346,37.31785881728792],[127.14143097512685,37.31741896051423],[127.14202324845866,37.31719916504051],[127.1423182714075,37.31725424511706],[127.14268527789876,37.31703062475469],[127.14309158004194,37.31600970165075],[127.14268114350085,37.315212243463485],[127.14260532065984,37.31483108066068],[127.14308441983503,37.31286562149926],[127.14356889423757,37.312247496425854],[127.14391877710239,37.31211063154935],[127.14425701267106,37.31213800367433],[127.14472751798858,37.3119720955781],[127.14523728907491,37.31149686125707],[127.14573081322327,37.31081795904598],[127.14582683596953,37.3103121136088],[127.14606045206548,37.31009985530079],[127.14609159013472,37.309907093996046],[127.14658533167085,37.30944451533083],[127.14672577813202,37.30939576017759],[127.1467978690852,37.309253624052914],[127.14738761593749,37.30911022267862],[127.14784717620059,37.30846720264715],[127.14777634877552,37.30798343863701],[127.14756933320326,37.307678237636054],[127.14777204929196,37.30721995894769],[127.14818765857072,37.30678990814728],[127.14844364299967,37.30596684279399],[127.15059323153154,37.30618780043236],[127.15113177185911,37.3059762343728],[127.15156148948762,37.30600699388203],[127.15204390709994,37.30617937843734],[127.15297641151002,37.30599149552923],[127.15316061372612,37.30611149067432],[127.15342817265666,37.30595589203242],[127.15376454840549,37.305889954575534],[127.15431192622928,37.305151992337336],[127.15461692953826,37.30499681943076],[127.15515562804309,37.304429492007934],[127.15566248482213,37.30452945031539],[127.15581605101292,37.30464384381011],[127.1566553543239,37.304683356893314],[127.15688674551194,37.3048158899257],[127.15753217234918,37.304750538064425],[127.15823317430716,37.30436982885569],[127.15877198529384,37.3046464308428],[127.15922893408113,37.30445308549491],[127.16025291202129,37.30442094461268],[127.16053319517371,37.3041695699729],[127.16130424413538,37.3042637157284],[127.16175454847891,37.304121914748336],[127.16218378851443,37.30430247728249],[127.16332488666752,37.30424816784527],[127.16367072726801,37.30394401992227],[127.16402780480757,37.30385222136637],[127.16429771497286,37.30334590440827],[127.16530043793085,37.3030964401207],[127.1657584089156,37.30314710097466],[127.16601175898381,37.30288074708484],[127.16644422181757,37.3026343180872],[127.16701425609602,37.30238372170351],[127.16761859897862,37.30227805832059],[127.16796262884368,37.301378296339784],[127.16810712096779,37.300737685896095],[127.16805130957202,37.29941668641459],[127.16858177868525,37.29968425621938],[127.16883844406776,37.29953952134311],[127.16924346834834,37.29950042926078],[127.16984381253663,37.29967579946673],[127.17002580895833,37.299287278288396],[127.17008337094374,37.298411233892054],[127.17047358434681,37.297859671199674],[127.17085801524826,37.29708072353662],[127.17138325631352,37.29667704080383],[127.17144984993281,37.29580236888175],[127.17172890131395,37.295274533311854],[127.17146924837856,37.294855160421136],[127.17169632612516,37.294626459630685],[127.17130053553598,37.2937237939154],[127.17034160067323,37.293059572093995],[127.17028239738123,37.29186522638962],[127.17079586039499,37.29146411986351],[127.1716224978688,37.29123936203317],[127.17171235061888,37.29065101499811],[127.17255858369528,37.290480084837725],[127.17447287769096,37.28957620018025],[127.17495655780517,37.28874958188068],[127.17523357640889,37.2877662513422],[127.17508305136644,37.28711856073253],[127.17456347212483,37.28617526533538],[127.17455758388445,37.28565748758255],[127.17491932225417,37.28525101654114],[127.17548245439131,37.28487348701827],[127.17589579537776,37.28470209776535],[127.17634394775651,37.2838284914393],[127.17634223613888,37.283542750580686],[127.17680730310173,37.2832434787509],[127.17712846547536,37.282273457927964],[127.17682076936167,37.281386946963494],[127.17638445627414,37.28120321501141],[127.17548039496575,37.280074942893755],[127.17571291659318,37.279194598472905],[127.17571937894573,37.278411852390825],[127.17548776505718,37.27761832210263],[127.1748381557186,37.277094675865634],[127.17463453773682,37.276368329655405],[127.17432353827172,37.27585345645357],[127.1742194933074,37.27521792952661],[127.17329169031794,37.27480849006693],[127.17302347747327,37.27437574414267],[127.17295757701261,37.27379023980492],[127.17258043647195,37.27272688070252],[127.17255399920799,37.27211918995851],[127.17242673090529,37.271690673129235],[127.17238458875066,37.26984576943484],[127.17217931816981,37.269441755337965],[127.17161863104847,37.2692884492974],[127.17197137922075,37.26794724191558],[127.1718179972994,37.2676679801242],[127.17184316916769,37.26739630718312],[127.17213957392039,37.26723162266319],[127.17224001334021,37.26655772153113],[127.17256865544131,37.26596350242887],[127.17255474677302,37.26564577147119],[127.17267947310505,37.26532400520654],[127.17225187430914,37.26509973511295],[127.17295204564134,37.2646417254712],[127.17290391847054,37.264407816566475],[127.17302246520075,37.26397287659937],[127.17287716599756,37.26366122943048],[127.17282658352924,37.263129280555084],[127.17367747829944,37.26248777761121],[127.17363332187716,37.261467771492256],[127.1733369886331,37.26137435172218],[127.17364189928811,37.26071457692099],[127.1735354784051,37.26045962199786],[127.17448517789899,37.26003012220776],[127.1749569975416,37.25944212674347],[127.1754015921023,37.25862602041297],[127.17489688676866,37.25815169829641],[127.17318743557725,37.257343953158134],[127.17240500945945,37.257068394549535],[127.1718698324338,37.257061039083915],[127.17113799077,37.256387132246836],[127.17065471895197,37.2555727550732],[127.17045202560925,37.25544330531805],[127.17015814513819,37.25505303711895],[127.16865321314908,37.25483405501504],[127.16698335057143,37.25490518517999],[127.1667104048233,37.25477525017591],[127.16639012568311,37.25478841004571],[127.16602628318788,37.2543160350467],[127.16573394700306,37.2541617683875],[127.16457210427231,37.25425987579773],[127.16332255693791,37.25472468598469],[127.16142771811548,37.25439918318958],[127.16106702254822,37.25427027143883],[127.15942990748495,37.25413016738746],[127.15930070958451,37.25402851260143],[127.15902667237111,37.25331719341227],[127.15896310560763,37.25172741096226],[127.15863729291202,37.25084017742025],[127.15867761574891,37.25071827829556],[127.15880352472502,37.25067164395472],[127.15875576654125,37.250085477021415],[127.15882689053637,37.24954984078989],[127.15801580852984,37.248995209269914],[127.1579078958876,37.24874900085212],[127.15809773785695,37.247809914542955],[127.15752994603531,37.247544073144084],[127.15693075038384,37.2469217673709],[127.15632037016846,37.24671612211964],[127.15626833502165,37.246629492473716],[127.15637458905613,37.24639385914371],[127.15618611359825,37.24611047583892],[127.15605945418137,37.24609530520774],[127.15559478220123,37.2456251917996],[127.15487062543427,37.245496834954025],[127.15422949679076,37.24481337730537],[127.1541668219086,37.24458997668384],[127.15366161566287,37.24397767637881],[127.15145522719807,37.243393294456276],[127.15093735876069,37.24299734644479],[127.15052753234616,37.242960614348476],[127.15015106348712,37.24266547909338],[127.1499696570398,37.242298494470454],[127.14958784869101,37.24195480475345],[127.14917550196087,37.240797378537664],[127.14969981381067,37.23968517483088],[127.15024482589948,37.23799942516637],[127.1501640168468,37.23755452116693],[127.15040847722932,37.23627088447433],[127.15060225942504,37.23607993538466],[127.1511027882301,37.23596632270596],[127.15145710778461,37.235734102007676],[127.15164915393741,37.23580515494602],[127.15153380815114,37.23530300118389],[127.15163354613739,37.234998413207386],[127.15249915066045,37.23408224394912],[127.15310172337757,37.233168364574475],[127.15365561727327,37.23286215390283],[127.15405545584642,37.232810695939314],[127.15410110334018,37.23252459503677],[127.15464997866587,37.23233207160255],[127.15475884403027,37.23169687993512],[127.15574394514537,37.23034357357125],[127.15559598019964,37.22979006742469],[127.15613030075734,37.22846933117529],[127.15614803967374,37.228189507620726],[127.1559632822099,37.22800518744917],[127.15621477108718,37.22762822229557],[127.15571344261815,37.22667489966227],[127.15440080722934,37.225937524833995],[127.1542902776342,37.2257008577024],[127.15377821358346,37.22557275609838],[127.15343886554878,37.22536625969119],[127.15331280285095,37.22500606101536],[127.1534851772114,37.223917418470776],[127.15334364595172,37.22349069410718],[127.15304477691794,37.22331030067851],[127.1524576591009,37.22336834064229],[127.15163931548759,37.2230328603608],[127.15078216011439,37.222924702372026],[127.15020892857532,37.2223590651314],[127.14979457561401,37.221726044428685],[127.15084840764838,37.220354839748985],[127.15078329656367,37.2200074013934],[127.15103422648467,37.219255812149356],[127.15138653080439,37.218932084172174],[127.15191956918801,37.218618414245555],[127.15182495197898,37.21817022971923],[127.1513193493065,37.21760626913434],[127.15111814704689,37.21622375009327],[127.15134572513784,37.215561196638774],[127.15127514231273,37.21500250406226],[127.15134516998674,37.21428333704894],[127.152473021228,37.21347673469182],[127.15250036515764,37.21317213789328],[127.15314200690275,37.212632540315674],[127.15316885619663,37.21217853559794],[127.15394341378845,37.21123347349409],[127.15386224195862,37.21108114113406],[127.15388047891203,37.21072074635256],[127.15410641666834,37.21011524293207],[127.15457987355667,37.20991660780341],[127.15503068487777,37.20995651795795],[127.15552126124173,37.20960184494697],[127.15653919818469,37.20872967733646],[127.1566293505025,37.20838703633806],[127.157310946815,37.20740371737344],[127.15687900884548,37.2068314355883],[127.15635819085242,37.206746538503154],[127.15558720135039,37.20626263882933],[127.15554518001207,37.20558444211523],[127.15515793230784,37.20486333352272],[127.15535825268621,37.20440812977266],[127.15521965217252,37.20370208127052],[127.15471979013681,37.2031789961684],[127.1542009086718,37.202375033374445],[127.15326471716749,37.20205765604334],[127.15311573968931,37.2016876436369],[127.15251175523241,37.20104372864499],[127.15257124186611,37.20075693902589],[127.15248534459336,37.20039044054006],[127.1521438374241,37.200059391334314],[127.15196154996279,37.19957442665359],[127.15195827008404,37.19920495959475],[127.15212509450834,37.198885380291955],[127.15266971417813,37.19837367679766],[127.1528056875539,37.19781309834425],[127.15302752174077,37.19753024992376],[127.1537828797284,37.19777733821453],[127.15473922496263,37.19768589236996],[127.15541549159592,37.19794097499934],[127.1554350300727,37.197550122548826],[127.15556157210371,37.19733739125587],[127.15559175662594,37.19705944316432],[127.1568032139267,37.19570051211824],[127.1575218589311,37.19507621359118],[127.1579628851884,37.19483868553965],[127.15913892994722,37.193770352867794],[127.1597253841719,37.193662815866276],[127.16061843435472,37.192779224598894],[127.16105051835147,37.19263771257337],[127.161420627022,37.19188924713706],[127.16150092847275,37.19126442662432],[127.161305979277,37.190471436681364],[127.16082105723548,37.19037419893377],[127.16055384194514,37.18980400591999],[127.1606551972682,37.18873849271365],[127.16026347162578,37.18738245890914],[127.16047490505406,37.187086145901944],[127.16022428619117,37.18658301205699],[127.16025621036053,37.18614552120075],[127.15923630595823,37.18463246665398],[127.15855192651553,37.18381317301135],[127.15874626085292,37.18347842795498],[127.15950981955935,37.18286005023357],[127.1597729026305,37.18246360829504],[127.16059404691312,37.18062130141253],[127.16075871958778,37.179903667365195],[127.15993521106229,37.179673741875845],[127.15918023034469,37.177999025489434],[127.1583654752551,37.17761806291425],[127.15800148991981,37.17710064290001],[127.15655090535728,37.17658297617499],[127.1556525752806,37.17686928402455],[127.15472714281901,37.17630175390925],[127.15402847729729,37.17601073247354],[127.15395525918616,37.175565763936724],[127.15342924828491,37.1744884907874],[127.15317556250052,37.173685304416146],[127.15303633627201,37.173478691624375],[127.15260285457495,37.17319399058547],[127.15223440596056,37.17278590604725],[127.15211864007875,37.17235294790101],[127.15211197162229,37.171755380352806],[127.15167701243337,37.171815330127636],[127.15103453491356,37.1717558792606],[127.15024852858454,37.171056132055895],[127.14902998783958,37.17069800198798],[127.14900185729903,37.170169409763325],[127.14865257148509,37.16996952307863],[127.14771831243404,37.16990965210394],[127.14725018909341,37.17019832863454],[127.14703107800621,37.17024992204678],[127.14666396336631,37.17006802809151],[127.14575527893192,37.16988140359528],[127.14513044562506,37.17000081189982],[127.14475152240021,37.170378269719784],[127.14440102324312,37.17032461202729],[127.14391780526563,37.17040663897357],[127.14350858608151,37.170122949259344],[127.14150238853263,37.16956150615823],[127.14100303391137,37.1693114678305],[127.14046044251812,37.1692623742764],[127.1401127098295,37.16958264517312],[127.13951850363824,37.16959655970922],[127.13921198531084,37.16946446959098],[127.13881110222334,37.169487847926064],[127.1383136887444,37.16937772862564],[127.13761343103195,37.1694398617431],[127.13699629842637,37.169198366699305],[127.13664323948188,37.169231361640925],[127.13598414652823,37.16902611185565],[127.13497157429133,37.16936771874792],[127.13377112471096,37.1694036643419],[127.13333753889974,37.169158917026714],[127.13270856759125,37.168267720654725],[127.13286305448436,37.16788221642461],[127.13350416445836,37.16711270186729],[127.13368042046744,37.16656692955271],[127.13415041122448,37.1662165006167],[127.13408570937654,37.16596042224833],[127.13422747915479,37.165159166859354],[127.13415406360913,37.165019208631854],[127.1338538412885,37.164757726238804],[127.13349366732248,37.16461815044869],[127.13332030599602,37.16446794898128],[127.13299728274907,37.16442339999409],[127.13279512812703,37.16421134557453],[127.13265980307882,37.163783146249585],[127.13188927498129,37.16406327435855],[127.13167098314595,37.16358593073621],[127.1316484439529,37.162837300261934],[127.13127867169496,37.162574527818705],[127.1299991314577,37.16216150199545],[127.12891573304383,37.16211630339321],[127.12878387488172,37.16157213819144],[127.12815633018772,37.16101917839706],[127.12811966350739,37.16021628447128],[127.12791526679109,37.15978058294245],[127.128645940857,37.159488428025576],[127.12878089487813,37.15931770664735],[127.12886606406965,37.1586875535757],[127.12903023294348,37.15830431413699],[127.12962865963102,37.15826929455333],[127.13013724289503,37.15767970865337],[127.1301115521855,37.15726717214264],[127.12949016047287,37.15660258012709],[127.12899662751337,37.15567409231733],[127.12924691673024,37.15524188668313],[127.12923308186868,37.15481422692869],[127.12936715165057,37.15449158661194],[127.12919324896545,37.15415513241281],[127.12930877775807,37.15339716993655],[127.12963537970465,37.15287109787939],[127.1302439100398,37.152606620899356],[127.13047166321424,37.15189216325119],[127.13047481214672,37.15130058357811],[127.12990224250052,37.15106319245764],[127.12956080988796,37.15058600389176],[127.12952722763997,37.14866013208149],[127.12792839043269,37.14753802157186],[127.12778894377242,37.14723143425695],[127.12799489392096,37.14678967156534],[127.12838371763802,37.14648889727024],[127.12772209450803,37.14552451309951],[127.12702417140332,37.14585671711495],[127.12560734162896,37.1453878680276],[127.12471335793524,37.14543051907335],[127.1238494353852,37.144966966118744],[127.12327738968429,37.144824124694324],[127.12294604532967,37.14450174349753],[127.12339626824391,37.1436773861208],[127.12245265074739,37.14303857872541],[127.12205638829053,37.1424708129706],[127.12110289609977,37.14170583084185],[127.12075421337502,37.14040426078772],[127.1207654625937,37.140056730519426],[127.12062555581822,37.13984514049194],[127.12062474187736,37.13944082924199],[127.12156373155035,37.139019272678695],[127.1216015029389,37.137986047250315],[127.12146659404665,37.137874426777294],[127.12162088410614,37.13752449908084],[127.12177944429621,37.13739219037791],[127.1219935619405,37.136473987172344],[127.1219185282688,37.13610537126331],[127.12149290672411,37.135485065877404],[127.12046290732965,37.13445896711777],[127.12058797615465,37.134359362474314],[127.12069549626645,37.13334501910769],[127.12083636468012,37.133166603339845],[127.12069484292068,37.13280014451695],[127.12082732132774,37.13193742151047],[127.12053646496297,37.13114698428967],[127.12006276751718,37.130666628592834],[127.12014065642269,37.13043865547443],[127.12043016724888,37.13025151642787],[127.12066432913335,37.12995483235315],[127.12068986322494,37.12964565564133],[127.1202872632962,37.12923884593036],[127.12018607967448,37.128948048892006],[127.1187037722598,37.12892925989441],[127.11848516535808,37.128644904696486],[127.11824094232058,37.12852000585177],[127.11800151591565,37.128768725424464],[127.11692829572752,37.129239620806516],[127.11642496708735,37.12986010852028],[127.11599683527164,37.12967213982205],[127.11562469354942,37.12966500965741],[127.11528279940043,37.1297029301888],[127.11492637084557,37.12985726207336],[127.11434044292808,37.12931036746417],[127.11271967009327,37.12807029911122],[127.11276294632076,37.12719991147713],[127.11249378255071,37.12631384848131],[127.1115378229482,37.12607849114585],[127.11014154354186,37.12622951764353],[127.10908821103003,37.12602774969182],[127.10905205362796,37.12563693964949],[127.10901588711691,37.12557362916631],[127.10892729032865,37.12559520714512],[127.10880333281486,37.12532824884017],[127.10874790439708,37.12386184787062],[127.10918681846913,37.12320570543566],[127.10934345617052,37.122573130229],[127.10927058469824,37.12194507005452],[127.1094269471855,37.12149336335792],[127.10960149097228,37.12124527828249],[127.10976220745283,37.12124555500587],[127.10984533621756,37.12115747333592],[127.10965464150173,37.12114742039447],[127.10971560154002,37.12102594036871],[127.10935530718469,37.12038471391439],[127.10965824573101,37.119742111197226],[127.10979692841397,37.119111019108395],[127.10979091113236,37.11872492149247],[127.10939661066706,37.11839999918714],[127.10939043324899,37.118011730364735],[127.10966057631728,37.117330663914665],[127.11116814374552,37.115595978967086],[127.1122522746855,37.11404133336237],[127.11301879806308,37.112592425173005],[127.11581374874554,37.10634853914947],[127.11617253478356,37.106548263456176],[127.11619756311406,37.10649422945295],[127.11583722099515,37.1062982455843],[127.11978948322921,37.097654943793934],[127.1204954655482,37.095887180470235],[127.12111562089551,37.09476178977342],[127.12305914615169,37.090430667025046],[127.12323680143217,37.09033423835784],[127.12375081639561,37.0903179860024],[127.12355338309678,37.09061405409787],[127.12348633298583,37.09123682422223],[127.12384466249162,37.09092991779781],[127.1243559535994,37.0910103679489],[127.12445792147865,37.0909056299505],[127.1244663805548,37.09104299766598],[127.12494010715673,37.0908071970137],[127.12636614285992,37.09067025602442],[127.12685849003562,37.090720059406905],[127.12745882719098,37.09089149563221],[127.12781762527035,37.09111103721692],[127.12804790979781,37.091462251328124],[127.12889002917822,37.09173209865014],[127.12938354214425,37.09179612869046],[127.13017852544748,37.09115291155517],[127.1305525784767,37.091235926725325],[127.13102927512793,37.09110338710981],[127.1313659799057,37.09109628534183],[127.13215452383511,37.091368331741286],[127.13251111283647,37.09160588077119],[127.13291477891725,37.091741911868716],[127.13340493456677,37.09212988653488],[127.13484431506402,37.09209599877962],[127.13522271070596,37.09181499958655],[127.13541582068683,37.091834775725935],[127.13576677857336,37.09166918086532],[127.1359324576813,37.09083685489753],[127.1360391300688,37.0906438178318],[127.13691609549824,37.08980496337605],[127.1368769674731,37.089534632616996],[127.13718365604511,37.08906002483535],[127.13889731692738,37.088719387523966],[127.13967415579025,37.08842453263441],[127.14002549351896,37.08845407558723],[127.1408978112389,37.08785349578251],[127.14236669381785,37.0876940553894],[127.14251102855025,37.08771407851446],[127.14273306209432,37.08818618372758],[127.14292715870572,37.08831550976254],[127.14305537721935,37.08857168401167],[127.14308203720621,37.08916830002312],[127.14409255359303,37.08982966533615],[127.14411738411337,37.09019127416774],[127.14464421250418,37.09064448561818],[127.1449029977981,37.09102684272691],[127.145443284912,37.090982135072466],[127.14595002802498,37.090753632550886],[127.14662677949896,37.09069217271822],[127.14660447237736,37.09064237466001],[127.14775490332863,37.0908642935563],[127.14815156876217,37.091049587024095],[127.1488422286384,37.09117111793639],[127.14928378345974,37.09110260926707],[127.14961733496888,37.09089043537992],[127.15038883033253,37.09072586761033],[127.15081360047698,37.09072680358119],[127.15257214009291,37.09104322134088],[127.15306892087654,37.091262748303066],[127.15376774524637,37.091271244808254],[127.15413584625843,37.091404566917745],[127.15444051364365,37.09127134112617],[127.15463296164543,37.0908253450056],[127.15484443622287,37.09059244662282],[127.15543035005412,37.090257774797344],[127.15581797831544,37.090175662852786],[127.15645208695116,37.09023281290543],[127.15780209877136,37.09008954942267],[127.15812151606717,37.08989398709256],[127.15851664754751,37.08981627788064],[127.15888243061045,37.089648628900534],[127.15954871763013,37.08921541666559],[127.16004069129,37.08914009867327],[127.1604030099194,37.08920523707103],[127.1607587084642,37.08945819437012],[127.16102168581644,37.08954065149754],[127.1616700496086,37.08941048926466],[127.16188172995294,37.089163534605916],[127.16197426287228,37.08888577184422],[127.16269755612096,37.08830659226569],[127.16277935154949,37.087975298697586],[127.16328882720691,37.087463844278815],[127.16353336008268,37.08738307648038],[127.16415237710397,37.08744716463471],[127.16447762421355,37.087395676372225],[127.1657522155788,37.08647134807828],[127.1661063135272,37.08629261928475],[127.16633783342733,37.08628614059374],[127.16655729358645,37.08640248284245],[127.16671635602347,37.08660604817967],[127.166913976043,37.08664057810185],[127.16732859376356,37.08642862681224],[127.16802290999895,37.086411029468],[127.16859063815092,37.08621143711207],[127.16884920322241,37.08620831027895],[127.16919576727773,37.086394204939495],[127.16987513206003,37.08650310619679],[127.1702313336962,37.08621318907448],[127.17079929007308,37.085987769923655],[127.17143832123134,37.08594959081994],[127.17190467721899,37.08602801689722],[127.17253916004995,37.08590671683146],[127.17289282978966,37.085983052023956],[127.1730425893497,37.08586764077824],[127.17377173501896,37.08604412867877],[127.17378866537962,37.0864308598808],[127.17395872939673,37.086576520184785],[127.17475908321701,37.08694563412211],[127.17519295098025,37.08692712702166],[127.17542569978555,37.08736894001089],[127.17565745391317,37.0874770870917],[127.17614881929586,37.08751988645385],[127.17634371638005,37.087717407053205],[127.1766749640619,37.087655544320924],[127.17717293257506,37.087436511307196],[127.17730374614678,37.08721891159032],[127.1775300645876,37.087152542230584],[127.17852575355421,37.08734527495318],[127.17875133024371,37.08719855717184],[127.17883368531548,37.08699778931054],[127.17916063281521,37.086919168494134],[127.17933813537498,37.0865384175268],[127.17956282901201,37.0863198791816],[127.18021613463789,37.08627960003727],[127.18031387140465,37.086385600798145],[127.18048389158461,37.086407954612675],[127.18123481348138,37.086180427187614],[127.1813339072916,37.086258225140256],[127.18171623976404,37.086274053250186],[127.18245142495249,37.08616567143858],[127.18331291949606,37.085859687268936],[127.18387289305731,37.08521655334086],[127.18463591432007,37.08478179863794],[127.18523977523547,37.08399080564389],[127.18597592818867,37.083633078903055],[127.18602623873065,37.08458639844429],[127.18645962988765,37.084611414760154],[127.1879315179548,37.085349463539146],[127.18792904047004,37.0856958030203],[127.18813484133341,37.086042239641],[127.18816619844951,37.086476484989646],[127.18835790730418,37.08691281940944],[127.18952618814265,37.087356888273426],[127.19062433849595,37.087393985192904],[127.19120590276037,37.08753758363793],[127.19190709012352,37.08741096308126],[127.19337214423655,37.08831342767318],[127.19360245270363,37.08855857076053],[127.19503246242022,37.08927629416154],[127.19505565562831,37.09008727645191],[127.1958471651304,37.09059268320981],[127.19582451563275,37.09105407392085],[127.19597977635291,37.09127364466596],[127.19641166734394,37.09135790758051],[127.19648247044432,37.091681646500305],[127.19698191015902,37.0924476930746],[127.19721206251924,37.092446811605676],[127.19745588510561,37.093100192068704],[127.19721372964304,37.09344756927654],[127.19726532972072,37.09399756139345],[127.19771709716797,37.09456948721112],[127.19778045353522,37.09507317572787],[127.19747768522099,37.096261031686325],[127.19835602723587,37.09649923514127],[127.19910793649734,37.09706400404346],[127.19938671214433,37.09763114834355],[127.1999129265436,37.09801711003316],[127.20009597791685,37.09906399183201],[127.2009368479763,37.09918590577307],[127.20180735043743,37.09979046585498],[127.20219232785435,37.1003910968721],[127.20231002170881,37.10090825105794],[127.20257800076882,37.10130474789831],[127.20360364781163,37.1024337175665],[127.2043553756924,37.10229991182948],[127.20503470813586,37.102371094400084],[127.20635077521096,37.103106623648394],[127.20727071578047,37.1034566135386],[127.20838808983505,37.10438421864994],[127.20880800643155,37.105029489190365],[127.20954792247777,37.10583595080836],[127.20955691536875,37.106799657763275],[127.20977413251389,37.10692610948318],[127.2099382213603,37.10780689522515],[127.2096323090119,37.10797640732782],[127.20955502239609,37.108147200016184],[127.20947730366704,37.10857541103413],[127.20960005043545,37.10899984937853],[127.20883413077911,37.10932430425376],[127.20869269855002,37.10948618598172],[127.20862364181258,37.11063956732625],[127.20834687940744,37.11106981208688],[127.20878431091332,37.11127736718149],[127.20975508806904,37.11144192251064],[127.21165528669971,37.111597105432196],[127.21249630132628,37.11195756243579],[127.21314603326336,37.11182053335359],[127.21342532584971,37.11167117590244],[127.2140627107327,37.11090136711282],[127.21430356088725,37.11087796984262],[127.21482459003339,37.111067432245484],[127.21552870125794,37.111642104136855],[127.21609299459682,37.111840282352],[127.21625666547476,37.11197156074764],[127.21696922914973,37.1122369841121],[127.21810152598637,37.11250910787357],[127.21895574089919,37.112847772085196],[127.21922911435158,37.1132660940057],[127.21997505826117,37.113529595199225],[127.22027129147347,37.11357392332194],[127.22096334186325,37.11307570608795],[127.22171870085235,37.11290211855631],[127.22309320389029,37.11295711433647],[127.22337185908837,37.11287048001593],[127.22412302145726,37.1133862485381],[127.224620707134,37.113515506695315],[127.22527859302015,37.113468301943925],[127.22557798328249,37.11374273033371],[127.22589361422416,37.11388699399855],[127.22632542792836,37.1143566682422],[127.22668838442735,37.11453481532098],[127.226781328248,37.1147403826406],[127.22676557798941,37.11506394806549],[127.22753429867291,37.11565215561397],[127.22828066574662,37.115792966972776],[127.22850815842506,37.116033410737316],[127.2285594717232,37.116283384515945],[127.22881743720035,37.11672895300908],[127.22918961718213,37.11677154856828],[127.22958079115618,37.117227524508046],[127.23121400031084,37.11736579364808],[127.23249752306766,37.11724939326218],[127.2332686281914,37.11757792320931],[127.23366817585519,37.11751535225967],[127.23430384521924,37.118110094701265],[127.23432072252695,37.11860504040083],[127.23487780155041,37.11932570348733],[127.23488834391955,37.12005670826783],[127.2347664577942,37.12039519905927],[127.2352080484931,37.121160907445585],[127.23573130295449,37.12141581619593],[127.23642946817749,37.121112996265566],[127.23711703426312,37.12123040061937],[127.23787729066532,37.120942195653484],[127.23894118194,37.12159456744272],[127.23990076558921,37.12202534770653],[127.2402895408195,37.122020629210795],[127.2406983080576,37.122144712264124],[127.2414683156814,37.12215565149722],[127.24184797447101,37.122014685138744],[127.24212354277465,37.12200533316029],[127.24329926189262,37.122576159053374],[127.24388484456576,37.12244507877443],[127.24450670865741,37.122464097432946],[127.24548258540317,37.12208261440917],[127.24598157961748,37.122067188580864],[127.24618270592352,37.12233412473783],[127.24742788091625,37.122499048961394],[127.24772582334839,37.12210816873022],[127.24775663295422,37.12155538314566],[127.24778752057561,37.12211223921279],[127.24749953126488,37.122512804040724],[127.24775087418931,37.12256493647521],[127.24806357579591,37.12286618953687],[127.24869945452812,37.12255980268233],[127.24968815227662,37.12278450944356],[127.25014944945924,37.122666602980026],[127.25084735784763,37.12310827211468],[127.25120118486136,37.12409407091386],[127.251625803622,37.124547069324294],[127.25116142274918,37.12554570897012],[127.2515317525581,37.12592687656307],[127.25198543811821,37.12679082037352],[127.25194471317597,37.127006517405704],[127.25289017787969,37.12806672441451],[127.25287096912086,37.12865966623117],[127.25310990442233,37.12895180984934],[127.25291285721723,37.129263047599544],[127.25292437385271,37.12972719522287],[127.25305952198725,37.12986398800268],[127.25275618895697,37.13092112800887],[127.25218753799751,37.131126816700096],[127.25220017003812,37.13166192640373],[127.25139948978256,37.132923392523566],[127.25048642606424,37.134032258385076],[127.25050198693019,37.13411759253174],[127.25130764108522,37.134495925863305],[127.25229510141165,37.135143274968556],[127.25249141704843,37.13540086918755],[127.25234879213485,37.135893819320025],[127.25308042103141,37.13681682206403],[127.25378651916238,37.13799034379649],[127.25327561071177,37.1384461480078],[127.25330365304009,37.139716766172626],[127.25289878880056,37.14080481036966],[127.25227922697734,37.14147297416758],[127.25168010267387,37.141806886204236],[127.25145388536983,37.142472948330614],[127.25107344168518,37.142751995489725],[127.25078594393362,37.14406510110035],[127.25063838246933,37.14440351684997],[127.25077347803159,37.14493020240551],[127.2506195307358,37.14537476470907],[127.251437840312,37.14605159190759],[127.25275839119509,37.14645768447674],[127.25314369195553,37.146850000590526],[127.25371771025118,37.1469901934047],[127.25387882502758,37.147971000679405],[127.25410763667232,37.148223890696016],[127.25487248477668,37.14987409639987],[127.25519162004744,37.150109404080496],[127.25526728567117,37.15056302759244],[127.25521169440988,37.15088281694264],[127.25534908923686,37.151264941170716],[127.25583601932678,37.15145317874191],[127.25625659985485,37.15143443858364],[127.25730912172428,37.15175707946046],[127.25813991492217,37.15171916040774],[127.25863857088224,37.151849395153164],[127.25915485363788,37.151855042629784],[127.25926312211232,37.15192205763801],[127.25971643247622,37.151842039222885],[127.26008822331747,37.15199649310973],[127.26026483577901,37.152185607331994],[127.26063025831118,37.152346293456446],[127.26133163522137,37.15332740455717],[127.26158039543387,37.15410488198139],[127.2627384575526,37.154502297163454],[127.26320772786946,37.15478292742295],[127.26339510345015,37.15542217209695],[127.263713355007,37.15591037454552],[127.26606582725083,37.15530700833368],[127.26659695133523,37.155368738899774],[127.26742676370759,37.15485358763425],[127.26888598926702,37.15429240722789],[127.2689644899477,37.15381656676652],[127.26889246148153,37.15343134075198],[127.2690621712129,37.152995340348994],[127.26930268029892,37.15270380348942],[127.26941821159343,37.15165069457273],[127.26911400974615,37.15092803055098],[127.26862326388644,37.150537264349836],[127.26872842540057,37.14986276717191],[127.26795922513784,37.149398421601546],[127.26832230826183,37.14884667065407],[127.26888555469873,37.1486479258335],[127.26898008728435,37.14827862775625],[127.26884295610235,37.14827746799001],[127.26900782539425,37.148225930813425],[127.26902072158467,37.147532684034616],[127.26893423657012,37.14719296913725],[127.27059263812481,37.1460056959196],[127.27113784444744,37.14534604595252],[127.2713805609088,37.14528309051919],[127.27243012137758,37.144659219027346],[127.27272630371897,37.14393968869561],[127.27364674383949,37.14320401698535],[127.27265471166365,37.14261144541329],[127.27250997077559,37.142097863480956],[127.27225721224174,37.141608051599555],[127.27190422233168,37.141324471377864],[127.2718228914822,37.14094246452239],[127.27215138816068,37.140167695266086],[127.27204682663267,37.13938860448696],[127.27206529483561,37.13871596445963],[127.27224400025594,37.13827798350253],[127.27213210611838,37.13751912435848],[127.27255682083414,37.136791835942795],[127.27235783515341,37.136176396924334],[127.27285541192933,37.135737836894],[127.27288554281921,37.135371845835685],[127.2734545194451,37.13453529860547],[127.27424293076528,37.13364813718365],[127.27468296706529,37.13376148070223],[127.27526978046974,37.13366685472392],[127.27588456276702,37.134338242912825],[127.27705141065998,37.134074163541165],[127.27772371524158,37.134324551699905],[127.27930138366233,37.13429469675411],[127.27986946137443,37.134203790082076],[127.2811709289627,37.13376644161028],[127.28251243500945,37.13391691470575],[127.28324012645807,37.13270706237001],[127.28390230584115,37.13188481416664],[127.28410065567866,37.13149290412832],[127.28485886930133,37.131597702640875],[127.2856681909838,37.13218407381202],[127.2866042443582,37.13223574632253],[127.28699793867128,37.132353503900234],[127.28759048355333,37.13181017182848],[127.2879951657509,37.131705853633015],[127.28822784043207,37.13038974367042],[127.28865051264741,37.12965914768195],[127.28909381593499,37.12849731059568],[127.28919299885717,37.12791261751724],[127.28978476610256,37.127628142958216],[127.29072246527721,37.127577925164175],[127.29131247781368,37.127753201085795],[127.2919562518615,37.127491568108624],[127.29246022105677,37.127049177199325],[127.29235818654631,37.12620239194165],[127.29263447869188,37.12572889875081],[127.2928621298776,37.12567046991391],[127.2929316629044,37.12529197601118],[127.29289196290993,37.12343906894353],[127.29415244085442,37.12216689594041],[127.2944595996032,37.121592158842105],[127.29544185120263,37.120986893572926],[127.29601056852127,37.12075182683998],[127.29654956474134,37.120853189556065],[127.29709002729085,37.12048161172121],[127.29740908727051,37.119966678546284],[127.29757400172582,37.11831619278833],[127.29737144448976,37.1179056991136],[127.29749007858351,37.11761707670573],[127.29796702478471,37.117178978253015],[127.29871970362757,37.11686598611436],[127.29911384122555,37.116878219840345],[127.29915154570264,37.116095577509896],[127.29972518093231,37.11481266786864],[127.29978314966515,37.114038577740196],[127.29941485185202,37.11271035572273],[127.29954445988785,37.11236025438163],[127.29940876585029,37.111774585811006],[127.29999667341689,37.111410276694144],[127.3010165955526,37.11147808516715],[127.30162639642862,37.111299182637204],[127.30318070403023,37.11124016954936],[127.30332816137819,37.11112675360444],[127.30365905082853,37.110165905540214],[127.3039086248442,37.10989493560756],[127.30384649468067,37.109507148056494],[127.3039402564127,37.109303752382445],[127.30419953469506,37.109222719052696],[127.30434395652581,37.10894400249795],[127.30405851247096,37.108295000937765],[127.30469513849363,37.107864854570444],[127.30546494444876,37.10709237272421],[127.30589777493819,37.107116465015984],[127.30707020199333,37.10634173744127],[127.30755682354669,37.10616216200368],[127.30787301631979,37.10575011936888],[127.30842460801195,37.1055245196541],[127.3096696807089,37.10573789997181],[127.30998890464153,37.105638984706644],[127.3101857526956,37.105704238676026],[127.31040781726688,37.10550520763218],[127.31040727035808,37.10537242677287],[127.31042849140154,37.10541957821589],[127.31060818394688,37.105314434625456],[127.31200141548089,37.10700264188077],[127.31291881197885,37.10909413732161],[127.31309355485543,37.10899467923293],[127.31303613188446,37.10882973608601],[127.31363165524373,37.10883070065201],[127.31419034730385,37.10900873454458],[127.31534104515252,37.10869177924544],[127.31579744543657,37.10871090525977],[127.31590391983356,37.10976094235785],[127.3164666526704,37.11019114541181],[127.31788988213225,37.110902959563504],[127.31864399397821,37.11184967392664],[127.31886943814833,37.1123092853928],[127.31998342439167,37.113263697574084],[127.3200345149829,37.114252529557696],[127.32059205197572,37.1145474010964],[127.32127755467658,37.11524278547393],[127.32187390349014,37.115628843431374],[127.32197633382422,37.115897883083385],[127.32238253315053,37.11604660529317],[127.32327040749242,37.11617033645218],[127.32386022468086,37.117167747445045],[127.32438415096185,37.11739517868511],[127.32455629116114,37.11775715692147],[127.32516529088733,37.11814978830012],[127.32527639716545,37.11851963500396],[127.32579639748505,37.11859465046621],[127.32644922004197,37.119337704950226],[127.32714845851913,37.11966349136124],[127.32763843077122,37.11936336356459],[127.32839011627235,37.11917679559133],[127.32893969525887,37.11925677987896],[127.3301470538539,37.11851032497619],[127.33030460140613,37.11725351490127],[127.33045985314929,37.116837206976314],[127.33087366552972,37.11691296774468],[127.33135669942027,37.11666624191799],[127.33103223775049,37.11596817680178],[127.33154652505465,37.115568162419166],[127.33169793482351,37.115240421242575],[127.33227433304342,37.11482602393233],[127.33212532904233,37.11449891147746],[127.33234887385873,37.11415532531794],[127.3329084915244,37.11265899317788],[127.33361527961901,37.11197787894863],[127.33515311915069,37.11181610287533],[127.33530518169906,37.11164404287235],[127.33599202444073,37.11156487627242],[127.33635485020675,37.11144133249656],[127.3371825787947,37.11069217987807],[127.33762251567941,37.1107391975519],[127.33818143010896,37.11027447471282],[127.33981987439775,37.10995014914716],[127.339722840497,37.10955629348423],[127.34073777943412,37.10766618196732],[127.34121240108153,37.10744840307354],[127.34198624553707,37.10637729908223],[127.3426729295125,37.10506434781075],[127.34344514128382,37.10421789410605],[127.34440781057275,37.10376355333069],[127.34476600800839,37.103318637080385],[127.34537595487849,37.10334516071528],[127.34603201511705,37.103714265066955],[127.34708075299288,37.103709943179815],[127.34732388397343,37.10381400162606],[127.34883829360668,37.10268162293894],[127.34952304233614,37.10251501783302],[127.35022288010282,37.10183377634852],[127.35066404316333,37.10128004549853],[127.35131630312706,37.10105825780284],[127.35167207227623,37.10106387754194],[127.35183398097499,37.10043444234936],[127.35280679383331,37.10022990318746],[127.3532684869141,37.100243392824815],[127.3537425662884,37.10059278562345],[127.35426075524323,37.10077110386411],[127.35445450841695,37.101149751788306],[127.35445154924628,37.10192004432329],[127.35473709671463,37.10216192272105],[127.35484420746266,37.1024300840706],[127.35466431905387,37.10262025403315],[127.35493085779676,37.10317100045478],[127.35490496401634,37.10384846283845],[127.35515349325526,37.1041909030521],[127.35535140910261,37.104222081598955],[127.35588309713447,37.10456720003741],[127.35670026520636,37.10569767740845],[127.35674007209967,37.10600869046282],[127.35733856457945,37.10601148531612],[127.35789131951552,37.10659801287679],[127.35800868418981,37.10710409681428],[127.3590181851704,37.10757553920591],[127.36031688006385,37.107423139722265],[127.36044339357248,37.10752847607587],[127.36139443561893,37.10754860267262],[127.36171127074343,37.10740615069369],[127.36256706824597,37.10737924656161],[127.36294370560756,37.106869845001505],[127.3637954040408,37.10687207036041],[127.36421286757627,37.10673184557291],[127.36453800137008,37.106443265338164],[127.36524394376295,37.10667603368475],[127.36598912178253,37.10679537066522],[127.36652543124292,37.106738149099215],[127.36706643807634,37.10685196695064],[127.3672714619214,37.10680249199324],[127.36739788872097,37.10694313871975],[127.36806451005393,37.106831429432226],[127.36889862971516,37.10683286841926],[127.36923502390725,37.10624937717392],[127.36894554908761,37.106859936024975],[127.36928418326441,37.10702273777524],[127.36934347925441,37.10676376933837],[127.36976619884737,37.10653829192683],[127.37130893776441,37.10629092129125],[127.37230208294966,37.105854758224424],[127.37306524813802,37.105873398842114],[127.37368987954207,37.10516083934385],[127.37382650174833,37.1045070540253],[127.37414416392407,37.10375455624193],[127.37421661356316,37.103220114175656],[127.37413035624226,37.10293072778245],[127.37423811132481,37.102694560142126],[127.3747374442501,37.102087013200915],[127.37516023342091,37.102006150361035],[127.37569049083329,37.101695183309026],[127.37604320064048,37.10133664940133],[127.37648054166023,37.1013005528992],[127.37690879116603,37.1011658021914],[127.37739149294455,37.10179452474052],[127.37825592011902,37.10256300738893],[127.37866003062626,37.10278996817398],[127.37885296343904,37.10305655507326],[127.37902445971847,37.10355580504555],[127.37905901878027,37.10490961170126],[127.37927293941607,37.10511067651713],[127.3800158802481,37.10531124979604],[127.38078426531723,37.10583175119555],[127.3812035484837,37.10583592193393],[127.38163364631173,37.10597095302982],[127.38217308821972,37.10594366326255],[127.3825642791761,37.10572276018721],[127.38319305755984,37.105600318524964],[127.38396980916485,37.10595707244019],[127.38461721672915,37.106025464399906],[127.38550617818653,37.105656245501144],[127.38595599697135,37.1055760554041],[127.38640898622526,37.105618036957566],[127.38697081980094,37.1059472068561],[127.38715377422999,37.10737373490798],[127.38835577017463,37.107148641823564],[127.3889718318072,37.10721990110651],[127.38950225359194,37.107897656067536],[127.38998797782982,37.10785321669674],[127.39019310718865,37.10794052065458],[127.39053449963264,37.10793441816183],[127.39089162630096,37.107614524707635],[127.39120035968746,37.10703120705533],[127.3920524120586,37.10691295247169],[127.39225327212901,37.10662934814035],[127.39292303663278,37.10668753796301],[127.39334185811187,37.1066235175381],[127.39354349045331,37.10617012804257],[127.39390209944983,37.10586177401493],[127.39414427283097,37.105443358994506],[127.3936415044138,37.1046346359657],[127.39428188534627,37.10375651592783],[127.39428735205091,37.103629004972085],[127.39479025050385,37.103294148513505],[127.39513198654141,37.10290910927598],[127.39544895006617,37.102858927288416],[127.39584417444449,37.1021018420835],[127.39616041992535,37.10212143701962],[127.39645190384667,37.102242329887765],[127.39684257078534,37.101790604729885],[127.39693594811875,37.101223516999774],[127.3966522149565,37.10075102136448],[127.39649347484067,37.10024163059239],[127.39647689478404,37.09982221803727],[127.39781454765321,37.09812645000167],[127.39793008800254,37.09758867662671],[127.3977905892441,37.09688642536906],[127.39801120910921,37.09627384267692],[127.39822634118796,37.09623636584415],[127.3989262274061,37.09540966086442],[127.39945030244259,37.095334476566606],[127.3996159914101,37.09520709190605],[127.40061698084882,37.09499192579222],[127.40123381329715,37.09445438765851],[127.40175406604318,37.0936983321783],[127.4024362190328,37.0937882359096],[127.4026153008203,37.09399569358925],[127.40305718881545,37.09403967575612],[127.4037434865541,37.09390788709029],[127.40418867987024,37.0939811911877],[127.40495506069108,37.09437256803833],[127.4054906509697,37.09430212579495],[127.40590586839497,37.094058655677514],[127.40634865742587,37.09398496285685],[127.40633563110251,37.09406362021891],[127.40687880886615,37.09392347925379],[127.4070743705363,37.09378627300258],[127.40746523790125,37.09378541579521],[127.40799126641902,37.09356745405795],[127.40891066120322,37.09291111260655],[127.40938899254238,37.09229475768282],[127.40945928202957,37.09186423496252],[127.40991721134694,37.09159145079543],[127.4105580106784,37.09169330147479],[127.41147642489511,37.09101918101106],[127.41208284994667,37.09093199521523],[127.41268358237075,37.09024436935125],[127.41294015329704,37.090090206297525],[127.41307627741135,37.08986864476049],[127.41466495805295,37.089215640487],[127.41498608348397,37.08916457078678],[127.41535174619558,37.08891962558979],[127.41599454725232,37.0894879198984],[127.41606281274517,37.08997898564761],[127.41585997243452,37.090301129813156],[127.4158503903747,37.09062237425658],[127.41612063300548,37.09075951979535],[127.41619648541051,37.09108632335431],[127.41653261023441,37.09158536602731],[127.41651416922491,37.0927223250364],[127.41640353046002,37.093144773704736],[127.41603272194524,37.09362211559061],[127.41624584945217,37.09387795647803],[127.41651462302893,37.09457555407504],[127.41611383780953,37.09525018861107],[127.41597333081414,37.09602624581014],[127.4165583911399,37.09616123311744],[127.41693293908696,37.09652410451357],[127.41728405370482,37.096521285085856],[127.41840369742349,37.0968942694018],[127.4191768584605,37.09697417862148],[127.41922897394532,37.09729076857759],[127.41945049288789,37.09750604501882],[127.42033100783709,37.097617551527904],[127.42125264636255,37.09733655204075],[127.4222050650419,37.09775099016122],[127.42220371207421,37.09799563678935],[127.42287317303996,37.09898937535752],[127.42355428629872,37.098987788184935],[127.42409226648385,37.100022720264164],[127.42376245765081,37.1002767292706],[127.42364566361482,37.10079495687614],[127.42366848709331,37.10119808989088],[127.42331642335925,37.10156309404645],[127.42307201576621,37.101969037732786],[127.42265633181078,37.10307030227692],[127.42213201549703,37.10393417520622],[127.42196407337501,37.10459759610351],[127.42140793969659,37.10524832935623],[127.42099995790753,37.106391932571746],[127.42102449533172,37.10651986134107],[127.42176124509639,37.10726876809063],[127.42257071538072,37.10799628176688],[127.42350588677306,37.108588684106955],[127.42441086287819,37.10951071130009],[127.42404516755221,37.10944778342215],[127.42393737643954,37.10949356085471],[127.42369360520821,37.11055559053647],[127.42384240185854,37.11153175911839],[127.424118861437,37.111866599689236],[127.42510056749508,37.11185248558213],[127.42553185555062,37.11196696787922],[127.42568981977593,37.1124576408657],[127.42556489596669,37.11275479858852],[127.42506980591233,37.11326936299028],[127.42367365008282,37.113571856209845],[127.42259970814415,37.11396826494614],[127.42225437106833,37.11416447762407],[127.4218732849663,37.11458944748131],[127.42061826324017,37.115248592349936],[127.42017309922451,37.115689198535335],[127.41870009881568,37.1156996006732],[127.4165480475483,37.11464928827692],[127.41613548161097,37.114693347298186],[127.41566928672519,37.11485384891852],[127.41507106053518,37.115223339766914],[127.41514736343929,37.116192940171025],[127.4149299948751,37.11643578154084],[127.4145486583144,37.11658633373966],[127.41391721591069,37.11632168733668],[127.413073848066,37.116283419491474],[127.41270557697383,37.11687520481239],[127.4124336223302,37.11830588088451],[127.41281583414387,37.118424132005316],[127.4128325479401,37.118789194224014],[127.41256473019578,37.119026621550645],[127.41243717620851,37.11904168036112],[127.41230319277231,37.11927309419536],[127.41238892156747,37.11952822465245],[127.41289436395294,37.119697253594964],[127.41311955108475,37.12027035516923],[127.41341573190327,37.12030546597872],[127.41365816391517,37.12081472217057],[127.41359030274218,37.12139366653832],[127.41373256763447,37.12178032786993],[127.41391290053465,37.122002092101305],[127.4142886940471,37.122200371195824],[127.41449974468563,37.12275719800599],[127.4153102630873,37.12286166887977],[127.41569249288219,37.122724474146295],[127.41618500153432,37.12275544472875],[127.41687212135886,37.12295295275037],[127.41733552713596,37.12354768473334],[127.41755288666522,37.12396840441088],[127.4175920307632,37.12447487855856],[127.41777503412071,37.124658643669804],[127.41788046550835,37.124944828632195],[127.4180823324022,37.125060828274755],[127.41885117888796,37.12508450559589],[127.41930167778696,37.12502220021338],[127.41959469852085,37.125329865905165],[127.4201352725203,37.12552162156612],[127.42087131939319,37.12611896570463],[127.42102131468734,37.12614150215679],[127.42108122273066,37.12640644337755],[127.42133180375549,37.126778906824285],[127.42121914658148,37.12708442356295],[127.42165602313263,37.12810258224627],[127.42171369373413,37.128718112093836],[127.42108306174006,37.13004567037772],[127.42387895512503,37.13112072367403],[127.42380789357853,37.13177096438261],[127.42499709720526,37.13343851616508],[127.42482037491548,37.13540198140036],[127.4265182184193,37.13669220574729],[127.42681357592363,37.1372575259189],[127.42585819484366,37.13928857448181],[127.42578090572997,37.14110177133951],[127.42551165942926,37.141930224880376],[127.42666764031847,37.14364293349329],[127.42747938195065,37.145241047992826],[127.42783036308676,37.14642110454705],[127.42748674840439,37.14674859721891],[127.42679507369361,37.1468892173003],[127.42648925743852,37.147679240136924],[127.42623991535949,37.14806771454228],[127.42649655423041,37.148610303561725],[127.42639852418739,37.1492183226897],[127.42594901333288,37.14985843850459],[127.42559675936026,37.15009365887044],[127.42471156618163,37.1504156243146],[127.42478589941878,37.15082462043978],[127.42457419747261,37.15181718517767],[127.42401958741048,37.15153749540904],[127.42262241194435,37.15193836144309],[127.42214522393006,37.15183392957674],[127.42176212176439,37.15185617493766],[127.42137484802748,37.15217438479282],[127.4210343622573,37.15205972321903],[127.41995244005814,37.15202309931721],[127.41942996477238,37.15163561802978],[127.4187777608621,37.151742122709635],[127.41827175862122,37.15168851539627],[127.4178251328473,37.15137355704289],[127.41644618003927,37.15136109084757],[127.41599125005563,37.151639169115505],[127.41553904321557,37.15174402717148],[127.4147071174393,37.152238838973574],[127.41430784344345,37.15201816651569],[127.41364413600988,37.153047309536056],[127.4132768654911,37.153973076634394],[127.41261255189109,37.15454878123715],[127.41181372619333,37.15491803099509],[127.41173710421832,37.15676526801858],[127.41203338199216,37.157188877478916],[127.41192796579513,37.15854207194041],[127.41175676171665,37.1591950114611],[127.41032774087168,37.15993997790423],[127.40995711863371,37.160795743149365],[127.40995128598708,37.16148195407936],[127.4097454829843,37.162339756362634],[127.4096906380204,37.16400119887391],[127.40958951215757,37.16431725615208],[127.4103968196039,37.164717995956636],[127.41033236557772,37.16521829884247],[127.41085345341273,37.16570689246286],[127.41087754486772,37.1658920004242],[127.41035490867515,37.166558685711166],[127.41046189899434,37.16705730622967],[127.4102709610288,37.167336224349896],[127.41189020802823,37.168984268822506],[127.4120994697239,37.16902313467759],[127.41256795197626,37.16958753746439],[127.41287125483497,37.170077588950065],[127.41250527494213,37.170607024221844],[127.41285412664219,37.17100158977646],[127.41281351478821,37.17120724695077],[127.41267678043067,37.17132625585314],[127.41273959468096,37.171577013114316],[127.41317570027893,37.171891944042116],[127.41298210726042,37.17261785693015],[127.41332009303648,37.17294981865498],[127.41377493588396,37.17302223856031],[127.41399867577238,37.17331143308253],[127.41388086275533,37.17362609143224],[127.41358232744328,37.17396423689543],[127.41363509315705,37.174356456296294],[127.4134526653515,37.17453003870116],[127.41285016966289,37.174700092761555],[127.41249005348901,37.17500069029214],[127.41243222568544,37.17550020960726],[127.41307479371946,37.176100749880575],[127.41281293509643,37.17622344391483],[127.41296389633263,37.1777565403346],[127.4127793970789,37.17779505016141],[127.4125923297404,37.17859377921786],[127.41226496398912,37.17880088266566],[127.41194724999265,37.17984933740083],[127.41153113909681,37.18020811342677],[127.41172346756744,37.18072928566415],[127.4115607791405,37.18108730017915],[127.41178950723082,37.18138407049045],[127.41159343822072,37.18181257965181],[127.41161559746268,37.18228308971347],[127.41054169110002,37.183227065677976],[127.41001520953769,37.1834154070322],[127.40981500437184,37.18377544029854],[127.40897598555199,37.183690675091285],[127.40746288307719,37.182981443567975],[127.4067096537756,37.1821081373199],[127.4056254335668,37.181812323129044],[127.40422393616954,37.181205909225426],[127.4034860154743,37.18033610834436],[127.40304235905639,37.17996235473638],[127.40244199577256,37.18027972618416],[127.40189718844853,37.180258365339824],[127.4014700278194,37.179886948758025],[127.40003595612063,37.18047080748414],[127.39916836747679,37.180598219338044],[127.39872161577904,37.18082281529476],[127.39826695076395,37.18090450504646],[127.39800759310955,37.18086301530256],[127.39728440126558,37.18144430624292],[127.396960111245,37.18145887819373],[127.39578272239129,37.18069138432385],[127.39470811545213,37.18049346427889],[127.39369863780117,37.18072051097258],[127.39282843005496,37.18113093096094],[127.39235887043517,37.18103785068129],[127.3917690756965,37.18120496577826],[127.39145003088609,37.18089052360416],[127.39051915838608,37.1811278029616],[127.3881296836731,37.18113089300998],[127.38781077580691,37.18141528174436],[127.38410296629046,37.1818816710627],[127.38337662192956,37.18233189469536],[127.38305944771606,37.18235237051258],[127.38238971976402,37.18261532274646],[127.38264478431988,37.18294836530244],[127.38210644777723,37.18374783446778],[127.3812399838116,37.183807486529105],[127.38017341468728,37.18417876895497],[127.37806033443611,37.18463730253991],[127.37787547358703,37.18501616765636],[127.37716237108235,37.18517500244994],[127.37587482970712,37.18513116073192],[127.3755205318931,37.185429461803885],[127.37522490618525,37.185048804550945],[127.37508057271444,37.1849861754485],[127.37481702356598,37.185106674175344],[127.37484174554848,37.18520825181073],[127.37471482323124,37.185337887056335],[127.37383274005015,37.18569170799146],[127.3721723251785,37.18575617679344],[127.37262552640482,37.187499164703304],[127.3727645259839,37.18837213854982],[127.37211559820385,37.18886746076946],[127.37200206849415,37.18966848206288],[127.37239951293793,37.189743232311216],[127.37256422285638,37.18958396216424],[127.37277363040654,37.18958992922064],[127.37301528585775,37.18972542032248],[127.3732467573766,37.18954776341786],[127.37393784165108,37.189798343718635],[127.3740114782936,37.19017960454642],[127.37525388688302,37.190335933451216],[127.37515263048851,37.1906294964534],[127.37585838715164,37.19101093193684],[127.37575263997743,37.191250140903215],[127.37614276364617,37.19223686307079],[127.37612336031155,37.19291468737595],[127.37658597820567,37.19335550861673],[127.37679071873643,37.193834061883955],[127.37751892536814,37.19416775920057],[127.37847600937502,37.195206844170485],[127.37792975377103,37.19579174287916],[127.37748547265525,37.19664541048996],[127.37720134052292,37.196999672473254],[127.37679529343127,37.197143036988884],[127.3765726151933,37.197382357337666],[127.37582852416786,37.19786812426905],[127.3757551097502,37.19807828187068],[127.37518184006646,37.198522446852984],[127.37516412656096,37.19893694615369],[127.37391905196483,37.200243455595924],[127.37357327917454,37.20093572832722],[127.3735607392135,37.20127497206687],[127.37317604550628,37.20189006637074],[127.37266056023084,37.20188693535544],[127.3715349021188,37.20222522768128],[127.37137915363084,37.20253013059465],[127.37077785683861,37.20290311668062],[127.37066111902665,37.203246623537396],[127.36983176986614,37.2043201811821],[127.36932149579847,37.2046171806263],[127.36873549776142,37.20448176997698],[127.36829727279539,37.204237269771774],[127.36840111389951,37.203789360349944],[127.36833852376273,37.20335034856675],[127.36729148635897,37.202659452713974],[127.36652981130673,37.20240098623501],[127.36602255822257,37.202075227647256],[127.36568099606923,37.20123619458179],[127.36442628808229,37.201485514598396],[127.36411476708992,37.201480647016744],[127.3630877185499,37.20099479169927],[127.36246382726938,37.20113005057162],[127.36193646120971,37.2005726676093],[127.36124562811894,37.200230551754146],[127.36040897048314,37.20036952385434],[127.36030221032796,37.20069068998097],[127.35864639411378,37.20076818347786],[127.3580271486995,37.201106712673386],[127.35765363964173,37.20149956293842],[127.35735523620241,37.2015795702504],[127.35689452532255,37.20144592300578],[127.3558672503337,37.20165851946124],[127.3560179312946,37.20241717730005],[127.35505743439462,37.202991387669144],[127.35478659452659,37.20297888693082],[127.35469216512882,37.20314099632035],[127.3545036478862,37.20303537914434],[127.35362373337603,37.20295800333182],[127.35354166972354,37.203136786963476],[127.35301395550353,37.203384194518286],[127.35253513692177,37.20323064439171],[127.3524858459235,37.20336974829055],[127.35176161739857,37.20339993391833],[127.35137738643138,37.20323390652699],[127.35057908955808,37.20368373587712],[127.34969113424467,37.20359283019841],[127.34869559579388,37.20426941674923],[127.34757897000486,37.20450510685651],[127.34713814483786,37.20480702350158],[127.34685835222469,37.20575373301265],[127.3464120420997,37.20626591366336],[127.34518875119485,37.207041641912724],[127.34453728771516,37.20766889516727],[127.3444783174794,37.207871215046715],[127.3440123158715,37.20818816198705],[127.34331413789215,37.208135926871485],[127.34281033159871,37.207993941704196],[127.34157508835027,37.20826190436489],[127.34176975115194,37.208453005723975],[127.34107559518966,37.20926081449556],[127.34093770168782,37.20971467509441],[127.34095090967645,37.21018634120925],[127.34083296259445,37.21043059108706],[127.34008537083511,37.21067673097263],[127.33944358029811,37.211428446296466],[127.33912971628072,37.21288141917581],[127.33863868719912,37.21402656713224],[127.33892528082272,37.214567591880986],[127.33891838264071,37.21482971412478],[127.33843800551593,37.21562234505269],[127.3377122344229,37.21611233781298],[127.337421067593,37.21722057601215],[127.33699280319983,37.21721456273246],[127.33581492646444,37.218123030663264],[127.33213860810679,37.22009248518731],[127.33176886579936,37.22024571022532],[127.33054578220647,37.22019334903188],[127.33031229219212,37.22041267174037],[127.33036219924254,37.22124472141012],[127.3301150837877,37.22137598543937],[127.33003708447069,37.2220547023527],[127.33033663239691,37.22242244838406],[127.33028954472846,37.22264302757115],[127.33065878730449,37.22303753804674],[127.33126990471746,37.223353003375756],[127.33093320322736,37.22394158784117],[127.33118034969235,37.224401348240384],[127.33157983858831,37.224806558896496],[127.33159236025658,37.22504258685599],[127.33202713331235,37.22534481704761],[127.33203185664127,37.22577674218803],[127.3318295313396,37.22661316310833],[127.33194555522114,37.226832395026285],[127.33225949661681,37.2268237070141],[127.3331229807453,37.227349136635425],[127.33364425372213,37.2274506581155],[127.33330383045352,37.2280974547581],[127.33334618639569,37.22829015048557],[127.33312261492493,37.22872447976826],[127.33324153960554,37.2288325799567],[127.33310714572794,37.229358006495445],[127.33387040136499,37.23041324432614],[127.33395686859673,37.23068650987771],[127.33414985743433,37.23086977848849],[127.33403573769318,37.23104339542185],[127.33402243299228,37.23151351265394],[127.33430631669675,37.23179429811348],[127.333981666378,37.23220470278169],[127.3339525929448,37.232415239605444],[127.33368973901628,37.23281844308258],[127.33342531663676,37.233099065087885],[127.3334872818541,37.233640637855515],[127.33359118605168,37.23376254406454],[127.33392641382459,37.233867783284076],[127.33457344573569,37.2354898823121],[127.33455998987768,37.23597147934928],[127.33425676340732,37.23652417066781],[127.33398487958242,37.23662207553299],[127.33430123266486,37.23785509006151],[127.33487566000686,37.23868053434776],[127.33400618291846,37.23904277993412],[127.33317102240694,37.23967362317537],[127.33289011876394,37.24008251383281],[127.33302724821237,37.24055793896009],[127.33231673356997,37.2411715112866],[127.33209363397025,37.24167509145377],[127.33176963058547,37.241794221021735],[127.33167263058955,37.24213330894179],[127.33123041468706,37.24256089917555],[127.33100798912017,37.24319078297668],[127.33150230772168,37.24421227961111],[127.33171186619826,37.24444903769256],[127.33153980759455,37.24464238231453],[127.3318588540522,37.245024412953285],[127.33255398898217,37.24559308089645],[127.33309118189518,37.24570043939443],[127.33326918602629,37.24586412020209],[127.33329020040594,37.24602719222163],[127.33241944539611,37.24820300227336],[127.33298252542468,37.24850654339681],[127.33330027814135,37.24931044859983],[127.33434562677226,37.250012185675565],[127.33481659381668,37.250184490736906],[127.335270499977,37.25061583363791],[127.33558765086906,37.25124280590424],[127.33581268768872,37.25139849130418],[127.33625905832658,37.25133591560039],[127.33673054061109,37.25161704560616],[127.33689001811175,37.25179383594394],[127.33724647492683,37.25176410237027],[127.33774650978847,37.25210240933469],[127.33816224974662,37.252162175264594],[127.33820266931883,37.25228099582992],[127.33892002296287,37.25233670890419],[127.33871420151198,37.25283242240617],[127.33907733163458,37.2528927011626],[127.33871809322561,37.25294711146717],[127.33711265683256,37.253862670453145],[127.33728487890447,37.25405790601775],[127.3372041262925,37.2541086449798],[127.33728149217659,37.2545420216035],[127.3370830367842,37.25504770269532],[127.33679435632537,37.255273705145875],[127.33683356428968,37.25549813282713],[127.33650973157481,37.25614362069527],[127.33597075931813,37.256355525224755],[127.33577657071912,37.25665359696398],[127.33546378920487,37.25674631189406],[127.33509781535358,37.25723332285691],[127.33596274027342,37.25758861873618],[127.33622544570166,37.25756030517785],[127.33622817906515,37.25797712477424],[127.33690936423551,37.25883042952171],[127.33672697049049,37.259432960410315],[127.33677895186656,37.259929767905014],[127.33649409662517,37.2600538909868],[127.33649319108113,37.2605009852829],[127.33666370388673,37.26069181132801],[127.33660423993967,37.261116543919606],[127.33693156538585,37.26114756715108],[127.33771839145766,37.26183083297189],[127.33829037905883,37.26178534301237],[127.33893261230178,37.262074775284226],[127.3393685283276,37.2617475924612],[127.33968547994522,37.26170195859878],[127.34050652545004,37.26202207188611],[127.34008782708419,37.26340655092271],[127.34034446727992,37.264215159050636],[127.34072238236,37.264550782191385],[127.34092699919864,37.26488027081922],[127.34108732669242,37.265838409202594],[127.34080311498114,37.265928190965155],[127.34074984610088,37.266272593504105],[127.34049042986557,37.26654275123909],[127.34039533812643,37.266505732329634],[127.34022486487028,37.26659303207261],[127.34018341039331,37.267053830184366],[127.34034408185094,37.26741508162189],[127.34016205077089,37.2677519456459],[127.33995465606236,37.26851335304423],[127.33950530299681,37.26861155812181],[127.3395233160073,37.26919365324261],[127.33941171534408,37.26944158368636],[127.33904651538195,37.26953629731979],[127.3388617228271,37.26980999970699],[127.33901439164758,37.270424858217645],[127.33880891838757,37.27056704142054],[127.33842867802929,37.27060226363104],[127.33820642015598,37.270725356445624],[127.33808832469887,37.2706248023851],[127.33796663943069,37.27070583588223],[127.33731809783414,37.270634170280736],[127.3367044249198,37.271088192035045],[127.33581919376735,37.270983101094295],[127.33513113872364,37.270743908294065],[127.33448387074665,37.270856152541896],[127.33396112324579,37.27071833191655],[127.33392879052269,37.27080363298457],[127.33292454282346,37.270412780631375],[127.33216319838427,37.27054015332843],[127.33049671308336,37.27029608105891],[127.33004925931182,37.270390193002626],[127.32975571694325,37.27062614914771],[127.32915417866072,37.27084923557494],[127.32865293808212,37.27121645747263],[127.32820782931826,37.2717534220869],[127.32748955137497,37.27167858715608],[127.32686233767517,37.27208296459351],[127.32599933877579,37.27237643019558],[127.32586595659612,37.272596666116605],[127.32559956746958,37.27272480104275],[127.32476848146743,37.27269810383191],[127.32455640031954,37.2726075343157],[127.3239833699874,37.272672709478556],[127.32364289757375,37.27284010118431],[127.32336721215104,37.27315640074416],[127.32323634590422,37.273596359107586],[127.32266876039957,37.273990067497785],[127.3226285683839,37.274205744763144],[127.32180162707922,37.274194371146436],[127.32138390635556,37.27441451611666],[127.32107868779275,37.27440821233477],[127.32085742417462,37.27459395190269],[127.32011268391707,37.27448917781512],[127.31898315993372,37.27464613490446],[127.31833258128984,37.27408445314786],[127.3179227761495,37.27385403867901],[127.31755044668827,37.27375994158368],[127.3174535773109,37.27359115472932],[127.31704587680531,37.27363148317225],[127.31666164450368,37.27390046323036],[127.31622782273233,37.27406339647904],[127.3157923885029,37.2740133212121],[127.31522190382975,37.273677461102594],[127.31446238084794,37.273957306243354],[127.31407532400557,37.27373115970908],[127.3138541973357,37.273703009436396],[127.31308289161522,37.27369697704521],[127.3126797116801,37.2738773787411],[127.31202589520677,37.27384829082409],[127.31155341961063,37.27365025567015],[127.3110116345649,37.27365507983483],[127.31051955164597,37.27297844697613],[127.31019766455623,37.27293611899946],[127.30985444162594,37.273056182757124],[127.30972824621803,37.27280836901521],[127.30927276074924,37.272526305501145],[127.3086889786635,37.27244046607821],[127.3086686551869,37.27219725170897],[127.3076418782355,37.27199872742523],[127.30721768627183,37.271550704963644],[127.30532015064996,37.27098039908684],[127.3049098974857,37.27111339779054],[127.30411955245738,37.27091591378991],[127.30374366052035,37.27070648367971],[127.30347427363425,37.27025335716299],[127.30304886368704,37.269966608830714],[127.30263073978716,37.26947027567329],[127.30246510547335,37.26906417990973],[127.30236461728201,37.26806583002886],[127.30265537719143,37.266968023134105],[127.30223988699365,37.26621884438912],[127.30145402690627,37.26588944798778],[127.30131581428809,37.26571121466434],[127.30093327348152,37.265713901848976],[127.30020224748309,37.26520712507477],[127.29957606731409,37.26527623535456],[127.29952112262747,37.26520873375383],[127.29834333423842,37.26499329075178],[127.29749326231602,37.26504001967929],[127.29695877249297,37.2652488368349],[127.29650736060758,37.26527638924221],[127.29658075964433,37.265341755175854],[127.29635538527813,37.26572902242611],[127.29633975661123,37.266028572530125],[127.29612822940145,37.26643153667577],[127.2955870620616,37.26681081079013],[127.29526061977083,37.26691911428544],[127.29522044354947,37.2671464988492],[127.2954471563619,37.26808190824435],[127.29545024516221,37.26843856532272],[127.29521909255027,37.268752419165565],[127.29523854114774,37.26901668752619],[127.29510362473424,37.269415152506525],[127.29452136003562,37.26970466286274],[127.29376561491152,37.27037664605446],[127.29324083247324,37.27062128112165],[127.29318009051032,37.27108137222682],[127.29284931233158,37.271237740267885],[127.2926177717932,37.27118014106236],[127.29209559629531,37.271650579876244],[127.29190660512234,37.27144366137358],[127.29113161374111,37.271581310498],[127.29075677238838,37.27141166131627],[127.29032380898283,37.271480367975734],[127.28944665099053,37.27131535490743],[127.28860187694919,37.271046268852174],[127.28815268361483,37.27103264257671],[127.28793734365887,37.270899594395004],[127.28742180753261,37.2708788011483],[127.28726113049572,37.270711082877526],[127.28568327702105,37.2701212633027],[127.28517564132713,37.269626732925275],[127.28507765581482,37.269283485774636],[127.28481319325005,37.26907835146581],[127.28420632947365,37.26915181248678],[127.28343862910782,37.26897526499694],[127.28266217473119,37.269105066171434],[127.28234101042564,37.2690367737758],[127.28168255297717,37.26872348939399],[127.28089004774152,37.26934009739093],[127.28037210877677,37.26958165035819],[127.27956885442326,37.269677779103034],[127.27925882053223,37.26980961710121],[127.27935787064222,37.27070068418841],[127.27969460011923,37.271370476292034],[127.27956646016943,37.27166669373467],[127.27906833056709,37.27222378027259],[127.27876467185258,37.27213815531559],[127.27767171600723,37.27264154959418],[127.27743344473609,37.272847493533334],[127.27697119182837,37.27293505988895],[127.27676343922414,37.27290589924604],[127.27644060764003,37.27342681635144],[127.2760222461967,37.273613830333716],[127.27587316775671,37.274408894298375],[127.27603738480488,37.27488582535123],[127.2763287741665,37.275170612668546],[127.27687732280168,37.27548417914427],[127.27722416046836,37.27586763311694],[127.2778292045824,37.276183735237545],[127.27836743300789,37.276227674165234],[127.27899482873529,37.27653660998617],[127.27917939235957,37.27649909023852],[127.27985857313377,37.276921952132824],[127.28073223909333,37.27721012652266],[127.28105692411548,37.27741093899271],[127.28128679895242,37.27774056020877],[127.28173753132133,37.27794554092383],[127.28167030470796,37.278182717406814],[127.28142766757901,37.278441895939736],[127.28131614082831,37.27870988313299],[127.2808838037278,37.27889461315687],[127.28128006580427,37.280180628595424],[127.2808433760829,37.280550153278874],[127.28061612470256,37.28111619451834],[127.28042990270745,37.281110505758384],[127.27987344582746,37.28171698229158],[127.28008992265188,37.28245129944817],[127.27996090107844,37.283727837718146],[127.27967038186257,37.283952832488836],[127.27976574723051,37.284544370215556],[127.27972515785702,37.28542522889865],[127.27962455347276,37.285567709454725],[127.27972716758063,37.285618953811934],[127.2794497761135,37.285895826185275],[127.27883640054188,37.28609797753479],[127.27849489098975,37.28657065378029],[127.27890994082719,37.2882066366626],[127.27888497260781,37.28844939398327],[127.27867737546332,37.288822267354874],[127.2783389577302,37.28893558871874],[127.27765725181543,37.29000969301723],[127.2777334555591,37.29028167040688],[127.27837497074407,37.29085748857529],[127.27891102815457,37.292094030174454],[127.27922662456615,37.29428548142862],[127.2806100720942,37.2953945006134],[127.28059699453149,37.295752976940584],[127.28123133963886,37.29650613719671],[127.28155471146587,37.2976107137202],[127.2813221454144,37.29785908212141],[127.28118718621151,37.298279597024234],[127.28026996920615,37.29899805970088],[127.28043797669763,37.300610735468425],[127.28000809229036,37.30132662307877],[127.27975871153419,37.3026580958944],[127.27847713675256,37.304772214344425],[127.27900261617368,37.305681011136976],[127.27725325064412,37.30813954766723],[127.27722878954415,37.30846865921692],[127.27727831822526,37.30885120043096],[127.27771160107304,37.30934188036102],[127.27844499657034,37.31040919633176],[127.27839954675501,37.31072239245816],[127.2784836319249,37.31104230309696],[127.2790651899123,37.31178618733612],[127.28011661314122,37.31366189304539],[127.28092076064377,37.31427537918903],[127.28141788976045,37.31478611028615],[127.28192540783354,37.31548692435986],[127.2830129273789,37.31587268438883],[127.28295416546736,37.316711515727235],[127.28316793406202,37.31736393378636],[127.28333743643977,37.318451625912886],[127.28280658968886,37.319452736339514],[127.28311302403658,37.32008789763278],[127.28263333318074,37.32083058863716],[127.28242058225956,37.32166507254826],[127.28155190923313,37.32231259519806],[127.28159163677664,37.32249031848662],[127.28178334548373,37.32270340701394],[127.28123423651321,37.324151074104805],[127.28123533055876,37.324711246931884],[127.28110383895479,37.32512406378367],[127.28177630468014,37.326558252542426],[127.28181646111044,37.32711480778291],[127.28192250026638,37.327260901568245],[127.28155277496995,37.32745367886951],[127.28126407377835,37.32773859720424],[127.28084447095918,37.32766487477836],[127.27961542869068,37.3280046798607],[127.2796001660771,37.328287375472506],[127.27989637334902,37.32895807687215],[127.27936791110314,37.32994337749219],[127.27949837678169,37.33028251481715],[127.27950834964983,37.331274814090236],[127.27983335109622,37.331560007258105],[127.2798558780764,37.33212082950395],[127.28036549007365,37.33282581486784],[127.28064550488637,37.33348716347427],[127.28087286188985,37.33458666435793],[127.28160050619755,37.334907691398726],[127.28224243796734,37.33547632673763],[127.28254751559933,37.335994266798856],[127.28296613734369,37.336296951528404],[127.28288157480479,37.337104845554116],[127.28343613138077,37.33819763784581],[127.28317823974656,37.33960120415778],[127.28292294743483,37.34028186371432],[127.28320179291514,37.34072243870093],[127.28327239807986,37.341177225201704],[127.28291303036393,37.341780275337655],[127.28307933726666,37.34211521207739],[127.28319866834816,37.3430252568323],[127.28269536412252,37.34418947136001],[127.2831170060016,37.34510950021389],[127.28235654874237,37.345315253555604],[127.28123938895205,37.34593935157693],[127.2806591384338,37.34605607963144],[127.27994856313313,37.345629886981406],[127.27918581672273,37.34494163293382],[127.27739860732393,37.34432266221857],[127.27608985472115,37.34350403724354],[127.27589705857916,37.34316667537569],[127.27536338384581,37.34297840873375],[127.27513195285943,37.34269747488999],[127.27384849737076,37.34281911901665],[127.2729423154146,37.34245557663991],[127.27159160369001,37.34269468040055],[127.27060624723013,37.34241295217527],[127.26873799992102,37.34229545689802],[127.26807223033371,37.34293015006947],[127.26727569151507,37.342980237218775],[127.26652573871618,37.34286750657808],[127.26586120077965,37.34252405855335],[127.26494487727673,37.34261776347941],[127.26472324412772,37.343069592883054],[127.26466879334619,37.343390045413486],[127.26428111984967,37.34349336236879],[127.26368372477923,37.34406954055555],[127.26372306031631,37.34426882056151],[127.26332576444457,37.34489867558265],[127.26306793266721,37.34584470549309],[127.26150419073305,37.3482450098108],[127.26071376019907,37.348753485520845],[127.26020791113879,37.34898555108458],[127.25990421917874,37.34897131153731],[127.25918657016871,37.34937196545816],[127.2578272031784,37.34982675098884],[127.25716856496882,37.34954212358363],[127.2567927914703,37.34951992024479],[127.256366239482,37.349823150840145],[127.25626914396457,37.35001056561451],[127.25542707957244,37.35044820717126],[127.25455724570546,37.35078651349104],[127.25411503127792,37.350786195479735],[127.25358894939698,37.35046596105247],[127.25270049124585,37.351100744263206],[127.25226668268802,37.351270065358705],[127.25218760825868,37.35183015329404],[127.25196010974139,37.35211337545285],[127.2513467911235,37.35259931276657],[127.25078819085194,37.352565620648654],[127.2500179284841,37.352914158998566],[127.24999778837112,37.35326579792161],[127.24968672323992,37.3537209714011],[127.24895615261987,37.354169602787856],[127.24892623301987,37.35439382050957],[127.24867672399127,37.35464556534247],[127.2480780256085,37.35458285152534],[127.24784286285787,37.354911800049926],[127.24724689202361,37.35524282968672],[127.24722365555839,37.35565275041544],[127.24605365410413,37.355375328815356],[127.24556661358719,37.35546181227111],[127.2450509396093,37.35542005847072],[127.24429857755015,37.35475537468176],[127.2437852711023,37.35462996821354],[127.24313974977368,37.354357108533144],[127.24259715258805,37.35377156379617],[127.24221730612189,37.3535949428271],[127.2414290321362,37.35419800231663],[127.24115134015545,37.3541872399762],[127.24086421469633,37.35428045288514],[127.24023771556851,37.35527687929474],[127.23992307711893,37.35545550072522],[127.23910278570362,37.35566674603674],[127.23864792630847,37.357705519161385],[127.23872993617351,37.36013235514272]]]}}
