{"type":"Feature","bbox":[126.5180200155121,37.57957349728074,126.80258140147404,37.782660059003575],"properties":{"regionCode":"41570","version":"vworld-20260909-3f8952dfda77-p2","name":"경기도 김포시","attribution":"국토교통부/K-Geo플랫폼 · VWorld 법정구역정보, CC BY 2.0 KR; 공공주택 복덕방 가공"},"geometry":{"type":"MultiPolygon","coordinates":[[[[126.54784397372909,37.59351575230669],[126.54771107443484,37.59356306651175],[126.54764089619628,37.59339582810026],[126.5474244005608,37.5934203417708],[126.54763050320342,37.59322005168371],[126.54745033029435,37.59309159981481],[126.54730264242603,37.592839615367126],[126.54743688470663,37.59259507111822],[126.547720847745,37.59265126342974],[126.54759820719994,37.59242719522816],[126.54788519973293,37.59231838343251],[126.54788541265211,37.592125466529],[126.5479857154908,37.59216442133917],[126.54802679490491,37.59240905198833],[126.54823912619462,37.592601602849754],[126.54836548222679,37.592601060668365],[126.54921689184111,37.5923477781889],[126.54959628418409,37.59209415770521],[126.54953298860283,37.59204029701808],[126.54960833911015,37.591882750896524],[126.55003523613242,37.59187222451588],[126.55017841623243,37.59207842011639],[126.55014646754847,37.59259160745559],[126.55003903701707,37.59288492838822],[126.54984462830487,37.592985061206704],[126.54960830462332,37.59341013549094],[126.54919485747429,37.5934928814673],[126.54931183646347,37.5932149679285],[126.54875337635234,37.593137781991196],[126.54857332001065,37.59303473377506],[126.54853235757973,37.59290636558627],[126.54824139968197,37.59286795233717],[126.54801057585753,37.59296643827465],[126.54786764771465,37.59314930424952],[126.54784397372909,37.59351575230669]]],[[[126.55105599144389,37.599581005103886],[126.55104849798666,37.59968828479378],[126.55101059452129,37.59970937552795],[126.55094152996307,37.59965641561761],[126.55105599144389,37.599581005103886]]],[[[126.54934328497535,37.60470409045266],[126.54934958910495,37.605262151195205],[126.54892665401427,37.60631536439074],[126.54866030942813,37.606359067555864],[126.54755517729866,37.604851157842056],[126.54808116150716,37.6041863476866],[126.54783102585546,37.604204423701745],[126.5478145908866,37.60390387437774],[126.5476350508673,37.60353183758811],[126.54781626241953,37.603437514922724],[126.54781021591805,37.603169412134],[126.54751896821837,37.602738203483895],[126.54725607094579,37.602708857874354],[126.54721232908068,37.602266966648806],[126.54730946094897,37.60190953965134],[126.54758154779692,37.601644298296016],[126.54757070033664,37.601503855553446],[126.54775523247913,37.60138166930598],[126.547821847313,37.6012272610465],[126.54759511304395,37.601124707221864],[126.54773331677076,37.600816965679755],[126.54765962658578,37.600666380717506],[126.54788498085449,37.599975362203686],[126.54804671949275,37.599988504902406],[126.54882893336001,37.599624950216864],[126.54927382500757,37.598942182162226],[126.5493627659676,37.59863210563491],[126.54930317712896,37.59845211340552],[126.54895499369076,37.59838314576181],[126.54872769777052,37.59823557046898],[126.5487076651756,37.5981084563272],[126.5494253385256,37.59723522527517],[126.5494281298983,37.59677631013503],[126.54956201777927,37.59625955675432],[126.54988404850856,37.59610691540778],[126.55026479230254,37.596325891217596],[126.55075820283803,37.59742735846231],[126.55063346512787,37.59795202281711],[126.55076950312328,37.59889470773046],[126.55065862926435,37.59926204999853],[126.55074000935754,37.59959797565208],[126.55060598691868,37.599854723592536],[126.5508273492729,37.59973217618576],[126.55091399584565,37.59977759110826],[126.55073755749852,37.59994179128594],[126.55021182713709,37.600085949134694],[126.55019134142692,37.60024595772919],[126.55054832992526,37.60097720092844],[126.5505577683481,37.60149608343472],[126.54968835702259,37.60222489903193],[126.54943115689849,37.60298929301865],[126.5494517140363,37.60344331952925],[126.54968451097312,37.60388682444042],[126.54934328497535,37.60470409045266]]],[[[126.5546803143187,37.77761918538174],[126.54177016128607,37.782660059003575],[126.54176898418919,37.774412803353755],[126.54106360457021,37.7715667188276],[126.54030487849813,37.770255246375186],[126.53898016079636,37.77026989277384],[126.53826744283981,37.770377802827824],[126.53776101759838,37.7706044627088],[126.53719454896344,37.77100930987606],[126.53668695052222,37.77157177460748],[126.53642003140692,37.77166438833857],[126.53631015576956,37.771848831525865],[126.53596393068604,37.771901634383575],[126.53538292641139,37.77175839939041],[126.5348454500039,37.771418375559584],[126.5333975418357,37.77113858887952],[126.53035286297856,37.770853044455],[126.52867638926608,37.77080144728937],[126.526477160737,37.77042738220645],[126.52584742555314,37.77005698003654],[126.52490002901682,37.769668582087135],[126.52468263222652,37.7689633460528],[126.52476728945891,37.76865115489676],[126.52539986870892,37.768701761540555],[126.52538523066134,37.76845995767613],[126.52527440101316,37.768314321516115],[126.52540472140811,37.768042108543305],[126.52599126020321,37.76776026252821],[126.52586425099838,37.76769026971242],[126.52537425145195,37.76791534717029],[126.52520298494807,37.768242164089095],[126.52524596843612,37.76855247446908],[126.52475292899076,37.76849038380877],[126.52458305936716,37.76854000847977],[126.52452565522385,37.76896690226588],[126.52476734605273,37.769433465574096],[126.52460089272215,37.76956071076383],[126.52210041595917,37.768489053770864],[126.5216000902785,37.76820576295754],[126.5199554762159,37.766813934737115],[126.51869601123815,37.76449205746905],[126.51808602821073,37.76365897154301],[126.5180200155121,37.763082917312424],[126.51828730203833,37.76232029497429],[126.51891647308021,37.76158084496554],[126.52153199348841,37.75899881448801],[126.52366774705956,37.75720018793908],[126.52561289250048,37.75576743637355],[126.52583994977337,37.75574431259852],[126.52574733167089,37.755622976937325],[126.52620548594054,37.755097478917776],[126.52843608094447,37.75278558094817],[126.52906166681,37.75197608263453],[126.53005858297632,37.75043053626525],[126.53057936868589,37.7490659451887],[126.53067473203984,37.74791133055658],[126.53057175726049,37.74729628458944],[126.5308187463529,37.74726541928787],[126.53052004574117,37.74723249761125],[126.52994108962537,37.74632940104387],[126.52985937257895,37.74607138259131],[126.53002181583005,37.74559775543016],[126.52991613083356,37.74315197226003],[126.52952479594965,37.741900399170156],[126.52939039630505,37.74075547950542],[126.5291007246602,37.740135947673814],[126.52931783039638,37.74000478737618],[126.52929931971167,37.73994480888158],[126.52914564401775,37.739997424240904],[126.52886814993488,37.73991510199422],[126.52892677129535,37.739189927162364],[126.52847593380369,37.73780423864298],[126.52840167457077,37.737238470190576],[126.52775924080207,37.737304074486595],[126.52829247087321,37.737166641919764],[126.5280477437387,37.736588910852724],[126.52782560114872,37.73663350230857],[126.5277786165644,37.73655057814949],[126.52798138069713,37.73647210537911],[126.52708283005437,37.734437500337684],[126.52686498590303,37.734346152178446],[126.52651641172497,37.73438625998769],[126.525889123552,37.73338785076463],[126.52602847291384,37.73328708857317],[126.52606018074839,37.733114114661944],[126.52628203318255,37.73303879336355],[126.52606696123213,37.732981141638724],[126.52584499740694,37.73320421892289],[126.52565837599991,37.733237488565145],[126.52551271956648,37.73304876383644],[126.52526258277729,37.73295730810646],[126.52496667233281,37.73258763196659],[126.52529805904453,37.73231910127486],[126.52544952847612,37.73182629029849],[126.52571567683697,37.73180925126392],[126.52536813122994,37.73167942964868],[126.52525322143376,37.73117574352689],[126.52497889570891,37.73064939482791],[126.52493131374493,37.73027551960963],[126.52503163759583,37.729931133870394],[126.525411627656,37.729677439810786],[126.52628809142084,37.72941326237103],[126.52675644336554,37.72944264949085],[126.52702445932383,37.729332204389785],[126.52687209427187,37.729074926701664],[126.52677734267061,37.72908172679482],[126.52522623244936,37.72962850097692],[126.5249425381944,37.72986627473101],[126.52480729593005,37.73043998651568],[126.52519038697456,37.73149189950517],[126.52521935494751,37.73198826643495],[126.52510154718622,37.732167605853306],[126.52486274264436,37.731375877450894],[126.52400155203594,37.72935439004933],[126.52306179477287,37.72635692545179],[126.52265178840584,37.725320617264295],[126.52267243797925,37.72458277493119],[126.52252051400006,37.72354860125793],[126.52251993638335,37.723437158290565],[126.52261157352552,37.72339843650615],[126.5224867795662,37.72332791784334],[126.52207203907766,37.721197988963084],[126.5215835370228,37.71934902130283],[126.52120947943675,37.71591167285953],[126.5211619369987,37.714365919272446],[126.52142899265795,37.71344538847535],[126.52187979152204,37.71239212406457],[126.52293104677986,37.71090887811411],[126.52366134656313,37.71008059081029],[126.52401749533564,37.709790629862496],[126.52511371486669,37.70917271658233],[126.52586912256218,37.708839939103555],[126.52825123999831,37.7071480554512],[126.52938212012633,37.706065693907995],[126.52985581345378,37.705492261696925],[126.52985826136293,37.705237405776685],[126.53000746254844,37.70499840657237],[126.53022092471785,37.70499314013506],[126.53016786303066,37.70485871152954],[126.53087321120859,37.703477984781266],[126.53109265795442,37.70273091056322],[126.53109674978053,37.70243599539831],[126.53128793013758,37.70222224426657],[126.531442547266,37.701771384162214],[126.53197513055018,37.699020510586664],[126.53213553552389,37.6978347080169],[126.53215174023335,37.69633678619669],[126.53206671020014,37.69570723924505],[126.531746759042,37.695640658414185],[126.53178034525382,37.69558820204018],[126.53216052396016,37.69557039481366],[126.5324999191526,37.69561368032701],[126.53259011000712,37.695362099986525],[126.53275301768728,37.695357294892794],[126.53290715691196,37.69447646122001],[126.53302414810463,37.69436765432535],[126.5328990190738,37.69429518099171],[126.5329756372827,37.694294241283906],[126.53301265326232,37.69407268598626],[126.53343081633213,37.693821826882704],[126.53338194079411,37.692454836990144],[126.53393467957835,37.68773608620282],[126.53369551391371,37.686934854618386],[126.53337884789462,37.68624817102902],[126.5334341652515,37.68616619496937],[126.53333299788251,37.68615802814043],[126.53334331503352,37.68591768140284],[126.5332160282494,37.685567465493556],[126.53282673074457,37.68528672299031],[126.53251046088246,37.68450874320539],[126.53241192198398,37.683806108916656],[126.53233280466205,37.68376422485097],[126.53201501035886,37.683822625798825],[126.5319820754256,37.68370934293282],[126.5323753156362,37.68363464394024],[126.53200199287211,37.68221001745977],[126.53146751324435,37.681114144240226],[126.53128003394623,37.68005990355185],[126.53074160981606,37.6791533672762],[126.53032527751282,37.67819042807297],[126.52989484076126,37.677578233610504],[126.52910842501888,37.677208409844496],[126.52887631651909,37.677000177912504],[126.52863419629556,37.676577573584474],[126.5285157938495,37.676538638191786],[126.52856878007825,37.676477160016844],[126.52842165939087,37.67613440197631],[126.52807422966652,37.67572557404808],[126.52793147119824,37.675355127450565],[126.52803812727356,37.67529051347389],[126.52790684747794,37.675067483656385],[126.52753935478009,37.6747493392588],[126.52704720646346,37.67469446133642],[126.52675365768988,37.67423529343972],[126.52672543801354,37.673986466160805],[126.52684662883023,37.67367491042177],[126.52742798434608,37.6732122763686],[126.52798354563693,37.67295565137709],[126.52845727759191,37.67295832128494],[126.52837391303521,37.67269239087801],[126.5289945339122,37.67272385536797],[126.52995564682453,37.672557910109674],[126.5304116855617,37.672572493358594],[126.53046411034336,37.67271821832482],[126.5308023017933,37.67297745858454],[126.5317600550065,37.67276872487939],[126.53173032346558,37.67235374503462],[126.53184457300003,37.672291879434084],[126.53286931717724,37.6721749590817],[126.53350844065409,37.67188670071053],[126.53436302774685,37.67181705382859],[126.53461097983323,37.6715264419432],[126.53509013671423,37.67126684180359],[126.53583081922554,37.67105606685193],[126.53599932700321,37.67088058983087],[126.53676438709635,37.67068181487159],[126.53696241171758,37.670392524652364],[126.53754452181832,37.66994030346507],[126.53818078505937,37.66979847888351],[126.53963342555245,37.66913051826458],[126.53993457407334,37.66853713222157],[126.54025100293727,37.66827875106877],[126.53933409073011,37.666701209199665],[126.53910226250477,37.666591339724974],[126.5391230450288,37.66625465496389],[126.53929949391355,37.666186708706796],[126.53921632608794,37.666005126096834],[126.53934417521751,37.66563256879023],[126.53977049049853,37.66526184212132],[126.5402173322838,37.6650334488878],[126.5402750095149,37.664910384535006],[126.5408811217017,37.66472079316817],[126.54098405515857,37.66459564332983],[126.54158905163777,37.66429188104687],[126.54161044771124,37.664019410767466],[126.54200065700603,37.66414453953289],[126.54275765112624,37.66390949394508],[126.54368911873598,37.663000855964725],[126.54459388751702,37.66264106180741],[126.544485639627,37.66246881901128],[126.54439658603967,37.66264045308331],[126.54403449491154,37.66261407953977],[126.54357228654507,37.66271125491143],[126.54313228722728,37.66294947092544],[126.54294150212891,37.6632817681345],[126.54272415294933,37.66346538196074],[126.54230652976698,37.66348409717075],[126.54276344525985,37.66255834355776],[126.54288180818,37.661858547886425],[126.54262869796723,37.66075961199862],[126.54270328598356,37.66062592671382],[126.54256917918975,37.660679681474434],[126.54246387687553,37.66049965489352],[126.54233699702813,37.66052465098637],[126.54229309007201,37.66045846668477],[126.54283854351925,37.66017026947905],[126.54225233889748,37.660050121316836],[126.54209814846882,37.65976093259983],[126.54187211527535,37.659625584969476],[126.54167639303623,37.65898782542946],[126.54136019953096,37.6587104755876],[126.54076008359864,37.65842782936336],[126.53981969931145,37.658052449795264],[126.53943576115566,37.65817266448443],[126.53948464388017,37.65831136223007],[126.5391689983472,37.65836315086697],[126.53866364299925,37.658260915531486],[126.53823780113039,37.65807590062855],[126.53794938443204,37.65724542370136],[126.53760819799892,37.65677286864983],[126.5375467765897,37.656348755209024],[126.53740389774708,37.656300822645264],[126.53757320053379,37.6561994229605],[126.53762485995081,37.65579100651714],[126.53725118055551,37.65573859165923],[126.5366917699837,37.65547708577051],[126.53559620442611,37.65565075721806],[126.5353702907086,37.65590562637452],[126.53515728578172,37.65593823232983],[126.53453550248476,37.65558859819569],[126.53394044766078,37.65542373973625],[126.53328879717725,37.65545328207478],[126.53278520971381,37.655286501661486],[126.53249375491313,37.65530611432987],[126.53204416607971,37.65521021511009],[126.53170876030552,37.65525378020611],[126.53149725287018,37.65507702549496],[126.53164414358876,37.65467284520118],[126.53187661680454,37.65452803568418],[126.53209016072064,37.65451564793275],[126.53246593498714,37.65393950426169],[126.53272934797789,37.65371227671894],[126.53292488606243,37.65303340065334],[126.5328398524359,37.65276709658785],[126.53288829678259,37.65266598296714],[126.53367665647923,37.652085260999],[126.5346428430764,37.650551363903645],[126.53496930522363,37.65044108361054],[126.53470005947179,37.65050017935294],[126.53466613369675,37.65044181619091],[126.53506682812754,37.65000063790793],[126.53572509021603,37.650000649304715],[126.53533710963696,37.65000064075292],[126.5367260532882,37.64693774824471],[126.53690491145457,37.64670848564744],[126.53766123992318,37.646400859047176],[126.53761622983589,37.645911739539685],[126.53780096388246,37.64525799469365],[126.53812843483782,37.64470036470893],[126.53818403516405,37.6442717807804],[126.5387248793556,37.64300622259958],[126.53904334829346,37.642675854077105],[126.53956537547474,37.64142581410157],[126.53955817637606,37.641195695120295],[126.53930820487689,37.64119593483908],[126.5395344833104,37.64112046962876],[126.53932598343471,37.639674793495374],[126.53947293973035,37.63953069880361],[126.54047223463553,37.63968846272249],[126.5415675019524,37.63853704132868],[126.54115240123943,37.638265594083805],[126.54138618150392,37.63808669402222],[126.54177113475598,37.638320561537384],[126.54212221703025,37.638282840997284],[126.54250614710122,37.63837949050641],[126.5440813097143,37.63965662500016],[126.54433369498662,37.63940821816697],[126.54420675854536,37.639125541866534],[126.5442126479004,37.63792056961016],[126.54585613637391,37.63608022659107],[126.54491809219805,37.635539287253536],[126.54487191609749,37.63544447013888],[126.54517354342045,37.63520374858628],[126.54604752244519,37.635676443017324],[126.5469668008148,37.634631633837],[126.54729128846513,37.6344886505243],[126.54739304962045,37.63412407206607],[126.54867995004535,37.63154322982581],[126.54978962274616,37.62867822873318],[126.55051048572739,37.628157761745555],[126.55125994388072,37.626574501008655],[126.55077502879875,37.626334879832534],[126.55073981214467,37.62623303227452],[126.55183212939421,37.624022496784164],[126.55358909754602,37.61962838160298],[126.5542625528364,37.61736710479606],[126.55469809112047,37.615031648691165],[126.5553182942808,37.614955817485416],[126.55515221195444,37.6117985664438],[126.5549060951262,37.611011260679454],[126.55510316393998,37.61098986722787],[126.55509408915897,37.61074904512453],[126.5549718374319,37.61078365988514],[126.55483336752077,37.610719519166416],[126.55460477502706,37.60945978574748],[126.55471553550497,37.60895479830756],[126.55495604954078,37.60860937659206],[126.55490229884579,37.608220040379805],[126.55643160426017,37.60574793386384],[126.55664377105892,37.60580959158226],[126.55754331074681,37.60510536271518],[126.55992859833759,37.60104478201854],[126.55988539835556,37.600989593411946],[126.560222089619,37.600820856642635],[126.56040475125222,37.600834646178456],[126.5607802605157,37.60067876626993],[126.57302370674684,37.59042962699322],[126.5733784667239,37.59009812148489],[126.57328529525921,37.590000760733815],[126.57322626965686,37.590036791707774],[126.57328000238557,37.58999058239694],[126.57352094042622,37.59016913908135],[126.57373568988139,37.58999306024801],[126.5734996970664,37.58981218188527],[126.57381734135083,37.58963188606767],[126.57386758053144,37.58946646841546],[126.57403896381629,37.589468686467264],[126.57425762723119,37.58935117589918],[126.57435544657912,37.589158916669525],[126.57422606941529,37.5889340885127],[126.57410890215273,37.58891949809605],[126.57403029597211,37.58899853417153],[126.57396175900755,37.588910956112976],[126.57412813238804,37.58874102668105],[126.57448215215331,37.58858824141026],[126.57456043044884,37.58841520265071],[126.57434443862363,37.58785954155732],[126.57400901757799,37.587859585691525],[126.57371945462934,37.58759392150535],[126.57364890274357,37.587325678772594],[126.57386303236115,37.58709593545364],[126.57418583117875,37.58704467516641],[126.5743410393986,37.58710858287944],[126.57431825363142,37.58716213100442],[126.57413331297231,37.58713224047203],[126.57429460548155,37.58730328690611],[126.57448775225075,37.58785254272627],[126.5747465119684,37.58804598698519],[126.57477311198225,37.58839309157572],[126.57484155302944,37.58834970493703],[126.59020641128238,37.592189014539635],[126.59172170943687,37.59266269586805],[126.59156446016384,37.59301195341234],[126.59814323773689,37.59628433073143],[126.60138847644386,37.597700064737886],[126.60362877488318,37.59899293808725],[126.60546798724893,37.6002644389932],[126.60706594689745,37.601699252640636],[126.60947013797521,37.60454392879221],[126.61435581356096,37.6062871127609],[126.6155222194477,37.60568192660154],[126.61568938868207,37.60545599378737],[126.61597528044365,37.604410409158554],[126.61648822111539,37.60371757372967],[126.61691108324587,37.60355226978558],[126.61865001909958,37.603535129337835],[126.6188755591573,37.60402969587178],[126.61911118172826,37.604181382821224],[126.61957819655233,37.60413446682714],[126.61982092238652,37.603520506846756],[126.61998585616057,37.60344924794285],[126.6209155504445,37.60368621641311],[126.62155307512099,37.60330535498621],[126.62217628334459,37.603197277316006],[126.62266464191956,37.60295586247051],[126.6230017984557,37.60300987555096],[126.62320111589796,37.603307549578986],[126.62342407561871,37.60341216410706],[126.62370050288585,37.603334494074005],[126.62379109812147,37.60322157744065],[126.62373958020298,37.60298644606405],[126.62327430868696,37.602482651197825],[126.62332282803148,37.60230793760951],[126.62357827618172,37.602171381718826],[126.6238886664995,37.60230301738034],[126.62427155377607,37.60234000321545],[126.6245867307714,37.602789534328764],[126.62517277423653,37.60261261309483],[126.62556150138097,37.60272112294234],[126.62566802364954,37.602580117722994],[126.62574102730017,37.60259274622551],[126.62581885590374,37.6027387712091],[126.62553193156808,37.60409548026627],[126.6255634364418,37.60451593963685],[126.62579175377834,37.60471628743695],[126.62764890398931,37.60575943573379],[126.62778991255452,37.606400700724784],[126.6277272121392,37.606801437973076],[126.62786386070869,37.607357376522515],[126.6284418524268,37.60802114593313],[126.62932510585249,37.60960402172434],[126.62944119474253,37.61017115693796],[126.62927543914661,37.61122562286453],[126.62938760245446,37.61162156061911],[126.63030374924496,37.612439550956815],[126.63057774159653,37.61307194247768],[126.6309439199033,37.61327890302101],[126.63129299395649,37.6133664383516],[126.63149038886586,37.61356696470739],[126.63161300476519,37.6141425603135],[126.63210968296725,37.61501609789533],[126.63218075222696,37.61560448919811],[126.63234906899146,37.616029031192205],[126.63213960631658,37.616686140146655],[126.63167418964005,37.61701011779296],[126.6316590979719,37.61734127865411],[126.63240985290906,37.61784085988091],[126.63259982025666,37.61821986265466],[126.63306973247292,37.61864422174479],[126.63329974132549,37.6193018124044],[126.6334930296394,37.619369710794466],[126.63384903477503,37.61920554672073],[126.63425563312013,37.61919245110698],[126.63456363217983,37.61936289991678],[126.63492410330687,37.619733699916125],[126.63531531735188,37.61982276628011],[126.63599689850248,37.6202897244137],[126.63646099824116,37.62035113453275],[126.63657430137815,37.620490287759594],[126.63642234711692,37.62080093484468],[126.63644713906643,37.62105103119996],[126.63662161011332,37.62134748274371],[126.63626893003385,37.62166314385467],[126.63638741222238,37.62193520889327],[126.63681218385646,37.62244444710209],[126.63683027841489,37.62276097039289],[126.63709654753704,37.62343093876191],[126.63674390308572,37.62381484495521],[126.63737616515816,37.62498993764443],[126.6371202230527,37.625332671003456],[126.63728533406774,37.62584164037489],[126.63725977172987,37.62650940809593],[126.63698450752928,37.62709570432209],[126.63645695266513,37.627675462195434],[126.63685178210936,37.628107089784564],[126.6384637018504,37.627460547240766],[126.63911526738826,37.62730938456439],[126.63942188259574,37.62693586332842],[126.63970427805125,37.626772302282326],[126.63990766302015,37.62676925774361],[126.6409805159714,37.627199100197394],[126.64140220288328,37.627146896084],[126.64168806768357,37.62736483972212],[126.64221322136032,37.628102428031454],[126.64353064719224,37.628250866179044],[126.6446446776199,37.628516370541],[126.64569675182184,37.62841255640937],[126.64620559787191,37.6278259247489],[126.64710996787511,37.62747810123446],[126.64744471639129,37.627990690146284],[126.64746124459295,37.62857356072048],[126.64756415518642,37.628933412334774],[126.64781098965251,37.62902594318124],[126.64814592042207,37.629354397723915],[126.64858272029566,37.629591643603874],[126.64878719808296,37.63051941222],[126.64901437593251,37.63069071751532],[126.64964500801496,37.63186499171875],[126.65007953481421,37.63217515056294],[126.6504153121605,37.63262973645944],[126.65057042030399,37.63329607136366],[126.65048951659676,37.633338932510725],[126.65055845705935,37.63471253781786],[126.65150541104502,37.635146692501415],[126.65142876684327,37.636163716796624],[126.65177454878514,37.63645445918672],[126.65157354552726,37.636886437184685],[126.65145278661932,37.6375455217074],[126.65119985729747,37.63786700307526],[126.65166323682675,37.638561569296066],[126.65163157006562,37.63870900935676],[126.65255470350232,37.6394882385557],[126.65319830447993,37.63911823713999],[126.65400941779801,37.63821402494017],[126.65554497992422,37.63793838845507],[126.65742209761633,37.63795485981641],[126.65875693414982,37.638634195718936],[126.65888667004563,37.638641888773556],[126.65953468192777,37.63823579871637],[126.66007435651626,37.637749421970284],[126.66056372966756,37.63715394222601],[126.6616314413282,37.63663164700809],[126.6629803608143,37.636787563500825],[126.66369611140136,37.636190188284],[126.66461478906079,37.635969825358956],[126.66548915575315,37.636234726869645],[126.66697445558705,37.63593908456275],[126.66771364000088,37.63547830301546],[126.66880959510952,37.63507624807335],[126.66920535604712,37.635008384652025],[126.67150395032726,37.634046848863356],[126.67242216385154,37.63384162956041],[126.67290703612113,37.63307208112231],[126.67414701694429,37.6320501701945],[126.6742619600019,37.63120379198706],[126.67470536943108,37.62987900285537],[126.67501601939283,37.62990886226318],[126.67597435430277,37.629580960379144],[126.67632915367412,37.62972553588914],[126.67699617603338,37.62967274659642],[126.67734033199213,37.6295348882938],[126.6780599420081,37.629478578536634],[126.67859567706616,37.62928662507068],[126.67933815297428,37.629671848209554],[126.68019161689772,37.62948215025765],[126.68055150500771,37.62930941331205],[126.68086012237737,37.627526732468134],[126.68171395537809,37.62657040687244],[126.68257072657156,37.626256634515656],[126.68260606655274,37.62602389165804],[126.68238611293086,37.62555225789803],[126.6823615264899,37.62521967747363],[126.68283616748778,37.62478049131624],[126.68373444204119,37.625230311926565],[126.688869834907,37.62201600464662],[126.68907676964537,37.621837581176784],[126.68911570310807,37.62162641506987],[126.69062014964624,37.62072050887002],[126.69102248570002,37.62109434712736],[126.69153197520488,37.62140370378224],[126.69206924684939,37.621248009737734],[126.69338930412873,37.62032824259995],[126.69407978456822,37.62022474667536],[126.69446850906583,37.62033921949376],[126.69458115002257,37.62021990845154],[126.69450147290688,37.62021060187342],[126.69451272702366,37.62010286846973],[126.69468568788425,37.62010918029689],[126.69482786446383,37.61999007869943],[126.69471123400855,37.619982953675304],[126.69472741745223,37.6198344103256],[126.69497654142157,37.61984449166252],[126.69546413760574,37.61928259786241],[126.69583310676974,37.6190729509139],[126.69630998991322,37.61892045183322],[126.69650598949204,37.61859885968676],[126.69708938260217,37.61797447427087],[126.69737995384064,37.617850204188514],[126.69819411873027,37.61783484750187],[126.69864724837437,37.617425498760404],[126.69921028750575,37.61653797633566],[126.69951004842527,37.61637149470524],[126.69984030564505,37.61598226343189],[126.69993205429307,37.61560093229533],[126.70021025814005,37.61507475094466],[126.70090545683398,37.61427127558666],[126.70161393105278,37.613946472241764],[126.70209200781993,37.61414900183649],[126.70248632757499,37.61396473234251],[126.70348830336565,37.61299561620482],[126.70406016506443,37.61208707049875],[126.70474398635233,37.61167856931998],[126.70493121741303,37.61189949882205],[126.70545047643893,37.612148469116455],[126.70543610044464,37.61176375617014],[126.70585441772262,37.61039973079497],[126.70618570571817,37.60989008419035],[126.7062093153811,37.60969090990757],[126.70592921766148,37.609149063509804],[126.70612544127351,37.607677003950926],[126.70578585842955,37.60713867405536],[126.70513029953257,37.60654744708225],[126.7045855170561,37.60627015302537],[126.70447860193413,37.605785048740096],[126.70400327949652,37.60465525912578],[126.70411617683001,37.60424110041596],[126.70402747917217,37.60371830862031],[126.70419988279771,37.60299130250568],[126.7046814621163,37.602474630197825],[126.70542602988415,37.603102401482616],[126.70692989116262,37.60359015380714],[126.70708218541634,37.60378481136857],[126.70761427954184,37.604095569744324],[126.70840823013107,37.604910677649414],[126.70936026529148,37.605031570896],[126.7096028331913,37.60512958654563],[126.71019766966499,37.60514541700613],[126.71173308631884,37.604999976619034],[126.71243804612025,37.60419235634221],[126.71234949108984,37.604158283673165],[126.71241756877801,37.604018092878874],[126.71269403364894,37.60406796040034],[126.71260174796132,37.60390363273601],[126.71300941718788,37.60373792614484],[126.71316474501073,37.60308382914398],[126.7130713819828,37.60306727563612],[126.71303791621219,37.602961612310345],[126.71313188942676,37.60293097903093],[126.7134064304786,37.60299752916828],[126.71372542139727,37.6036489767918],[126.71381557665708,37.60376351351303],[126.71406736793983,37.60385422481107],[126.71562485588356,37.603806200676516],[126.71586912973868,37.600867343724325],[126.71630418425438,37.59948736141895],[126.71731776526802,37.59872104782604],[126.71914673955534,37.597922447454586],[126.72008871593741,37.59731286750267],[126.72115997885584,37.596431897125356],[126.72171133111719,37.59627693889933],[126.72226361316508,37.59599434228656],[126.7220435647286,37.5958135515669],[126.72526329022544,37.592169615302446],[126.72566013016508,37.59226430856621],[126.72562215164643,37.59196311658446],[126.72541412667299,37.59183547501209],[126.72548415177442,37.59178205026297],[126.72557390511531,37.59187072993031],[126.72724806137953,37.5919033890478],[126.72752442877594,37.592236259920305],[126.72789299629882,37.592511923745],[126.72872073100773,37.59272134493234],[126.72920570781659,37.592753988538135],[126.72954091962767,37.592559084007036],[126.72990167317978,37.592214732248266],[126.73033267260925,37.59217320265643],[126.73132219958681,37.59176159034342],[126.73354180543689,37.59146368584408],[126.73344949535438,37.591355927909724],[126.73367279022872,37.59104393887196],[126.73418858351589,37.59094992932376],[126.73464815338727,37.59118482122908],[126.73504491729021,37.59068295753747],[126.73586843831413,37.59057867022743],[126.73626982762262,37.59064800824912],[126.7362526974895,37.5904827877791],[126.73663083201815,37.59072172737946],[126.73674645804105,37.59098974176155],[126.7366997111761,37.592433375076034],[126.7369099486988,37.59256304634823],[126.73671681549727,37.592496897994394],[126.73677438986815,37.59297365663662],[126.7370165831616,37.59317579322425],[126.73733036031098,37.59317255206643],[126.7378891563216,37.593448880318284],[126.73881289819164,37.59356863465486],[126.73901279803057,37.593702679080145],[126.7390887008148,37.593347684083135],[126.73931463208892,37.59321977049107],[126.73941427132198,37.59291209042305],[126.73955219950524,37.59295000680658],[126.73923933064853,37.592845986810424],[126.73909572030122,37.592639049011346],[126.74141107980537,37.593006462480986],[126.74164657407793,37.592071982107555],[126.7443240524543,37.592495357876764],[126.74525872266477,37.58871674389457],[126.74614310643064,37.58866282217395],[126.74635468921583,37.588442542798255],[126.74646300351097,37.587860226912824],[126.74683096891096,37.58723597412702],[126.7472390053158,37.58679648940643],[126.74775943195581,37.586439188376744],[126.74740032196793,37.58625305869998],[126.74807618588625,37.585680511005954],[126.74868263600507,37.584991713278136],[126.74915900590744,37.58484463733399],[126.74942349969373,37.58467739518568],[126.74961021925493,37.584283325899925],[126.7497940176845,37.583707374682334],[126.74963334314012,37.58272242026991],[126.74971348968249,37.581461222411015],[126.74952565558218,37.581083247181255],[126.7511993627405,37.58054143431256],[126.75125120496925,37.58008907604724],[126.75143624779804,37.57997966583946],[126.75176148539842,37.57957349728074],[126.75348782826198,37.580081129818346],[126.75410099609674,37.58016660389293],[126.75432832072204,37.58038237753438],[126.7546984288906,37.58013720488748],[126.7556286288203,37.58049781011733],[126.7557255948164,37.580328402797726],[126.75605558007562,37.580902734981116],[126.75581324446269,37.58106384150932],[126.75582460312373,37.5811632519102],[126.7555750785774,37.581302674274795],[126.75553877689282,37.58142197760935],[126.75570259901812,37.582277408198806],[126.75560327465374,37.58230281509531],[126.7556504686265,37.5828930703021],[126.75596017033327,37.582951147195445],[126.75610796207901,37.583408983087914],[126.75602797416475,37.5835267925957],[126.75798490918956,37.585327965400246],[126.75801120995628,37.58522193014703],[126.75864333419695,37.58499152371872],[126.75914024766556,37.58508656178307],[126.75917765366424,37.58488515368369],[126.76069659974544,37.585251363238406],[126.76131481119104,37.58526896290519],[126.76182494849982,37.58544006483424],[126.7619934683272,37.58535734050807],[126.76199072793827,37.58511041095549],[126.76248516632778,37.584998221643325],[126.7631773308934,37.584962178220565],[126.7633996055265,37.58508354397569],[126.76346981897022,37.58546028381766],[126.76382373451672,37.58585600888158],[126.76410383942502,37.58582224750657],[126.7646633832379,37.58627666779239],[126.7651253783621,37.58652479634567],[126.76567816127383,37.586707504876706],[126.76588066464437,37.58689092600766],[126.76675389704636,37.587222083572236],[126.7670527179819,37.58772047826715],[126.7672340289989,37.58784020969286],[126.76725586470955,37.58792866698774],[126.76710746734649,37.58803255276861],[126.76751633289541,37.58839529100178],[126.76766736650872,37.58823160042539],[126.76827577371286,37.587975736352995],[126.76826593901652,37.58784001016163],[126.7693116114698,37.58733470153726],[126.77086494065368,37.58604680656625],[126.77196515150031,37.58557171096385],[126.77243627845282,37.585214764333685],[126.7727518759876,37.58509515974739],[126.77299066161544,37.58504747915049],[126.77420071600072,37.58510044887324],[126.77495533569261,37.58486375421633],[126.77558620674165,37.58505668638392],[126.77599289793886,37.58504874421757],[126.77667725959037,37.58464685700561],[126.77836737528712,37.58463005650993],[126.7797076686342,37.58437496935557],[126.7799587920663,37.58421861551952],[126.7799595170788,37.58402493738768],[126.78010901179563,37.584350600383075],[126.78039715854291,37.58418452426972],[126.7804536452743,37.584045258080984],[126.78089152556056,37.583935718443904],[126.78142129065242,37.58397075648092],[126.78152636869059,37.583784290595815],[126.78160689958088,37.583969423840024],[126.78173236184794,37.58397978028141],[126.78177167680644,37.583834753070896],[126.78200707439997,37.58400367676935],[126.7822878733606,37.58400920615812],[126.78204998623198,37.583837629665496],[126.78411326010374,37.58258524401023],[126.78694241811056,37.585545549072876],[126.78704791024913,37.585579515902495],[126.79368143261902,37.581576149488974],[126.79382234045286,37.581827776821655],[126.79391224069909,37.58296148190931],[126.79373176820896,37.58303859492077],[126.7937495309211,37.58345814251994],[126.79344107944783,37.584519603641894],[126.79378304748634,37.584469286151126],[126.7942242891489,37.58407164737166],[126.79454090179848,37.583547945721044],[126.79440936954329,37.58268530178052],[126.79450071363206,37.58259846321366],[126.79469788755664,37.58262218035966],[126.79492828519639,37.583426144530826],[126.79488655197284,37.58502081312876],[126.79493308943428,37.58520302038827],[126.79524424435058,37.585215438684266],[126.79521761568388,37.58534971575324],[126.79554008607457,37.585154581691356],[126.79572152172148,37.583120637477194],[126.79581104351851,37.58318554863155],[126.79629952860569,37.58373825086649],[126.79687131103854,37.58403966892014],[126.79709711617535,37.58427318901201],[126.79629403141223,37.58490333121889],[126.7964287360147,37.58503078186774],[126.79668500693684,37.584908553898266],[126.79715590624288,37.585393575451825],[126.79722732574827,37.585385621883155],[126.79752569680646,37.585976789750994],[126.79759829094598,37.586405450096464],[126.79876788417684,37.588072871497545],[126.79913991490628,37.5881951165595],[126.7996246789431,37.58801959356393],[126.80027224444751,37.58794142176616],[126.80049787240796,37.58779407838487],[126.80073788643551,37.587834997096515],[126.80094007417676,37.5881661215391],[126.80082142679198,37.58827656068867],[126.80099889085143,37.58852971361754],[126.80088148170044,37.588575411795404],[126.80077337044818,37.58904147671716],[126.80109840376345,37.58896719928054],[126.80122703524879,37.5893488698601],[126.80066324518059,37.58999971918464],[126.80052000015591,37.590308901832366],[126.8000870755433,37.590351526537376],[126.79944965203713,37.59113485042713],[126.79880127391094,37.59132266556718],[126.79905214919569,37.592300663193285],[126.7989927163427,37.59242613118675],[126.79961153143755,37.59244295813634],[126.79991039351022,37.59223033245977],[126.80004981052845,37.59202843193346],[126.80028694360293,37.59204178519186],[126.8004067311249,37.59241334964892],[126.80050124000645,37.59241322659231],[126.80009306101233,37.59262482519133],[126.79865947539196,37.59366751153901],[126.79807919556603,37.5942406106583],[126.79760789850498,37.59488230618685],[126.79745296458061,37.59525115295736],[126.79708222928637,37.59773892505967],[126.7974838481103,37.59766954762927],[126.79753619481906,37.59778559683401],[126.7976423472259,37.59928282449935],[126.79805296645903,37.60020815591673],[126.7981739306702,37.600336421277675],[126.79853490283355,37.60008662829161],[126.79877039522317,37.60038706690781],[126.7986724632533,37.600458362755155],[126.79903577267696,37.600760580631515],[126.79921846713378,37.60111931306094],[126.79992888356969,37.60144403643553],[126.80001581076304,37.60162353170238],[126.799785896166,37.601912022309925],[126.79994096422328,37.60254465998495],[126.80258140147404,37.60503274858665],[126.80198868548342,37.60540875614642],[126.80046166402704,37.60604332935287],[126.79716740077097,37.60777375318832],[126.7888097202231,37.6133315393171],[126.76856213575766,37.62515751008359],[126.75509925806693,37.631964070272474],[126.75169279007979,37.63261011495889],[126.74603631834684,37.63524236823396],[126.74195797269101,37.63844094007912],[126.74040224888361,37.64031463356821],[126.73632178981721,37.64311347367131],[126.73468424418877,37.646362297722796],[126.73246006981591,37.64752147599197],[126.73152626371527,37.648220974927064],[126.73052599450133,37.648456037086476],[126.72651215145474,37.648753355586194],[126.72483670718411,37.64894314919576],[126.71452266255939,37.653503890355175],[126.70085006136341,37.65985406641293],[126.69200591756572,37.66410629906522],[126.67797116468566,37.67151965330929],[126.67563861628568,37.67355843082008],[126.67462141652184,37.67525065141961],[126.67283240560862,37.67771116261267],[126.6703560948326,37.68511664237619],[126.67149173152542,37.690313047143086],[126.67246196812496,37.69601070522946],[126.67360933499256,37.700302210638064],[126.67395133756432,37.70029924973713],[126.67516391536645,37.710455312251185],[126.67484453389666,37.71147928078431],[126.67653958785043,37.71437210686805],[126.6781954366315,37.717466679342714],[126.68018255342248,37.726821823977474],[126.68029003631555,37.731687030751026],[126.67892748139124,37.73729261647532],[126.67840627854463,37.739834701908926],[126.67717075833568,37.74437326246731],[126.67693570009871,37.74656962063425],[126.67543299980056,37.752952612937264],[126.66510594142545,37.76932800897693],[126.66303393084769,37.78068308554864],[126.65786804917828,37.78089337841625],[126.65271544018778,37.780689030913486],[126.6320772721867,37.78094146522212],[126.62550255877017,37.77913677718746],[126.6192081968193,37.7758550911916],[126.60812238381432,37.76656583293564],[126.60475845225088,37.76529322157242],[126.60114453685901,37.764100743243475],[126.60061162501619,37.764008845621674],[126.59795159278606,37.76272942531927],[126.59377256441306,37.761156392686445],[126.57534517971638,37.762703903358684],[126.5546803143187,37.77761918538174]]]]}}
