{"type":"Feature","bbox":[127.39822616717687,37.135083732793,127.76840599587139,37.440429802333945],"properties":{"regionCode":"41670","version":"vworld-20260909-3f8952dfda77-p2","name":"경기도 여주시","attribution":"국토교통부/K-Geo플랫폼 · VWorld 법정구역정보, CC BY 2.0 KR; 공공주택 복덕방 가공"},"geometry":{"type":"Polygon","coordinates":[[[127.51914182373721,37.436467302790945],[127.51590770252484,37.437244817345274],[127.51460526654236,37.437379212995985],[127.51321063707961,37.437644664733845],[127.51151284452236,37.43812344058776],[127.50927366136149,37.43906059625823],[127.507564855184,37.43996269962034],[127.50684261164218,37.440429802333945],[127.50559589109695,37.43942715038727],[127.5049259878476,37.43873799353227],[127.50394680807166,37.437138111030706],[127.50361056445841,37.43706866893384],[127.50209282159652,37.436374638550504],[127.50094821217029,37.436290965883046],[127.49969006140545,37.435890312858085],[127.49881153321869,37.43496996397775],[127.49849014880509,37.433962268037206],[127.49793552922021,37.43322404825498],[127.4969237180317,37.432297938950974],[127.49651732935239,37.4322324895067],[127.49544561725166,37.43246663623045],[127.49448381727561,37.43257078001855],[127.49344826806642,37.43305265014479],[127.49113950399386,37.43348249966684],[127.48954995497883,37.43363644938183],[127.48806160389559,37.433551231080344],[127.48704562029182,37.43322227478574],[127.48618466041509,37.43274415728872],[127.48337072045516,37.43059176427386],[127.48270531541135,37.42998246932523],[127.48218647208869,37.42916142672691],[127.48191050065597,37.427383942046205],[127.4809454265293,37.42607781288384],[127.48062162305274,37.42515710354082],[127.47982091144613,37.4240258571246],[127.47947682564632,37.42376736371878],[127.47764551460976,37.42349128194684],[127.47586655776225,37.42311889364792],[127.47527240656976,37.42279809466851],[127.47467154884187,37.422579702268685],[127.47322763069265,37.42229685420573],[127.47253185530391,37.422417866902975],[127.47208227082476,37.42258482848489],[127.47095913978286,37.42331168186392],[127.47042876517179,37.42355178574144],[127.46911769680415,37.42395014095262],[127.46955760012821,37.42394765187212],[127.46939362167,37.42432960641821],[127.46884452748125,37.424919133759126],[127.46867982997512,37.42529326670552],[127.46873250888443,37.425985560593894],[127.4679058044589,37.426444497346736],[127.46696455010763,37.42655991368014],[127.46547217112416,37.42725833443247],[127.46509993806282,37.4270635383426],[127.46436338724918,37.427041016706475],[127.46362981739213,37.4268104552047],[127.46295604692915,37.42694587630639],[127.46259646516805,37.426909500650005],[127.46170509170607,37.42730234215062],[127.46158315606972,37.42727891363722],[127.46068217763961,37.4275841429844],[127.46040724515254,37.427510167094255],[127.45982990473183,37.427566376926926],[127.45865083241654,37.42797088725303],[127.45780693450266,37.427974832740674],[127.45744013054369,37.428253306248635],[127.45676339029723,37.42846381175103],[127.45594653683501,37.428382160835184],[127.45550269307454,37.428432277041246],[127.45449517608054,37.42882505994492],[127.45301907857585,37.4295543007672],[127.45234841761251,37.42960107340163],[127.45210508202352,37.429839324466634],[127.45130492793416,37.43034897879655],[127.45127014547244,37.43049681196132],[127.4498427749827,37.431347960448534],[127.44939702787384,37.431271847480076],[127.44886404798187,37.43142607268608],[127.44827118339376,37.432458178013796],[127.44759677324737,37.43270821315014],[127.44669170559901,37.43259569159116],[127.44612926248388,37.43294974080279],[127.44537332931988,37.43313788078403],[127.44448050197599,37.43349595496533],[127.44355220777183,37.43357902606451],[127.44247504021033,37.43425555421091],[127.44141721374368,37.43437866208661],[127.44062887695581,37.43413094363521],[127.43894344467536,37.43437682429578],[127.43818022564315,37.43470928613206],[127.4355646074542,37.43439644022217],[127.43354737181187,37.435975611118955],[127.43297599767112,37.43612139800774],[127.43085579025357,37.43607045506313],[127.42877342398485,37.43649212631616],[127.42757305520337,37.43707513891244],[127.42696934397856,37.437633968540766],[127.42652666389371,37.43759527755574],[127.42586798921661,37.43774349778625],[127.42551358426289,37.43772155903271],[127.42490007916774,37.43837291250779],[127.42434116369361,37.43868691270897],[127.42370852990399,37.438901278692065],[127.42334443670177,37.43918761212303],[127.4228019781607,37.439454142012536],[127.42185850724132,37.438705857890724],[127.42099836371041,37.43821626267976],[127.42072082962194,37.43780972397252],[127.41997821084516,37.43755434687893],[127.41958915102796,37.43696534909059],[127.41916947710257,37.43656572438899],[127.41907097426903,37.43619026446271],[127.41862785193432,37.43595567634119],[127.41783766700453,37.435073956887194],[127.41728029541042,37.434728384262435],[127.41714050017895,37.43427169772032],[127.4166448756456,37.43377297638183],[127.41632251884546,37.433686620292875],[127.4157506232816,37.433373735649035],[127.4151316569937,37.43264555741276],[127.41498669193568,37.432077630957615],[127.41410044285692,37.43206126844097],[127.4136199657893,37.43179828234415],[127.41327714367318,37.43176908812006],[127.4127122221059,37.43159459120897],[127.41123851939237,37.431767555076114],[127.41008585509466,37.43140799002599],[127.40976787229602,37.43140819661235],[127.40910698943581,37.431055733262234],[127.4085059441571,37.43093186206284],[127.40780055898767,37.43025404276028],[127.40723834853789,37.43014984180113],[127.40701481140317,37.429724560522395],[127.40711810267634,37.429121896233745],[127.40659259237434,37.42872144373102],[127.40634704377491,37.42862781268247],[127.40604038475676,37.42863686613853],[127.40569269872158,37.428462322395845],[127.40503687028945,37.42762657390284],[127.40465349927558,37.42732964002281],[127.40421639683815,37.426800367362254],[127.40403087575861,37.42672441284769],[127.40325925343929,37.42555761758258],[127.4030678748222,37.42537838049403],[127.40275808961447,37.4253117305896],[127.40263854473095,37.425213106195876],[127.4026556834633,37.424904030655256],[127.40228472805035,37.42462396938059],[127.40196682415383,37.42372571744013],[127.40172340367756,37.42354782848627],[127.40164608895094,37.42314533134052],[127.40172909923903,37.42255897458615],[127.40149626719176,37.42243201639257],[127.40124196912953,37.421828455895714],[127.40032806232347,37.42149641254638],[127.40115387729988,37.42037499976794],[127.40120319258351,37.41947853888652],[127.40080461226873,37.41861274997503],[127.39958289668908,37.41774322926202],[127.39873479202284,37.416670712184256],[127.39822616717687,37.41573296734488],[127.39889361298847,37.41427314151538],[127.39944430005022,37.41396136071823],[127.40023051244331,37.413279271475616],[127.40171201203968,37.41224833713438],[127.4025440772658,37.411781543335486],[127.40306171865099,37.4111768870084],[127.40410898002011,37.410238223651675],[127.40473613767541,37.40982932740633],[127.40533291031821,37.40955128748562],[127.40586452790083,37.40946499917654],[127.40604307110043,37.409133061906545],[127.4074013576659,37.408545249136914],[127.40869178076544,37.40816726194669],[127.40950017807315,37.4075516114634],[127.41012741822799,37.407558212083046],[127.41118785171507,37.40668276509321],[127.41150148941948,37.406256888769605],[127.41153958342674,37.40571735075185],[127.4120277952013,37.4053801839406],[127.41218775431132,37.404998485113985],[127.41225452278408,37.40437699104306],[127.41286132407365,37.40337835800889],[127.41296649508826,37.40286800312147],[127.41268363087525,37.40229101871255],[127.41282309867766,37.401945573471835],[127.41271169101644,37.40161824656101],[127.41247322053243,37.40130013680974],[127.41221261443076,37.40045830202752],[127.41257485715164,37.39901371860718],[127.41295136746795,37.398111581495755],[127.4135777966109,37.397829365798536],[127.41352740545499,37.39726629507345],[127.41379565342822,37.395929533799716],[127.41461964562444,37.395209283530036],[127.41476981952209,37.39374241161004],[127.41513907745527,37.39347244085229],[127.41665018457904,37.391709033477404],[127.41697831280754,37.39111775693276],[127.41755503915635,37.39051916971422],[127.41814027771991,37.38947890228885],[127.41853237778983,37.389136678036195],[127.41899403037476,37.38842933346045],[127.41962363134648,37.388492964470856],[127.41978056070478,37.38787587749882],[127.42025528252827,37.386890670751825],[127.42094672451391,37.386663724884684],[127.4215901026876,37.38610073425263],[127.42285560352863,37.3857895471165],[127.42343105593358,37.385793299492335],[127.42387556853834,37.38601817888528],[127.42438225115427,37.38578745762947],[127.42506481237248,37.38595519797703],[127.42573749199191,37.3864004534508],[127.42619014188753,37.386422346611866],[127.42661765976543,37.38656483661796],[127.42726835796138,37.38717801191537],[127.42818391369772,37.38731234041613],[127.42871336335021,37.387100675136686],[127.42927244317475,37.38734331359853],[127.42960164977431,37.387405391828274],[127.42955963656614,37.38785119117455],[127.43054394793455,37.38779086329337],[127.43254268275615,37.38724391594049],[127.43312180786856,37.38739406566674],[127.43385129043291,37.38688575479573],[127.43449851299233,37.386815053562295],[127.43496750461941,37.38662276419465],[127.43541513089038,37.38673245913934],[127.43556941115959,37.38705168184195],[127.4359258219891,37.38700422113144],[127.43628567222564,37.38675241928935],[127.43656119016593,37.38668019890758],[127.43691918816265,37.38699527983915],[127.43736500339948,37.38687094736525],[127.4379191591913,37.38715755873333],[127.43839487646942,37.38705142980175],[127.43881703444976,37.38706931428798],[127.43911338231271,37.38720046714833],[127.44014479073103,37.38733061087332],[127.44059177565127,37.3870224638587],[127.44139189470546,37.387071685656636],[127.44195538958253,37.38732265464025],[127.44234567953703,37.38740329947426],[127.44261995516979,37.38730839277283],[127.44328569665225,37.38725040521246],[127.4433144279298,37.386854673631284],[127.44382971581797,37.38668544852322],[127.44389836948196,37.38637219792491],[127.44464503041702,37.385657678368574],[127.44461401754263,37.38524617660996],[127.44484354440547,37.38444879866523],[127.44445995981569,37.3839931983469],[127.44440836143339,37.383782527800314],[127.44472554918818,37.383153930227415],[127.44497792619254,37.38295389730464],[127.44505190825296,37.38185360438168],[127.44525161629873,37.38118570245184],[127.44664364968963,37.38048991076657],[127.44649694030788,37.38011616457235],[127.44587601493163,37.37985951194103],[127.4451778837646,37.379251276522076],[127.44482233948105,37.37879992288507],[127.44407184795132,37.37824137679994],[127.44390516689427,37.37700142619941],[127.44364254382143,37.3766436352288],[127.44368504829706,37.37653568031826],[127.44346218657367,37.376197931223],[127.44345449192316,37.376066312643026],[127.4437073264008,37.375870677559064],[127.44373256328032,37.375580712032196],[127.44359251719922,37.37558968441625],[127.44365739070582,37.375464732819324],[127.44374798359127,37.375322674304],[127.4440372962413,37.37525232319812],[127.44409377118745,37.37493399131083],[127.44432289955058,37.37465884865429],[127.44423355755595,37.37387050142967],[127.4442676248815,37.37310304688522],[127.44437507426655,37.37271591973651],[127.44365802261038,37.37182922215213],[127.4435827891858,37.37138640556503],[127.44378802305536,37.37104874123856],[127.44368636416995,37.36992559432443],[127.44377389917511,37.36873869739362],[127.44445678492596,37.36717558276588],[127.44438136474159,37.366483832018105],[127.44400905183753,37.36563994908264],[127.44406862692126,37.36465300158029],[127.4439036162124,37.36376698590005],[127.44399752635968,37.36333871633857],[127.444242010731,37.363156834499264],[127.44466134105664,37.363323277921104],[127.44508430390331,37.36363076703678],[127.44587685304401,37.36356338586534],[127.44576304832967,37.361804144317276],[127.44585510230216,37.36103662417434],[127.44523979493694,37.36059677733696],[127.44466668744148,37.360477480558764],[127.44416850138661,37.359976109029354],[127.44354369384823,37.359568367070075],[127.44250306395097,37.35834786405247],[127.44367548034853,37.35782759517289],[127.44419317375834,37.357092756543004],[127.44501780873081,37.356194276321865],[127.44517481830368,37.35552575682401],[127.44593129280838,37.35480066377415],[127.44758156502277,37.35370487423335],[127.44751665883021,37.35342328219158],[127.44807380134665,37.35291553225569],[127.4482706617111,37.35294552298801],[127.44843943709088,37.352670209689485],[127.44863553824446,37.352570844740214],[127.44961596748136,37.352548619884146],[127.45096171743535,37.35286701340066],[127.45180419826954,37.3535131075337],[127.45259043125398,37.353701081813604],[127.45294595873582,37.354082576182265],[127.45325064618939,37.35405585182198],[127.45401287993307,37.35417038541619],[127.45567435526209,37.3556285707208],[127.45610632078386,37.35576320816702],[127.45652747710658,37.35564714404688],[127.45744334620099,37.356300644914214],[127.4577836742365,37.356164062268796],[127.46016754073787,37.35820552248457],[127.46093678547332,37.35828033284238],[127.46203411467692,37.3587504558258],[127.46294041653601,37.35897216023723],[127.4634480835082,37.358562803111525],[127.46400987507052,37.35829060288157],[127.46488852946584,37.35854601572041],[127.46671946087879,37.35954942410229],[127.46722661746236,37.359460146201485],[127.46755192915617,37.35982917222899],[127.4677895492797,37.36033491946003],[127.46870169590713,37.36114421407417],[127.46991904967317,37.361321640013706],[127.47050613294958,37.36170966945364],[127.47086026826045,37.36134507374534],[127.47186960507167,37.360804667441215],[127.47288492589091,37.36055953052023],[127.4724748263905,37.35992334611359],[127.47248876756761,37.359361546603395],[127.47287473373821,37.35888270656706],[127.47408891667419,37.358384539902886],[127.47457790098348,37.35797428355873],[127.47509511137687,37.35737577072639],[127.4760518715774,37.356825120770225],[127.47690902736883,37.3569545593261],[127.47722552614593,37.35673667755613],[127.47771201047333,37.356140727006554],[127.47821651548308,37.35595918396126],[127.47844268404714,37.35513815219623],[127.47866903703574,37.35483708609595],[127.47972032615078,37.354362276912646],[127.48049312656862,37.353440109262586],[127.48108852613561,37.353012518453475],[127.48120254762162,37.35229294862762],[127.48165597490099,37.35131455630059],[127.48227736343408,37.350906271140474],[127.48269728702377,37.350731575521685],[127.48392076975098,37.35053917349212],[127.48431541393212,37.350656569359835],[127.48537171730729,37.350006739736706],[127.48525190905897,37.349787761099876],[127.48544057480831,37.34945284970875],[127.48581483266433,37.34902193895427],[127.48662545154062,37.348342408907016],[127.48683318284722,37.347899085398986],[127.4871057724286,37.34772738081183],[127.48727769909522,37.347485381629774],[127.48762214756127,37.34728996256709],[127.4878700197285,37.34618243400759],[127.48846477250741,37.34583638669705],[127.48857158944806,37.34533473912529],[127.4884496364774,37.34495338147928],[127.48852980124984,37.34453807184947],[127.48963495499028,37.342699629120155],[127.48988158988195,37.34273963436032],[127.4905477808891,37.34261869758889],[127.49099574662269,37.342214145092846],[127.49292691845939,37.34125689465401],[127.49351385973554,37.34109793915033],[127.49410304914868,37.34129232249224],[127.49458376007834,37.3416317065324],[127.49566283063412,37.34163201602113],[127.49646750801222,37.34172002394166],[127.49619221616958,37.34143720220781],[127.49701720846811,37.341481053312656],[127.49812926165478,37.34126339201915],[127.49911213106171,37.34081181741835],[127.49959291243246,37.34049425998989],[127.49991762658979,37.339989586211274],[127.50182267963544,37.338232044919856],[127.50276900981648,37.33808153565473],[127.50561494811825,37.33803151035298],[127.50561966852031,37.33811276335446],[127.50834191522922,37.33853100697919],[127.50946100892786,37.338817237117176],[127.51041740250632,37.33888862989029],[127.51048114103165,37.338802128554356],[127.5127279662604,37.3391623979825],[127.5139230801533,37.339123712673576],[127.51490853673255,37.33830762433355],[127.51554036203397,37.33759998320483],[127.51581858998553,37.33701598884276],[127.51595777889492,37.33648283847406],[127.5160375477447,37.335629078124065],[127.51622904372485,37.33533402827525],[127.51714923223999,37.334589361396155],[127.51793285460832,37.33415910457346],[127.51869658767899,37.332912818979295],[127.51892020052385,37.332350779792314],[127.5198318047229,37.331421754699335],[127.51982989391891,37.331143664633224],[127.52085440770848,37.3298113276284],[127.52126825137576,37.329552334322116],[127.5219829527373,37.329700392655184],[127.52347220956166,37.329718359794605],[127.5254630936966,37.329920063769684],[127.5259626458532,37.32989412670473],[127.52665331260496,37.32957792503783],[127.52717419475854,37.32886479407551],[127.52760463808613,37.3276485369447],[127.52795613319967,37.32764697252935],[127.52789614556443,37.326997408612016],[127.52737522602595,37.32639576562999],[127.52617099967622,37.325582204400874],[127.52594817190604,37.32571730021923],[127.52570073963646,37.325422764465515],[127.52546098472601,37.32557686261371],[127.5252054790279,37.32500929189518],[127.525040030925,37.32405583120895],[127.52512784210236,37.323493505248436],[127.52541760900725,37.3233690077708],[127.52644236360636,37.3222757784156],[127.52790961378487,37.32088730022264],[127.52803113679083,37.320438512468165],[127.5279138340437,37.31920021748883],[127.52763182280219,37.31891126421441],[127.52696085652403,37.318652570983524],[127.52721202557738,37.31859406347479],[127.52735779607877,37.31800152708873],[127.52756393139568,37.31765063127889],[127.52781277712336,37.31754860910753],[127.52811118079984,37.317238458869895],[127.52818505481137,37.316637284999054],[127.52834570903386,37.316504734396766],[127.52831945638326,37.31629595062703],[127.52842975813422,37.316086629335246],[127.5288731050452,37.31625119960018],[127.52920574130907,37.31626696268846],[127.52972288046283,37.31595263295769],[127.53002659502907,37.31602086217555],[127.5305051572718,37.3158705692122],[127.53101299680172,37.31564161994382],[127.53188619670114,37.31487915395475],[127.53236448886544,37.31480094528283],[127.53292587526101,37.3143941765542],[127.53352919496838,37.314119528762426],[127.53448447655988,37.31405226617002],[127.535288899593,37.313831540579365],[127.5355820687427,37.31364098620649],[127.53629416049388,37.313562058329005],[127.53757252369934,37.313747155650205],[127.53848148725496,37.31360310907434],[127.53887242650853,37.31361327162956],[127.53935278494322,37.313406107476055],[127.53971411705777,37.31335201663392],[127.54078752261621,37.31336161736076],[127.54142481267718,37.313222245821436],[127.54190798156954,37.31325449347679],[127.54266294133197,37.31313637170382],[127.5431364353606,37.31290027428952],[127.54467538646021,37.31236229688406],[127.54499655275315,37.311922939691144],[127.54530258651609,37.31176400608546],[127.54591976367082,37.311147704110454],[127.54607842608377,37.31075249048785],[127.54616738445314,37.30980826557053],[127.54551969210642,37.309213598909416],[127.54603213079199,37.30786947536224],[127.5462511263654,37.306591309525956],[127.54594369180496,37.305146449599846],[127.54587941266912,37.30347719277664],[127.54633217808488,37.30198768182406],[127.5462388356335,37.301359471728944],[127.54557831377582,37.30103433264738],[127.54525525491178,37.30073690185358],[127.54416135347394,37.29806806867506],[127.54374249411947,37.297659249359754],[127.54341497538907,37.29677498353358],[127.54293254780734,37.296336034608565],[127.54292919022082,37.295941295719686],[127.54259950278504,37.295030611794076],[127.5426642423684,37.29475374753153],[127.54255051830546,37.29465502770174],[127.54262191570263,37.294596288553294],[127.54269857926873,37.2946605053593],[127.54245040881736,37.29435463670591],[127.54166093527542,37.29402214268932],[127.54128440076435,37.293358944747794],[127.54109012265411,37.29323307440422],[127.54087706015977,37.293147225097734],[127.5403421904187,37.293126386200264],[127.5398412754524,37.29292155807918],[127.53910703296765,37.291867662659484],[127.53892463661644,37.2917544494497],[127.53860624506639,37.29178042927013],[127.53839218118239,37.29161306233193],[127.53817702299645,37.29094379665412],[127.53669343598223,37.28951989280253],[127.53536306430793,37.289405846233414],[127.53430555066132,37.28952274256998],[127.53420665962764,37.289431482927654],[127.53406822877233,37.28809799150139],[127.53439740207958,37.287016797890786],[127.53431205371477,37.28676030067582],[127.53317028652145,37.28596404156565],[127.53271646165264,37.28505635049467],[127.53222414038409,37.284380497188785],[127.53224606974038,37.283560792631704],[127.53207569343503,37.28324089970554],[127.53219651386854,37.28231991030616],[127.53206615239664,37.28218359453261],[127.53207688867555,37.281825560973274],[127.53156004200063,37.28137697035416],[127.53108693266296,37.28063130053636],[127.53102179987894,37.27999661469498],[127.53063351568434,37.279250385196754],[127.53059401204422,37.27853736604286],[127.53004040479088,37.27740366850051],[127.53009774704086,37.27638070562454],[127.52993839278447,37.27546264309496],[127.52885642994363,37.27416504749869],[127.52930307470587,37.27337217525104],[127.52934564806073,37.27315729046938],[127.52918227421621,37.27235079116578],[127.5297022947501,37.27012367527989],[127.52965394345082,37.26948685783566],[127.53019366371123,37.26816150008127],[127.53010917845253,37.267674695054964],[127.53019995285091,37.267210081141286],[127.53032980572235,37.26711002835648],[127.53027379024005,37.26701567309095],[127.53058071396093,37.266716600882745],[127.5308213142705,37.26620365318916],[127.53127987512481,37.2656327883573],[127.53126929166169,37.26542577866884],[127.5316424705659,37.26474704420172],[127.53159137729901,37.26459400869966],[127.53179421918686,37.26365621257703],[127.53196230694877,37.26340778578657],[127.53230559448004,37.26153544087435],[127.53220749176504,37.26090490366938],[127.53222403263605,37.259986259298735],[127.53208618232806,37.259332436768794],[127.53218713682787,37.25915053319908],[127.53218734354752,37.25850995796831],[127.53243842693473,37.257859193241515],[127.53246079665008,37.257541930882994],[127.53252960565027,37.25740408196589],[127.53279206181419,37.257226241939264],[127.53324740566697,37.25637746672192],[127.53355891156889,37.25634026083411],[127.53393044726054,37.25575142822665],[127.53439217014738,37.25541614219878],[127.53442014220647,37.25518301116091],[127.53451782685761,37.255122815807034],[127.53487796356374,37.255117265790666],[127.53512056006147,37.254875652046586],[127.53553886112678,37.25381189015608],[127.5357590658697,37.253500205699986],[127.5360304544398,37.25335787912669],[127.53655385190677,37.253275728769985],[127.53685316012063,37.253143241328964],[127.53757428205249,37.25304934525807],[127.5379159871968,37.253119806376375],[127.53789497683945,37.25301164458052],[127.53807205508495,37.252952670184335],[127.53737531609613,37.252324097678994],[127.53721611449008,37.25199421394976],[127.53722069889173,37.251919760101075],[127.53734643480114,37.25191909133],[127.53713694896412,37.25140090367632],[127.53726718504807,37.251213920454575],[127.5371314203625,37.25085886195137],[127.53618389397776,37.25048151538783],[127.5361826070672,37.25029928779445],[127.53602884895976,37.25004309053433],[127.53555161347383,37.249676112418825],[127.53555026641354,37.24941298191829],[127.53545584302177,37.249350371601324],[127.53556803686422,37.24920824228326],[127.53572729695419,37.249200054651624],[127.53635131589422,37.24825015071342],[127.53721803316695,37.247453779373956],[127.53705769692633,37.246939711374615],[127.53668975975141,37.24680408693068],[127.53600674755143,37.24519825892289],[127.53534483691054,37.245010993023136],[127.53503219294332,37.24469137538631],[127.53442687433926,37.24441887229576],[127.53346072115136,37.24436346039647],[127.53324768810504,37.244201422416346],[127.5329471536667,37.24360790368015],[127.53164856143623,37.243338838478486],[127.53120815482869,37.24299914157285],[127.52991284823814,37.24301928154496],[127.52967054498079,37.24289891106801],[127.52834764708976,37.24127986278043],[127.52732801256512,37.240380266479946],[127.52552982232845,37.239921287681426],[127.52553496122098,37.239553563236235],[127.52543668427828,37.2394029954247],[127.52563214850451,37.23889558941811],[127.52557784920963,37.23731457894595],[127.52579413616755,37.23687086500833],[127.52566856538695,37.236566918063936],[127.52610495891523,37.23561082289376],[127.52589883615435,37.233958029941014],[127.52596105789985,37.2328249454392],[127.52561922135611,37.23178926475105],[127.52567461959795,37.2316368373428],[127.52627734735948,37.23180346014841],[127.5267421990719,37.231668867880124],[127.5269435315513,37.231468576339736],[127.52714000753092,37.231397064271846],[127.52848952045885,37.231649141471635],[127.52860443628285,37.231444925107255],[127.52817605678136,37.23092725019411],[127.52640759126373,37.229858038170875],[127.52620356767912,37.22934896827309],[127.5260349311702,37.22761023064881],[127.5264009059251,37.22767414962009],[127.52695019853381,37.227898755988534],[127.52701983996775,37.22785069326023],[127.5269626885392,37.227474045635816],[127.5267273594873,37.227157385562464],[127.52676318921411,37.22696215405798],[127.52775036153092,37.22635172025707],[127.52789481372804,37.22596577893101],[127.52783366734356,37.2256583499086],[127.52789120666156,37.22545183809152],[127.52771149917388,37.224973288182824],[127.52789816501874,37.22453666689163],[127.52769917220972,37.224468884392444],[127.52806365381332,37.2239261613241],[127.52797699650749,37.22356127529859],[127.52803563161454,37.223086431670225],[127.52860883582603,37.22238425023189],[127.52867149978503,37.22213747614868],[127.52845159260066,37.22126691395978],[127.52845138213027,37.22055650614691],[127.5282553977325,37.21984862579164],[127.52755241093955,37.21962371667418],[127.5274681271792,37.219455428675765],[127.52771201090975,37.21910086913289],[127.52769527655971,37.218629974873295],[127.52785502607819,37.218258589085295],[127.52812996990909,37.218086207024676],[127.52855406186694,37.21799032535715],[127.52879505178421,37.21769876913309],[127.52898088257321,37.21761141506325],[127.52962464324092,37.217601248351876],[127.52948158824118,37.21592399457068],[127.52976654829898,37.2155496524352],[127.52977644595589,37.21521591006231],[127.52962960296463,37.21473760275568],[127.52937890896911,37.21444453380069],[127.52975224389749,37.213737188673484],[127.52977411520804,37.21316248536307],[127.52990685866668,37.21280666159864],[127.52991576371844,37.211457054758334],[127.52998566327672,37.21122701509327],[127.53018526789481,37.21110780150026],[127.53050913907411,37.20992992428165],[127.5314735370274,37.208118897551124],[127.53147764327761,37.2078844646358],[127.53112588414385,37.20774909890819],[127.53110771979372,37.20757929041173],[127.53086027798386,37.2073798619898],[127.53118506236547,37.20705031648957],[127.5314382773583,37.2063449906568],[127.53151856281366,37.2054381114313],[127.5305376710607,37.205160418068225],[127.53071104725164,37.2045815587538],[127.53075080100216,37.20392695940705],[127.53055694324256,37.20368856449335],[127.52986885186307,37.20351788096109],[127.53005756351415,37.20260179492092],[127.53056663440593,37.20193295568882],[127.53046854631579,37.201429462914994],[127.5311596523676,37.20043467922076],[127.53128383210347,37.19993103097229],[127.53069181099815,37.19950594628132],[127.53102403614093,37.19878665328557],[127.53082709360594,37.19817561359372],[127.52892551033331,37.19789538419482],[127.52887843261513,37.197850723464796],[127.52899874892721,37.19784104174701],[127.5279751766332,37.19709786204232],[127.52678739735784,37.19569714061615],[127.52666146175349,37.19557304082935],[127.52623090933886,37.195393173407716],[127.52598552968712,37.195112947471664],[127.5259227266585,37.19488039841784],[127.52598397595025,37.194426049266035],[127.52570086451132,37.19391877574882],[127.5246096339758,37.19305510900204],[127.52408049159028,37.192327344286454],[127.52363930020026,37.192515911517134],[127.52399019081246,37.192265859152336],[127.52320327178609,37.191747627286624],[127.52248583576454,37.19079063902821],[127.52180365255472,37.19008578511587],[127.5214532747054,37.18943790725529],[127.52049200045113,37.18884790715558],[127.5201229168347,37.18849059393514],[127.5196170962208,37.187733036442076],[127.51979446037863,37.18721858777668],[127.51967535605571,37.186741063468695],[127.5187400169801,37.18635673115187],[127.51860210781587,37.18588799385426],[127.5184259500655,37.18585154112978],[127.51824081258012,37.18508202303095],[127.51767534457363,37.18475767152576],[127.51736917384382,37.18437327058561],[127.51724293490051,37.183656325226465],[127.51750039267328,37.182873419335046],[127.51714406623728,37.1824429591666],[127.51731369675197,37.18226126508891],[127.51782227976622,37.182303408364064],[127.51860576766286,37.18200438765729],[127.51949784656247,37.18206077917938],[127.51993654743693,37.18220722581038],[127.52005116592764,37.1820246608751],[127.52037308554138,37.18183669153178],[127.52106148695641,37.18177526050714],[127.52114676012187,37.18166903336068],[127.52175063715798,37.18147667920829],[127.52189897148286,37.18093705384263],[127.52207552508314,37.18069487205746],[127.52288417291659,37.18065337432104],[127.52319259879728,37.18045669941892],[127.52373537301901,37.17982831253973],[127.52343617430043,37.17936513642701],[127.5231608964467,37.179147837608674],[127.52312623297134,37.178860730865004],[127.52327457997424,37.17786015013602],[127.52349375375353,37.17772572380576],[127.52394365501101,37.177221836001415],[127.52503043811413,37.17696931590228],[127.52630745620648,37.176156418108384],[127.526777685511,37.17546820413224],[127.52700197211044,37.17482845417164],[127.526864837508,37.17443694794263],[127.52693412764046,37.17413392830417],[127.52680853631051,37.17358270636604],[127.52725171770508,37.173228894837],[127.5275222796877,37.17317359530169],[127.52785690735655,37.172903465321085],[127.52892558022928,37.172973653180456],[127.53012115104482,37.17285276740315],[127.53072561638099,37.17304083881343],[127.53103174152898,37.17329328548176],[127.5314849131275,37.17318300743082],[127.5327599255811,37.173615860944885],[127.53328604814511,37.17333517908688],[127.53426366504874,37.17325191062831],[127.5344146067804,37.17336789001126],[127.53447595610271,37.17355144564867],[127.53493147495624,37.173663403382854],[127.53526363494512,37.173691065022766],[127.53530134243664,37.173614007926886],[127.53545808558502,37.17369637763613],[127.53574272025034,37.17353256604591],[127.53607208191589,37.17364572020857],[127.53660402025051,37.17348079077384],[127.53692141577486,37.17360392495265],[127.53812194294798,37.17475310309638],[127.53862677717163,37.175008929210875],[127.53922397444914,37.17548481600932],[127.54032239407506,37.17538317862406],[127.54057363227147,37.17506172716713],[127.54124394911949,37.17482441606495],[127.54141349964473,37.174575324453386],[127.54197008013809,37.17428407932124],[127.54236845916165,37.17419401225499],[127.54282804206903,37.17432595141043],[127.54301399430354,37.174470045767784],[127.54453259931564,37.17464589917012],[127.54633456551149,37.17501549383928],[127.54659678833227,37.17401345958114],[127.54718227684465,37.17325466073199],[127.54747914507806,37.17339721475167],[127.54774157022045,37.17381671866614],[127.5479220128281,37.17383911453542],[127.54801168141937,37.174016422898575],[127.5482930232001,37.17403988601974],[127.54837372774143,37.1742903350715],[127.54887714244012,37.1748153332875],[127.54941651344622,37.17505098496923],[127.54946415531317,37.175138231194374],[127.5496384913497,37.17520171354266],[127.54968423361959,37.175105556532124],[127.55002855400421,37.1751035132793],[127.5506004278618,37.17535644400794],[127.55091260547535,37.175246025627246],[127.55144848601512,37.175460320399495],[127.55212239599679,37.17530954707827],[127.55283941702992,37.1753184852564],[127.55328373228497,37.17542239084632],[127.55413023615367,37.175991026086464],[127.55436342865765,37.176067067353124],[127.55448456505844,37.176439467796754],[127.55480494195602,37.17628786053187],[127.55507857498779,37.17625792923933],[127.55554707721642,37.17636677647165],[127.5557894020589,37.176605974145495],[127.55601007803412,37.17662395424835],[127.55622431176212,37.1765494102555],[127.55693022959373,37.17713316366934],[127.55702652993537,37.17730566638503],[127.55719742799856,37.17740517784433],[127.55736724931315,37.17726897294424],[127.55774033704834,37.177435670843245],[127.55799066564302,37.177886582799275],[127.55813792002319,37.17838246956312],[127.55831606647918,37.179966259280675],[127.55858690762587,37.18050992433614],[127.55906502102357,37.18074261990089],[127.5597027534023,37.18059283841597],[127.56064103665008,37.179923542376095],[127.56081594533313,37.17972881189987],[127.56090100410562,37.17910777766696],[127.56139116501306,37.17889182499606],[127.56193576116854,37.17851478231555],[127.5626216818403,37.17833682308754],[127.5638323899352,37.17849957847448],[127.56425893817915,37.17810442330258],[127.56434856189539,37.17762798727482],[127.56463169098191,37.17731319941246],[127.56547359368864,37.17672450387922],[127.56665845187486,37.17616483919447],[127.56731610163551,37.175383060510505],[127.56895991341743,37.173696432723595],[127.5692447754682,37.17326858059762],[127.56941175163142,37.17230934693955],[127.56971055952751,37.17159622312154],[127.56978129614241,37.17099225213402],[127.5700508137099,37.17060435049729],[127.57080503193475,37.17016195921212],[127.57096621663148,37.17047949504495],[127.57139124911716,37.170849832016195],[127.57259416022976,37.17155370799455],[127.5725465072368,37.17171357457115],[127.57264641092539,37.17225024744362],[127.57351986126851,37.17279127797568],[127.57381675922967,37.172751002002244],[127.57445762811295,37.17371239068768],[127.57499767822686,37.17394504098697],[127.57508226546925,37.17425540632791],[127.57561781833748,37.17468762655847],[127.57618142249719,37.17476549225293],[127.57709750326113,37.17509758360028],[127.57719622990403,37.17526949869163],[127.57715450707812,37.175564224003566],[127.57724515814715,37.17580096331773],[127.57789300442234,37.17627113603047],[127.57771846521868,37.17650325705356],[127.57780289139349,37.17682306364901],[127.57767628440655,37.17720316737795],[127.57743842799317,37.177444657292725],[127.57721302548326,37.17750516858903],[127.5767978136814,37.17818774517334],[127.57596082922745,37.178466072125495],[127.57590990880186,37.17898072107976],[127.57475897311937,37.17925020804076],[127.57491536391942,37.180004384824805],[127.57470811365735,37.180270272744316],[127.57490405003738,37.181372534779975],[127.57463354862426,37.181621359027474],[127.57448320347481,37.18249979243382],[127.57399895033453,37.182966879150875],[127.57288244157193,37.18370275431336],[127.57254021267717,37.184544151928485],[127.5729923448403,37.18560152561314],[127.57299469615928,37.18597498378389],[127.57365134843187,37.186350258097185],[127.57396254555374,37.186687418563224],[127.5738645156347,37.187187777266566],[127.57471104100995,37.18758894371545],[127.57497836853857,37.187903454921944],[127.57546041841998,37.18796164164935],[127.57572837185079,37.18829150002183],[127.5760028351016,37.18842323540837],[127.57646389889122,37.1891384469216],[127.57731245085074,37.18913418242445],[127.57805674429598,37.18940490100815],[127.57835189150033,37.18936305365888],[127.57844774714667,37.188952030214125],[127.57865741708711,37.188675535706636],[127.57924965281693,37.1883082258823],[127.5796503112752,37.18820007597828],[127.57983661312495,37.187862576535466],[127.5802511458775,37.187738687369645],[127.58051716222187,37.18748584591366],[127.58166085305538,37.18727179759231],[127.5829064319775,37.187232155525635],[127.58375518334307,37.187089418183824],[127.58419845676298,37.18721621242001],[127.58442810297255,37.18714351400434],[127.58467401746067,37.1871654051348],[127.58517832512202,37.18734099429307],[127.5856162984637,37.18722664792419],[127.586835928588,37.18737694010464],[127.58719102643504,37.18717820234566],[127.58763365090604,37.187094830306826],[127.58784208449822,37.18713830079921],[127.58814459770797,37.187447893976405],[127.58864676606913,37.18756992054343],[127.58912485176425,37.18759370896131],[127.5893884057541,37.1880168955863],[127.58974825566996,37.18811622439096],[127.58984293775598,37.18820793821183],[127.58987416539428,37.1884936357153],[127.59010169234514,37.18863567357386],[127.5915140319398,37.18842047284447],[127.59199226885876,37.188716106993546],[127.5921819774131,37.18903237023931],[127.59265552281857,37.18930615685908],[127.59290280179097,37.18963038564584],[127.59321968345832,37.18972499792416],[127.59340600769052,37.189695010777015],[127.59346091546078,37.189447401397814],[127.59383340480433,37.18923834675595],[127.59423909690274,37.189353019923566],[127.59484679634487,37.18966247350196],[127.59534455389796,37.189702626785504],[127.59567257312996,37.189890225994596],[127.59615061077288,37.18901686124887],[127.59632951021351,37.188854418171914],[127.59724416871018,37.188466306400926],[127.59802891568494,37.1883740562299],[127.59810814669879,37.18806781278613],[127.59805965911475,37.187510234619154],[127.598248659405,37.18658593207088],[127.59858170101042,37.18604313928739],[127.59846920304531,37.18541319651283],[127.59861161172708,37.18525493213484],[127.59856615573938,37.18491106593772],[127.59915960517537,37.18368455326547],[127.59917633280443,37.18331206932426],[127.59927608953419,37.183105579847386],[127.59976201351049,37.18290964043698],[127.59999332655515,37.18304919538349],[127.60028558023183,37.18305197172973],[127.60064491676377,37.18323161646256],[127.60141284036838,37.183430040914715],[127.60169390214188,37.18325509324055],[127.60188338131489,37.18286064266273],[127.60260313922562,37.182635511619615],[127.60261076496586,37.18185832139002],[127.60311503405092,37.181180518984725],[127.60311631636816,37.180910536867415],[127.60337080521252,37.18078873767383],[127.60358126702593,37.18033696296142],[127.60440731134808,37.17979890080798],[127.60404453355152,37.17950816917046],[127.60424426695822,37.17940352860978],[127.60447156897958,37.17913057278396],[127.60500125461799,37.178865043420764],[127.60524085288547,37.17799837958465],[127.60600969933215,37.17815939373327],[127.605894099326,37.1778753655462],[127.60740524875428,37.17715078535826],[127.607573948506,37.17678652533336],[127.6081014454911,37.17653941255291],[127.60831669804719,37.17544231203832],[127.60861320910621,37.17513274502591],[127.60977396086429,37.17509400342686],[127.61012261488773,37.175016399739526],[127.61036416852134,37.174754185696834],[127.61066906311073,37.17464547722735],[127.6114529716984,37.17452039759186],[127.612114005385,37.17371921566312],[127.61282747700723,37.173355727529916],[127.6125197149995,37.17305812737979],[127.61273830470931,37.172590290149024],[127.6123013298576,37.17229290599863],[127.61288308006486,37.17141335876304],[127.61390505151644,37.17058576032275],[127.61439719728973,37.16937523363115],[127.6138522540157,37.166831518319825],[127.61399548165411,37.165964150639596],[127.61475807554663,37.16558037720185],[127.61481191353161,37.16522062891129],[127.61526859215444,37.164167450877464],[127.61517362721828,37.16396694717026],[127.61606333548652,37.163311924058554],[127.6167616761318,37.163101755836365],[127.6176234479189,37.16310771295151],[127.61773828125675,37.16326571477855],[127.61805822862064,37.163179482371554],[127.61797535456753,37.162921314163604],[127.6184678899541,37.162253083258754],[127.61830090848366,37.16184016095009],[127.618859025755,37.161564383426196],[127.61897255304984,37.16130283489839],[127.61918462050113,37.161258398256],[127.61961712905399,37.161772410673564],[127.61946390401624,37.16222449462847],[127.61948864867533,37.16255362235513],[127.62050652069661,37.16309243630208],[127.6209220023854,37.16316343961738],[127.62109005282946,37.16331359202424],[127.62114893789956,37.16377610144798],[127.6213146120043,37.1638871885164],[127.62180543259323,37.163718769013954],[127.62205177344853,37.16378861339296],[127.62215448777161,37.16361421308616],[127.62234254114209,37.16357885299999],[127.6226801501202,37.163799531553884],[127.62287544037575,37.164151776231535],[127.62313942967235,37.16435141315905],[127.62405722465948,37.164162191320074],[127.62469027408427,37.164570573907866],[127.62574129641597,37.16503403943651],[127.62637000965718,37.1657777754052],[127.62678968729695,37.16602366279587],[127.62755366431632,37.165572174065886],[127.62798440014191,37.16567067084306],[127.6282602269243,37.16592696101296],[127.62912337684163,37.165710685952554],[127.62931698979723,37.165560450183314],[127.63048779560738,37.165260846398695],[127.6309868143903,37.16431237994847],[127.6310585140783,37.163999303343694],[127.63148276781173,37.16358723901931],[127.63243865836556,37.16300037408344],[127.63300547946022,37.16198143852182],[127.63228712985132,37.16134849183167],[127.63028021669234,37.159285429572435],[127.62997143548154,37.15842268597791],[127.62953754839603,37.15775895006603],[127.62916320281684,37.15669388839962],[127.62828399056595,37.15530420323333],[127.62916975217988,37.15478028490706],[127.62969025468678,37.15458548057226],[127.62966003802777,37.154481877513454],[127.62990477357283,37.154391620880766],[127.62987777466343,37.15411908304642],[127.63040518656724,37.154116374767966],[127.63071465576961,37.153945617018636],[127.63126487905011,37.154103683865955],[127.63176467519146,37.15405190163809],[127.63290364688292,37.153556973272586],[127.6333111461631,37.15296981266883],[127.63370290118004,37.153228819594524],[127.63455425745781,37.15293465157701],[127.6349393058303,37.153165191611464],[127.6351638602754,37.15316290754512],[127.63566450631261,37.15295389141912],[127.63605699868536,37.153080721864434],[127.63677876769054,37.15297096544418],[127.63718202706764,37.15282917851806],[127.63766994893197,37.15299416197058],[127.63868519616352,37.153127765719326],[127.63965794552722,37.15249589702981],[127.63994778081386,37.15216734127235],[127.63999029971376,37.151997607933744],[127.64046996251982,37.15149255399935],[127.64107933029736,37.15122727271629],[127.64168907607572,37.151226024341945],[127.64204256280715,37.151616696358744],[127.64233697469605,37.15178570718779],[127.642951459834,37.15188529017837],[127.64368221626573,37.15169085384761],[127.64438551782497,37.15118699287335],[127.64509765950308,37.15092616112282],[127.646423491964,37.15121638850048],[127.64679607981493,37.15114569985854],[127.64719676012436,37.15067102398685],[127.64755005189264,37.150703520756466],[127.64806762002154,37.15062135095496],[127.64839434480582,37.14984372963809],[127.64897105924518,37.149527750994714],[127.64934183248313,37.14917305182162],[127.65015608797603,37.14785927142085],[127.65011232348454,37.14761403254814],[127.65119635150064,37.14741755322915],[127.65237607402378,37.14804496113009],[127.6529698109478,37.14739432149604],[127.65323628819145,37.14726748647471],[127.65350537348891,37.14695280603432],[127.65375660624679,37.14692406043716],[127.65396889382733,37.14661369107018],[127.65438134376241,37.14634016320884],[127.6546567183595,37.14630110266235],[127.65476129306943,37.14596839273538],[127.65515248961056,37.14571103434512],[127.65534583698786,37.145428162527],[127.65633834965944,37.144883764683875],[127.656529370284,37.14464758933093],[127.6563396277568,37.14424860441386],[127.65572894093445,37.14402917696578],[127.65546500797961,37.14273968303618],[127.65558334161813,37.14237329691147],[127.65581549011412,37.142412301112756],[127.65687201054187,37.142295168809305],[127.65729912822765,37.142323206646275],[127.65746000215978,37.14197565233768],[127.65815042288297,37.1415936811221],[127.65844393651382,37.14114348212341],[127.65919736265265,37.1408450092634],[127.65988605960055,37.14067916021117],[127.65994371270233,37.1399019839218],[127.66060820271441,37.139736195769316],[127.66131928178905,37.13936564226534],[127.66246608920825,37.139177106914325],[127.66370181319478,37.139503495103426],[127.66436066293328,37.139226889264904],[127.665991700927,37.139430356748726],[127.66665192402142,37.13875732746278],[127.66728759416726,37.13852186074278],[127.66800425968397,37.137964261263114],[127.66941322875675,37.136511020449575],[127.670222366183,37.13610515746902],[127.67124803702812,37.1364715843948],[127.67162636725297,37.136176094058236],[127.67335726297655,37.136612347494115],[127.67367080991606,37.136454806906016],[127.67473117893834,37.13629186542451],[127.67526559933205,37.136471883505315],[127.67557646522175,37.13637807771835],[127.67647641484065,37.13644228005471],[127.6767865147771,37.13667905576954],[127.67738404063252,37.136745885087635],[127.67797341908853,37.13657758075543],[127.678478175478,37.136260469954735],[127.679707040267,37.136053308420216],[127.68064884671199,37.13565837326257],[127.68206200291363,37.135958744408654],[127.68249847999164,37.1363985039216],[127.68280458299162,37.13644601309945],[127.68319193095628,37.13612689262282],[127.68521990317402,37.13561636203212],[127.68558436019399,37.135632569257574],[127.68628562407036,37.13522837905647],[127.68681300382363,37.135083732793],[127.68762837462428,37.13540131731229],[127.6885897714101,37.13557057673102],[127.69045824566162,37.137345335500804],[127.6921518796308,37.13790203647719],[127.69252323638091,37.1381275264243],[127.69283200891032,37.138503863373714],[127.69371912822474,37.13907665599025],[127.69481603184077,37.140029840984816],[127.69542725384987,37.14042958463155],[127.6944882569011,37.141273655734864],[127.69445312312395,37.14217861822998],[127.69457307539142,37.14346840720111],[127.69440380627537,37.144508614895905],[127.6940773072474,37.145587584750714],[127.69441944659098,37.1462946454266],[127.69498103762476,37.146973445300134],[127.69449830402385,37.14885199700744],[127.69473607702382,37.14999134427899],[127.69521513955226,37.15128323735063],[127.69629429492296,37.15219808935393],[127.69849758902542,37.15262689506232],[127.69985791482497,37.15344794813074],[127.70065060525164,37.15370199494914],[127.70099037952313,37.154233266675035],[127.70161255788683,37.1546441056348],[127.70254571667729,37.15559018051414],[127.70302203478897,37.156392434927305],[127.70428292780389,37.15767204609334],[127.70401620324733,37.158747281626276],[127.70420559344666,37.15899234645358],[127.70432535823264,37.15964092960904],[127.70482919666078,37.15991787301761],[127.70490654369529,37.16071322537092],[127.70451378576588,37.160906249937874],[127.70433455849012,37.16122216857503],[127.70485490813694,37.162719706099494],[127.70484101150117,37.16508273560569],[127.70494289249022,37.16610454004502],[127.70465583916437,37.16655294796398],[127.70483130100605,37.16697621298124],[127.7048973984535,37.16752868470357],[127.70665398901384,37.169899921901866],[127.70683463940459,37.17043370800158],[127.70674918216208,37.17079482711611],[127.70755818027365,37.17101260103745],[127.70839442201094,37.17083896305152],[127.70868571976999,37.17100393043731],[127.70911203812507,37.17174333995761],[127.7095926977914,37.17221277167111],[127.70959639743783,37.17331158281159],[127.71015693323871,37.17399787198128],[127.7102400546663,37.17465138725086],[127.71075220622393,37.17513837536584],[127.71032681844426,37.175763324727825],[127.71092109626862,37.176316227267975],[127.7110634936487,37.17666313544823],[127.71179236960744,37.17664735279528],[127.71227151181613,37.17683193799007],[127.71239993109916,37.17711502058693],[127.7127718840523,37.17740605453994],[127.71274623812404,37.177623932746656],[127.71296834276227,37.17834136050758],[127.71389043476466,37.17851662196564],[127.71416011077224,37.17950529428902],[127.71446645671223,37.17969696671473],[127.71443661447952,37.17985723081392],[127.71478877311625,37.18025987109267],[127.71478332364536,37.18052596028582],[127.71447586263618,37.18085225207853],[127.71447731713491,37.181138780008546],[127.71603933365859,37.181842003323844],[127.7165967004642,37.18234409166772],[127.7169146369827,37.18344995887693],[127.71773129220082,37.1838564622538],[127.71849429537718,37.183898493183435],[127.71902754781176,37.18362650777536],[127.72006868612672,37.18358354446869],[127.72157270129127,37.18306059358205],[127.72182006295327,37.18236650583973],[127.72213629446921,37.18185773800054],[127.72274445703691,37.181581807607316],[127.72409033679227,37.18211483741467],[127.72568192222103,37.182222587705134],[127.72644246543148,37.18256473376781],[127.72665247407917,37.18324194976232],[127.72667002576034,37.18417212038305],[127.72739100301176,37.18473358475587],[127.72753559148956,37.185663280364416],[127.72801868538177,37.18646806314605],[127.72799717430586,37.18765652321583],[127.72836410455098,37.187699450321944],[127.72821903857435,37.187977893087016],[127.72829153136688,37.18829987133281],[127.72778140885852,37.188794951492774],[127.72771993615588,37.18930277928291],[127.7279027902875,37.18956617187888],[127.72835614221289,37.191761735263725],[127.72944334802101,37.19230404778681],[127.72981362226022,37.19281955416169],[127.73006923859293,37.192968192996155],[127.73025305895936,37.19356271342518],[127.73077869571839,37.19416012873836],[127.73047740961307,37.194802909536314],[127.73145807166577,37.195024904652314],[127.73213782654885,37.1956234187608],[127.73254971065747,37.19581081481406],[127.73271951265339,37.19714673487737],[127.73246033594255,37.1980944949054],[127.73284868484018,37.198778307716346],[127.7321939005266,37.199808975835666],[127.73257532057335,37.20050140327239],[127.73221570281785,37.20103099324078],[127.73216834106901,37.20134096569361],[127.7324149835473,37.20161855451277],[127.73316673159961,37.201690042836695],[127.73385707346509,37.20228769796673],[127.73382074506607,37.202845962452464],[127.73444991929013,37.203192488316134],[127.73457160957395,37.20400111677304],[127.73486132027138,37.2046591902606],[127.73562920401417,37.20551059541087],[127.73534177209392,37.20589157244362],[127.7355710952001,37.206652120763216],[127.73519632788795,37.20703581840481],[127.73530032150653,37.208020992854095],[127.73558104463336,37.208281614609916],[127.73591125996913,37.208293903476395],[127.73678576296734,37.21018697085132],[127.73707261719207,37.21022945739902],[127.73806015208716,37.21093214596069],[127.73874989774454,37.21084435773351],[127.7398645559181,37.211615591989286],[127.74046438353446,37.2119272727772],[127.74138586762908,37.21192980102846],[127.74181634143301,37.2121381417334],[127.74293298405114,37.21371723538968],[127.74357536539179,37.214256225639126],[127.74354278841113,37.21451560609949],[127.74417315596949,37.21480380364583],[127.74466463209917,37.214327038047315],[127.74480014506237,37.213677899249824],[127.74574540002364,37.21410025638763],[127.74605739674908,37.21446841799666],[127.74762484360879,37.21452057193226],[127.74797589876427,37.21625963942444],[127.74823619162423,37.21705747638269],[127.74892219959806,37.218335970435035],[127.74918778143117,37.221938377709414],[127.74817462770633,37.22538618123062],[127.74717365361197,37.227157351749184],[127.74711280197887,37.229159620293274],[127.74691027369146,37.22977228288232],[127.7479759884784,37.23241137802341],[127.74723760653838,37.233942240387535],[127.74698760930073,37.23636856512815],[127.746968237719,37.23908326624242],[127.7468697165583,37.239973379362695],[127.7479159891283,37.24357086332936],[127.7494163762096,37.24716546368845],[127.75032270968622,37.248908072176505],[127.7516261057022,37.25075555642685],[127.75267374421166,37.252604656087584],[127.75411156252207,37.254520788250936],[127.75703784685219,37.25792927276097],[127.75761488793651,37.2582473057659],[127.75760991117879,37.259012552040595],[127.75719884517237,37.25888352857759],[127.75748036189242,37.26032585050363],[127.7580716075621,37.26137355755317],[127.75799751869103,37.26157153319898],[127.75860445679413,37.2624540900115],[127.75845480325454,37.2629434860373],[127.75857643505117,37.263233673296995],[127.75879783674465,37.263443917118096],[127.75884204433474,37.26382161717791],[127.75949224111987,37.26434630514507],[127.75959466864303,37.26516699651346],[127.7598099848719,37.26531837766101],[127.75987585305998,37.266042017617835],[127.75932850805616,37.26677959479775],[127.76067618942777,37.269063615754746],[127.76009006255771,37.26939915640949],[127.75931854481203,37.27014025775049],[127.75970987873649,37.270600918143394],[127.75929425304052,37.27156927567541],[127.75933537313867,37.271776651616356],[127.75977497080059,37.27211258209696],[127.76007513104379,37.27218694830863],[127.76048184277123,37.2728997168868],[127.76038359272451,37.273319633339256],[127.7595497589024,37.273582943978354],[127.75932276962213,37.27460473156791],[127.7596326609251,37.27485011972518],[127.75955325289792,37.27549892401779],[127.7589150621158,37.276620227950175],[127.75908463223611,37.27706287438354],[127.75818078577066,37.277298729484656],[127.7578112270402,37.27707653978821],[127.75655188381319,37.27715824543739],[127.75675503473933,37.27722201159396],[127.75659475805914,37.27757862775927],[127.75674866877448,37.2779109586582],[127.75762112607998,37.27876619542474],[127.75730666020638,37.27882870806246],[127.75737878945877,37.278880668290185],[127.75729668874864,37.2789659946258],[127.75682655107795,37.2791074353316],[127.7563123385799,37.27944557712529],[127.75655845299003,37.280170591757575],[127.75551275181435,37.28189800074975],[127.75528565553914,37.281944263693646],[127.75534434325984,37.28243467946251],[127.75509264779133,37.28252349057935],[127.75395997113492,37.284216578003],[127.7547927975703,37.28492426179469],[127.75505364950588,37.2850303965989],[127.75531413861948,37.285034262697316],[127.75552572564595,37.28492324256643],[127.75556066264711,37.284977712485905],[127.75507542730976,37.28553726654729],[127.75498248274685,37.285853438903885],[127.75441815548045,37.28662359887118],[127.75432649491741,37.28767713030563],[127.75354180667733,37.288948939270014],[127.75294802279284,37.2887349273258],[127.75258065734448,37.28907105838246],[127.75240159371668,37.289713773698885],[127.75085658548008,37.290976546912646],[127.75012910767289,37.2918524083751],[127.75029246467584,37.293079661749545],[127.7499108807611,37.29343176459161],[127.75001596857518,37.294248191997916],[127.74959674086011,37.2952129185432],[127.74968238525378,37.2959644784102],[127.74989138575383,37.29653669389593],[127.74989519073004,37.29709957485353],[127.75032852322902,37.297653831222924],[127.75071116802683,37.2978990877787],[127.7512987906029,37.29770848186582],[127.7538345631985,37.29773121400625],[127.75459950680593,37.29759851353062],[127.75550228158954,37.298299786119124],[127.75653668039709,37.2987143969048],[127.75678662986229,37.29924105374418],[127.7575060033077,37.299999265681606],[127.75874976370959,37.300278311025515],[127.75914567970652,37.300962138775205],[127.75932014165356,37.30110077693023],[127.76190229851633,37.30211889847616],[127.76210556926992,37.302154902670324],[127.7631556812682,37.30185398910485],[127.7645129076033,37.3017507573056],[127.76573226647866,37.30138525240023],[127.76652152685669,37.30151042103891],[127.76722130625541,37.301797092797344],[127.76758054204994,37.30150060757588],[127.76819336052714,37.301521236129894],[127.76807676646148,37.30248636714828],[127.76768047578426,37.30289412822224],[127.76758227841496,37.303928983026445],[127.76769760099211,37.304713338783245],[127.76814413524879,37.30584301463466],[127.76818250447694,37.306375016764356],[127.7683232288256,37.30669932206986],[127.76821884973965,37.30753602480982],[127.76840599587139,37.30831278007838],[127.76828295566442,37.3093414892682],[127.76679089585161,37.3107650792685],[127.76655438699096,37.311268405599264],[127.76651612873334,37.31192903785921],[127.76636259728522,37.312274952283886],[127.76586717495402,37.31278982595818],[127.76553533054962,37.31302114006735],[127.76553927469546,37.31343662093666],[127.76572977321317,37.31352264408423],[127.76569963539558,37.3139276281037],[127.76550345385694,37.314230909257034],[127.76537099013822,37.314915846375804],[127.76499551494986,37.315373924460225],[127.76519720833355,37.31592180396379],[127.76513424728674,37.31659728789183],[127.76535291815986,37.31741778382792],[127.76428834950396,37.31796186855575],[127.76368848626721,37.3180977016698],[127.76343015634461,37.31837147810782],[127.76295936933492,37.319661486646794],[127.76246712235813,37.320348605257436],[127.7620550864846,37.32125469404937],[127.76209426150332,37.32152162467127],[127.76288564356308,37.3225289226674],[127.76270411919158,37.323463089569394],[127.76187395379081,37.325291097430856],[127.76128823416627,37.326991640018235],[127.76075917904166,37.32779309231085],[127.7607227936494,37.328156717690746],[127.76036143340433,37.32864412720889],[127.76041493352311,37.32928539916699],[127.75985999646718,37.32978647258338],[127.75970541354116,37.330113789472755],[127.75872104607242,37.33031099782846],[127.75838664853876,37.33080257153637],[127.75854168938467,37.33113649172365],[127.75910833951386,37.33125598794609],[127.75948863092037,37.3315841023737],[127.76039841728668,37.33206541622435],[127.76049407371232,37.33239692252564],[127.76145168020078,37.33324630452091],[127.76167091288912,37.33392211805743],[127.76294034218941,37.334303964486764],[127.76256175372748,37.33506368319035],[127.76183603000332,37.33570704282087],[127.76177054661612,37.33617237307399],[127.76128666615544,37.33681108717844],[127.76088549415002,37.337055408818344],[127.76102026107935,37.33722807731753],[127.76099664522141,37.33837800788704],[127.76092999963798,37.33887110281591],[127.7605795349646,37.33954905977072],[127.76078109652164,37.34000402425228],[127.76066418608247,37.34053529352231],[127.76073354202408,37.3408187716089],[127.76017077335455,37.34109922463473],[127.75984480309539,37.34141589210747],[127.75963039428011,37.3413330204555],[127.75903334467705,37.34144916428697],[127.75906036855427,37.34174657411253],[127.75891527064027,37.34233235250431],[127.75870468575788,37.34252938794776],[127.75844544359491,37.34314500781773],[127.7588168115415,37.344540671454425],[127.75798659320212,37.3458404798061],[127.7578914630609,37.346347414972676],[127.7579863653557,37.34708000738143],[127.7586423732306,37.34836758432832],[127.758387165206,37.35078696415869],[127.75909910551927,37.35162091697211],[127.76086248873726,37.352651734429955],[127.7604651270555,37.35379873393519],[127.76001454822183,37.35462392955402],[127.76017365866839,37.35488972306003],[127.75977183491706,37.355328312157525],[127.75992696341673,37.3559218966064],[127.75981121565279,37.35625734216465],[127.7605840858283,37.357395239299805],[127.76056711040654,37.357942327826244],[127.76027549539371,37.35858621501475],[127.75937593073871,37.35968443466733],[127.75996267060931,37.36043287409419],[127.760535093817,37.360934266876875],[127.76042734262441,37.36166759549536],[127.76092016793801,37.36301733072649],[127.76129012077301,37.363608441028845],[127.76109663739021,37.364361620283354],[127.76108016108745,37.3649588367496],[127.76082163770899,37.36520663171841],[127.76039270071232,37.36605721483571],[127.75987336857817,37.366291011598314],[127.7596151813357,37.3669790646171],[127.75896725197094,37.36734668870263],[127.7585091741103,37.36726517081578],[127.75798327229312,37.36702707537284],[127.75680581882001,37.366986136893125],[127.75489432229581,37.368111114516985],[127.75449719951934,37.36811629992269],[127.75382194932233,37.368472373601406],[127.75291900331374,37.36846815862815],[127.75228967857642,37.36944412454055],[127.75050541872893,37.369396438955434],[127.7499160773483,37.368995178807154],[127.74943808283797,37.368944080604],[127.74818865456254,37.369249006272085],[127.74795639946574,37.36914798309568],[127.74764339718551,37.36917488898222],[127.74676196358902,37.368995246469886],[127.7463427829243,37.3690500464978],[127.74577892309817,37.36887403619672],[127.74370411225676,37.36985396097148],[127.74303065916028,37.3698341010586],[127.74239158048948,37.370351332473746],[127.74196616092763,37.37033278774015],[127.74103496171769,37.37164003416109],[127.740549377276,37.37168421708834],[127.73969904754263,37.37207429041007],[127.7390346072937,37.37150083325642],[127.73878906248746,37.37151540166528],[127.7381241420999,37.37227271512955],[127.73655614531057,37.37302156049529],[127.73608834942456,37.37348096616147],[127.73537034266076,37.37371036625609],[127.73483862759569,37.37412962029764],[127.73410263523168,37.37428805359846],[127.73390366948718,37.37474608345139],[127.73330112636339,37.37490003829773],[127.73259740908163,37.37536756417678],[127.73211660436604,37.37601928078318],[127.73156579622146,37.37575673464232],[127.73095376499396,37.37572612876947],[127.72983402554591,37.3762056396214],[127.72841905435199,37.375188602174944],[127.72853016912651,37.37394287501956],[127.72708944028928,37.37349191498227],[127.726940160831,37.37320743983786],[127.72621656781412,37.37298793284135],[127.72579373528347,37.37231460093272],[127.72409189261946,37.37156556926811],[127.72372698603475,37.37155359563747],[127.72306570115524,37.37203071978439],[127.72158059238338,37.371747224487976],[127.72123705620457,37.371796807359274],[127.72043436352637,37.37173223102629],[127.71979593868298,37.3713152524631],[127.71911786055782,37.37150864255925],[127.7185719841506,37.37137431692347],[127.7181081614162,37.37143819617303],[127.71741212672612,37.370906732313],[127.71679007769212,37.37060929945422],[127.7163506274668,37.3700719233212],[127.71447928719913,37.3706337124414],[127.71368064329094,37.370718406296234],[127.71302837267952,37.37132069476599],[127.71257474964104,37.37132809104371],[127.7101706531091,37.37222054525267],[127.70981727198064,37.37209082705812],[127.70935834744502,37.371616394252015],[127.70917473712048,37.371340994548056],[127.709100116304,37.37103722642379],[127.70733151615991,37.36987651141883],[127.70704523188283,37.370433046648074],[127.7058764760925,37.371347140481085],[127.70529985447655,37.37157081547403],[127.70472246947467,37.37212079564905],[127.70345706169391,37.37241795554638],[127.7025800331566,37.37292679091159],[127.70219983303345,37.37295692220232],[127.70177018448375,37.37345460008511],[127.70161313574759,37.3734631894861],[127.70127044493469,37.37407040131911],[127.70158652634382,37.37441208080271],[127.70153940326395,37.37510446394447],[127.70168144504716,37.3752883295479],[127.70172909600264,37.37591703407235],[127.70146720852874,37.37630409494952],[127.70146492446848,37.376523594879124],[127.70119556363652,37.376954848285564],[127.70112034503258,37.37736903957162],[127.70126999674457,37.37758524151922],[127.70073195848731,37.37773591907546],[127.70051339453762,37.37837754872975],[127.70054534817803,37.37865991431261],[127.70016962703025,37.379249217495854],[127.70045623082562,37.37965369307936],[127.70087876380065,37.37976396530538],[127.70111292201302,37.37993923978985],[127.70128182609379,37.3799279952236],[127.70177442270926,37.38011243339895],[127.70313163706238,37.380735630479634],[127.70320353118092,37.3814574735676],[127.70376381188233,37.38426246996872],[127.70344458899501,37.384690293052444],[127.70404526159885,37.385531196506854],[127.70406136913871,37.38603521826786],[127.70386854351366,37.38622642941893],[127.7034841396931,37.38739337223189],[127.70312888370505,37.387811883678715],[127.70313929891687,37.388409687752336],[127.70334626087258,37.388800351648314],[127.70359961275048,37.38896575561649],[127.70354983878248,37.38954221205569],[127.70372502900317,37.38976799861859],[127.70372758819268,37.3909274580062],[127.70384554872084,37.39123746707597],[127.70408274566446,37.39149776460044],[127.70426273269538,37.3921109937093],[127.70526128134155,37.3932784322151],[127.70557707710256,37.393293888555064],[127.7061418321558,37.39373190516667],[127.70638521245418,37.39362843471638],[127.70782624855406,37.39467831855709],[127.70853995806421,37.39490605070457],[127.70881262612285,37.39476322520668],[127.70941572855531,37.39490001949794],[127.70970678974308,37.39562256814516],[127.7097095896647,37.39587085759319],[127.710201581753,37.39611929698813],[127.71091767873307,37.39669406372815],[127.7111496672498,37.39674132553336],[127.7129337015866,37.397704970769354],[127.7135240480729,37.398273522867925],[127.7143849913795,37.39839449331417],[127.71438157165818,37.399016111329644],[127.71465567486305,37.39914460699531],[127.71485169655996,37.399399803138465],[127.71496449720685,37.40000040236261],[127.71479526733346,37.40011997693411],[127.71448899948787,37.40065315126209],[127.71447180534206,37.40146109667088],[127.71519174032119,37.40206939372138],[127.71437235468544,37.40301108446574],[127.71404999476123,37.40356764494446],[127.71416600561406,37.40488167524325],[127.71372015912796,37.405113952638125],[127.71302651216152,37.40517095473849],[127.71290507075287,37.4055862785638],[127.71272583618686,37.40573530895108],[127.71251856930265,37.405760215422376],[127.71143495052058,37.40627666373535],[127.71090960395331,37.40607155931023],[127.71070380140146,37.406123622155945],[127.71060712883961,37.406369074149346],[127.71059124092757,37.40704775094304],[127.7104345128063,37.40752451528382],[127.70984744785619,37.40766982443463],[127.70975898070137,37.408207852384415],[127.70889546639769,37.40981387187817],[127.70833473447193,37.41003514925163],[127.70808496294934,37.41031858240277],[127.70765484449015,37.4102969231356],[127.70685149235275,37.40982046176036],[127.70602750884528,37.40978585614741],[127.70534911590475,37.4094804593425],[127.7048698711562,37.409140059292234],[127.70472533852703,37.408812281578896],[127.70376405818467,37.40857613312274],[127.70323783637622,37.40807538347305],[127.7026112501282,37.40787851059455],[127.7018132412242,37.407893062590354],[127.70087814186535,37.4071928302434],[127.69996586803359,37.40767335163336],[127.69886681372574,37.40756420586814],[127.69854688221895,37.40706820428176],[127.69780603325972,37.40628138434889],[127.69784364003515,37.40559735275958],[127.69710976433191,37.40499432954786],[127.69677587055953,37.40451519659685],[127.69628433784949,37.404246886808814],[127.69618189791599,37.40403870285241],[127.69548551509496,37.403680717620325],[127.69533437972137,37.403342827296505],[127.69497583185489,37.40307016390948],[127.69402593265065,37.402867708095535],[127.69393266968858,37.40264587099329],[127.69331405443288,37.40234396436868],[127.6932872927134,37.40216646324957],[127.69305872557103,37.401892409634065],[127.69223497735949,37.40176489582833],[127.6920094429903,37.40186269068525],[127.69170657053039,37.401591450202794],[127.691452534744,37.40112286275462],[127.69085477272519,37.401398640189846],[127.68990561110995,37.40149901562115],[127.6888707161472,37.401212700201675],[127.68841998619142,37.401178685514424],[127.68802035682799,37.400859331573194],[127.68770179593838,37.40046954351495],[127.68720811110906,37.39935332439764],[127.68678516824743,37.398882050093356],[127.68656643993917,37.39891723918704],[127.68615963938348,37.39879301385309],[127.68564057887879,37.398613863802055],[127.68541659701961,37.398436212332285],[127.68521065374982,37.398484912204715],[127.68442727826431,37.398203923273485],[127.68398215841592,37.398223432122016],[127.68448673226,37.403187444984376],[127.68424156884306,37.403203186775215],[127.68461474534355,37.40403895930156],[127.68476776390447,37.404621651780275],[127.68485958725726,37.40610163714762],[127.6865337271963,37.40599707436967],[127.6868101527459,37.40875540385455],[127.686640492306,37.408766569476434],[127.68694867649458,37.409256636638716],[127.68747856516994,37.40969459982044],[127.6877261016911,37.41105096466529],[127.68794324965882,37.41179951413986],[127.68800587919735,37.41179292283354],[127.68693443952323,37.41233289816837],[127.68625962376852,37.412454468543935],[127.68608095107606,37.412573542604484],[127.68559093845413,37.41346137224475],[127.68485867202318,37.413837529040684],[127.68376105825726,37.414091651411],[127.68346661518409,37.41431002057497],[127.68307269307203,37.414380587205486],[127.68271641912253,37.41427896349058],[127.68233349036831,37.414036539404094],[127.68241535477279,37.41398853188977],[127.68182524257351,37.41388708035905],[127.68083180203162,37.4134849846835],[127.680153722548,37.41271467039386],[127.67999868579444,37.41243101726048],[127.67946213917566,37.412660343276734],[127.67903423517014,37.41300065320886],[127.67835681177507,37.41293115502278],[127.67797298704117,37.4126947591275],[127.67793780382056,37.412536782338655],[127.67771665041529,37.41248049215496],[127.67749753709258,37.412622013305544],[127.67738083175084,37.41257305970359],[127.6762408761652,37.412919147128775],[127.675818939546,37.41269325162622],[127.67376037904367,37.41197714061379],[127.67071504323536,37.41237332183718],[127.6695935877752,37.412338406544784],[127.66878083557755,37.412183241633684],[127.6679139848645,37.41162572004914],[127.66757005718947,37.41208421857435],[127.66735896752253,37.41264443080395],[127.66680329200092,37.41309484195323],[127.66615802817874,37.41347947479161],[127.66586877688552,37.41419261923755],[127.66563613709141,37.41436618498973],[127.66485392412548,37.41448777820695],[127.66402834252835,37.41499234292522],[127.66368161837487,37.41498239451555],[127.66314137675347,37.41513591050279],[127.66283737559999,37.4154475720543],[127.66102554529512,37.415819252969584],[127.66041081921072,37.415797633500716],[127.65828959485683,37.416839877629045],[127.65761906546902,37.41645124457433],[127.65747510747418,37.41606783132509],[127.65693012430775,37.415207618562974],[127.65642058335582,37.41469743198147],[127.65630003782323,37.41438881506938],[127.65568350118092,37.41389780556074],[127.65535847190624,37.41336299787175],[127.65465431870665,37.41295377376238],[127.65428299388468,37.41300929892096],[127.65415293393299,37.412429504999004],[127.65387272140804,37.41211502547001],[127.65388542451491,37.411568942544484],[127.6536428958868,37.41145607897281],[127.65295122842701,37.41050171730142],[127.65325194013212,37.40901645100171],[127.65289123851998,37.40873000340477],[127.65235307473101,37.407934179376774],[127.65169371395704,37.40750778569915],[127.651202644129,37.407368226693734],[127.64941935353315,37.40623002440241],[127.64933188606457,37.405872941358254],[127.64862203575048,37.405702169696596],[127.64782779236035,37.40527840613184],[127.64734626775785,37.40482061739504],[127.64669502539152,37.404712837871784],[127.64586027714894,37.40471762212871],[127.64497343003463,37.40516892352502],[127.64417398102195,37.40534769653074],[127.64327790503613,37.40581554036434],[127.64224071234537,37.40669154076981],[127.64223657285679,37.40783946955335],[127.64160665449654,37.40833935943907],[127.64022809221409,37.408930389586686],[127.63991612200503,37.40978863480786],[127.63904925884617,37.410034142314906],[127.6383213785053,37.41050271663462],[127.63783044492003,37.41059382995243],[127.63775468858813,37.41074756020574],[127.63741676522638,37.4108712279294],[127.63708622008838,37.411106725704975],[127.63715030187484,37.41146935570173],[127.63688987394181,37.41182076646856],[127.63649420411512,37.41234641806412],[127.63617836473833,37.412364600744],[127.6357862232164,37.412694442836155],[127.63532555069257,37.413475421275116],[127.63379156496173,37.41353190971646],[127.63293882131865,37.413382559440244],[127.63182744342252,37.41352568458652],[127.63144942264982,37.41308335338242],[127.63071726798354,37.413106849258675],[127.62989169398426,37.41296894493725],[127.62926709008339,37.4133448520979],[127.62871731311733,37.41349039913222],[127.62834629421853,37.413490357205994],[127.62804019305973,37.413259954029805],[127.62705009831382,37.41337010167099],[127.62640448397374,37.41360682708528],[127.62624450260077,37.4130462787756],[127.62523729297997,37.41213591292735],[127.6239348964422,37.41138586646648],[127.62387028802196,37.411011930106824],[127.62316234662283,37.41021393002653],[127.62273806724666,37.41000083975696],[127.62245260685161,37.41006378526091],[127.62125769779294,37.40976997711993],[127.62084730237841,37.409580700092434],[127.62047164576217,37.40923963891623],[127.6202391603485,37.40940182111484],[127.62007268357112,37.40942119690537],[127.61994701281256,37.40956395162404],[127.61980617656587,37.41007533007998],[127.61920054280925,37.41066031400436],[127.6188782171623,37.411330259142396],[127.61894019805037,37.412157674144176],[127.6188751723039,37.41230669792694],[127.61825755732671,37.41271036916688],[127.61767164396451,37.413824427784355],[127.61611335188209,37.41433860994394],[127.61559888294173,37.41439251541114],[127.61512030822652,37.414995595862344],[127.61501322674182,37.41501285693385],[127.6144997472606,37.414664662202114],[127.61412543489655,37.414513242672335],[127.6136653328748,37.415497436755494],[127.61346272020504,37.41536468516784],[127.61293238295022,37.41561584305086],[127.61237474361852,37.41542507471635],[127.61127319021799,37.41560576148653],[127.61098833362811,37.41555201680865],[127.61055933086251,37.41618653175301],[127.61037614433035,37.41625922968065],[127.61041997569727,37.41633760872648],[127.61012136900764,37.41613461004506],[127.60978515854207,37.416048770724466],[127.61018131975534,37.41627172965691],[127.60986467598995,37.41629802911924],[127.60933854226137,37.4168089065112],[127.60880240029132,37.41703095648164],[127.6091114691557,37.417444062028025],[127.60917426895578,37.41797024883924],[127.60914039733683,37.41818216361488],[127.6089118456239,37.418457377827885],[127.60845522603904,37.41837817341478],[127.60817815323774,37.418688285215865],[127.60772698963586,37.41884604004738],[127.6070770642687,37.418618291440175],[127.60600089773946,37.41842728201059],[127.60540649790569,37.41858718443999],[127.60525875989123,37.41891869713087],[127.60498904993298,37.41920812987699],[127.60419861237922,37.41943430725745],[127.6040648457881,37.419725584784324],[127.60348706072014,37.41985445188331],[127.60276281614148,37.41983115204777],[127.60248856138575,37.42002270231027],[127.60179935897335,37.41992592366938],[127.60173647671947,37.420528253672344],[127.60139591043207,37.42101636685241],[127.60135944551513,37.420969998768946],[127.60128393710588,37.42109733991388],[127.60096198256294,37.42096337302688],[127.60055962955009,37.421182453450555],[127.60012297964066,37.4212073722055],[127.59952688630682,37.42105649626322],[127.59896600023916,37.421070866387886],[127.59876656606663,37.420993882394235],[127.59811304891026,37.421086929626235],[127.5970817594795,37.42082581341023],[127.59588262583588,37.4206754722453],[127.59539823549176,37.42076486983477],[127.59499467939274,37.42070023966343],[127.59398511685185,37.42071992865607],[127.59379194470549,37.42027281084282],[127.59366858373804,37.42023949634887],[127.59298026942989,37.420612173836744],[127.5924091691081,37.4208088877811],[127.59203871119526,37.42104746698924],[127.59120837182913,37.422087461074504],[127.59114304177805,37.42230076493937],[127.59043806202595,37.422286260552646],[127.59005772214547,37.42210987174917],[127.5890275634225,37.422192608947185],[127.5884633678554,37.42189860266821],[127.58807407563381,37.42105149848984],[127.58739798791017,37.421194225146685],[127.58726420953731,37.4211348185718],[127.58704696723998,37.42053488418957],[127.5871078755116,37.42005863200613],[127.58769027804506,37.41965009504821],[127.58777530157145,37.41900601848294],[127.58804178029827,37.418727018461446],[127.58813486125615,37.418500820197465],[127.58810474728843,37.417992742573354],[127.58826203245081,37.41785447090282],[127.58836261833434,37.41736127655971],[127.58801133293449,37.41659119839512],[127.58746153553474,37.416477965933915],[127.58705249779088,37.416123340757075],[127.5866650619831,37.41614924260038],[127.5863385329083,37.41598010153751],[127.5861183029531,37.4155148439834],[127.58634630524871,37.41513318689906],[127.58637309003564,37.4146016347068],[127.58615644137186,37.414560350963676],[127.58599531229784,37.414647069208236],[127.58542938727769,37.414149059899536],[127.58480420441317,37.41405503820849],[127.58444456374268,37.413875124277574],[127.58411678397194,37.41423962525112],[127.5841316197999,37.41462394668854],[127.58372439045509,37.41504238750256],[127.58379159210763,37.41534351057615],[127.58372531067582,37.416102589216294],[127.58299283725347,37.4169325079322],[127.58253441389846,37.416496577566285],[127.58176441224867,37.41675604820057],[127.58146118640279,37.41645671840501],[127.57947645510019,37.4159278005027],[127.57903186144037,37.41524922288097],[127.57875983911886,37.41513668150596],[127.57810326148639,37.41444695425001],[127.57777368737482,37.41424267373349],[127.5778623706281,37.414359235848394],[127.57742968200269,37.41416134991855],[127.57684903909397,37.41438505637362],[127.57647434670334,37.4142642080049],[127.5759693554337,37.4139328871786],[127.57556354350943,37.413826198551305],[127.57545283049767,37.413677846283726],[127.57551567764774,37.4134375668393],[127.57543076345249,37.413173536617826],[127.57522766940892,37.41305074305982],[127.5748566963339,37.41314693941383],[127.57328967930509,37.41270792887263],[127.57184213490855,37.411688204698294],[127.57114143833378,37.41274805085554],[127.57109898403824,37.41313660353762],[127.57068401902433,37.41359549059284],[127.57043798480464,37.413450423356835],[127.57009218825182,37.41339181925114],[127.5693396058902,37.41349261002943],[127.56839211947187,37.4132374332796],[127.56846027215448,37.41279024635628],[127.56736295538113,37.4123584360646],[127.56720283233238,37.41203441259769],[127.56703451803361,37.411941195492545],[127.56645767722074,37.41186410702778],[127.565643015512,37.41117294585858],[127.56527516527976,37.411256404592486],[127.56509376097884,37.411714796872864],[127.56514010384463,37.411859231916935],[127.56496384545017,37.41264448310213],[127.56483750178819,37.41298635028864],[127.56458700192063,37.41312884591941],[127.56459940372129,37.41346656271085],[127.5643126605268,37.413978390839574],[127.56385741030614,37.41415245785951],[127.56338359869912,37.4144991382569],[127.56327005922441,37.41484043433874],[127.56344185307209,37.41503473018124],[127.56340351461016,37.415155708667086],[127.56305684102769,37.41536133468642],[127.56283413711927,37.415680381136575],[127.56198734322531,37.41528176042907],[127.5612568229795,37.415370168111046],[127.56076836048587,37.41526214107893],[127.56026707751387,37.41525272587477],[127.55902014644273,37.41596434862575],[127.55875649415506,37.41598546947246],[127.55825171096095,37.41641195632859],[127.55692101081243,37.41649724943061],[127.55632213492764,37.416702778517994],[127.55455731982147,37.41601613128291],[127.55453077337592,37.415008116431835],[127.55421239874683,37.41440562928899],[127.55340061019338,37.414254673322645],[127.55254499265054,37.414375985787906],[127.55156156912804,37.41424992816245],[127.55121981564551,37.413879368081595],[127.55117943020382,37.413308547158515],[127.55097124479775,37.41297203481508],[127.55119166987691,37.41246359194887],[127.550911884841,37.41173455942253],[127.55062114876502,37.41139526778121],[127.54820733755155,37.411560625270695],[127.54763397525441,37.411452621742185],[127.54722365781849,37.4107330126323],[127.54722130375902,37.410557976343725],[127.54696820403775,37.41044644662141],[127.54601887166494,37.41022336595874],[127.54398284288088,37.410142389314316],[127.54333202620836,37.409824536104374],[127.54300024008374,37.41007693918326],[127.54225951837775,37.41108506478974],[127.54183163595714,37.41115087348864],[127.54154194954434,37.411394108509604],[127.53946134740765,37.411646674077055],[127.53662088629429,37.411704522785634],[127.53615410669518,37.41410701164909],[127.53454020071518,37.41883878056374],[127.534040507134,37.420084297692995],[127.53328997887164,37.421327939978134],[127.53288605923194,37.422565506992534],[127.53139168240627,37.42589091183827],[127.53068832447585,37.427224155068956],[127.52981162100961,37.428551537243365],[127.52786776280057,37.43068731506756],[127.52617493619013,37.43217173114595],[127.52054787585945,37.43580056917273],[127.51914182373721,37.436467302790945]]]}}
