{"type":"Feature","bbox":[127.37204900553083,36.44920509425795,127.49962479233275,36.64662442451958],"properties":{"regionCode":"43112","version":"vworld-20260909-3f8952dfda77-p2","name":"충청북도 청주시 서원구","attribution":"국토교통부/K-Geo플랫폼 · VWorld 법정구역정보, CC BY 2.0 KR; 두꺼비집 가공"},"geometry":{"type":"Polygon","coordinates":[[[127.48258057055175,36.64515158348952],[127.48247742928118,36.64658251059261],[127.48199209277571,36.64662442451958],[127.48180902871734,36.64638116749206],[127.48128736202199,36.64614578793258],[127.48134731765599,36.645800851319684],[127.4816390451536,36.6454017499103],[127.48169541262013,36.64514886437338],[127.48158850047578,36.64485953139662],[127.48153292518798,36.64484888783503],[127.48084764812607,36.646189335165616],[127.48071387412355,36.64612682002666],[127.48074026809621,36.646078739362245],[127.47351527237498,36.642690894951414],[127.4724985897936,36.642544163168985],[127.46923560119123,36.64265367151626],[127.46897317553919,36.64248676786883],[127.46894799641464,36.639855230712],[127.46694939587627,36.63986026246656],[127.46689662594612,36.63776103622593],[127.46544786522448,36.63776470143497],[127.4650332299894,36.6379845693994],[127.4646408261784,36.63844413457287],[127.46364829191008,36.63819116943764],[127.46171060615805,36.63936904724577],[127.46025626809484,36.637814994494015],[127.45868318825745,36.63763333937429],[127.45876512260203,36.638518195166135],[127.45665337404222,36.63798722956139],[127.45621149876511,36.63321395736091],[127.45463616118364,36.63266702911255],[127.45463497447821,36.63258868121028],[127.45510747455846,36.63247653163904],[127.45549145704666,36.632185078716475],[127.45584948597161,36.63173425156688],[127.45573410346204,36.63138577763325],[127.45580651155417,36.63081469410922],[127.45568363065136,36.63076571870681],[127.45586435131912,36.63078469923867],[127.45575953364161,36.63074487360714],[127.45565013505887,36.63074337070393],[127.45554098318303,36.63078360899913],[127.4551415397293,36.6311081088896],[127.45480376344635,36.63118798205513],[127.45478010991123,36.63141617310702],[127.45432018679097,36.63171994341476],[127.45463112736425,36.63149232738246],[127.45474008861424,36.6313100587011],[127.45400496466928,36.630024396448135],[127.45412208467181,36.630006469317415],[127.45399170645919,36.62972623852151],[127.45390461543978,36.62981318510308],[127.45360101281275,36.62950273067851],[127.4531771088177,36.6292091818434],[127.45295378048192,36.629153044055904],[127.45281295575475,36.62898462256385],[127.45234783332431,36.62888240395814],[127.45230047583311,36.62893818961623],[127.45146910716072,36.62868874979879],[127.4512001939195,36.62849514034583],[127.45070860949386,36.62793180739401],[127.45003347110897,36.627432605731535],[127.44990023750199,36.62466052656528],[127.44668533046315,36.6247203405631],[127.44574015818391,36.62467268341585],[127.4446889652348,36.62436481205456],[127.44334422091566,36.62364773295657],[127.4432597158967,36.62366940357085],[127.4433955901617,36.623441815093955],[127.44308279601293,36.623345021675846],[127.4445545118582,36.62097176249747],[127.44480822184289,36.62014223477496],[127.44492662754614,36.618408748784795],[127.44479016865412,36.61642272404677],[127.44409343681535,36.616073785099246],[127.4440647640942,36.61612264021962],[127.44403676091717,36.616034164563516],[127.44313961852893,36.61541265058106],[127.44153510186578,36.61386017751711],[127.44145419402692,36.61356878151543],[127.44057382292073,36.612787445215275],[127.44018795277908,36.612586509376676],[127.43983403744807,36.6122876636965],[127.43815117290882,36.61149657994741],[127.43761692480032,36.61143899840953],[127.43750660195359,36.61125075209072],[127.43747836144267,36.61085268091068],[127.43671597223401,36.61065188542094],[127.4366210451091,36.60983076495179],[127.43690818883279,36.609102189857765],[127.4368309861911,36.60889915049284],[127.43694212717459,36.60824386947761],[127.4366217983158,36.60730853143913],[127.43618738678565,36.607100802595966],[127.436137106107,36.60661376415541],[127.43585592876335,36.60642675149277],[127.43510016380851,36.60614114294644],[127.4347452584444,36.60621037025738],[127.43422472352798,36.605919394569064],[127.43414026477552,36.60530403265116],[127.43443141880353,36.604917879412255],[127.43420523150492,36.60462698763095],[127.43405945884759,36.60425556539929],[127.43416434641028,36.60396837389651],[127.4337627741502,36.60345020545305],[127.43348505729838,36.60326118047932],[127.43331937319789,36.602821561857326],[127.43375837092108,36.60184962559941],[127.43422978661089,36.601525515874634],[127.43430137978031,36.60114093435786],[127.43413008716688,36.60086979379161],[127.43441246685887,36.60028396324319],[127.43439934015434,36.59995708885963],[127.43422877067307,36.599442605903114],[127.43394725820956,36.59904981741668],[127.4338428530777,36.59864528092182],[127.43301342902362,36.598719963384966],[127.43186355226725,36.59920392750326],[127.43100723198131,36.59919217329091],[127.43033920295133,36.59940026554615],[127.42961028984534,36.5992757786577],[127.42937817386537,36.59930577230081],[127.42916381780466,36.599491373772636],[127.42897189071049,36.59952150228881],[127.4276514211632,36.599546811067675],[127.42714486768989,36.59978467252958],[127.42687012786266,36.600334297008985],[127.42675966806368,36.600392029976874],[127.42650821497338,36.600234643965315],[127.426407269205,36.59903344985286],[127.42629017440277,36.59875946280669],[127.42569371819414,36.59865561152655],[127.42527375702205,36.5986622869317],[127.42465708328987,36.59837765005634],[127.42430482822785,36.597710954103036],[127.42376852329325,36.5975419201779],[127.42298123874286,36.59759095437114],[127.42231018461116,36.59746988770579],[127.42173584543355,36.59688063695871],[127.42160889951225,36.5964904916816],[127.42153437163405,36.59660836116931],[127.42076739678258,36.59676614525116],[127.42004805085274,36.59678112025973],[127.4194725074924,36.59663193955541],[127.41911119431063,36.597290165090385],[127.41959841526082,36.598848681839264],[127.41957537135893,36.5992179185738],[127.41942497444356,36.59958816367586],[127.4189985550821,36.59994483666545],[127.41889988152079,36.60075207129222],[127.41841016567545,36.60117634151082],[127.4187472117302,36.60233482941288],[127.41814483851088,36.602783921077055],[127.4174270105783,36.602794637887094],[127.41704061183086,36.602972742738466],[127.4165369789953,36.60334629667634],[127.41638808621138,36.60360111209996],[127.4166337317292,36.604111160692504],[127.41672976008975,36.6045801066501],[127.41609021049644,36.6048044640122],[127.41559749811643,36.60492415027141],[127.41547433093388,36.60489517432448],[127.4154225130741,36.6060350308436],[127.41577775883867,36.60624374948],[127.41601306540029,36.60668802451276],[127.41508400742192,36.60677341816062],[127.41463776386568,36.60669563055174],[127.41399262258568,36.60632551012618],[127.41291901172409,36.605865121953606],[127.41259604806287,36.60556467345112],[127.4116057738127,36.604913683803495],[127.4115072464452,36.60481118735698],[127.41152174598075,36.60453942930846],[127.41135876973458,36.6039759708305],[127.41122254273031,36.603852229218035],[127.41096681078984,36.60374645082482],[127.41075852821834,36.60346391368987],[127.41037060935484,36.60332969711334],[127.41001495754801,36.602784165864975],[127.4092279736052,36.60265358314719],[127.40814670908307,36.601778289513575],[127.40767207259417,36.60114697150284],[127.40724667729593,36.60101802733535],[127.40724055059543,36.60091496812401],[127.40705279458231,36.60075559292771],[127.40729319707843,36.60020995235873],[127.40723518601888,36.59991386612752],[127.40680549513402,36.59898982339516],[127.40626890614737,36.59833493804141],[127.40536191761373,36.597888225798975],[127.40434562391994,36.59777765280381],[127.40438370209365,36.597717762208724],[127.4026993509533,36.59699844865152],[127.40244655438767,36.59696117216969],[127.40244280204867,36.596879667742996],[127.40164909576748,36.59652162143865],[127.40101621429686,36.59604078344108],[127.40077972402912,36.59550788088335],[127.40083701143578,36.59525901427579],[127.40065449710615,36.594549813067324],[127.40072625557272,36.59453297416126],[127.40052611229598,36.59403718461528],[127.39980423040055,36.59321991982657],[127.39960903919858,36.592591852347184],[127.39923268944767,36.59194301676262],[127.39824363376678,36.59071635735771],[127.39772808412447,36.5903239896252],[127.39663966298956,36.58971496772554],[127.39494232083374,36.58850786515437],[127.3938774810661,36.58728306915805],[127.3926534879583,36.58668025084596],[127.39202106261631,36.585841207522456],[127.39088757652198,36.585686632750054],[127.39025167104107,36.58539369435235],[127.39013436642301,36.58521309497652],[127.38960136713513,36.58496473899507],[127.38875769901392,36.58405739250142],[127.38876468638091,36.58381213628691],[127.38830008384419,36.583097857122944],[127.38807867687972,36.582595779341574],[127.38757535661139,36.58104998289931],[127.38771129991831,36.580289346201674],[127.38752271677735,36.58002403272266],[127.38745194023441,36.579199148933284],[127.38705061572901,36.57793837314299],[127.38674456952596,36.5772753699309],[127.38653445890976,36.57722654015696],[127.38625843597339,36.57701279041554],[127.38557757840016,36.57686565843542],[127.3849631096343,36.57649723428359],[127.3845393614247,36.576032846113335],[127.38413868568425,36.575282667777536],[127.38382229304892,36.57527363507705],[127.38340546406546,36.57488025583278],[127.38305868538576,36.57474198018667],[127.38260118477908,36.57417786323838],[127.38207364101537,36.573750392390444],[127.38177066755046,36.573371558452685],[127.3812166573768,36.57309502572276],[127.38074551740587,36.572291047302144],[127.37974465823072,36.57130829491686],[127.37952102427094,36.57051412853781],[127.3792588609311,36.57013226594241],[127.37834830594058,36.56946983916124],[127.37771416280003,36.56936010164821],[127.37736290279682,36.569106485661344],[127.37740183114255,36.56868827293184],[127.37721551732764,36.568327071450156],[127.37713195530222,36.567895545282354],[127.37754872152918,36.5678288297468],[127.37688405930064,36.566498456824526],[127.37585255991124,36.56589374087494],[127.3750312202529,36.56570480652778],[127.37396336295092,36.56523735742312],[127.37301091785517,36.56462371770783],[127.3726198773948,36.56412160568089],[127.37204900553083,36.56360545230849],[127.37206656152661,36.56352042102228],[127.37223588980126,36.56345761869388],[127.37321341524563,36.564483941572604],[127.3741025721381,36.565099220328676],[127.375989537368,36.56346300908131],[127.37678949913365,36.563980044093896],[127.37799193047645,36.562939134788124],[127.37620168350362,36.561564204842824],[127.37614026857904,36.5614765297138],[127.37649839936036,36.56119044582723],[127.37646326235533,36.560935147143546],[127.37621292574522,36.560781019740574],[127.37574410260038,36.56050725763219],[127.37500479016546,36.56021460687122],[127.37314292367213,36.560154911435546],[127.3726704766499,36.55994513871781],[127.37254697233783,36.55972427584559],[127.37276327686159,36.55962248667574],[127.37309799771161,36.5591425336893],[127.37322510481869,36.55873037262967],[127.37321404498594,36.55838236021868],[127.37361264598482,36.557718005813804],[127.37375107173004,36.55764961880731],[127.37439678898757,36.557683286991804],[127.37556162881786,36.55787853664007],[127.37642922583072,36.556826798474795],[127.37709118957825,36.55627623651379],[127.37812125012067,36.55512916514154],[127.37845929092256,36.55441220211528],[127.37839696708704,36.55434604346034],[127.37856768769038,36.55417715365051],[127.37897011095336,36.55340309164321],[127.37919009751651,36.552568680279556],[127.37889962639687,36.55252885891335],[127.37868575617978,36.552179056529035],[127.37893608860038,36.55154038344588],[127.37845417345503,36.55112113073946],[127.37848150006695,36.549804733059254],[127.37929128924617,36.54939472985431],[127.38032860393577,36.549230838564824],[127.38103455228035,36.54897139053596],[127.38169903952591,36.54888140378252],[127.38255077629756,36.54837193011106],[127.38315285908864,36.547900115379164],[127.38271203511553,36.54637368919008],[127.38394513169226,36.54553305166698],[127.38390628296361,36.54523919683735],[127.38401110100902,36.54443336011674],[127.38378323782881,36.54342787880163],[127.38357104236347,36.543100156189865],[127.38351256203597,36.54280167882621],[127.38363694159163,36.541758572432066],[127.3843717968988,36.54121503534663],[127.38507535497916,36.54104776732256],[127.38567169173089,36.5412532181574],[127.38673123943767,36.541009888774155],[127.38723917105835,36.541236253910164],[127.38779882163894,36.54113964293125],[127.38824949230008,36.54074533987767],[127.38896467798743,36.540381985369244],[127.38980029187513,36.54028762205187],[127.39118235997717,36.540515715246684],[127.39179980956811,36.540393294544465],[127.3919406487009,36.540154544915296],[127.39232194005233,36.53999964395741],[127.39285689560016,36.54006881740779],[127.3931727625249,36.540034882065264],[127.39421420582717,36.540245314673726],[127.3954516088394,36.54002431019123],[127.3966096080637,36.540093300989255],[127.39751211946019,36.54024062625639],[127.39782112030623,36.54019868800608],[127.39849468280022,36.54053286966331],[127.39921675480296,36.541165910977824],[127.40017824644855,36.54176318357965],[127.40101741834458,36.54139231397614],[127.40126093195727,36.54147558478729],[127.40153680762367,36.54145843893898],[127.4017647650199,36.541220836851146],[127.40202362588252,36.54074385139352],[127.40205558485073,36.54038605386419],[127.40242154696685,36.53994133667588],[127.40262695799039,36.5390504207329],[127.40260496609633,36.53864512596819],[127.40315801731612,36.538026560753316],[127.40320061075973,36.53780246573337],[127.40413656272293,36.53788303447115],[127.40438537654167,36.537781978097996],[127.40498278288959,36.53730258928692],[127.40521499659299,36.53661434994161],[127.40517851209388,36.53574363061494],[127.40535074471065,36.53429109424485],[127.40583966903296,36.53297105254109],[127.4055807676102,36.53220976302966],[127.40561229943634,36.53140009974944],[127.40620431696551,36.53057032212382],[127.40676790207414,36.53009950029196],[127.40693858214071,36.529855324193925],[127.40777942455072,36.52909525987992],[127.40842157010354,36.52883928289182],[127.40847163032312,36.52851602750194],[127.40822391069861,36.528115747818106],[127.40790030651003,36.527855581882214],[127.40836407867663,36.527182506041406],[127.40819643903626,36.526385314801864],[127.40846699231133,36.52539684064583],[127.40869474024028,36.52529161280665],[127.40870756656092,36.523978848447456],[127.40860064347433,36.52369659779243],[127.40765206442464,36.52307150129268],[127.40678379075608,36.52318818873253],[127.4062210374686,36.52382590843357],[127.4056568648913,36.52373355228287],[127.40435882426458,36.52392530930038],[127.40314640503668,36.523330805993766],[127.40196865555541,36.52377753346749],[127.40146805801105,36.523671427380535],[127.40087895524158,36.52268738011977],[127.39977948636934,36.52202000372935],[127.39934766119562,36.521674927763485],[127.39785942402241,36.52135183975856],[127.39770712018961,36.52106395278296],[127.39764630209103,36.5206052564953],[127.39818609473328,36.520311285340306],[127.39868743202466,36.52018975790467],[127.39903201525966,36.51995384311531],[127.40000742096694,36.51966967588819],[127.40035520884766,36.519039281059065],[127.40120630524844,36.51899155596841],[127.4013748561394,36.51849748005111],[127.40221377500588,36.51818094987527],[127.40259464631272,36.517880914298594],[127.40286059224643,36.51784703764197],[127.40302370308635,36.51765470754742],[127.40371055416847,36.517406003840904],[127.40419170518871,36.51680461495107],[127.40419136311797,36.51558355081934],[127.40536310306206,36.51306753541346],[127.40465088051911,36.51271413631008],[127.4049253793824,36.51196988293822],[127.40616866130217,36.51182328183525],[127.40645764430603,36.511335818856026],[127.4074114571882,36.51050651652077],[127.40879065032638,36.50995955400708],[127.40902227344228,36.50974274112375],[127.40849200641007,36.508983470874725],[127.40888567412999,36.50832640204041],[127.40902874414323,36.50744640489341],[127.40883232507701,36.50719482894613],[127.40901914682836,36.506669678949365],[127.40882955133546,36.5064375430858],[127.40836441201405,36.505169220126206],[127.4084403364262,36.505111549728646],[127.408314316737,36.50469381129521],[127.40809587272521,36.50441923920857],[127.40781088087301,36.50333684436922],[127.40756700071363,36.503283517488576],[127.40761738412448,36.50298828319879],[127.40814984156856,36.50248484754673],[127.40817813015698,36.50210173760553],[127.40902503591839,36.50189129591035],[127.40837367213392,36.50116875518646],[127.40837201053462,36.500938490785316],[127.40790087458649,36.50013810520086],[127.40823103464348,36.49956154458267],[127.40878945004926,36.499414545648804],[127.40928298323108,36.498989105806565],[127.40942233444967,36.49882514248423],[127.4094320202212,36.49839054296023],[127.41036994247997,36.49833876031636],[127.41070219170075,36.49802354546776],[127.41083675227844,36.49775649630461],[127.41067882144735,36.49725821863493],[127.41058556720708,36.49626078922678],[127.41000245905701,36.495942673490475],[127.40975995824134,36.49493855487243],[127.40942406276619,36.49508407602852],[127.40821536551047,36.49522680763247],[127.40653005598301,36.49460483928249],[127.406347985677,36.4946260931718],[127.40536031713579,36.49411277663395],[127.40424763876193,36.493688187358856],[127.4025855788395,36.49340250811996],[127.40034582010117,36.49342767881138],[127.39975466558789,36.4933418728179],[127.39699983002745,36.49234653696701],[127.39612271657305,36.49172525157656],[127.39913849351923,36.48886566096064],[127.40299593150034,36.48545854619149],[127.40415454030452,36.48100042942645],[127.40416377605739,36.476576282019586],[127.40248145062779,36.473196942064426],[127.40163583804892,36.47030891041608],[127.40104572331724,36.46736054082239],[127.4011999599766,36.46680721251633],[127.40098963246689,36.46310189076519],[127.4011158441859,36.46092301488283],[127.40161410413491,36.45844901023893],[127.40250327495782,36.45567005515265],[127.40313656238517,36.45534375521798],[127.4079639706689,36.454739116620296],[127.41301989792959,36.454811639300374],[127.41496854321741,36.45470684906505],[127.41695720880267,36.45490576707267],[127.42090012854477,36.4556072940454],[127.42470454010372,36.45617811035549],[127.42470503669765,36.456269343225756],[127.4274914276867,36.45690127239605],[127.43215594700716,36.45674701056519],[127.43681812246884,36.456408089676884],[127.43708162430542,36.45600878461003],[127.43764266997007,36.45560857094525],[127.4413964388191,36.45241914130106],[127.44240428331547,36.45128275610461],[127.44297203746949,36.45095477490414],[127.44411331461092,36.45041323687343],[127.44717842914231,36.44920509425795],[127.45133434251657,36.44925490503611],[127.45473809629698,36.45026368911292],[127.45839679344193,36.45229813860756],[127.46096207878165,36.454479196743044],[127.46258458947356,36.45615459406509],[127.4635045629877,36.46027740926067],[127.46360542963662,36.46345961641826],[127.46378070236179,36.46450901156526],[127.46669544426311,36.47007304310483],[127.46942517858047,36.47268692697624],[127.47028730314729,36.47366357880513],[127.47126581392318,36.474375377740984],[127.47242786783204,36.4750205128677],[127.47461181402946,36.475825170041496],[127.47612522290093,36.476332686179504],[127.48043313510202,36.477251848430875],[127.47998672607726,36.47777584012547],[127.47948850075471,36.47754069441788],[127.47910301226483,36.47828457449701],[127.47820159320095,36.47880908650122],[127.47742929134017,36.47943806828128],[127.47684557956698,36.48022157193553],[127.4771685630033,36.48047948023613],[127.47686132762519,36.48144257805895],[127.4766394847292,36.4816188328093],[127.4767429979643,36.482412765404874],[127.47645049040905,36.48286706045228],[127.47661288133864,36.4831580512251],[127.4765554394635,36.48353364441995],[127.47682957246668,36.48386915585992],[127.47626792640996,36.484608321765776],[127.47580795912224,36.48542143212439],[127.47587944760264,36.48681984266393],[127.4756945571452,36.48720296232272],[127.47543847410331,36.48841098912225],[127.47519265921156,36.49026315899424],[127.47489885379369,36.49052325287601],[127.47426125440067,36.4908182279039],[127.47300689474383,36.49103623943171],[127.47201347414708,36.490747621443745],[127.47159335601503,36.49081083412999],[127.47111644333454,36.49053684498898],[127.46961682573115,36.49076542985711],[127.46928379791375,36.49107468322975],[127.46811541717055,36.491234263144314],[127.46758744585662,36.49117910471987],[127.46725026032347,36.491703309723064],[127.4669913489494,36.49253876174948],[127.46536420857915,36.49346587975776],[127.46453391634803,36.493566066958756],[127.46401602511357,36.49350634847932],[127.4628565996207,36.49391161217911],[127.46063332055279,36.4952296585338],[127.4585919622106,36.495292834791385],[127.45841413505698,36.495767374281606],[127.45775562482703,36.495904532707044],[127.45743497969391,36.49665891655147],[127.4570555448889,36.49704004571729],[127.45665081613672,36.49892261928212],[127.45592775815486,36.49922115742956],[127.45585308647043,36.4997544233268],[127.4551585419984,36.5003337543566],[127.45372442699423,36.500990696946175],[127.45313323325328,36.50090254466497],[127.45296416414504,36.50078539429318],[127.45242687564567,36.50064178389398],[127.45048501706891,36.50045660435772],[127.44999818782766,36.500617596472885],[127.4495461180534,36.50124943023034],[127.44982086544,36.50198865789088],[127.44950919179892,36.50203173257086],[127.44881882545164,36.50299763535497],[127.4491722041164,36.50338537078874],[127.44920461493322,36.50370617363725],[127.44911822990251,36.50381311097863],[127.44921887666992,36.50412077170243],[127.44912622901369,36.50544258129847],[127.4490085516237,36.50587326731416],[127.4488019147422,36.50599579426317],[127.44890637963368,36.50667789318424],[127.44795709907949,36.507408281963855],[127.44784400456777,36.50767538110114],[127.44701839342181,36.508703427041],[127.4468870248443,36.509125688074285],[127.44724520399025,36.509802603460436],[127.44714662667357,36.51011479492696],[127.44668027733184,36.51019638746947],[127.44624379268171,36.51039628332872],[127.44585000038043,36.5111219617635],[127.44589706917574,36.51140026701657],[127.44573087586262,36.51162591877213],[127.44579774240172,36.51212954377039],[127.44573689255783,36.512567492855034],[127.44529281588076,36.51297343238189],[127.44526175490608,36.513144872204364],[127.44527664100086,36.51344464597949],[127.44552695816539,36.513856652714395],[127.44537409758414,36.514902816268204],[127.44607006032517,36.5150027847721],[127.44702482964408,36.51535457864832],[127.44714708371973,36.51551002726811],[127.44768243574048,36.51573179830414],[127.44832012029767,36.516120453138655],[127.44902018051854,36.51603383377577],[127.44989275223013,36.51622639235681],[127.45114325637752,36.51664444655992],[127.45273901699656,36.51784587839007],[127.4540400929962,36.51868683232905],[127.45404054332643,36.51911139422767],[127.45456961062972,36.51975105112498],[127.45418097005053,36.52045520084999],[127.45347595192827,36.5228147422285],[127.4539397305096,36.52300638785229],[127.45489906674375,36.52400714609463],[127.45491126556618,36.524566663456],[127.4552366955296,36.52481560960085],[127.45562809073128,36.52561916978601],[127.45545807569151,36.52678284669518],[127.45513605645738,36.52806695167398],[127.45535294205953,36.52883981850656],[127.45500387159206,36.529119533633455],[127.45498348386322,36.53032904081782],[127.45521032978166,36.53130698419587],[127.45512910468914,36.53198780590466],[127.45463313312024,36.53258440787639],[127.45465329048338,36.53372021654443],[127.45409478728972,36.53432146755659],[127.45369302491947,36.53443113823424],[127.45358616359565,36.534964971220184],[127.45291946805793,36.535227502885704],[127.45290110964729,36.5355544439135],[127.4527460846199,36.53577402190824],[127.45299106906562,36.53651686834783],[127.45284738003562,36.53699279799454],[127.45359567946747,36.537597294640584],[127.45332237544856,36.53795747047857],[127.45286024300162,36.538222281253525],[127.45258742568731,36.53912651319977],[127.45261171057882,36.53953394355466],[127.45236410627413,36.53995999180713],[127.4519447234395,36.5400870251978],[127.45186743574482,36.54021231331309],[127.45194168714113,36.540483741851524],[127.4517769243871,36.5409962555918],[127.45196779288254,36.54152247518052],[127.44962108366919,36.541862060466975],[127.44897600179885,36.541779955924014],[127.44788890299208,36.541958138570145],[127.44743344155602,36.54175607922166],[127.44710154687327,36.54276551184253],[127.44711366142619,36.544072403404606],[127.44751093162702,36.54485461899432],[127.44759120200003,36.545598001375566],[127.44776248003485,36.54582960100054],[127.44797298818071,36.54721010133103],[127.44740182733376,36.548216016103204],[127.44713729284383,36.54981025803096],[127.44764163115339,36.549853160789596],[127.44929408962128,36.54890808045174],[127.44937310249162,36.548487187523854],[127.44992639703639,36.547947895363656],[127.4506508917712,36.54745049989217],[127.4523727190351,36.5472979989304],[127.45278480250455,36.5473826885338],[127.45374325204739,36.548022432415],[127.45440890458015,36.548226734181306],[127.45457418463354,36.548404010076716],[127.4556902440983,36.548784485598816],[127.45667403632788,36.54882291792676],[127.45697487588288,36.54897524164527],[127.45898417287982,36.548358787565384],[127.46016788071113,36.54765066114715],[127.46036420278772,36.54740341757998],[127.4610271528097,36.547166190534746],[127.46141187858214,36.54714118691324],[127.46166711041788,36.54698069286713],[127.4617616877276,36.546650024381705],[127.4624219153678,36.54607809249059],[127.46308114529293,36.54592973105114],[127.46342546494665,36.54594353562567],[127.46416440630766,36.545397059699695],[127.46447283199238,36.54495236940073],[127.46497683537523,36.544619126704575],[127.4654470882208,36.544527625181516],[127.46581777788361,36.5443298158435],[127.46621078396763,36.54446094280097],[127.46623252737439,36.54398510199654],[127.4660823173516,36.54354229335983],[127.46628399179554,36.542886416505056],[127.46621605316629,36.54255530603749],[127.46645293293486,36.54245659960243],[127.46840918549769,36.542510685504695],[127.46896123106134,36.54263506067854],[127.46949591463053,36.54259907143587],[127.4700972874382,36.54276190706605],[127.47079793753858,36.542827636871664],[127.47110300974819,36.543008664550044],[127.47131660581272,36.54329693501693],[127.47166702547631,36.54337513392609],[127.47204335478092,36.54383858111384],[127.47244369255817,36.54406725992677],[127.47317673240399,36.54421730346164],[127.4731524771546,36.54445477613806],[127.47341381736827,36.54481999036453],[127.4738117353207,36.54492268671451],[127.4744614718307,36.544899024105476],[127.4751065171801,36.54505796545735],[127.47578909390384,36.54526920044231],[127.47591445526766,36.54544813629426],[127.47621634901373,36.54557337453002],[127.47648210876598,36.545889452251465],[127.47707358160658,36.54584274921269],[127.47720418271251,36.54594478753635],[127.47725502960508,36.54619972407561],[127.47743922301908,36.54634254682569],[127.47829680448305,36.54683235852789],[127.47894181543218,36.54696739082118],[127.4796549683133,36.5476664909142],[127.47992467473281,36.54764846672434],[127.48066190943514,36.54729078397652],[127.48248533629575,36.54747306111479],[127.48273759134732,36.547434376167644],[127.48294079767219,36.54719589786406],[127.48291522132048,36.546754500516634],[127.4832694636399,36.546496227036826],[127.48367431418954,36.546346967543855],[127.48382502330807,36.546124571576655],[127.48392242710071,36.54550702472329],[127.4844115370509,36.54499920122214],[127.48479952578923,36.54482125946678],[127.48500315521711,36.54490388809733],[127.48537372685485,36.54525565725174],[127.48602720555024,36.545523641542815],[127.48589374171785,36.54646991765341],[127.48631104125137,36.547444051565776],[127.48583287121458,36.54760965029244],[127.48551881715217,36.54805090432129],[127.48513320562765,36.54827218337537],[127.48509498337371,36.54861425535923],[127.48436617342995,36.54919920692628],[127.4839159802914,36.55028014751478],[127.48427565318664,36.55083374501755],[127.48424541072016,36.551020961457304],[127.4844443736089,36.551195074789995],[127.48408403280085,36.55161794051997],[127.48413505658257,36.551956147384466],[127.4834463892386,36.552320673496055],[127.48337385373203,36.552746519137266],[127.4831013359205,36.55289235069844],[127.48303456657202,36.55305988881407],[127.48269414392104,36.55316147983168],[127.48222860972986,36.55318687723637],[127.48217071330045,36.553701613224405],[127.48175466765707,36.554088199222946],[127.48171683030924,36.55439061960533],[127.48146652936687,36.55477806104455],[127.48026238886884,36.55471279316317],[127.48010204991279,36.55537915950262],[127.47982950061473,36.55601686744029],[127.47953949035359,36.55723016435305],[127.47955571484262,36.55766628350326],[127.48014251062743,36.55805676179531],[127.48018668649839,36.55872087192243],[127.4809871249177,36.56012056748984],[127.48169148250177,36.560493271705994],[127.48179281184566,36.56080224902],[127.4817784483878,36.561369345065366],[127.48138125465294,36.56142987957049],[127.48095001254782,36.56182463476768],[127.48051597281301,36.561870002511576],[127.47981913246433,36.56213802256832],[127.4790056618725,36.56188290998004],[127.47879342994901,36.56187681968603],[127.47865826982273,36.56175749340629],[127.47835888568319,36.56172219402547],[127.47799485160971,36.562261040751906],[127.47697862904923,36.56246318544567],[127.47630345914668,36.56243460513805],[127.47578231099723,36.56285222922001],[127.47525566161713,36.56286901176353],[127.47410850533105,36.56227200320775],[127.47398483914641,36.56193481174949],[127.47367385407277,36.56194649736992],[127.47328629957151,36.561806273319434],[127.47301272753585,36.56160485234775],[127.47285185347117,36.561224723166305],[127.47255282818944,36.560959062761],[127.47202344817366,36.560871660967834],[127.470682574246,36.56121660797259],[127.46997839911243,36.56155498744959],[127.46910018062687,36.56143695201451],[127.46889484633543,36.56119803825354],[127.46861250017166,36.561282958583774],[127.46825829905147,36.561675284706986],[127.46724456347857,36.56208055996867],[127.46745250241366,36.563014304769645],[127.46703715828046,36.56376906763281],[127.46724886805545,36.56408762916611],[127.46757791177582,36.564304344530655],[127.46757018674211,36.56465846601748],[127.4677164321131,36.564815692824524],[127.46782918765199,36.56524071267796],[127.46813789163365,36.56561468198717],[127.46837032998326,36.56646712771092],[127.4683973223865,36.56697071044489],[127.46820410368838,36.56736988497953],[127.46782217398402,36.56769220887344],[127.46769684597447,36.56796612901553],[127.4678845516958,36.56851864578264],[127.46809776488561,36.56864019391356],[127.46780267140305,36.569491919214805],[127.46779803074325,36.569853318215365],[127.46816431392352,36.570482371832604],[127.46814202758945,36.57083744289545],[127.4682720964304,36.571074318185936],[127.46839406411158,36.57166520797136],[127.46818577009769,36.57213447761505],[127.4683981455057,36.57266445846795],[127.4686467398099,36.572982152358264],[127.46852796295319,36.57350279588466],[127.46895680643891,36.5733614202918],[127.46912569401918,36.57340375207482],[127.46919660010394,36.573532796006155],[127.46986492076236,36.573998975972316],[127.47003341584522,36.57432726278115],[127.47072529187434,36.57492329872959],[127.47046474261263,36.57546504766552],[127.47085589142361,36.57597620847228],[127.47080833198238,36.57690364949873],[127.47064648094212,36.57721862882192],[127.47071041717271,36.57729155844693],[127.4711103842411,36.57737180544056],[127.47154687227419,36.577698493093614],[127.47181689515092,36.57801870854125],[127.47294462931495,36.57809814918437],[127.47333911295115,36.57841102132943],[127.47376173379786,36.57838042058815],[127.47404886084553,36.57870777193955],[127.47401617994164,36.578940680855304],[127.47411101024939,36.57907711661042],[127.47383118075064,36.5794182488134],[127.47377802995501,36.58004191575906],[127.4737948322977,36.580485511239736],[127.47406948453417,36.581077998186366],[127.47527865393847,36.580808627074],[127.47557647959594,36.580953596639894],[127.47635387430338,36.58100312078429],[127.47671950103745,36.580881723749286],[127.47760401529234,36.58110440307019],[127.47855457753607,36.581181631438966],[127.47883825169235,36.581260706398304],[127.47944119574781,36.58196730994525],[127.48005440599172,36.581820940959744],[127.4800729444342,36.58222687618983],[127.48043819781235,36.5826635578701],[127.48100372902566,36.5826083238885],[127.48138225556531,36.58285967670097],[127.48190096716627,36.58290700453338],[127.48214082010765,36.58284043561892],[127.48262907021471,36.583072697932856],[127.48286162306877,36.5828975436758],[127.48318884580826,36.58285366888419],[127.4834615482578,36.582607603008725],[127.48370375833127,36.582643570410866],[127.48501895054493,36.58333212235822],[127.4855234976454,36.58369230218451],[127.48566178792194,36.58402588880824],[127.48634119555095,36.5838276714929],[127.48622668847747,36.58340272254121],[127.4860397777387,36.583295401719795],[127.48558498598358,36.58264181320513],[127.48562021045704,36.58251033095112],[127.48608177604184,36.58235908050844],[127.48719909806108,36.582190061487694],[127.48819953556917,36.581935611752314],[127.4883673597768,36.58207784630198],[127.48960443878235,36.58235321756409],[127.48991328929155,36.58257056664008],[127.49018990924752,36.58313200820925],[127.49049657401044,36.58303559171064],[127.49112243504733,36.58312872229315],[127.49138532522485,36.5826650932672],[127.49160577095624,36.58263722540245],[127.49167005638334,36.58255660639332],[127.49200227564837,36.58271165939415],[127.4921885470185,36.58295326823473],[127.49240903843285,36.583035085163296],[127.49255329883319,36.58321310389398],[127.49195321733104,36.58374058127736],[127.49130665981492,36.5846595077962],[127.4989185339954,36.58837293562871],[127.49851020768459,36.58893867458563],[127.49899914981002,36.58953495698681],[127.49962479233275,36.58998425821785],[127.49888018676656,36.59099588570804],[127.4985833796166,36.59216247873043],[127.49846185578521,36.59311291847458],[127.49875999454456,36.595843743404906],[127.4984298175538,36.595570201442406],[127.49773667849183,36.594146625401244],[127.49761216632824,36.59364059938466],[127.49736440856448,36.59346492785482],[127.49648121721602,36.59308816260598],[127.49636778350845,36.592995699969364],[127.49637748644277,36.59287404759871],[127.49632383303859,36.59306264797456],[127.49634597757743,36.59325609174871],[127.4967950840214,36.59407717983118],[127.49697747934167,36.594799863128564],[127.49697377997518,36.595170181252605],[127.49665601323771,36.59662605453444],[127.49662899592349,36.59743127010916],[127.49672408173214,36.59807819389565],[127.49705164292898,36.59905069624318],[127.49720099827468,36.600752591097574],[127.49720834104527,36.60331861081978],[127.49705659348292,36.606178019707485],[127.49721581589706,36.60617413985952],[127.4970682561335,36.60927310280644],[127.49682001611394,36.610504899193515],[127.49641944218361,36.6115117872197],[127.49657574429506,36.612351751818615],[127.49672128931266,36.6125982977375],[127.49743689629229,36.61311898485204],[127.49677080459014,36.614281267552585],[127.49674227575437,36.61448007581773],[127.49686373203608,36.614751835810736],[127.49713786586827,36.61485681174206],[127.49744700381152,36.61486153001287],[127.49743414821944,36.61505837078134],[127.49733770044072,36.61532176575101],[127.49721695014539,36.615373693079796],[127.49618143996857,36.6154236382256],[127.49582230010022,36.61556129986311],[127.49509496837995,36.61613695828009],[127.49496434157136,36.615625211991635],[127.4940379215535,36.61627403203289],[127.49443336610658,36.61653550004921],[127.49389600578502,36.61778859908716],[127.49379351407588,36.6187862596761],[127.49390540957567,36.62238035371306],[127.49364475476342,36.62344621541754],[127.49269595665271,36.62382433043495],[127.49175459399261,36.62440748547712],[127.49036696224087,36.62505797768942],[127.48937876070639,36.62570396982374],[127.48839617093309,36.626572327175374],[127.48474790731834,36.62862464672911],[127.48459847779422,36.628767046379714],[127.48436626875102,36.62879234466333],[127.48354727093384,36.62915608222348],[127.48306144882125,36.62985934493789],[127.48299373285276,36.63040807783344],[127.48250421271925,36.63092655283449],[127.48220603669714,36.63233772232303],[127.48219819005656,36.63265430228945],[127.48234017961553,36.63318428207665],[127.48259481112527,36.633707608869805],[127.4839910411654,36.63456584197606],[127.48455699312643,36.63544939595666],[127.4846177416537,36.63659397847823],[127.4846120937106,36.63761283829182],[127.4843575180651,36.640566476163784],[127.48409392142767,36.642194832351116],[127.48353324866542,36.64412021353684],[127.48309460194888,36.6444119414403],[127.48258057055175,36.64515158348952]]]}}
