{"type":"Feature","bbox":[127.48603034404239,36.17070148111525,127.89130681749707,36.44528864877106],"properties":{"regionCode":"43730","version":"vworld-20260909-3f8952dfda77-p2","name":"충청북도 옥천군","attribution":"국토교통부/K-Geo플랫폼 · VWorld 법정구역정보, CC BY 2.0 KR; 공공주택 복덕방 가공"},"geometry":{"type":"Polygon","coordinates":[[[127.6482427697515,36.44248782312095],[127.6480036424126,36.44282765100034],[127.64763698637607,36.44308719114339],[127.64758437163398,36.44356692063582],[127.64732686120969,36.44439344627308],[127.64694712287374,36.444822442267785],[127.64637525372429,36.44486012905621],[127.64567203941392,36.445189454954736],[127.64474355750734,36.44528864877106],[127.64373195192914,36.445069754374394],[127.64337794199098,36.44412816247526],[127.64295361197165,36.44361657722384],[127.64194998687438,36.4433108158221],[127.64136204914195,36.44255591687805],[127.64116884639849,36.4417618552736],[127.64011101662089,36.44028840880621],[127.63986278664484,36.43938574284478],[127.64004291037834,36.43861452748074],[127.63995720097992,36.438158511005895],[127.63942464657592,36.43749989033564],[127.63964816520206,36.436860703850606],[127.63933912457442,36.436413232855024],[127.63922512301137,36.43602849643825],[127.63824118885229,36.43585995964302],[127.63761400528145,36.435643008512955],[127.63679715432357,36.43635596492402],[127.63630730119795,36.43690188276858],[127.63586034932388,36.437145267389965],[127.63493205989197,36.43790441833443],[127.63357212180897,36.43817990560641],[127.63311465897372,36.43851975150649],[127.63243142729186,36.43912140103382],[127.63159069067515,36.4402478478862],[127.63125500916055,36.4396240540165],[127.63133491595991,36.43888663032289],[127.63119588962307,36.438482769053145],[127.63122706307095,36.43793905057124],[127.63113086303116,36.43777658740669],[127.63026425519479,36.437166354449595],[127.62976122320784,36.436607608849485],[127.62987598647271,36.43621944844755],[127.62901479759118,36.43524427082386],[127.6286179950627,36.43445750987401],[127.62857571688762,36.43400548230253],[127.62824779297254,36.433729895238905],[127.62847095759747,36.433200472624875],[127.62850444279108,36.4326437842841],[127.6281837686892,36.43229550073524],[127.62808971636244,36.431636732170844],[127.62784889866818,36.43090842712889],[127.62760402288635,36.43050489978523],[127.6280302496484,36.42945157682228],[127.6280795187815,36.428636011691125],[127.62777994179878,36.428292137893976],[127.62752078266737,36.42775417863278],[127.62722264251325,36.42741762226394],[127.62685399850726,36.426779738975476],[127.62597851128366,36.426309488791944],[127.62574537720597,36.42552245770498],[127.62530020759607,36.42480557139021],[127.62513391517605,36.423970217063484],[127.62517828954569,36.42341453609218],[127.62500310313163,36.422980865574715],[127.62467230683302,36.422493213253254],[127.62426860147396,36.42224563038544],[127.62387353956629,36.42221164390408],[127.6237425453562,36.42221338264775],[127.62342957411401,36.42256685571942],[127.62258698853125,36.42248957008933],[127.62224711791133,36.42224239444272],[127.62193789450055,36.42164545954755],[127.62176213892155,36.421496186834275],[127.62112684286006,36.42125540137874],[127.6200373146633,36.42044251172678],[127.61992747598165,36.41991515829594],[127.62046772321752,36.419785098815446],[127.62057909546888,36.419684485591915],[127.62087350134139,36.41848973027861],[127.62079430843549,36.4181657984906],[127.62027482294978,36.41804862081663],[127.62013230646605,36.417802759980916],[127.61993671030389,36.41763174508592],[127.62002392862323,36.417712425594516],[127.61912852572097,36.417746309240236],[127.6190277650564,36.41773104222573],[127.6190383726477,36.41767088873049],[127.61800376830355,36.41760809084126],[127.61739265013699,36.41743013959978],[127.61733737333898,36.41735537768737],[127.6173708195542,36.416735385461735],[127.6177156532088,36.41618855597924],[127.61769902136095,36.41599136245944],[127.61795738935817,36.415562775682176],[127.61797324526934,36.41531880028552],[127.61763999210747,36.41509203154545],[127.61772112581518,36.41482800849612],[127.61758090702234,36.414737147883194],[127.61737997138582,36.41423925313596],[127.61738498936346,36.41405750309304],[127.61716928670464,36.413663550988375],[127.6172018307877,36.41325244055035],[127.61743958729129,36.412789239890415],[127.6172247984806,36.41255593261727],[127.61743428202307,36.412295384308145],[127.61750052910661,36.41198183856354],[127.61694527763493,36.411242604704256],[127.61692962843671,36.41100842190187],[127.61714921281043,36.41078355217685],[127.61718625363586,36.41053555670859],[127.61655911665684,36.4097083585843],[127.6167753079885,36.40918623605269],[127.61659960804971,36.40905921417043],[127.61643324440112,36.40860288027409],[127.61570742471488,36.4082815457866],[127.61571396483406,36.4078761095715],[127.61587260603375,36.40765810768308],[127.61580074502217,36.407362233163205],[127.61450502644425,36.4066343807893],[127.61436064582841,36.40637899596909],[127.61432135855551,36.40581780791651],[127.61408971541006,36.40509256067656],[127.61349296171592,36.40452803950239],[127.61338037366053,36.40421159301543],[127.6126081595076,36.40389805105511],[127.61245541533822,36.40350536280912],[127.61223867659056,36.403353654776865],[127.61182105288103,36.40319604294263],[127.60984990042968,36.403006187374416],[127.60948150087606,36.403100487938076],[127.60846394504865,36.40311697955771],[127.60822211508348,36.403218257188755],[127.60793580274529,36.40323467716979],[127.60758781367578,36.40298468049656],[127.60736308032924,36.40310431423298],[127.6071730997611,36.40341582210079],[127.60698661501634,36.403515749341445],[127.60660967766489,36.403604946915536],[127.60627495438236,36.40348978950872],[127.6053183641849,36.40378793544779],[127.60409022949538,36.403971918778204],[127.60392438605048,36.404370739112785],[127.60413294492372,36.404857976616015],[127.60408654871733,36.40568240389217],[127.60394170817585,36.40626808093104],[127.60348461168546,36.40729241694414],[127.60357479559453,36.40758369242192],[127.60370642877464,36.407678046164996],[127.6042756544739,36.407792668980534],[127.60467215064621,36.40802540610911],[127.60465508508034,36.40833876125512],[127.60445368786381,36.40856517350356],[127.60397215795928,36.408723320381604],[127.60282991317821,36.40953564510386],[127.60249672438431,36.40953566468121],[127.60219091682222,36.409287734944726],[127.60206712522677,36.40900711809929],[127.60164625295887,36.40737011216215],[127.60142879279883,36.407179781593726],[127.60097950214146,36.407169151015715],[127.60002206391957,36.40757887745674],[127.59886692452785,36.40778340176165],[127.59845714298261,36.40820874973379],[127.59904112753668,36.40933678155289],[127.59908832117341,36.41030779710597],[127.59902172219812,36.4110665474353],[127.59883518009866,36.411767235534626],[127.59863252311307,36.41195888574654],[127.59830149085371,36.412002959622505],[127.59784879013792,36.41183153009382],[127.59692411228495,36.41082244939446],[127.59670068679618,36.4106977448963],[127.59649944638724,36.41069847744868],[127.59572349015336,36.411156600592975],[127.59551167725644,36.41119654938423],[127.59397872500806,36.41105766391395],[127.59379917620514,36.411119660989556],[127.5933915536106,36.41151343064974],[127.59342305016172,36.41183841187457],[127.5940191491082,36.41234353212698],[127.59429270342227,36.41286885176396],[127.594258920695,36.41302294479482],[127.59400634849732,36.41318724429253],[127.59349550144059,36.41305435207758],[127.59279251174407,36.412518263623866],[127.59178144787334,36.41198469263125],[127.59103725678987,36.4117399554406],[127.59069304747145,36.41173884341123],[127.59029915563181,36.411855511642095],[127.58984967666785,36.412315565214314],[127.58971968689393,36.412590193811255],[127.58985778064643,36.41308129677486],[127.58981362657747,36.41330563108058],[127.58950068528499,36.41355004949353],[127.5893090118483,36.41353413310978],[127.58859676205579,36.413005841386024],[127.58820426719997,36.41284431960474],[127.58804231185947,36.412895750700145],[127.58794505515696,36.4129947149891],[127.58788220976956,36.414113315037326],[127.58852274683952,36.41501738635979],[127.58841574167576,36.41512622819037],[127.58798776412779,36.41527809353501],[127.58717805709286,36.415482997854966],[127.58643087694273,36.415471052978646],[127.58582322758045,36.41515972364604],[127.58539895451266,36.415193258264416],[127.58524162479607,36.415349862105494],[127.58516555122472,36.415772848197264],[127.5862900264793,36.41643200872343],[127.58638664361848,36.416744901824764],[127.58628988816909,36.41699366095991],[127.58604461560995,36.41724769649477],[127.58580046959388,36.41732059597925],[127.58486904334914,36.417053569053046],[127.58451692466325,36.41723997956475],[127.58420713239506,36.417479360206805],[127.58405664025778,36.41780278773575],[127.58400018882907,36.418280680369804],[127.5838710068588,36.41852992187667],[127.58360722649961,36.418729199145325],[127.58338987934425,36.41868736322527],[127.58319898590575,36.418476379472224],[127.58337840320739,36.41735663571698],[127.58323856818689,36.416919061531814],[127.58309158233227,36.41697026809699],[127.58309172262379,36.41661504396613],[127.5829308638213,36.41615981848558],[127.5825856234648,36.41561300311496],[127.58217266130448,36.41549824898643],[127.58211286437663,36.415403468847344],[127.5815158375609,36.41512045262412],[127.58149183511497,36.41494544928897],[127.5818237492253,36.41410258420806],[127.58189157238384,36.41370863148926],[127.58172989427216,36.41158262002335],[127.58112567279042,36.40957682363971],[127.58052477974803,36.40847064617642],[127.57828045746734,36.4065336015741],[127.57670853260234,36.40539688165977],[127.57560982387788,36.4047161567579],[127.57491784930326,36.40402115918657],[127.5738589967053,36.40340902131478],[127.57326484126514,36.402751188598096],[127.57162415262954,36.40176848275716],[127.56643275581433,36.39841444527354],[127.56371393276501,36.39623613571103],[127.56141495444426,36.39494033104826],[127.5594512894633,36.39462052790367],[127.55809623198938,36.39422819766401],[127.55696750165178,36.394112524492385],[127.55583377786479,36.3925888816367],[127.55577759550097,36.3922990697757],[127.55586128021662,36.391859153658366],[127.55529790317443,36.39191811475902],[127.55480128080956,36.392110577975366],[127.55410177226075,36.392685411802866],[127.55373845785489,36.39469808833587],[127.55485951751045,36.39504846140379],[127.55397592043491,36.39479302375588],[127.5525146437981,36.395175148755],[127.5525155399434,36.395302170986184],[127.55178488892781,36.39517213169932],[127.55085580119022,36.39540623212136],[127.55001302296246,36.39675312356479],[127.54855113148172,36.396909259478974],[127.54808279841782,36.39663721618986],[127.5468022688413,36.396315256765824],[127.54619424237264,36.39631930155484],[127.54603072188488,36.396405890361066],[127.54465668208958,36.39603114825209],[127.5439383819919,36.39616479128061],[127.54361127595773,36.395990435380654],[127.54345818227944,36.39628569866815],[127.54286499168154,36.39625107052189],[127.54150562153855,36.396478187405165],[127.54043999989534,36.39639392952129],[127.54019020451027,36.39711174705803],[127.54009613673826,36.397146558068435],[127.53979965586778,36.39764091803772],[127.53917387789535,36.39777672289742],[127.53911818645636,36.39708220809272],[127.53752762187648,36.395068264680326],[127.53688015419905,36.394842071147764],[127.53666297798374,36.3949052093799],[127.53607392941406,36.39472172086311],[127.535608985535,36.39469063842871],[127.53459367065207,36.39370485780637],[127.53358424964551,36.39364852950047],[127.5333931738687,36.39336138107671],[127.53393080574607,36.3929022526668],[127.53348231084013,36.39175492512364],[127.53281848860127,36.39137771587671],[127.53260976344492,36.39094754054971],[127.53192582509284,36.39104949603237],[127.53171141627917,36.390958768537224],[127.53014591795528,36.39145422678082],[127.5298201171087,36.39047749499277],[127.52938825354639,36.38996929739155],[127.52942648351367,36.3893607559811],[127.52838137222557,36.38891892824985],[127.52823140690191,36.38897004570084],[127.5269159237791,36.38777261312453],[127.5256387165082,36.38721969363167],[127.52504666555367,36.38750578643565],[127.52483611181891,36.387385341928045],[127.5248618696797,36.38660392485097],[127.5259124764119,36.38543363389076],[127.52506948918709,36.38374518212077],[127.5255101657667,36.38324076479575],[127.52528802531768,36.38292141475039],[127.52526966299777,36.381325359673276],[127.52567038752098,36.38031028611457],[127.5255766426775,36.379498311635466],[127.52620970704672,36.37871316453475],[127.52597435693417,36.37834212697556],[127.52605121302746,36.37721282830239],[127.52578180481996,36.37654524954099],[127.52552188256881,36.37648025400794],[127.52525501098789,36.37627126579416],[127.52544701114174,36.37549575120654],[127.52531855889279,36.37512543220215],[127.52673445394124,36.37378855417917],[127.52688667404296,36.37236971184486],[127.52675312304815,36.37163409743844],[127.5265872104748,36.37154783742638],[127.52639403357385,36.37125279233857],[127.52669139098396,36.37100286130863],[127.52672797978605,36.37075996605895],[127.52703725749791,36.37012228698554],[127.52699867631598,36.36952510393921],[127.52675599160511,36.36936553931728],[127.52657740680696,36.368407407604664],[127.52623231625516,36.36786648845217],[127.52576636156243,36.36755931834837],[127.52545160370936,36.3664108918376],[127.52434152555546,36.36620170102806],[127.52444464412115,36.36610454093658],[127.52424465513467,36.36586544301519],[127.52441177115746,36.365601095725694],[127.52447236669033,36.36505688899121],[127.52477886794775,36.36423962005799],[127.52484913733777,36.363628251718055],[127.5244887168597,36.363384156772256],[127.52451369492894,36.363172370990604],[127.52436725681432,36.36304935701849],[127.52449275323644,36.36239219369801],[127.52427190833745,36.362095605149634],[127.5244673821957,36.36147620203452],[127.52425679551534,36.36108528138918],[127.52409317947753,36.36102712189551],[127.52358610122059,36.36039376683599],[127.52368450833586,36.360035821553055],[127.52302131054019,36.35950707709684],[127.5228528725942,36.35901102612965],[127.52289184720858,36.358676053195865],[127.5221550522817,36.35833887176608],[127.52203753369737,36.358000943888],[127.5224734800363,36.35728199779702],[127.52282873849268,36.35699776488718],[127.5230477547225,36.356538889187384],[127.52292311989224,36.35600441316346],[127.52264768795534,36.35561294458971],[127.52161825887359,36.353522296061335],[127.52033313120572,36.35132166480823],[127.5198200069798,36.35108973212584],[127.51907491351164,36.35045073982024],[127.51853208449305,36.350370101208476],[127.51780740682473,36.34993221365512],[127.51722326597894,36.34886678519646],[127.5157246481472,36.348463916063054],[127.51522708147738,36.34812129723141],[127.51473014496695,36.34751557022868],[127.51447976406324,36.34743043215888],[127.51406994693664,36.347544818271565],[127.51328521268559,36.34758390699034],[127.51297769775039,36.3474322671638],[127.51283927384574,36.34721739958124],[127.51262750707463,36.34719532715402],[127.51221043014516,36.34631790860323],[127.51196066286563,36.34608495913862],[127.51092117128614,36.34620866189178],[127.51061959271713,36.346523741989486],[127.50977366925827,36.34669016671784],[127.50875653677501,36.34660925464005],[127.50760314003242,36.346320968125546],[127.50770499904998,36.345326039432436],[127.50844553813178,36.344462648980226],[127.50833475253305,36.34395651098052],[127.50855518155836,36.343295922548585],[127.50717965896749,36.34292591903038],[127.50689705456107,36.34258029322116],[127.5065148684467,36.34245567277831],[127.50589843468576,36.342497884371085],[127.50488450834087,36.34224841553504],[127.50469216672583,36.34126759511316],[127.50438948012962,36.34098914163676],[127.50448620023474,36.34092535388037],[127.50365544558457,36.34065192796086],[127.50302431123285,36.340594968080055],[127.50107918087257,36.33991130726903],[127.50069117693664,36.3394211609598],[127.50084987565447,36.33798083992375],[127.5017347208782,36.33653402248736],[127.50160066394787,36.33637609374494],[127.50146485177913,36.33540294213543],[127.5012687139328,36.335209967120505],[127.50145651544376,36.33472075121254],[127.50112396524514,36.33317641349204],[127.501727311557,36.332629628763165],[127.50199145450853,36.3320171713715],[127.50172666732325,36.330903510311636],[127.50212513283547,36.33021423342354],[127.50191883194063,36.329675459417174],[127.50201990614889,36.3292058250828],[127.50247837168709,36.32842863975953],[127.50248239181553,36.32780212186103],[127.50323719156609,36.327010165023765],[127.50360318733912,36.326140935213466],[127.50258081787395,36.3246428187257],[127.50255448569727,36.324201986998645],[127.50224450120672,36.32390431370853],[127.50203242437526,36.32334098133334],[127.50165084494313,36.32296567375488],[127.50133576534328,36.32287685740942],[127.50039543081178,36.3213261242743],[127.50040758422415,36.32110654009549],[127.5001584838211,36.32077637290576],[127.49788057619162,36.32018040342512],[127.49753611896021,36.319944763317],[127.49734780769396,36.319559122912175],[127.4983592772548,36.31905608909143],[127.49841381420606,36.31883040033438],[127.49834995129793,36.31827784351312],[127.49867855758716,36.31666708689154],[127.49904693772653,36.31558371793004],[127.49908098570396,36.314833506796504],[127.49876317223676,36.314331293594115],[127.49827084675782,36.313811875589636],[127.49802569228997,36.313688172320596],[127.49715290423897,36.31356785588182],[127.49693701858307,36.313266744622744],[127.49637063044104,36.3127772679817],[127.49595213004841,36.31203190934367],[127.49447609017419,36.31157840798663],[127.4941418585206,36.31106668636764],[127.49513146717935,36.310656321092345],[127.4957369432275,36.30990131432649],[127.49631494017223,36.30954303324564],[127.49649576049596,36.308601949010665],[127.4972040065753,36.3074435506872],[127.49839496340392,36.30693580811283],[127.498395298296,36.30613901804199],[127.49910249081984,36.30553034692722],[127.49906287689271,36.30495925269755],[127.49847405792903,36.30426268775278],[127.49837505418171,36.304032229006566],[127.49806570139673,36.30395083079528],[127.49794471843569,36.303658355597975],[127.49785685577203,36.303000297464635],[127.49748526957617,36.30230644748487],[127.4976213377152,36.30138126368058],[127.49687318454454,36.30087084982267],[127.49649301189808,36.30038152171912],[127.49648475773367,36.299859479447825],[127.49625411365558,36.298979625292915],[127.4958692959741,36.2989199039079],[127.495679261227,36.29970966516234],[127.49528442415038,36.30011494978527],[127.49490771982417,36.30031367272509],[127.49479852765565,36.300512103488],[127.49434186032434,36.30060805986004],[127.49416004312974,36.300777733467626],[127.4935858943718,36.30070319011502],[127.493473329349,36.300323964532986],[127.49304586690582,36.30024489801772],[127.49279303124476,36.300001142023156],[127.49253429689016,36.299892640031906],[127.49228303551,36.29999910785358],[127.49215455051919,36.29971317046566],[127.49138717687326,36.299340219760715],[127.4911958379371,36.29746875606594],[127.49095419454228,36.2970308734335],[127.49100940575491,36.29659137215006],[127.49168327535115,36.296147045269116],[127.4918587153826,36.29579727316454],[127.49212317147524,36.29563418519294],[127.49225630355804,36.2952359162141],[127.49252394791952,36.29501198464862],[127.4926169523129,36.29457064927482],[127.4933975776516,36.293364301932584],[127.49336832222552,36.2929065995084],[127.49355662174885,36.29249904417496],[127.49392602336556,36.292454384480706],[127.4942083688601,36.29208666873412],[127.49429646289273,36.291578016435096],[127.4946118348221,36.291234305935504],[127.49504701405262,36.29043224228261],[127.49543593698324,36.29014131294845],[127.49533415669016,36.289635643666024],[127.4956435057691,36.28779442071526],[127.49636582052193,36.287469030907644],[127.49734873265992,36.28670845773801],[127.49745630818475,36.28632750060187],[127.49739794912418,36.2858191019679],[127.49755828848338,36.284789683333024],[127.49872625125434,36.28319324296085],[127.498456681391,36.28281419318118],[127.49831259483683,36.28149665253663],[127.49764393085559,36.28104939030685],[127.49714760459169,36.28057382701638],[127.49660954931562,36.279411575175786],[127.49594183361106,36.27885799585395],[127.49487389928827,36.278310644927814],[127.49452258158254,36.277896532782535],[127.4928855139773,36.27652529328157],[127.49277622276796,36.2760000763613],[127.49250481663934,36.275682175746645],[127.49116223763085,36.27496152153339],[127.49084443776277,36.27440728956978],[127.48958579135805,36.2737460876432],[127.48937836084536,36.27376207377182],[127.48849192776215,36.27297831936748],[127.4887561772537,36.27274305442965],[127.48937220687121,36.27079795786874],[127.48947536230479,36.26996293990581],[127.4897881587032,36.26968945275503],[127.48993225106743,36.26905276064388],[127.49027712068819,36.268481860352125],[127.48992404790773,36.26789252857962],[127.48835316310107,36.267332046646764],[127.48809695968951,36.26633578964884],[127.48758163903052,36.26505285969566],[127.48745928112524,36.263563154262734],[127.48718071854181,36.26339815284948],[127.48686928232972,36.26235853807581],[127.48624455583075,36.261979323472374],[127.48603034404239,36.26141306174153],[127.48645219968095,36.2608348682002],[127.48622244527975,36.26054417608835],[127.48608837034278,36.25989016704722],[127.48630264821072,36.25935516381295],[127.48722694666027,36.25890384290743],[127.48743989784998,36.25842721762715],[127.48766775116162,36.25830911323044],[127.4889583923667,36.2585069684678],[127.48939573723462,36.25824258182744],[127.4897605288904,36.258133444258526],[127.48981042783396,36.25805018987048],[127.4894749681337,36.256189633088304],[127.4900686719091,36.25450921430875],[127.48988321197076,36.253886722982834],[127.48828319289203,36.25229704045513],[127.48756693139957,36.251474825332515],[127.48754742968686,36.250706385192714],[127.48861408183971,36.24858712175595],[127.48895424452867,36.2467246025733],[127.49037352867245,36.24504790429579],[127.49117822841536,36.24504414553956],[127.49189071682976,36.24521217954878],[127.49244332795348,36.24439321024951],[127.49282197643424,36.2430444528228],[127.49242104583264,36.24275852428901],[127.49234440008031,36.24246932490231],[127.4928611488121,36.241594302037484],[127.49327272260044,36.2411402354585],[127.49332698551935,36.2406353605596],[127.49320512470602,36.24011610578407],[127.49263342282536,36.23948507583746],[127.49266036157326,36.23796555488205],[127.49451907146177,36.238224615429424],[127.49585008500341,36.238212427638935],[127.49625439762598,36.238345158502156],[127.49748032409559,36.23834237142741],[127.49808439396405,36.23812031073697],[127.4987530016984,36.23829676899581],[127.49906167947252,36.23824447060409],[127.49923113723487,36.23829529446793],[127.49960024069598,36.23818834799335],[127.49992948591584,36.23819879049091],[127.50042950201188,36.23809760422386],[127.50100635211969,36.23774963883613],[127.50139453148844,36.237856357836776],[127.50198795426314,36.2376433427147],[127.50216721359598,36.237645810774],[127.50262138385243,36.23788673148998],[127.50306031626886,36.23788206271492],[127.50393527041821,36.23806617144933],[127.50497677771283,36.238072760917525],[127.50513826054129,36.238173661928634],[127.50501598346976,36.238154747010846],[127.50555284841589,36.23841606346459],[127.50584433718767,36.23845892048876],[127.50629793407722,36.23831739877223],[127.50650943686789,36.23833423938292],[127.50740823159492,36.238710173941],[127.508321144967,36.238734804009646],[127.50949311085277,36.23892101118027],[127.51032882986804,36.23925237463682],[127.51163554836977,36.2402039810593],[127.51173862027359,36.240469920732515],[127.51195399426983,36.24069247697949],[127.51253736640645,36.24071409162747],[127.51303140132217,36.24054543664931],[127.51322733238258,36.240665509000806],[127.51367685518704,36.24033113004644],[127.51474279860255,36.24122052393609],[127.51536583598343,36.24063898566038],[127.51573214555556,36.240540120070456],[127.5162787175018,36.24063672824039],[127.51656370359885,36.24052390059729],[127.51748684820397,36.24054633523054],[127.51812924953585,36.240641072706936],[127.51864055768849,36.24136194126329],[127.52012974231165,36.24254686455965],[127.52055656008488,36.2433005627923],[127.52117935774089,36.243843090898764],[127.52189490604832,36.243849090873226],[127.52284495676155,36.2449517831545],[127.52351654898652,36.24534086798596],[127.52384670521617,36.24648967333364],[127.52453229055328,36.246750371435034],[127.52579586844313,36.247063587888135],[127.52622552355328,36.247085207573285],[127.52694907758989,36.24833573536169],[127.52773801982997,36.248496089866926],[127.52844875606472,36.24841024259831],[127.5288766624618,36.24817654757419],[127.52900240025052,36.24817760533651],[127.52960813766627,36.24861750147438],[127.53044457835558,36.248705961455066],[127.53079365174472,36.24918469074669],[127.5312201217574,36.24938187328876],[127.53137773645689,36.24968754994249],[127.5319788079502,36.25015913932459],[127.53257240058257,36.250889216569824],[127.53482655604104,36.250960167856725],[127.53624233195669,36.25123052890017],[127.53681077987792,36.25085727682769],[127.5363733760992,36.24996541774036],[127.53570017252835,36.24904563778582],[127.5356792327431,36.248636705065465],[127.5350886868533,36.24732396125959],[127.53580279394345,36.246621569212124],[127.53575319142172,36.24644082543765],[127.53585939799196,36.246374457071006],[127.53579256820649,36.24624705819983],[127.53595096587206,36.246045162857165],[127.53645285216797,36.245639984569635],[127.53664989852439,36.245322518483846],[127.53655343580857,36.24514685970727],[127.53659336616464,36.24492856963357],[127.53669201482045,36.24473797001095],[127.53739434601756,36.244015659078315],[127.53775377518262,36.2433169310042],[127.537917668465,36.24277783241272],[127.53847502829662,36.24265294378565],[127.53947071161498,36.24223810299801],[127.54004962105614,36.24213999781937],[127.5404115434802,36.24181571918639],[127.54164896000853,36.24161323856046],[127.54227888072893,36.24141025994181],[127.54252811648759,36.24165200189489],[127.54342323597561,36.241550469665015],[127.54510615841167,36.24088629855242],[127.54536531506521,36.24058073828164],[127.54614589250718,36.240075087599784],[127.54721712254378,36.2396004121736],[127.54908015901306,36.2397299610096],[127.54943662446014,36.23933173663701],[127.54986112416381,36.23842426106761],[127.54924539353917,36.237877380128836],[127.54877616984827,36.237718811503036],[127.54869387029541,36.23624476789941],[127.54818646164968,36.2343051180257],[127.54747266202244,36.23230167375433],[127.54712239211547,36.231482801437636],[127.54650803684628,36.23049968382507],[127.54608725915313,36.22929679280567],[127.54509389866763,36.22842582995447],[127.54498353873839,36.22715284445745],[127.54533094194657,36.225513676908015],[127.54644276664561,36.22527002219208],[127.54775090132252,36.22531875055332],[127.5489959910663,36.22543839636047],[127.55095346510898,36.225870904777295],[127.55282909712365,36.2258627725302],[127.55437103138586,36.226186418125536],[127.55568587330343,36.226749476070935],[127.55603118545777,36.22715242581792],[127.55688470896268,36.22723299761696],[127.55825314333286,36.22753856491391],[127.56022166262314,36.22876832958208],[127.56157850676856,36.2289668900172],[127.56204852892984,36.228670994209416],[127.5623148148707,36.22860431170149],[127.56252287804163,36.228355087767554],[127.56264216163298,36.22789281728138],[127.56267329857843,36.227954222448346],[127.5632757409322,36.227971025108126],[127.56380884740595,36.227523940641284],[127.56368932012055,36.22769297648509],[127.56431121885936,36.22805041707461],[127.56514490078315,36.22874081694451],[127.5656967789458,36.22944113527593],[127.5669887976887,36.231969044310745],[127.5677238416891,36.232294580247775],[127.56903927422177,36.23259795683102],[127.57024016773842,36.23352337090746],[127.5728537039035,36.233022460696745],[127.5748643147124,36.23199767408806],[127.57685253148638,36.23251600374367],[127.57729431126609,36.23245226563723],[127.57954859236963,36.23279647834547],[127.58021727864481,36.23184969415603],[127.5816795114093,36.231374297238624],[127.58242781977296,36.23163000720466],[127.58293818770112,36.23141476067455],[127.5835819794874,36.231296053364176],[127.58445079662839,36.230374523914065],[127.58480533431283,36.23024729753477],[127.584903665937,36.22991959209292],[127.58523226707767,36.22964932879417],[127.58597150060763,36.22799709406667],[127.586307034532,36.22757782197124],[127.58636220188455,36.22565058782175],[127.58656692160125,36.22506091874687],[127.58711686877454,36.224862573079],[127.58772583187339,36.22525498482719],[127.58873672295636,36.225495724126134],[127.59051002670007,36.22529364376489],[127.59059794068456,36.22473485697445],[127.59032273698352,36.22439904451383],[127.59064007640251,36.223211025878484],[127.59065991632806,36.22257150516294],[127.59110925979601,36.22165589237759],[127.5920173719541,36.22149602518804],[127.59244796636946,36.22132443283995],[127.59268404865117,36.2208144591046],[127.59276362518608,36.21982117311642],[127.59464329733784,36.21948173313159],[127.5948896363077,36.219233643047396],[127.59551144417979,36.21899717019539],[127.59576904246038,36.218690184738264],[127.59637918953234,36.2184008293153],[127.59714899851613,36.21764739067252],[127.59777865967078,36.21750023712029],[127.59802007252159,36.21708882491911],[127.59768483824698,36.21622017420509],[127.59798518340864,36.21545212285552],[127.59789814162713,36.21526209262751],[127.59808682693279,36.21482915430429],[127.59796452483029,36.21432731904417],[127.59756534599849,36.21372103833662],[127.59731963273411,36.21298024652024],[127.59630970277061,36.21188309083548],[127.59699032414504,36.21157388057346],[127.59721647099612,36.21110892736914],[127.59746893419836,36.21086060308957],[127.5981752974305,36.210696357925876],[127.59879203462539,36.210224145821314],[127.59894778091395,36.20958698221074],[127.59867960458176,36.20886221758423],[127.59843194309708,36.20850558487638],[127.59886601883578,36.20756262531514],[127.59925355435081,36.20727112864775],[127.59950696192168,36.20640389969485],[127.59943279207785,36.20512606974427],[127.59965759521566,36.2050908101656],[127.59952878816239,36.20456057644951],[127.59913278054191,36.20395505102133],[127.59900390150334,36.20334568467771],[127.5992800280498,36.20264267286091],[127.59825815305891,36.202379147054444],[127.59807252820083,36.20151872261445],[127.59733593435318,36.20026821489213],[127.59641069746354,36.19946545753244],[127.59533414409137,36.19896167118201],[127.59426284004635,36.19717442036833],[127.59419208825723,36.19684028599803],[127.59337355955603,36.19608796414159],[127.59299999416459,36.195969199768165],[127.59274215986675,36.19554314731178],[127.59246152856738,36.19534964342697],[127.59245780063897,36.195196767994375],[127.59279305598936,36.1949171948256],[127.59346050679896,36.19458024226011],[127.5936118959269,36.19438729008552],[127.59292308954593,36.19293572495315],[127.59297588541817,36.19223149496122],[127.59331183284662,36.19197183344318],[127.5934326192165,36.191711055276336],[127.5938579384471,36.19154732468146],[127.59399662651897,36.19136243646842],[127.59456065268488,36.19101701372475],[127.59448655034481,36.19064178667846],[127.59454851320885,36.190402105298475],[127.59489682118411,36.18999969366672],[127.5952607817549,36.18979626747447],[127.59518155861703,36.18964876767193],[127.59537982818621,36.18909558418179],[127.5960875272957,36.18847870619012],[127.59622656173076,36.188465642617864],[127.59625531220742,36.18814237937195],[127.59658607198034,36.18764450999975],[127.59656948029301,36.18747944849995],[127.59701858846218,36.18686846386103],[127.59748035054133,36.18503687840051],[127.59772001402074,36.18486798375517],[127.59862774559797,36.18491904333785],[127.59954714455776,36.18470631693395],[127.60042229909668,36.18467925847071],[127.60174205052728,36.18435046809097],[127.60236132759428,36.1845402752244],[127.60268975323775,36.18495879485768],[127.60358357216072,36.18517405626272],[127.60387697330414,36.18545539896885],[127.6050594327262,36.1848010508583],[127.60574556216362,36.18474849490671],[127.60670875131484,36.185360685298924],[127.60822362375539,36.185704298790625],[127.60887208326805,36.185461737720644],[127.60903276618765,36.18475231327116],[127.6099052947591,36.183890431409324],[127.61117489722184,36.183273996055966],[127.61162218472039,36.18331082895421],[127.6121645107134,36.183654154178356],[127.61273929135666,36.18354134222991],[127.61318376216089,36.18361161463936],[127.61361726575339,36.18394508100069],[127.61432511230225,36.18406203805245],[127.61471719331607,36.183401931119754],[127.61759207329904,36.18246133072102],[127.61781195614728,36.182155186028645],[127.61857503969637,36.1819872461862],[127.6186662820995,36.18174487964175],[127.62078999073326,36.18184045128135],[127.62164275552041,36.180987932110604],[127.62298282186488,36.180992944291944],[127.62316528900277,36.18116118375416],[127.62329368831935,36.181107301999035],[127.62325990142313,36.181033777980986],[127.62334253352424,36.18112019637653],[127.62348285420089,36.18098553259712],[127.62389907324021,36.18100077179249],[127.62456628129672,36.18036578770549],[127.62500038796445,36.17929434618071],[127.62530424480794,36.17879146817559],[127.6257509654935,36.17862325066234],[127.62600837341404,36.178610408566286],[127.62615525597276,36.17836811646788],[127.62712005448597,36.17796352935826],[127.62735859722508,36.17825003902067],[127.62776698037099,36.178320052325894],[127.62833540850114,36.1791773662816],[127.62902148560228,36.178686104437716],[127.62967371095428,36.17868253098489],[127.63018143286536,36.178839519755186],[127.63052811471472,36.179309711416785],[127.63078748163674,36.17944024567707],[127.63100257854235,36.17927976784876],[127.63095020589755,36.17910523134781],[127.63096520472854,36.17887636304993],[127.63102020261844,36.178885812599944],[127.63100667852817,36.17933376540244],[127.63082202830958,36.17946795815322],[127.63194466359312,36.17980474330742],[127.63206187211775,36.179967096202866],[127.63249521596892,36.18010150437663],[127.63362135381958,36.180927481461815],[127.63445937286792,36.18068688159774],[127.63453200130807,36.18072896085654],[127.63453514212308,36.18065238909442],[127.63438853881472,36.18061320578633],[127.63428148931659,36.17987764945515],[127.63450772129737,36.17929581111772],[127.63441915704402,36.17903290736861],[127.63507159153514,36.17802109661428],[127.63585907403656,36.178302762019946],[127.63679872303204,36.17779072183876],[127.63706620934403,36.17755256814348],[127.63763250416547,36.177505502206564],[127.63784637601317,36.177366402230376],[127.63863416488338,36.17639348803032],[127.63882705950435,36.175883839459274],[127.6394366095068,36.17579530584801],[127.64024322144382,36.17497655936913],[127.64058517334392,36.17476188465095],[127.6411669997258,36.174785037483396],[127.64161631281753,36.17447117077363],[127.64241827167798,36.17428664237981],[127.64317691317024,36.17339210039154],[127.64315756194762,36.173116656813015],[127.64389101850242,36.172134839662746],[127.64557576294506,36.17139710947707],[127.64608387997204,36.1713043918554],[127.64674335977178,36.17141648872857],[127.6474754458796,36.17127738071774],[127.64854031512316,36.17145574318724],[127.64889179621565,36.17131510563549],[127.64969110398964,36.17070148111525],[127.65077335174739,36.17148327894906],[127.65202717400955,36.1719633198899],[127.65240490764141,36.173300230183074],[127.65252486626527,36.1744242434069],[127.65325210403417,36.17518856487735],[127.65425456111394,36.175790625956836],[127.65455942099601,36.1761882060451],[127.65507929080071,36.1772256049754],[127.6549840900567,36.17748315078096],[127.6550337159365,36.17817191586705],[127.65462325249455,36.178477854156995],[127.65404064804612,36.17932291675789],[127.65394208686745,36.179712062204096],[127.65325281668808,36.18007920963541],[127.65325147001248,36.180329891858904],[127.65278295561916,36.1807090889933],[127.65202282365402,36.181899844432095],[127.65115804244259,36.18248463130504],[127.65060108851951,36.18260266122782],[127.65065781897286,36.18290915471486],[127.65018935500004,36.184122809146544],[127.6503520677475,36.18454042650007],[127.64998484255229,36.18527961016091],[127.65141539200216,36.185768989404885],[127.65154435998014,36.18619429656944],[127.65145863243573,36.18653959099698],[127.65217963670045,36.18683330634657],[127.65267720738667,36.187595982974564],[127.65319299190979,36.18803193579176],[127.65376807561636,36.18881858929299],[127.65415407594418,36.18994005065302],[127.65386050910926,36.190297590430994],[127.6539560042588,36.1910330741055],[127.65411489979918,36.19131617910258],[127.65459274329012,36.19180103921851],[127.65393442424951,36.19247508036839],[127.65380484777556,36.193211116374044],[127.65411693507167,36.19370802141617],[127.65368983780806,36.19387794020132],[127.6533082319882,36.1938261207983],[127.6529900005447,36.19406325707178],[127.65258805214721,36.19415997784329],[127.65247263022948,36.19425317716123],[127.65190233518138,36.19429093488265],[127.65201305526722,36.19473410061693],[127.65193146994417,36.19498409251468],[127.65204519098721,36.195530218372845],[127.65198533017283,36.19592405424806],[127.65235671844967,36.197018239262945],[127.65434278148042,36.198132636596334],[127.65368229863739,36.19843567430693],[127.65269937855044,36.19906757052651],[127.6523836038594,36.20003668475235],[127.65203802034632,36.20049226400529],[127.65169972469114,36.200615336492916],[127.65087851911572,36.20141369890435],[127.65074072915017,36.201958849353574],[127.6496533449064,36.20356026445805],[127.64963208428169,36.204620265526316],[127.64946293972768,36.20496352865289],[127.64949785564015,36.205445121391975],[127.649272970982,36.20563118706288],[127.6489421726204,36.20654765511029],[127.64844558237274,36.20708052199565],[127.64873064368304,36.20761196358636],[127.6487425392572,36.208354500617595],[127.64890208684523,36.208444582845985],[127.64948418468616,36.20980836761978],[127.64921083036457,36.209977277357396],[127.64940581866125,36.210598493250885],[127.64932931717084,36.2109151234379],[127.64962523863709,36.211676730276956],[127.64959061015536,36.21197352074343],[127.65093515642218,36.213386748442346],[127.6510805120583,36.21379525717343],[127.65140600753273,36.21402149650196],[127.65155727559508,36.2146982620417],[127.65197847870832,36.21513611734862],[127.65228304802588,36.2157205078596],[127.65228713611991,36.21788853629226],[127.65093175153253,36.21899252476352],[127.6506601880655,36.21948372513514],[127.65028553007951,36.21979287607781],[127.65042981245381,36.22110193695039],[127.6501227597742,36.22143442303216],[127.65029177001048,36.22180789310286],[127.65042378315263,36.22304473597236],[127.65076705135978,36.22328260426148],[127.6507875472912,36.22378016910152],[127.65054338762367,36.2245186537429],[127.65056244418861,36.22497406160337],[127.65064997719105,36.22513699486823],[127.65279460104945,36.22589651346148],[127.65389747146682,36.22646188701406],[127.65465591352954,36.227255857178044],[127.65494225597743,36.22769330187704],[127.65518735126714,36.22781161139745],[127.65541682289832,36.228541067877146],[127.65612408931268,36.22935774744535],[127.65728099345235,36.22818620184088],[127.6576067100334,36.22773973055299],[127.65850709957105,36.2268921827853],[127.65949004229655,36.226673698288515],[127.66003873103199,36.22645503720384],[127.66081649193394,36.22532161797403],[127.6620690863094,36.22427460952247],[127.66323889164497,36.22343909126916],[127.66374953324878,36.223307741367044],[127.66606842104582,36.22374835639775],[127.66808521442235,36.2235090235494],[127.66850012832876,36.22328412118376],[127.66994807051955,36.22343892867005],[127.67162304137574,36.22247195411967],[127.67252263666623,36.22225793031999],[127.6726998842037,36.22215353549004],[127.67287792899407,36.222487511805916],[127.67320895953348,36.22275503431999],[127.67329953544242,36.222719641381964],[127.67363894636563,36.22301614110429],[127.67425324769994,36.2225912014052],[127.67685763375341,36.22426008704148],[127.67724614247933,36.22428579265456],[127.67750948296481,36.22442415948073],[127.67857242242242,36.22473634581157],[127.67890912718322,36.22475056172149],[127.679424027536,36.224592616544705],[127.6798882002307,36.22471070007023],[127.68074883370167,36.22474220549907],[127.68102862808702,36.22483248299655],[127.68066243256212,36.2251815882072],[127.68047377818431,36.22571082840648],[127.68089491249344,36.22654887131827],[127.6808524864817,36.22701382968002],[127.68107118511033,36.22714691701719],[127.6813928204082,36.22721394760976],[127.68168204418954,36.22750987101249],[127.68177309400146,36.228090150803496],[127.6825109243526,36.22843963840345],[127.68259484259372,36.22864302459684],[127.68298579467252,36.229015795199864],[127.68302219584209,36.22951646869296],[127.68287468197269,36.22982012092459],[127.68265716644834,36.23098020691969],[127.68360113355746,36.23174114135513],[127.68408225063241,36.23189869769225],[127.68488265918404,36.23269681012595],[127.68473380422189,36.23309494441169],[127.68512154611771,36.233647187578995],[127.68540574762369,36.23439133680799],[127.68528517992246,36.23476181312174],[127.68534505273509,36.23524539338822],[127.68574561385269,36.235486057841264],[127.68603911231759,36.23552126384633],[127.68629371278604,36.23544596449974],[127.68638891686444,36.235106298692784],[127.68739319561405,36.2351565623355],[127.68832250567955,36.23621212878411],[127.68883348613457,36.23623433656143],[127.68894951428614,36.23670366817702],[127.6891944147976,36.23701307425346],[127.68949116258578,36.2371696775329],[127.6898001814959,36.23746596228854],[127.69026010794295,36.23728737981619],[127.69037229871454,36.23734487757118],[127.69049895053692,36.23772443346133],[127.69132472907128,36.23815544663618],[127.69139580919168,36.23832973914266],[127.69126944705238,36.238800418695114],[127.69166438355931,36.23936905128607],[127.69183163935368,36.24069137589604],[127.69230212952137,36.24158649728474],[127.69243375084456,36.24235315671923],[127.69238311811395,36.24261560726199],[127.69261778368737,36.24296812403859],[127.69267358758476,36.24345609342612],[127.69289823471955,36.24342589532311],[127.6932930332365,36.24395582748484],[127.69337970305553,36.244765584030965],[127.6929102869855,36.24541817761851],[127.69306664035551,36.24593219627039],[127.69333839754573,36.24621868111613],[127.69314955094411,36.24674219138374],[127.69293995039952,36.246613553053606],[127.69310156939828,36.24676499886275],[127.69305108052045,36.247173952047454],[127.69348709916646,36.24805890332137],[127.69361327527844,36.24813584527944],[127.69339054017534,36.248890486450684],[127.69384873748149,36.24991415863358],[127.69423042866423,36.250403096570096],[127.69492700946972,36.25076434901017],[127.69528583182121,36.25115069134787],[127.69567761849002,36.250621954478355],[127.69597826000576,36.25056739247088],[127.69639609922447,36.25090113002793],[127.69696631560167,36.25163669435838],[127.69757241884842,36.25349305621192],[127.69839776411393,36.25385210645823],[127.69871272186354,36.254821759001516],[127.69942626569366,36.2564729455006],[127.69944819962828,36.257454046712326],[127.69960671814013,36.25760956360149],[127.69986328320769,36.25820215207717],[127.70031555413127,36.25888096692437],[127.70179341064755,36.26075695262877],[127.702293433258,36.26077123609024],[127.70370866229545,36.26021999198159],[127.7046332261975,36.26124637037127],[127.7060480174626,36.26233621652166],[127.70658860982199,36.262659695295675],[127.70981478449164,36.263252292464415],[127.7106777538594,36.263203454865966],[127.71099391647964,36.26308696868951],[127.71244973223514,36.263132574353],[127.71312891809296,36.263300308053466],[127.71386993456854,36.263056458647135],[127.71467196213837,36.26313605345958],[127.71404778869376,36.26362600661191],[127.71345491019967,36.26474030517132],[127.71200521367611,36.26598145261491],[127.71216918452774,36.266005936522035],[127.71240481485746,36.26582708665726],[127.71254008448528,36.26582424628433],[127.71279417700296,36.26601753089897],[127.71290630424294,36.26627893481533],[127.71269664544258,36.2666871827363],[127.7127907720654,36.267352674618785],[127.71286820419483,36.2673418318025],[127.71291084475769,36.26689843021273],[127.71290442681367,36.2672828166335],[127.71302333112402,36.2675833068322],[127.7132961733942,36.26761251950383],[127.71387025015842,36.2680547280237],[127.71381498949185,36.26847775931724],[127.71399985899862,36.26862638671222],[127.71473640996452,36.26884704489556],[127.71493451102926,36.26871386881935],[127.7150441193181,36.268823230192766],[127.71532498873479,36.26874843337889],[127.71553191107596,36.26891201149768],[127.71570452310604,36.26890212403138],[127.71579172856123,36.269027028202174],[127.71596951329097,36.26902035857618],[127.71622660380173,36.26883966302115],[127.71641874990279,36.26894109529356],[127.71662888123267,36.268899843927535],[127.71696849864415,36.26908145178968],[127.71769620322311,36.26920056597374],[127.718090081309,36.26933001265257],[127.71837324997426,36.26967753282452],[127.71882872267315,36.26985287256513],[127.71899661286355,36.27010986992603],[127.71945042289755,36.26978829667453],[127.7198448986922,36.26975792920342],[127.72018770389873,36.26945782654327],[127.72108516036212,36.26934779542455],[127.72168488130686,36.2694657442591],[127.72223579604474,36.27014813047922],[127.722722845073,36.270177412037725],[127.7228247441627,36.27034714487671],[127.72299934067901,36.27043532478158],[127.72317461951971,36.27082260549419],[127.72303825351311,36.27142072191809],[127.72319063003782,36.271626303311834],[127.72338623987707,36.271613931253356],[127.72370018568401,36.27172520354101],[127.72391509360239,36.27187462659139],[127.72419594988772,36.272391017486186],[127.72437179511618,36.272517361079124],[127.7248039858325,36.27250242939412],[127.72549000908269,36.273020404358945],[127.72623995096568,36.273675272155735],[127.7268904413025,36.274754438642724],[127.72733074571279,36.274791209799645],[127.72758389811528,36.275125960976666],[127.72789555247297,36.27519049192618],[127.72846634595268,36.27570200297078],[127.72877451055305,36.27576082425719],[127.72895063392372,36.27611229029781],[127.7291561579491,36.27624734742646],[127.73022394088981,36.27616398580862],[127.73097583320157,36.27641183636949],[127.73144754014118,36.27604774379746],[127.73328691341953,36.27500766263813],[127.7341433657459,36.27408262790069],[127.7349410169626,36.273445706486484],[127.73544469708038,36.27285451747726],[127.73575580915046,36.27274991250619],[127.7375837359728,36.27276813623484],[127.73838879773584,36.27226931087502],[127.7392109884192,36.2721398545393],[127.73972060572233,36.27218353486178],[127.74003912684947,36.272113902109176],[127.74088211034875,36.27161454928621],[127.74136103760078,36.27121296689928],[127.74222343529952,36.27091758641791],[127.74310669829842,36.270830098268135],[127.74570622457075,36.27099592209573],[127.74605434932278,36.27040206153067],[127.7462693635456,36.27030918295408],[127.74879458788898,36.27002591106253],[127.74925116652278,36.2698231626243],[127.74970663344939,36.26949368732048],[127.75092186395422,36.269961008974846],[127.7518541705666,36.270055679422875],[127.75212911022552,36.26991913001835],[127.75210985990114,36.269625228883285],[127.75317102842953,36.268926677917605],[127.75393567987965,36.26859271987192],[127.75424668537721,36.26863431666457],[127.7545228005738,36.26857602110081],[127.75473790471949,36.26836190272573],[127.75529922132162,36.26825903975745],[127.75581240256331,36.26791494807305],[127.75596068936764,36.26803307302129],[127.75597583358754,36.26818208506349],[127.75613562542941,36.26819362000646],[127.7575267130395,36.26955906481623],[127.75801769979009,36.26991953396169],[127.75931574889799,36.270558181860295],[127.75997061584987,36.27047865524602],[127.76039219918887,36.27059551311594],[127.76166222218767,36.271768067661576],[127.76260915640151,36.27576960556939],[127.76196731516832,36.275883791718826],[127.7615164440604,36.27606452050435],[127.76188228845159,36.276940881080066],[127.7617785949614,36.27836321438151],[127.76142580378612,36.27863766049259],[127.76222001353429,36.279593817999356],[127.76187882407186,36.280133223337764],[127.76247531235383,36.280662241169814],[127.76259951671479,36.280937746986076],[127.76362478722206,36.28145108715379],[127.76381761964996,36.281958050093806],[127.76411263515159,36.282078880819576],[127.7645005964611,36.28242670641847],[127.7643442916019,36.28357968400868],[127.76415922945841,36.2839895962105],[127.76452001253352,36.284302553853976],[127.76473592479705,36.28438377799747],[127.7653412146681,36.28434291076212],[127.76577233487615,36.28449661583748],[127.76581042318281,36.285250049030786],[127.76644157259881,36.28568449980244],[127.76714985652899,36.2856476509867],[127.76746612643544,36.28573510100989],[127.76801711424226,36.28519328992912],[127.76851714736651,36.28513582679814],[127.7692466850993,36.285672695673654],[127.7694432673029,36.2859578399477],[127.76969472192913,36.28684775929343],[127.7692160772017,36.28753087700882],[127.76945362874929,36.28776615806551],[127.76945610859686,36.2880475923139],[127.76979180262809,36.288163396524226],[127.76936938793547,36.288841945008684],[127.76934638642241,36.28973335709761],[127.76948918264527,36.28974270355884],[127.77016856717383,36.29026714780934],[127.77118961918512,36.2899082707949],[127.77180306680658,36.29003893665445],[127.77228859874982,36.29071006372812],[127.77341443378255,36.29133843367687],[127.7743255539384,36.29172742726456],[127.77487128178085,36.291391946982294],[127.77584159399746,36.29187849358896],[127.7760312833119,36.291660617076396],[127.77641825362423,36.2905403223044],[127.77681850336899,36.29023483022296],[127.77758665136665,36.28989726451981],[127.77793181436971,36.29000960695563],[127.77824278451146,36.289836854074096],[127.77853523298042,36.289846236284916],[127.77875808372536,36.28967005225258],[127.7792890156801,36.28960567257164],[127.77960800196968,36.289449283941444],[127.77997711103909,36.28955168712936],[127.7805284142345,36.28955714401163],[127.78097021863648,36.28971261534665],[127.78124580443867,36.2895308303683],[127.78169563821606,36.28944186160857],[127.7821511104673,36.2897377232091],[127.78236811220754,36.290104692501444],[127.78309787083025,36.29010505137951],[127.78351977000851,36.29023604190776],[127.78377785892306,36.29042393059823],[127.7840265392299,36.29011660312759],[127.78428672460328,36.29000051645085],[127.78470492449317,36.28941263938028],[127.78543130134327,36.28921457953241],[127.78543561629705,36.288923719213535],[127.78662952815029,36.288314038936036],[127.78679309770571,36.28816475076227],[127.78745507008287,36.288370037567894],[127.78776784918516,36.28863679783215],[127.78778075628033,36.28903904443539],[127.78808420139669,36.289516321367856],[127.78809245720271,36.2897966880898],[127.78870861998148,36.29061833078747],[127.78877441987892,36.29086002813422],[127.78909776402627,36.290989116470335],[127.78990251465498,36.29088540506726],[127.79076726257863,36.291056941545904],[127.7913857296355,36.29126191552222],[127.79290738206322,36.29081494679684],[127.79327325051278,36.290887230380996],[127.79354922175057,36.29071856254523],[127.79402819340957,36.29056704015168],[127.7944738768901,36.290530534246116],[127.79477099445502,36.290963500347225],[127.79483025184248,36.291226532019536],[127.79481658242139,36.291592844374094],[127.7946332728166,36.29216423315348],[127.79472803000313,36.29308290107085],[127.794943135237,36.29332732989005],[127.7950379900543,36.29382512820318],[127.79480332066034,36.29430068496058],[127.79477654703169,36.294753449862334],[127.79508809095456,36.29502067686125],[127.79506355647301,36.2955856030185],[127.79527890306011,36.29625426387365],[127.7947120446798,36.29725373340003],[127.79526623713724,36.297748818601995],[127.79607775866107,36.29775256546063],[127.79669350642,36.29752064184794],[127.7995846158093,36.298309427380914],[127.80034339021907,36.29821976009338],[127.80051383152423,36.29788785150139],[127.80080989875725,36.297903030101686],[127.80113656074862,36.297796005729836],[127.80149851530528,36.29859867727292],[127.8014274290432,36.30023583230101],[127.8010238389627,36.30063932960091],[127.80091541166514,36.30104378151859],[127.8003435272723,36.30147782416657],[127.80036756860152,36.301659426927856],[127.80021887329379,36.30197042777942],[127.80052242572225,36.302623909205614],[127.80050142685913,36.303042780119604],[127.80097240603317,36.30337095862686],[127.80129693194618,36.30373938876257],[127.80193062133972,36.30374153694043],[127.8035078940624,36.30411611995537],[127.8039595212967,36.304785469390595],[127.80433956429424,36.304979917761486],[127.80512128441701,36.30503310700729],[127.80535655837335,36.30541484053279],[127.80594151126137,36.30589106805203],[127.80602568783662,36.30587413617745],[127.80602586489778,36.30599015006143],[127.80646409917988,36.306669464463255],[127.80686374681763,36.30689028593204],[127.80706936265489,36.30728824773019],[127.80706571323184,36.30760236048681],[127.80725758730249,36.30786135533745],[127.80773636964248,36.30811976855213],[127.80796961787094,36.30848210969373],[127.80834085094786,36.30881625667548],[127.80852923829632,36.30939624767732],[127.8088126899364,36.30958599399065],[127.80907690692354,36.309487017678286],[127.8095420767438,36.308888481881326],[127.8098036820874,36.3088408446274],[127.81013411146354,36.308925210834445],[127.81055130077857,36.30888491069188],[127.81065433726735,36.30894535656083],[127.81120035901056,36.30867120503715],[127.81151406964453,36.30859651010117],[127.8123250144806,36.30878096695882],[127.81321136832855,36.30871898031035],[127.81337042047784,36.30863429079726],[127.81346310687691,36.30829970487825],[127.81373503529728,36.308045634313075],[127.81437567999075,36.30818675231434],[127.81516402276786,36.30869246037808],[127.8155539363834,36.308784463937485],[127.81604853421197,36.309104373827466],[127.81657608226625,36.309830803158896],[127.81716149091453,36.31007497801383],[127.81745055611582,36.3103429194086],[127.81778540619045,36.31102501378376],[127.81763557059527,36.311259092009614],[127.8181238905043,36.31181603272573],[127.81903528790818,36.31165002074228],[127.81916589740507,36.310802482911605],[127.81903315171412,36.31041207409603],[127.81904199296659,36.30947237357667],[127.81945899897993,36.30889442177563],[127.81927994534509,36.30860812629161],[127.81975319200696,36.307579040350454],[127.81974081451565,36.30700496493992],[127.82027580199221,36.30602273969374],[127.82036811473057,36.30568753630062],[127.82097811201393,36.305177395034484],[127.82144013396268,36.30543498522189],[127.82162474887343,36.30579624407476],[127.82313517210979,36.30642639472226],[127.82304143697185,36.30678188515824],[127.82277349000071,36.30714605362711],[127.8225546121428,36.307682482286076],[127.8229077774925,36.307967776238584],[127.82343170466977,36.30822632187009],[127.8234347683572,36.30838449661333],[127.82381065986856,36.30889414397874],[127.82458292683897,36.30913944949262],[127.82486937900367,36.30986830307751],[127.82504127089904,36.31006434523393],[127.82548351024032,36.3100905128662],[127.82581335769396,36.310289953501545],[127.82611165359134,36.31024426314782],[127.82652715754325,36.31005976772417],[127.82674739013669,36.310142921161805],[127.827138839007,36.31008711252787],[127.8278100131757,36.31016303031015],[127.82867800223117,36.31005500786067],[127.82921369334571,36.31027415590545],[127.82944489906106,36.31048701881617],[127.829799565846,36.31066122335637],[127.83024510845713,36.31066548199424],[127.83098412792077,36.31105653799614],[127.83225142884363,36.311315308457154],[127.83435043858184,36.31110918042704],[127.83505855833181,36.311160891949314],[127.83529788084242,36.31161466703447],[127.83550252175047,36.311763018738716],[127.83528253795066,36.31263197475549],[127.83533800030533,36.31277636711907],[127.83680843185309,36.31367523631591],[127.83819599469535,36.31407775580894],[127.84052826529586,36.31567309953181],[127.84126155392327,36.31555174704215],[127.84201398922501,36.315842909726975],[127.84286484058322,36.31595553435826],[127.84335573076953,36.31636970733018],[127.84369341790617,36.31628616109745],[127.8442583982165,36.31669025621874],[127.84498404540412,36.31636141127548],[127.84555016409418,36.317381716919705],[127.84588341145995,36.318290334603255],[127.84652151312922,36.31806309939095],[127.84718209934009,36.31813243686869],[127.84774643137395,36.31862178676794],[127.84834364962371,36.31889770640616],[127.84885505600073,36.31903423918731],[127.84919769259103,36.319859732033464],[127.85024373666825,36.32023624390004],[127.85089974888086,36.321176150760856],[127.85090137714204,36.32175410036154],[127.85159602589644,36.324021245815295],[127.85144425643955,36.32431819075035],[127.85143942162802,36.32475696842284],[127.85130912379486,36.32511051543409],[127.85120773361302,36.32675647033346],[127.85201784061624,36.32738326115379],[127.852196210648,36.32820730025889],[127.85183962498012,36.32886375540933],[127.85199486083074,36.32918328902754],[127.85268075637524,36.329662783008786],[127.85256440753503,36.32996279078827],[127.85197350642622,36.330378759082436],[127.852447701023,36.3309826119912],[127.85256429748885,36.33124804370734],[127.85279101697449,36.33144231275023],[127.85289503888669,36.33191101521754],[127.85363106080237,36.33181288896681],[127.85384352568387,36.331607212271706],[127.8540154171152,36.331227789927965],[127.8543381736531,36.33101302445374],[127.8545286507465,36.33064295110102],[127.85458859566427,36.330649543836756],[127.85530552924683,36.330923105461295],[127.8559324058686,36.33099521338338],[127.85627093539559,36.33122385565882],[127.85674595854057,36.331292800286384],[127.85689928558163,36.33173508660415],[127.85688556345158,36.3319325988969],[127.85773543847789,36.332301544531575],[127.85829718794737,36.33245723808592],[127.85957483347065,36.33347841652032],[127.86037211787526,36.33376152530569],[127.86110648613952,36.33323434819427],[127.86186431858293,36.333169633582905],[127.86177335081365,36.33449182065104],[127.86146811814693,36.33504263399386],[127.8614847562341,36.335605976669456],[127.86238285541162,36.336395220449994],[127.86348291256962,36.335944702492775],[127.86429374209443,36.33547800645505],[127.86532203821488,36.335653952872335],[127.86546584472183,36.33575335496875],[127.86575814091412,36.335700443847216],[127.86593579309856,36.337089617457366],[127.86679298385218,36.337148361072835],[127.86692450123347,36.337086977338004],[127.86780009717516,36.33734925694288],[127.86801362697607,36.337772679435595],[127.86827384410013,36.33793524193623],[127.86822783746486,36.33845148162321],[127.86835484497577,36.33879094110449],[127.86903073527843,36.3393931566571],[127.86934314669567,36.33939818859869],[127.8698107957317,36.339644317263385],[127.86998270287685,36.33991000560999],[127.87012394803199,36.34090082485137],[127.87022589832249,36.34113034518015],[127.87063510419848,36.341516726995295],[127.87072743528769,36.341818632268854],[127.87062702180809,36.342049416285185],[127.87070948707833,36.34235653056965],[127.87018431409604,36.343325522153435],[127.87025515526234,36.34347570429773],[127.87206600183201,36.344121469371316],[127.87371598076591,36.34512961567483],[127.87474662015208,36.34508832169178],[127.87554222944223,36.345619623872224],[127.87607547079755,36.34534315503335],[127.87663688617201,36.34560471852324],[127.87715524077367,36.34571813236476],[127.8781568680958,36.34533972410763],[127.87855334969312,36.34545928911885],[127.87892843127356,36.345352058057294],[127.87943143022773,36.34497652459292],[127.87999131601126,36.3451031748758],[127.88047032569159,36.34542344336227],[127.88085886627894,36.345212728330715],[127.88135057185968,36.34511354008706],[127.88208972543616,36.3456854684908],[127.88262342624412,36.34596679095413],[127.88257771385382,36.34631509794616],[127.88289112139306,36.34693888932398],[127.88276007254058,36.34729625789594],[127.88280211378755,36.34778670121835],[127.8831499486829,36.34802397599072],[127.88375140022961,36.34907859545958],[127.88513527657949,36.34913818120236],[127.88553372584737,36.35018469700615],[127.88527028946022,36.350810703749154],[127.88508067095032,36.35245460995016],[127.88521766976802,36.35374827681722],[127.8857219647718,36.35475620313468],[127.88820177574627,36.35565068432699],[127.88937772760647,36.356201514525374],[127.89026813346767,36.35652409060063],[127.89092706852512,36.3565544044564],[127.89117226593036,36.35818914187297],[127.89091709288502,36.35894906320833],[127.89130681749707,36.35967299400111],[127.89024426666728,36.36129004319663],[127.88857016234378,36.362474633106615],[127.88829058378762,36.36276517226496],[127.88759009215738,36.36318579787477],[127.88646744147543,36.36362412501834],[127.88595120887913,36.364840303327824],[127.88603326826495,36.36555578704124],[127.88545667370632,36.36600382278184],[127.88540663568908,36.36637246059164],[127.88561434435043,36.36669017937627],[127.88545631178093,36.36727016043288],[127.88555843918336,36.367517092512564],[127.88514617144581,36.368456173193],[127.88523572484272,36.36873107912043],[127.88519221297135,36.36899224737335],[127.88391050987705,36.36987917700309],[127.88391258918344,36.37034730369121],[127.88370532672012,36.370674497375454],[127.88339844029534,36.37066242662118],[127.88196446875578,36.37091872590085],[127.8804311970469,36.37100199920415],[127.88006892655031,36.37107997182333],[127.8797560823793,36.37129649061962],[127.87751700560614,36.37137776684714],[127.87649888143952,36.37163515960308],[127.87601464584183,36.371542968546976],[127.87499076485892,36.37080954078887],[127.87390852067807,36.37118449228909],[127.87346888544697,36.37160379450634],[127.87311335320294,36.37154852715064],[127.87191374012224,36.372133263918684],[127.87098387352238,36.37326470424576],[127.87048722891653,36.373645101826575],[127.86991197947094,36.37346070352283],[127.86885672235492,36.3734012971829],[127.86797455547715,36.37313905361985],[127.8664882457928,36.37308324495275],[127.86592364843843,36.373341815044],[127.86413691978207,36.3734357147166],[127.86317521494733,36.37428275248487],[127.86207799877086,36.37398571576105],[127.86050932033856,36.37392834781027],[127.85948532384579,36.37428629477358],[127.85917323899082,36.374166215326284],[127.85887428607569,36.374160341436216],[127.85880810240626,36.374030943109126],[127.85839659887225,36.37396064170087],[127.85801977617922,36.37372791217431],[127.85754906047528,36.37310561445655],[127.85678573118794,36.37288607618758],[127.856352255959,36.37241001547053],[127.85475216478082,36.37244399982158],[127.85383565482739,36.37186703563309],[127.85377544497965,36.371601106595755],[127.85320880440284,36.37109756036497],[127.85273812580142,36.37114658439304],[127.85210832899877,36.371405716380835],[127.85176399380894,36.37142969458485],[127.85153766959931,36.37158753586659],[127.85110843580225,36.37158917495137],[127.85062582383381,36.37171849645314],[127.85036001142358,36.37193020621095],[127.84982082023458,36.371872741229055],[127.8484824703896,36.37154553382382],[127.84771243502743,36.37159604736718],[127.8472188468438,36.37198452921642],[127.84627554932949,36.37197806419149],[127.84561265448815,36.371799062200466],[127.84529932698698,36.37181907350993],[127.84390707741696,36.37159024132291],[127.84343192332047,36.37167663719522],[127.84319471461471,36.371842615010294],[127.84245218088722,36.371609176851614],[127.84188119240615,36.37163722712211],[127.841673279795,36.371884367890644],[127.8406979372434,36.372362439964654],[127.84035953088173,36.37222860906422],[127.8396987030474,36.37254140174271],[127.83939078173054,36.37255051871368],[127.83893423417487,36.37273977012016],[127.8379671417149,36.373268639368035],[127.83721755297665,36.373245401033635],[127.83705925347017,36.37313092748783],[127.83710753146501,36.37283538400038],[127.8368546825753,36.37219558467994],[127.83670601082359,36.372022640675475],[127.83670536718112,36.37160269369613],[127.83646519637088,36.37125598415746],[127.83610344472963,36.37031450831837],[127.83624876191605,36.370055081514764],[127.8359073537425,36.369293035834055],[127.8356666403619,36.36914398379797],[127.83536043924983,36.36917740710819],[127.8349386751161,36.36897446670895],[127.83465758811647,36.36913611873369],[127.83263621027446,36.36914687364752],[127.8325250299585,36.369619547355185],[127.83158671818072,36.370378616253085],[127.83179377730411,36.371016520350125],[127.83186646688574,36.37177910262516],[127.83182060131237,36.37298897283456],[127.83198961170342,36.37324799350181],[127.83163387679441,36.37398037402401],[127.83089640533275,36.37428032344988],[127.83045148373462,36.37429617062038],[127.82977135021504,36.374020047706445],[127.82859523935804,36.374036459815756],[127.82794361323229,36.37516195410583],[127.82757454561948,36.375474392346135],[127.82729416701957,36.37559720138763],[127.82662576060288,36.376125645184935],[127.8257578274172,36.37627378215571],[127.82438723086797,36.37699727959795],[127.82438634365924,36.377449451371504],[127.82399037512224,36.378682075952405],[127.82304115277736,36.379056572188496],[127.82317631543769,36.379563670448924],[127.82280203986784,36.379917780348045],[127.82188557226928,36.38002806040447],[127.8206686841321,36.38034543979738],[127.81914590230289,36.380898558448344],[127.81855540328077,36.381648087576],[127.81719905759518,36.381681434794736],[127.8167120744356,36.381854203833214],[127.81451659810268,36.381666930407555],[127.81445262681027,36.38171706356734],[127.8132718645471,36.38175109209415],[127.81249366424701,36.38186237810726],[127.81196909348174,36.382071877064696],[127.8112062494921,36.382077337751866],[127.81034429938897,36.38238207688131],[127.81006310987759,36.382351902531816],[127.80941039349028,36.382069475091114],[127.80908864509182,36.38228127572761],[127.80879614727384,36.38229980501468],[127.8080467835048,36.38222181709375],[127.80776677239894,36.38206591013081],[127.80747413071059,36.38201661783941],[127.80720682036373,36.3820352713286],[127.8069747534998,36.38218170527706],[127.80624845846313,36.382108839612755],[127.80551553382742,36.38224707320158],[127.80522166749815,36.38213928165971],[127.80470249512913,36.382172485266764],[127.80445455945895,36.382333707487554],[127.80407796995043,36.382332355166525],[127.8028927093411,36.38254293352724],[127.80061611775575,36.38245223836695],[127.79988919433357,36.383710851036774],[127.79741350428782,36.38355786593217],[127.79658610705556,36.384118437124606],[127.79475494890926,36.3846752161341],[127.79403215419778,36.386255447773394],[127.7936381195501,36.386644615160975],[127.79186282552313,36.38780338740642],[127.79157276715314,36.388177910769485],[127.79108061478433,36.388440847563814],[127.79065393002612,36.38899635597353],[127.79032622488769,36.38883600945244],[127.79001091937198,36.3888195363072],[127.78983243957278,36.388562726283325],[127.78912613162005,36.38819185270351],[127.78745162621877,36.3875259094294],[127.78655659285955,36.387234757139396],[127.78558879454856,36.38704309756655],[127.78459957273442,36.3872662745596],[127.78423557104986,36.38712665182918],[127.78338553283821,36.38707989677632],[127.78273159216636,36.387309128486145],[127.78231350356384,36.38752145824184],[127.78138428593441,36.38887418985429],[127.78050763338042,36.38871660479128],[127.77970292035037,36.388675721332],[127.77880046954748,36.388806739460016],[127.7779692970432,36.388550443396525],[127.77741057997491,36.388264070434055],[127.77734375761241,36.387850607817995],[127.77711742953686,36.38752531195715],[127.77582995884168,36.38731030125166],[127.77381299353036,36.38741627402616],[127.77294486305763,36.38761048390742],[127.77079070727977,36.38747907860297],[127.77038806752465,36.38785669983062],[127.76917179448378,36.38840570360899],[127.76850773532075,36.38889464975818],[127.76801558765736,36.38897572280417],[127.76723249096264,36.38939194619821],[127.76562703004409,36.38997156333275],[127.7654379555709,36.39068465779779],[127.7650193407735,36.39121912689838],[127.76396341497612,36.391739858861094],[127.76320669469176,36.392788662207856],[127.76239778272843,36.39346849702782],[127.76192343833536,36.392943706847646],[127.76177674108837,36.392642352293784],[127.76092624025169,36.39179793936584],[127.76033625660224,36.39104507851958],[127.75905843901498,36.39085901991082],[127.75806894147547,36.39084017599689],[127.75693384400726,36.39064376475907],[127.75639121704731,36.39086349653725],[127.75533683972934,36.391091738717925],[127.75489937867259,36.39092215536842],[127.75403095611102,36.38996873945055],[127.75349899589567,36.38979875324234],[127.75307649395762,36.38949280700221],[127.75220359070111,36.38923442214063],[127.75179815096159,36.38929176756528],[127.75114384291679,36.389039365307596],[127.75126133418392,36.38849666031766],[127.75087207957583,36.38778720912141],[127.74995359368107,36.387570500170426],[127.74919035808634,36.387671676405056],[127.74804268067892,36.38701840510464],[127.74802679336341,36.386436137594124],[127.74764736750379,36.38596277404347],[127.7467183507392,36.385829338397265],[127.74643274748802,36.38595567566597],[127.74601702198699,36.3863250615209],[127.74553694710005,36.38633034240067],[127.74482200224772,36.38657820079982],[127.74447010180485,36.3865628002976],[127.74396570234639,36.38677854439283],[127.74344682599293,36.38674136176295],[127.7429103367227,36.386899634530835],[127.74271367116452,36.38709743229102],[127.74261407863878,36.38765302073858],[127.74223580937094,36.38775234047594],[127.74198370334518,36.38811565917962],[127.74122570890727,36.38869783935414],[127.7407771903971,36.38891440188939],[127.74028889178078,36.38939266051653],[127.73922673218591,36.38938995307607],[127.73893395162833,36.389612406431766],[127.7383627959375,36.3905728942908],[127.73757812647449,36.39112693869829],[127.73738829063763,36.391371884018255],[127.73671342871778,36.39184080705071],[127.73631234409122,36.3919217727657],[127.73605261748384,36.39180881037798],[127.7358111983031,36.391856610509244],[127.73477377341715,36.39254366590793],[127.73416335531311,36.39357079771352],[127.73398587366127,36.393672814984654],[127.7339752451536,36.39405478636942],[127.73372200969398,36.39436363879505],[127.73299403494137,36.3935431985992],[127.73253207402426,36.39162966660136],[127.73221537724109,36.39120148832284],[127.73166147431256,36.390607117431514],[127.73144289854977,36.39022959495739],[127.73025699540239,36.38987930442177],[127.72791183760958,36.39075742043106],[127.72768588009487,36.391461301532225],[127.72728593682184,36.391985945961565],[127.72699438829315,36.39189318809569],[127.726922919938,36.39239474939891],[127.72716809187357,36.39276200967493],[127.72711725229874,36.39300031120705],[127.7263680381004,36.39314787196143],[127.72604129467308,36.393311880986936],[127.72609334789817,36.39339365968864],[127.72573157016342,36.39384360665051],[127.72539682576999,36.393777707485704],[127.72468211770628,36.393473421774694],[127.72435866258716,36.39352617805753],[127.72376278512913,36.39381542758865],[127.7225802311795,36.394038406317655],[127.72227548337992,36.39391084075678],[127.72201726309933,36.39395497684362],[127.72066391541394,36.39503224537573],[127.72033854231435,36.395160968286525],[127.71964499367377,36.39562588957405],[127.7194283532469,36.39560549842624],[127.71843257996024,36.39629537881713],[127.71751250151847,36.397280741771475],[127.71684354740837,36.39832398000398],[127.71695298917618,36.39897840370062],[127.71676528629212,36.399275455001614],[127.71612319695367,36.39972899845857],[127.71568246492772,36.399783937589696],[127.71484223597818,36.400455941250335],[127.71437443297408,36.40059045560497],[127.71442911420894,36.40166475457632],[127.71397088261376,36.40231249223193],[127.71264698814417,36.402671371119574],[127.71107186936122,36.40352577195589],[127.71074646292341,36.403880827057975],[127.71054890263562,36.404625553907564],[127.7102811252279,36.40479069222574],[127.71004852340742,36.40480381494657],[127.70956638711161,36.40558739138817],[127.70826147043184,36.40655730930602],[127.70795071687469,36.40695626451348],[127.7079318284358,36.40724512996481],[127.70808902787397,36.40733729736206],[127.70812398109693,36.40776873989953],[127.70850442188718,36.40864402545939],[127.70835143423939,36.40917969544727],[127.70900833731855,36.41059481271308],[127.70931303383136,36.41082500597805],[127.70985286908433,36.41175123763554],[127.71020577852568,36.412068292835876],[127.71029379854218,36.41246957311323],[127.71015068084532,36.412948326689985],[127.71051654849254,36.41347112514976],[127.71011497038643,36.41380376138699],[127.70910568675122,36.413571879787455],[127.70842198233196,36.41369533875742],[127.7074546515762,36.41372397890719],[127.70547601579479,36.4135572324274],[127.70511365133756,36.413724629465094],[127.704940599185,36.414114672514124],[127.70449731786816,36.414397854801045],[127.70437352808781,36.414713607677356],[127.70415418609164,36.41484322802622],[127.70372818065917,36.414615004788246],[127.70282215120612,36.41455727687911],[127.70169477763056,36.41411706151557],[127.70070229650443,36.41398123230292],[127.70053899526752,36.41383339243672],[127.70012041759193,36.4138351566329],[127.698577903975,36.41427000640396],[127.69780147475684,36.41474764916473],[127.69683883160539,36.41474356018062],[127.69554684975779,36.41541504916653],[127.6954907858348,36.41556244918066],[127.69502783266296,36.415983009071404],[127.69462310430045,36.415869734020546],[127.69385913816626,36.41621692444291],[127.69343592054814,36.416578475193774],[127.69346483129692,36.41706729560022],[127.69269144349904,36.41695868204649],[127.69205234191614,36.41677898912733],[127.69145409844394,36.41698432843702],[127.69119034814308,36.41714881504433],[127.69030920786938,36.417302130377166],[127.6901318118443,36.417239659268006],[127.68955660903472,36.417322789663245],[127.68922103232735,36.417664769137765],[127.68800317508973,36.417865343066964],[127.68758819500037,36.418079984631305],[127.68617034131493,36.4184020447377],[127.68595389377762,36.418259029738095],[127.6846625364878,36.41791667274975],[127.68385379496594,36.417430443587],[127.68359872907666,36.41744770726168],[127.68224437244963,36.41799781841367],[127.68132351983564,36.418544860428675],[127.6800877153792,36.41992385702287],[127.68059465792038,36.42051228609502],[127.6803857389318,36.420833849328055],[127.68036636204907,36.421538717801845],[127.68005086855314,36.42207107826636],[127.67974891219369,36.423121861710094],[127.67973234757024,36.42365566764608],[127.67912689756191,36.42410007208597],[127.67870383426505,36.424598831457885],[127.67865411419282,36.42547329517717],[127.67853592207398,36.425881237067024],[127.67879546981914,36.42653725178705],[127.67846060542392,36.42700998790693],[127.67861332318347,36.42746741694366],[127.67884210697184,36.42757109284521],[127.67875399434992,36.42819541969402],[127.6788437346091,36.42845679166374],[127.67951895355253,36.42969276176121],[127.6803871391993,36.43023350787406],[127.68044235121684,36.43072406668615],[127.68033987713898,36.431251355762726],[127.68034812220951,36.43188721259511],[127.67986040877813,36.43217256245744],[127.68005785392933,36.43330815196367],[127.6797981774581,36.43372824589457],[127.6797798612688,36.43399282494565],[127.68042892129678,36.43486880489195],[127.68050857928498,36.43601827428514],[127.68032814063601,36.436299257300846],[127.67994810914897,36.43629381211379],[127.67980898799019,36.43652767413591],[127.6786519153538,36.436603585238636],[127.67742893379744,36.43707506503784],[127.67617483646563,36.43723607243995],[127.67582873016539,36.43827533477599],[127.67465004593485,36.43916342995276],[127.67305690547063,36.440168236958016],[127.67289928133849,36.44048035932989],[127.67126320205064,36.441289881471924],[127.67034713206151,36.44160183836285],[127.66971410577763,36.442125225066974],[127.66897041805701,36.44328535446637],[127.66873654091609,36.4433841914436],[127.66863682397648,36.443671473879355],[127.66711756207955,36.44427005831118],[127.66674980432774,36.444549192842324],[127.66606992565232,36.44472419643055],[127.66581941241645,36.4450013672773],[127.665238669654,36.445047710425825],[127.66457968928077,36.44492562554189],[127.66460833443865,36.44487884191654],[127.66397650726137,36.444517205987644],[127.6639937743391,36.44435316760408],[127.66360150499223,36.44401860311485],[127.66376470402145,36.44321823865837],[127.66360468201107,36.443028562347614],[127.6631107361316,36.44291718933844],[127.66289303258331,36.4430131529733],[127.6625144025653,36.44301752754529],[127.6622888560321,36.44266339202674],[127.66203416375684,36.4425610721516],[127.66188599896624,36.442306752385484],[127.66173439265111,36.441702291354304],[127.66192083095696,36.4414577176863],[127.6619220281379,36.44113170416774],[127.66151761040236,36.44085186636528],[127.66131592487386,36.44056535256603],[127.66066676078721,36.44066640925227],[127.65982060784438,36.44020221110278],[127.65922362136912,36.44015183813942],[127.65924747732848,36.440361925196804],[127.6589726331541,36.439683436299156],[127.65851604836841,36.43963236789026],[127.65816597026647,36.439305271369186],[127.65821397202677,36.43877192563157],[127.6580831445231,36.43841367336913],[127.65776963954693,36.43806491576602],[127.65766201213482,36.437991648385825],[127.65643245750753,36.437998617278645],[127.65621522023478,36.43768317604496],[127.65538537824922,36.43786391356013],[127.65479025751021,36.43876954955894],[127.65399359289728,36.43866270488401],[127.65338139693,36.43930429308745],[127.65292288534607,36.44004245665282],[127.6523994085098,36.440330767254046],[127.65219716260572,36.44095874765192],[127.6514284681995,36.44148287759699],[127.6509738861651,36.44224278049274],[127.65097066925406,36.443177564916304],[127.65065103237085,36.443225493585174],[127.65086391561404,36.4441300760753],[127.65080833875875,36.44413827265669],[127.65060959476135,36.443242426053686],[127.65009125553935,36.44313982702827],[127.64843246565567,36.442368539005734],[127.6482427697515,36.44248782312095]]]}}
