{"type":"Feature","bbox":[127.28963999788394,36.74872554213286,127.58516750846233,37.01211182497804],"properties":{"regionCode":"43750","version":"vworld-20260909-3f8952dfda77-p2","name":"충청북도 진천군","attribution":"국토교통부/K-Geo플랫폼 · VWorld 법정구역정보, CC BY 2.0 KR; 공공주택 복덕방 가공"},"geometry":{"type":"Polygon","coordinates":[[[127.44140603999034,37.01189699792732],[127.44125131464047,37.01211182497804],[127.44085766684654,37.012107203395615],[127.44063275629165,37.01191190208417],[127.44055766558915,37.01149669680557],[127.44029620438559,37.011357157701816],[127.43955375677317,37.01053746201986],[127.4390542177559,37.010437362926126],[127.43846306178907,37.009998867291436],[127.43778453689346,37.00869669694702],[127.43784787396461,37.008547009709446],[127.43765578613154,37.0086613740102],[127.43706797149046,37.00825930031301],[127.43700686850059,37.00793397368641],[127.43689981159777,37.00781857736325],[127.4369598336451,37.007832464416],[127.4371613241797,37.00658985271319],[127.43669595968319,37.00594918506305],[127.4365864772477,37.00556432809733],[127.43623124698256,37.00533144855716],[127.43539471339467,37.005149274478484],[127.43444201866365,37.00523211745677],[127.43417206962603,37.00492398136205],[127.43369888234032,37.00468630518752],[127.43302825184851,37.00458908676098],[127.43141179514431,37.00306698896554],[127.43140943060376,37.00242114019317],[127.43090849528261,37.00200939526833],[127.42956179361565,37.00125510594768],[127.42942656450964,37.00141268792989],[127.42951339609581,37.00173177807108],[127.42880730450685,37.00219998055761],[127.42706300802658,37.00267300812251],[127.42570976007389,37.00282887559488],[127.42551187122217,37.00299850217708],[127.42538365444162,37.003317991948016],[127.42506801599971,37.00354765186249],[127.42457192188174,37.00360980758778],[127.42366061534085,37.00301018054193],[127.42240460550059,37.003523756081094],[127.4218047943573,37.003857238601285],[127.42124102834305,37.0039679595871],[127.4203534263667,37.00376594005893],[127.42015813341975,37.003481611176674],[127.41920822958599,37.002970454629306],[127.41907063846908,37.0024598110143],[127.41857289372382,37.00196400180642],[127.41856368632509,37.001639611424935],[127.41737094607781,37.0015366626945],[127.4174519498693,37.00122211562196],[127.4158267496375,37.000576253515895],[127.41581065546765,37.00033145535425],[127.41497060210172,36.999981655694654],[127.41459804637826,36.99966572101932],[127.41397709932922,36.99948300091083],[127.4131819179034,36.999973482898085],[127.41135613909418,37.00018383726875],[127.41127214049011,36.99992122933265],[127.41010153809663,36.999603707770085],[127.40950389841353,36.99979264674976],[127.40796346391271,36.99855452058116],[127.40737402295713,36.99853737637817],[127.40684572901556,36.99832947785031],[127.40561679125344,36.99859756069606],[127.40453647380559,36.99865329837726],[127.40415783114923,36.99881217002763],[127.40254645987356,36.99892459306026],[127.40167087831657,36.99929931286216],[127.40131746807789,36.999554605622855],[127.40027252651177,36.999833188531106],[127.39979937345758,36.999862375406394],[127.39937631041208,36.99932990493995],[127.39873865528936,36.998826186363694],[127.39766208282015,36.9986140009491],[127.39731272171656,36.998433095168835],[127.39667137209547,36.99849093407454],[127.39622954066874,36.99864160340696],[127.3954991243508,36.99876280161869],[127.39473452705133,36.99849370341414],[127.39416308390174,36.99840280760781],[127.39363770733698,36.99788590141113],[127.39305958132347,36.997459161746576],[127.39265492475454,36.99703512732221],[127.39249947976705,36.99671119733399],[127.39266423992026,36.99627660748203],[127.39263403222517,36.99607590991118],[127.39215718885993,36.995533502978304],[127.39207613316825,36.995043936614046],[127.39188667541531,36.994816149778885],[127.391659168002,36.99398507297698],[127.39217588899662,36.993464085440145],[127.39153432395211,36.992481594508014],[127.39125000283417,36.99168658552979],[127.3909011992691,36.99113239134516],[127.39021209697927,36.99066140964912],[127.39021662360172,36.99031103158169],[127.3899209083971,36.99013110896146],[127.38959512005087,36.989751109170555],[127.3892777390398,36.9895271923389],[127.38901637966296,36.988737706877245],[127.38857451371052,36.988193118102586],[127.38838460644092,36.98723035036082],[127.3878358609954,36.987080346627515],[127.38674883514389,36.98633519019048],[127.38628594457357,36.98503343120674],[127.38563621739047,36.98483472360758],[127.38515863254172,36.98420737981318],[127.38509948794146,36.98365852292046],[127.3853641188772,36.982947998367436],[127.38560260704385,36.98278672551245],[127.38620096196269,36.981894229834516],[127.38622589995187,36.98142324858183],[127.38683570430182,36.98108016438974],[127.38773131083711,36.980901744252776],[127.38951200605354,36.98010165117208],[127.39025009408908,36.97889438059302],[127.39055171553085,36.97871771424767],[127.39075627500561,36.978309169099234],[127.39130462408804,36.97805776335179],[127.39239310937354,36.97818535395165],[127.39292102884316,36.97795571917237],[127.39413185493349,36.97708228527371],[127.39434714637976,36.97700472733289],[127.39452506712615,36.976414807930105],[127.39503850614346,36.97618645788581],[127.39539545370043,36.97537617442087],[127.39670572473298,36.974624649933055],[127.39630131985146,36.97388205539314],[127.39640786817357,36.97365411848362],[127.39637466064083,36.97330354396586],[127.39741030947367,36.972565175922476],[127.39795430273001,36.971683335609555],[127.39837280706638,36.97065499933772],[127.39968673851246,36.96988949001101],[127.40054479899776,36.96854259323181],[127.40155874448446,36.9677044159791],[127.40046307349589,36.96695157807767],[127.40002342692823,36.96656466795954],[127.39951860625213,36.965954673867785],[127.39897951341294,36.96580808274534],[127.39805975169357,36.96488501636235],[127.39749513758727,36.96466930959755],[127.39705887617845,36.96471765544781],[127.39634753219121,36.96449268425837],[127.39581698235605,36.965054957819454],[127.39513420786002,36.965058296115764],[127.39446220561848,36.96545295856658],[127.39306740279787,36.96565579842952],[127.3924697286959,36.965580916284445],[127.39191564953464,36.96561287435339],[127.39165833375449,36.96542469700322],[127.39103705678068,36.96536028797465],[127.39009388508072,36.964014566644465],[127.38830432945292,36.96475056962239],[127.38729125172682,36.964486227290145],[127.38643104874804,36.96317856049782],[127.38577679730894,36.96150014853282],[127.38533894621584,36.961124994463184],[127.38517946936574,36.96076478383868],[127.38525699218201,36.96013426851205],[127.3848817181991,36.95963315962867],[127.38407432229761,36.95958804091613],[127.38390663450892,36.959448197630174],[127.38355969401658,36.95938773131194],[127.38269375608357,36.95981798781389],[127.38220484934186,36.95922659525649],[127.38165021745084,36.95908383123622],[127.38119611402074,36.95879460771377],[127.38059870499963,36.95890833024213],[127.3796868501134,36.95873661238337],[127.37934516648465,36.95828880458292],[127.37878623923771,36.95790844597736],[127.37878964816603,36.95699785086418],[127.37837121581595,36.95611808655002],[127.3785767589757,36.954597326728376],[127.3787374436251,36.954401831339695],[127.37880040879753,36.954105949789614],[127.37826216058679,36.9531885440015],[127.37839838525412,36.95264331559328],[127.37828038824625,36.952095735319126],[127.37758298155593,36.951432137391215],[127.37754092235677,36.95120511798095],[127.37673981895824,36.950365832635924],[127.3758511974902,36.9499053027306],[127.37588097552165,36.94949499379912],[127.37571545233756,36.949144805646675],[127.37572300374812,36.948672291405764],[127.37539857949545,36.9487233521558],[127.37475285078851,36.94857240116151],[127.37378464831426,36.948857577536884],[127.37313428011551,36.94896578874688],[127.37249399452278,36.94936462570823],[127.3720801703785,36.94991455197234],[127.36988259735436,36.94986647003527],[127.3693905279554,36.9500780320349],[127.36862648102948,36.949544071780984],[127.36787899433597,36.949754749747086],[127.36731951450918,36.95029281443073],[127.36572811868758,36.94916891895413],[127.36448105102274,36.94897287938145],[127.3634791136547,36.949048742695815],[127.36305503847225,36.94934196487289],[127.36172004856928,36.94952216828159],[127.36115009969173,36.94926445482833],[127.36036870794709,36.949076082154534],[127.35987303503569,36.94867418180549],[127.35948148090803,36.948823251685575],[127.35869414721756,36.948129048311756],[127.35756212360363,36.94770963046479],[127.35727615739106,36.94868845122836],[127.356601682749,36.94917053646492],[127.35573996488334,36.95065562297442],[127.35565573617374,36.951424592376206],[127.3551220920869,36.95182656596939],[127.35470348694236,36.95201198751822],[127.35394577325995,36.95269312170942],[127.35305803313636,36.952825287832184],[127.35246324737432,36.95257734592813],[127.35098176158628,36.95286400499794],[127.3495692954595,36.95282594084259],[127.34965606272803,36.95279174156214],[127.34905749666392,36.95200631568454],[127.3482847347445,36.95160748527353],[127.34788037528178,36.95102650664204],[127.34718799890219,36.95053439082139],[127.34675307652776,36.95035371173741],[127.34675947892907,36.95002833273223],[127.34583277432418,36.95002578115913],[127.3454342381385,36.94953332399488],[127.34485406651334,36.949342469754434],[127.34466309811226,36.94900450097385],[127.34412338024468,36.948420600818324],[127.34324659154139,36.9482833188163],[127.34312857189556,36.9477851028763],[127.34342831731199,36.94746448307248],[127.34320930092395,36.94721587168068],[127.3429566502294,36.94670382970925],[127.34241869820298,36.94634007611366],[127.34269399587882,36.9459241964371],[127.34253410385354,36.94573127250824],[127.34318397855287,36.944337083815796],[127.34195196564505,36.943133465499066],[127.34144348318996,36.94321740692025],[127.34062924223315,36.94311427287699],[127.34020540515314,36.943396461397654],[127.3397134394716,36.94317474473787],[127.33912210460382,36.94312579872221],[127.33885337952657,36.94250678683728],[127.33841599576428,36.94242175368591],[127.33660802737933,36.94175543378889],[127.33392233000731,36.940592235486776],[127.33322132891979,36.940354604283954],[127.33238829164276,36.93976148476767],[127.33239544250212,36.93918329510542],[127.33203482373747,36.93907591863276],[127.33157209067079,36.93875977345269],[127.33035835114856,36.937586664215914],[127.32935416582863,36.93733758799726],[127.32807134969974,36.936671079831484],[127.32784104863613,36.93677736991923],[127.32754851726416,36.93676171101332],[127.32698264992214,36.936286706553915],[127.32685576586215,36.935954471979514],[127.32427407507,36.93592272643472],[127.32291658291473,36.93653793410232],[127.32211658422112,36.93622844227424],[127.32133264405252,36.93560891495552],[127.32086613669249,36.93561381932342],[127.32028560949374,36.93538720988354],[127.32004459578417,36.93497937983577],[127.3192597204684,36.93471133136149],[127.31905056208917,36.93452140155985],[127.31897199154268,36.93453041354115],[127.31876962813814,36.93425035744011],[127.31828160078858,36.93421334639812],[127.31779842058039,36.93457916348589],[127.31727211180609,36.93452761225311],[127.31628629991013,36.93470979839391],[127.31608221415856,36.93449149352211],[127.31593857195901,36.93414916109236],[127.3152963011172,36.93345139596033],[127.31521761941944,36.933018297257256],[127.31488351740771,36.93252694548885],[127.31487814137184,36.9312349941024],[127.31457571047301,36.93115323843305],[127.31337992928968,36.93122653780528],[127.31275163516838,36.931059122918505],[127.31227788494304,36.93069060069845],[127.31128325898071,36.93056898724839],[127.31070086293379,36.93005797379382],[127.30999842592695,36.929783703213886],[127.3097745897198,36.92994365021217],[127.30906905326597,36.929378623763824],[127.30781102310894,36.92965230411936],[127.30741382059209,36.929867026735515],[127.3058984625857,36.929413275133605],[127.30463026292264,36.92954449374505],[127.30384412931787,36.93009524744078],[127.30335761024607,36.92999567089548],[127.30265945658081,36.92968627050376],[127.3021591279972,36.92969192867489],[127.30144662942125,36.929504680085394],[127.30073469869491,36.929674367176126],[127.30019701533318,36.92943797760876],[127.29820422273,36.930127500958655],[127.29641520112263,36.93011450512799],[127.29553239068711,36.93053899692802],[127.2956586673906,36.93128847399074],[127.29496098413152,36.93068073882401],[127.29537380835366,36.9292614204024],[127.29649799276527,36.926797500978964],[127.29741108918707,36.92606469342872],[127.29750849745693,36.92556199315287],[127.29783270403334,36.92522701564498],[127.29773792576769,36.92494334739627],[127.29800885979897,36.92440552386386],[127.29792402835415,36.92430531831023],[127.29837210552785,36.9240592889367],[127.29832762295183,36.9236919164039],[127.29839489319004,36.92344701565621],[127.29824286762846,36.92322631621214],[127.2984398302131,36.922746058872534],[127.29920178996372,36.921920419204724],[127.29963201244911,36.921694385067454],[127.30009802838136,36.92081344959171],[127.3009085809751,36.91979154381701],[127.30057251654922,36.919572179283364],[127.30064118819088,36.918914134164254],[127.30163059595709,36.91829362503569],[127.30234207765774,36.91749482466314],[127.30261262828826,36.91701321293307],[127.30290073795292,36.91688783026999],[127.3033565784211,36.91640655110586],[127.30320177463769,36.91593866537627],[127.3029056323154,36.915788587101844],[127.30285751899619,36.91501067836993],[127.30260584273022,36.914283598017725],[127.30209297667322,36.91391014654755],[127.30175464108534,36.91322358449704],[127.30145479408432,36.91307432571077],[127.30132794689492,36.91284585630825],[127.30195245412246,36.912178686663786],[127.30196593056596,36.91192915938448],[127.30151392581578,36.91172123271394],[127.30086878940395,36.91105222009555],[127.3003586257803,36.910084048548704],[127.29999711904975,36.90987909867068],[127.29989496629949,36.90947458795475],[127.29954578207331,36.90939687080236],[127.2990658266996,36.90896556107068],[127.29970557719824,36.90820394702579],[127.29896563101083,36.90783036012172],[127.29853189790192,36.906952923881],[127.2972857778694,36.90673658235906],[127.29732215763589,36.90618540431324],[127.29718232584108,36.90570608706149],[127.29760438139836,36.90495716516484],[127.29736436442572,36.90396540694202],[127.2966482992333,36.90392655675523],[127.29651878678713,36.90362224686153],[127.29645515040306,36.90269366511112],[127.29619630411479,36.9026661506602],[127.29452823271079,36.90174794804335],[127.29421843762204,36.901421165843885],[127.29423949255992,36.90110425926577],[127.29376790620879,36.90031699302951],[127.29294847293978,36.89975259026968],[127.2923854353268,36.89910064793675],[127.2918955875255,36.89868452596501],[127.29114006514025,36.89836170477907],[127.29055284723157,36.89797520820125],[127.29020612236953,36.897402946671434],[127.29035220000057,36.89701361285294],[127.29011535405483,36.89669819861742],[127.29008148920545,36.896264763331146],[127.28974121568918,36.895914261129015],[127.28963999788394,36.89564941416771],[127.2903258562898,36.89433480532413],[127.28995956075968,36.894263700495294],[127.29013222715626,36.8931672834473],[127.29040979779916,36.89239677471934],[127.2905880846894,36.89219701052632],[127.29150537310743,36.89218484928184],[127.29247608275051,36.891961463558566],[127.29269494973718,36.89169386022972],[127.29302780171976,36.891586328621266],[127.29341842525996,36.89120110327448],[127.29455617411999,36.890980577960576],[127.29458509417053,36.89031514463344],[127.29521593694814,36.89022047158633],[127.29598523006013,36.88975200898551],[127.29721690590554,36.889646411010816],[127.29837745284749,36.88970991034419],[127.29873156419708,36.889846973390135],[127.2992700500568,36.889797835278905],[127.29959692440842,36.88945021678933],[127.30005571065776,36.88918604113352],[127.30058071406134,36.888301860710726],[127.30114074701514,36.88769863994518],[127.30165835373093,36.88729808009842],[127.30233231053028,36.88718439872028],[127.30320969014308,36.886651376470894],[127.30388123994234,36.886108467123975],[127.30401681865841,36.885420663137545],[127.30557807760796,36.885508868128284],[127.30719409032922,36.88535718750786],[127.30772924085656,36.88547956583107],[127.30781529356165,36.88543518918378],[127.3079970366832,36.885063905171904],[127.30804782135309,36.88459309925145],[127.3084344689758,36.88345405337349],[127.30835009699948,36.88217404694166],[127.30901343627652,36.881660549134565],[127.30930267114462,36.881700944665724],[127.3112124571633,36.88034340274878],[127.31069323654548,36.87947949027918],[127.31007174803766,36.87904557432873],[127.30959847008505,36.878594842435184],[127.30950960562534,36.87821069246389],[127.31004409412441,36.87556142415288],[127.31068031568125,36.87481538093675],[127.3103155472368,36.87432186439659],[127.3098573157828,36.873435964404514],[127.31016148604165,36.87302287302427],[127.31017525312367,36.872784462208024],[127.31034568026358,36.87252401014648],[127.31033647280282,36.871877779513795],[127.31079906903798,36.87108152602332],[127.31129328160895,36.8704881225674],[127.31128405005357,36.870134973056906],[127.31071389218341,36.86943838158399],[127.31052905033717,36.868543341437274],[127.31061254821824,36.86788381193688],[127.30996417864154,36.867574509592345],[127.30939309921709,36.867425751807026],[127.30902257542765,36.867065805526124],[127.30857773795404,36.86696213218008],[127.30833672524237,36.866500835361734],[127.30766389045166,36.865994093263616],[127.30776648867275,36.865591049734086],[127.3075574100614,36.86503325449439],[127.30577905268461,36.86335380270381],[127.30716778886485,36.861309552886105],[127.30712763474418,36.86051064936358],[127.3072965961658,36.85970296932873],[127.30875396772895,36.859780184156726],[127.30917222815971,36.85928722428825],[127.30994008681677,36.85915837522603],[127.31033867477333,36.85863106824314],[127.31083631629652,36.858651587044164],[127.31123916989532,36.85848543154512],[127.31200289092878,36.85778318148251],[127.3127296542405,36.85746650158307],[127.31350429132065,36.858001612880976],[127.31483431085879,36.85825002600088],[127.31519734496159,36.858657920708296],[127.31535644430049,36.85898429027004],[127.31660645447204,36.859186153719605],[127.3172997797525,36.85868555896831],[127.31873558948024,36.85908877846147],[127.31929987670458,36.85906482395517],[127.3199178128055,36.85847139459427],[127.3201886238941,36.85846696550736],[127.32092421184986,36.85792494793162],[127.322576386024,36.857618127979],[127.32307459120696,36.85724671039269],[127.32451456071495,36.856899713530254],[127.32633353275472,36.857778405552594],[127.32649659295922,36.85803919544817],[127.32813073943632,36.85816256389747],[127.32957723638292,36.857510587949605],[127.3307969610836,36.85726827179042],[127.33120239213294,36.85733040374831],[127.3321053066261,36.856897903610005],[127.33264629822669,36.8569739549367],[127.33410283164679,36.856284112428476],[127.3347961825,36.856180814762105],[127.3355614120964,36.85538787004297],[127.33654248880539,36.85462353767145],[127.33692423458773,36.85369924813817],[127.33633055921901,36.85284892656347],[127.33628226649695,36.85216493527172],[127.33640175776098,36.85171210487437],[127.33630178124334,36.851312129866095],[127.33640286259116,36.85086512815946],[127.33627044526801,36.85065450073702],[127.33634846148072,36.84959284677586],[127.33623314956519,36.84912367384632],[127.33662067285626,36.84862949393453],[127.33665048171333,36.84802459598629],[127.33602784381068,36.84729657919015],[127.33666769034363,36.846475323723396],[127.33658644135703,36.84610601514305],[127.3368005505795,36.84564082318818],[127.33665735955691,36.845066562508954],[127.33613012008632,36.84453336466906],[127.33567843565956,36.84432382295055],[127.33520182374397,36.84313213052635],[127.33461924790099,36.84214178427788],[127.33470645170472,36.84128467089502],[127.33464016486992,36.84045839042943],[127.33433994975253,36.840096980346196],[127.33409005067655,36.83931886298932],[127.33403735177293,36.83843123265242],[127.33418005165285,36.8380919683256],[127.33464262809866,36.83781072039058],[127.33560687393917,36.83742720164293],[127.33520533399337,36.83683860100083],[127.33534231852146,36.83561662533546],[127.33500159099904,36.834438496304465],[127.33439020211628,36.833429034325945],[127.33409885928369,36.832360284817554],[127.3335543674575,36.831966613844834],[127.33398785557148,36.831211876653946],[127.33453821517274,36.830666570785866],[127.33485906651455,36.830663932027676],[127.33544001542433,36.83041987903167],[127.3366004094186,36.82972778008045],[127.33776784349195,36.830495912976204],[127.3381919640909,36.83101974602684],[127.33928827949379,36.83125039862006],[127.34230825891429,36.83040332869652],[127.3434048346744,36.83030113260971],[127.34391494708198,36.83048821066501],[127.34452876422185,36.83027378220382],[127.34483821938721,36.829806147914134],[127.3451463691432,36.82957595594124],[127.34636870450795,36.82930588961573],[127.34673128010262,36.82937023917044],[127.34763180274501,36.829800426817336],[127.34818001162874,36.830362160231964],[127.35003244834475,36.83061996366982],[127.35053937270295,36.830789281025396],[127.35102514508074,36.83081041708426],[127.35173486870379,36.830660971820635],[127.3525186213167,36.83000411475158],[127.35444484085289,36.82947497379821],[127.35605396366927,36.82865345779397],[127.35654256467505,36.82799640735388],[127.35722505212999,36.82750385517354],[127.35717879188738,36.82711613573261],[127.35762759398894,36.826682130077806],[127.3577194309544,36.82616970823666],[127.35808285528267,36.82544254193204],[127.35740692628738,36.82445600778741],[127.35715023688941,36.823559742325024],[127.35810949371681,36.82246297358952],[127.35918092861641,36.8220044041949],[127.3595270737149,36.82142465860477],[127.3601863249297,36.82110955888635],[127.36075178366792,36.82055280235384],[127.36183490640859,36.82041382235385],[127.36265861956821,36.820151383392925],[127.3635423585753,36.81967332017295],[127.36397197199032,36.819742873985334],[127.36562618159445,36.818386371410476],[127.36661371297068,36.81696959349076],[127.36742054405367,36.816797867831085],[127.3685662899791,36.816388006179565],[127.3695185019615,36.81625572735011],[127.37095436232963,36.81670550156256],[127.37410957485602,36.81598227516044],[127.37533658134974,36.81502803797029],[127.37646797563407,36.81514523067399],[127.37778947873831,36.81498262581986],[127.37853747800236,36.81461799008869],[127.37885139678282,36.81386567425908],[127.38024421050098,36.81396364694717],[127.3805931567534,36.81385708881353],[127.38149018868957,36.81408284357678],[127.382157034937,36.81375267550596],[127.38298438824012,36.812970035004724],[127.38336882624144,36.81230340169018],[127.38373870455025,36.812182892831366],[127.38419351793331,36.81186695271427],[127.3847064770852,36.811368147913115],[127.38466954171827,36.811105544199314],[127.38559634362673,36.810394424940675],[127.38626867689095,36.80963636446866],[127.38740597495628,36.80941072117498],[127.38786598545754,36.80847375160619],[127.38897634940122,36.807920018685],[127.38936424982944,36.80794421147806],[127.39041816704373,36.80749594961366],[127.3907822475888,36.80709375031352],[127.39160807868376,36.806587510839776],[127.39296917224006,36.80421238189814],[127.39350680000521,36.80381731647789],[127.39420554357199,36.803926136600715],[127.39493442733664,36.80309415575534],[127.39510275805621,36.80252089749205],[127.39567976606764,36.801499400035404],[127.39626952764111,36.80093931157197],[127.39719988587221,36.80044993265411],[127.39748775462736,36.799672577744765],[127.39876540607194,36.799030474643715],[127.39951610020188,36.79921909722224],[127.40080749635565,36.799090307802416],[127.40118146758054,36.79875135868527],[127.40079974576129,36.79781973790812],[127.40095962315054,36.797305683349954],[127.40124522371627,36.79696584717751],[127.40171751079211,36.795148487147216],[127.40127830745115,36.794839148698166],[127.40056610146559,36.794498858475954],[127.40049879479372,36.79423507060398],[127.39976453959642,36.79317674750513],[127.39971808087068,36.792616786569695],[127.3994348790264,36.792272613448354],[127.39864841653973,36.791694571526435],[127.39821057578051,36.79149105943938],[127.39777259890779,36.791474415830045],[127.3973095365166,36.7911479573108],[127.39673825214447,36.790278908394086],[127.39659009215713,36.78994877511792],[127.39654667725566,36.7894793287589],[127.39669639705428,36.7891577243985],[127.39649422837351,36.788395523092674],[127.39600289144848,36.78783566814363],[127.39615553313396,36.78704409380664],[127.3967459834259,36.785927099688216],[127.39563558075173,36.7853485266885],[127.39529069460026,36.78490758972916],[127.3949825511706,36.78409477151372],[127.39534961963675,36.78345321204579],[127.39523571792976,36.78320289464462],[127.39549627819932,36.783018882064965],[127.39549693690708,36.782477606052765],[127.39642918737145,36.781910379906364],[127.39746276318547,36.78214478995072],[127.39838773201376,36.78157661902327],[127.39981779456917,36.78085649621389],[127.39976957820433,36.78042948053562],[127.39991424568119,36.780187575866],[127.40048594122653,36.77951407410902],[127.40100117115448,36.77927723186703],[127.40110689893127,36.77905768955925],[127.40155619506004,36.778789633241914],[127.40156579240926,36.778474110069745],[127.40179002864748,36.77804897887295],[127.40124231350802,36.77718627408213],[127.40176641659505,36.7764506109483],[127.40198023117193,36.77591426627919],[127.40189671186536,36.775711761831055],[127.40247543297446,36.77549770061562],[127.40326237688635,36.775073888185986],[127.40316405705494,36.77470161545514],[127.40331742925504,36.77447479519314],[127.4044369836786,36.77466605922572],[127.4047980595708,36.77458920753711],[127.40482052172833,36.774485151804264],[127.40510304930062,36.774253800699114],[127.40594306769223,36.77420666787105],[127.40631160466646,36.77396458395861],[127.40638185168339,36.77382672950119],[127.40696389105096,36.774016114036996],[127.40747630036175,36.773792758036755],[127.40768121409872,36.77378814841043],[127.4082036102215,36.773973297733264],[127.4086492882702,36.77388487955245],[127.4088609019382,36.773618247915536],[127.40941081621244,36.77320203765177],[127.40969189713164,36.77328642587371],[127.41001337394762,36.77324949435315],[127.41016133638556,36.77310053791571],[127.41059363175756,36.77306246965982],[127.41084522024059,36.77283299272567],[127.4118722030838,36.77294026562862],[127.41228375948278,36.772850959338804],[127.41266445599535,36.77331148678715],[127.41294995917445,36.773216622645215],[127.41425055399843,36.77137507376093],[127.41435093997572,36.77101217517967],[127.41403970046308,36.77068995555674],[127.41390854407645,36.77032046405605],[127.4139110738404,36.7698497557285],[127.41440849377295,36.76919126060232],[127.41504092409758,36.76784036969188],[127.41520950372714,36.767638495774655],[127.41601811410493,36.76715013102949],[127.41685614765933,36.766324949383645],[127.41708147667983,36.76547072696735],[127.41684042391678,36.764261027054864],[127.41717607874509,36.76353374270509],[127.41764271710971,36.76306768120583],[127.41887956563738,36.76231588264429],[127.41892994258934,36.76227055997223],[127.41873842243123,36.76221554548813],[127.41897184000797,36.76221472747237],[127.41952917609869,36.76178382378148],[127.42037899124985,36.760929057780835],[127.42039514843381,36.76039899706762],[127.42010916889484,36.7594457345106],[127.42021194186779,36.758852273075],[127.4201509955007,36.75835340035224],[127.41969792863613,36.75766152183421],[127.42003554154826,36.757521843175084],[127.4214383686169,36.75764162240969],[127.4217495273719,36.75785658241358],[127.42231316551351,36.75799548661296],[127.42253975986958,36.75844568986718],[127.4238053254101,36.75855811377441],[127.4244605843248,36.75875920990955],[127.42455102449301,36.75771635556102],[127.42587107373365,36.75775795377494],[127.42693652378317,36.75760364662277],[127.4270748496323,36.75682662354092],[127.42699604726161,36.756476563980804],[127.42645164572697,36.75616388129935],[127.42564698829032,36.756192190710934],[127.42503128945829,36.75592608779665],[127.42513360699485,36.755346978418956],[127.42477801469734,36.75481789010356],[127.42504572331703,36.75410473046412],[127.42536636170533,36.75390632690974],[127.42518101838813,36.75351542876516],[127.42583955955229,36.75291239551772],[127.42586501404247,36.75223533110179],[127.42643615689943,36.75214536262574],[127.42674639517857,36.751929405139975],[127.42677185801709,36.75152952045091],[127.4271064707839,36.75081269093091],[127.42782154460635,36.75108188793844],[127.42843748524261,36.75091402022317],[127.42958134914672,36.75085568268421],[127.4300831812576,36.750925846049455],[127.43043082551557,36.75116624480854],[127.43053559490218,36.751677505902],[127.43117060610928,36.75171491673303],[127.43204775432255,36.75197863874705],[127.43273760087666,36.75146489559284],[127.43569821356776,36.75152918243816],[127.43614911049858,36.752126638968974],[127.43711799918941,36.75228110434279],[127.43738427570997,36.75291417326969],[127.43808450761131,36.75329742452909],[127.43893765035723,36.753073565349325],[127.43912417871904,36.75323697310291],[127.44017858554052,36.75248827035398],[127.44043734040498,36.752592566221445],[127.44112004851479,36.752165437465365],[127.44135444742022,36.7521832591958],[127.44135706490955,36.751894048400054],[127.44177579751496,36.7513071133895],[127.44172425508464,36.75025887701244],[127.44228312098535,36.74975853273034],[127.44242709617215,36.74939558331981],[127.44316116053001,36.74947012087344],[127.44348710166769,36.74894105268551],[127.44371770061015,36.74872554213286],[127.44411109003286,36.74892187449015],[127.44412519960517,36.74912689682903],[127.44550716330279,36.74956570251499],[127.44553315700396,36.7495216319975],[127.44575177562905,36.74968001658671],[127.4460633579695,36.74952013093153],[127.44620492771023,36.74953107408633],[127.44719505970646,36.748861046486525],[127.44795096010417,36.74906336715344],[127.44802862037406,36.74906424848802],[127.44820059506587,36.74883475771865],[127.44850131616704,36.74901354465467],[127.44893618852942,36.74890462220084],[127.44974096943241,36.749333728122835],[127.45038233257456,36.74933102148429],[127.45094459193429,36.7494159108713],[127.45085897199792,36.75000005862967],[127.45005591512482,36.751775114911794],[127.44984270039959,36.75236886293836],[127.44975278031433,36.75302179255373],[127.44958629318111,36.75314413957044],[127.44944746036805,36.75372840762196],[127.44919869046333,36.75379214451184],[127.44861412675542,36.75465227436673],[127.44866282026524,36.755008081653486],[127.44935525741043,36.75566522921505],[127.44947821753155,36.75602714727583],[127.44957866189365,36.75586249940398],[127.44992696396895,36.75619774822489],[127.44999122664157,36.7564696868373],[127.44985037598103,36.756996234232616],[127.44999966586595,36.75755587981641],[127.45012195346852,36.757695712783985],[127.44997517570192,36.758196630469925],[127.44991757214608,36.75910176475054],[127.45048327640454,36.75952549313321],[127.450899711817,36.759983432442574],[127.45094615871679,36.76100359261803],[127.45217067334967,36.76192819742899],[127.45304669892002,36.762383044143576],[127.45446763857088,36.76297893130667],[127.45553042179719,36.76391460406903],[127.45692111543492,36.7646564233234],[127.4576442473791,36.7652636458145],[127.45764048192822,36.76571309464136],[127.458439144908,36.765785172758896],[127.45889280984728,36.76635206284045],[127.45893630267665,36.76694824354909],[127.45952927035998,36.767977654551395],[127.46039069758557,36.76991494853097],[127.46087990132668,36.76975991015231],[127.46174355549356,36.770259908137184],[127.46271887966803,36.77007700229829],[127.46279778691262,36.769925320889236],[127.46342478637428,36.769859584806106],[127.46374372850661,36.769952017204865],[127.46407224558074,36.76968585904831],[127.46459569197238,36.76985646651303],[127.46544862842107,36.76983780787143],[127.4658461905539,36.76995020985164],[127.46619085938416,36.76965363641563],[127.4667172152979,36.76949871619231],[127.46706743151556,36.76981125419006],[127.46736420689996,36.769930388749536],[127.4682850296208,36.769310694985265],[127.46924049149618,36.76928320195759],[127.4704125419549,36.76882007096972],[127.47204779552183,36.76968631260666],[127.47264493394024,36.76962800948629],[127.47372962753755,36.77015501544385],[127.47376936714461,36.770375791637825],[127.47466227393043,36.77117941462386],[127.47521930428192,36.771378178879544],[127.47569500131561,36.77193071515083],[127.47748493655179,36.773049493592744],[127.47855570702257,36.77323636395909],[127.47938703208986,36.77351628081173],[127.4799797179915,36.77397922844992],[127.48115627304594,36.77440579234202],[127.48060372471885,36.7754839946541],[127.48179580403115,36.775997286653414],[127.48295399467881,36.7759791871048],[127.4835324281519,36.77621338486327],[127.48779652218145,36.77542813071824],[127.48918498614586,36.774500107733104],[127.49044578715346,36.77380269038326],[127.49131276002034,36.77412671805785],[127.49113655868949,36.77490089373198],[127.49208135264418,36.776425557349285],[127.49258995028576,36.77633627628394],[127.4933172725585,36.77657758795419],[127.49345585441472,36.77678168282381],[127.49422012273865,36.77683332475172],[127.49463216092663,36.777507927303354],[127.49463763290252,36.77787959110105],[127.49502826550295,36.7779850682259],[127.49578552492402,36.77881309747626],[127.49639895242325,36.779135196279306],[127.49593922057579,36.77912241115777],[127.49710709904639,36.780007459022386],[127.49727042438218,36.779942763918385],[127.50056495933369,36.77986568700565],[127.50214178628688,36.77973664795297],[127.50331580040222,36.77955366276482],[127.50499757524119,36.77948258748573],[127.50586705445603,36.778993933071106],[127.508651070632,36.77690903783598],[127.50887658890164,36.776228581915014],[127.5090042994387,36.77480990517295],[127.50914167984116,36.77429279111614],[127.50976745034741,36.77322746827716],[127.50986741266577,36.77273761158275],[127.5100709364127,36.77281421651199],[127.51026650200195,36.77300662107091],[127.51030245361036,36.77232965160188],[127.51011839773034,36.77235818293715],[127.50984195721401,36.77099751389853],[127.50935300621731,36.769534638603766],[127.50873914061455,36.768848356669935],[127.50760393417227,36.76785713045021],[127.50760705418557,36.76748826065554],[127.5077352208117,36.76719726239234],[127.5086139901518,36.76685359811438],[127.50901080142948,36.76681649271882],[127.50983208396663,36.767029813033346],[127.51041040222191,36.76738176950428],[127.51183113513835,36.76760557113614],[127.51242608561563,36.76762096002153],[127.5143508672691,36.76827395997624],[127.51518469614999,36.768645977653385],[127.51550685990782,36.76865026319499],[127.51601807719761,36.768507013691085],[127.51741844777307,36.768872508731164],[127.5186456094515,36.76934534090548],[127.51948338986064,36.76937910403658],[127.5206002254488,36.76958637303534],[127.52560289548438,36.76982947140545],[127.52707422965904,36.77023986623049],[127.52968294727513,36.77035519746975],[127.5303327401385,36.770429812968004],[127.53203566564332,36.77080487719678],[127.53283616685566,36.771042997054664],[127.53391262252546,36.77156221849051],[127.53450022295033,36.771991520701484],[127.53551783868829,36.77256209273234],[127.53981680451643,36.773367016662924],[127.54195303040599,36.77397616980263],[127.5426968054509,36.773983243219284],[127.54406033909201,36.7743712989632],[127.54526364912323,36.774571903686265],[127.54757030924715,36.77520414715318],[127.54978239486297,36.775488298118994],[127.55073354487217,36.77597748664696],[127.55155849130418,36.77598872498031],[127.55219600895147,36.776338943004745],[127.55528542342135,36.77767807762573],[127.55708598415457,36.778126305030646],[127.55857022286533,36.778295187347595],[127.55947992086585,36.778546942081135],[127.56109805217193,36.778615313963],[127.56303997028887,36.77939676788332],[127.56439297603814,36.78015024172403],[127.56479797110048,36.780253491453244],[127.56465586710497,36.781465616056614],[127.56468398405028,36.78266419418266],[127.56457092523885,36.78283667548163],[127.5642390745404,36.783060466225436],[127.56367196367906,36.78322989519229],[127.56296134744342,36.783609621635264],[127.56251209569656,36.78409466498036],[127.56151161489068,36.7845865484367],[127.5610097178502,36.78469552846687],[127.5608078797684,36.78482219717949],[127.56094300378618,36.78548739892051],[127.56121030524469,36.78601274251041],[127.56117121760653,36.786481057418044],[127.56136093125667,36.78724374298207],[127.56129092811007,36.787692412603135],[127.56122750509604,36.787813810858715],[127.56061673295994,36.78822153450846],[127.56035723619007,36.78864333319963],[127.5602720023341,36.78939153208734],[127.55984056113323,36.790086743723364],[127.55924769834532,36.79088063572287],[127.55870043126818,36.79126696536071],[127.55868935058079,36.79152846335809],[127.55881985366115,36.79182575206927],[127.55735407871461,36.794625608647394],[127.55724784909674,36.795661137934616],[127.55659367159836,36.796689109545476],[127.55616390808515,36.797698725803855],[127.55556567930867,36.79828324279426],[127.55499796141684,36.7993425450558],[127.55425107553428,36.79973996905562],[127.55341755517979,36.79927807980667],[127.5527126812335,36.799278239237054],[127.5522851635851,36.799169430792396],[127.55203738387593,36.79881295262425],[127.5518680758308,36.79871715667724],[127.55092401289009,36.798901495864406],[127.55032743338816,36.798518284608704],[127.54981757301474,36.79803722596242],[127.54955298295738,36.79801801791157],[127.5492653664277,36.79820492452058],[127.54899409010201,36.798181363879046],[127.54815157920414,36.79835378121899],[127.54721447242721,36.799238670071325],[127.54684397730084,36.79973071814066],[127.54619702493358,36.79992671530167],[127.54564683051544,36.80033274216032],[127.54498341758881,36.801075231899404],[127.54432724872392,36.80148236897248],[127.54380912331658,36.80148755330668],[127.54353102759116,36.801744200228796],[127.54308321135468,36.80187346865237],[127.54311927693192,36.80235497197537],[127.54258683519826,36.80293982669987],[127.54187295166861,36.80332908374126],[127.54142203340002,36.80396115061527],[127.54067498264791,36.804488993538534],[127.54053622413538,36.80497974490682],[127.54021533723146,36.80547263839597],[127.5397193179412,36.80592795312379],[127.53844729589379,36.80761592909758],[127.53737830568781,36.80859742670812],[127.53808753769378,36.80893014774866],[127.54013002427342,36.81011486473037],[127.54100458551486,36.81044066479993],[127.5415078966266,36.81079724041421],[127.54163457686825,36.81118186310146],[127.54193373020946,36.811612769590724],[127.54204250361808,36.81203216605511],[127.54255638060772,36.812187321235236],[127.5432526471344,36.812747316499795],[127.54420843482582,36.812944677536166],[127.5448186218205,36.81350527246539],[127.54779960256151,36.812735924669376],[127.5491663074508,36.81268688094364],[127.54999532035418,36.81284996125222],[127.55147257963924,36.81423278467298],[127.55313138564743,36.81500067278356],[127.55373042307765,36.814988673693456],[127.55416000133565,36.8153419077314],[127.55504604433366,36.81678035291483],[127.55568160139221,36.81748571563911],[127.55698964291143,36.81742506703799],[127.55819281536485,36.81810017979782],[127.55952865321613,36.81866405725074],[127.56041051994234,36.81971384889677],[127.56119511497307,36.81847819896534],[127.56299124965169,36.8180584451254],[127.56417198401141,36.81819679531935],[127.56439878988351,36.818481088436606],[127.56594392658081,36.818799021388536],[127.56640816460778,36.81923887708179],[127.56717410713108,36.81928957826629],[127.56760945057609,36.819606095574144],[127.56803696210417,36.8201276569437],[127.56924267403494,36.820529678326224],[127.5700712653114,36.82017939370371],[127.57068630628214,36.81968116033832],[127.57203962475295,36.82003679309189],[127.57271215649529,36.821141131708416],[127.57366199567412,36.82146069514431],[127.57525019575655,36.82326264925918],[127.5756818887283,36.82418120895508],[127.5762492365932,36.82498572708629],[127.57664505136623,36.82507346143001],[127.57687308926296,36.82648930605221],[127.5792766904235,36.82826536335949],[127.57854064803888,36.8295866369685],[127.57840128284008,36.829703256387766],[127.57723945444582,36.82906479796621],[127.57596724483524,36.82905433480885],[127.57412961827313,36.828629785051405],[127.57207580394648,36.82790707989056],[127.57146819949921,36.828002807639685],[127.57094592033253,36.82860258641064],[127.56995691637694,36.829390590975365],[127.56920508553468,36.830155954163196],[127.56995478523798,36.83150857461431],[127.57019029297864,36.83374142854634],[127.56983230718596,36.835194885029914],[127.56929066815823,36.83674492773456],[127.56886517214232,36.83731593193747],[127.56868386189478,36.8385102450004],[127.56953885898659,36.83936842983685],[127.57016788401087,36.83967164015125],[127.57128670349861,36.8399254172754],[127.57218263027231,36.84043922857375],[127.57262917569935,36.840761034556394],[127.5728327519238,36.841214239720124],[127.57268402739054,36.84129728552687],[127.57226577671166,36.84214945190806],[127.5718406340764,36.843471009125174],[127.57159424661815,36.84388671040182],[127.57172853290223,36.844372464001296],[127.57233872832543,36.845239910716934],[127.57220377472082,36.84607571327158],[127.57308836214384,36.84664486145876],[127.5734268817187,36.84723991432442],[127.57275369925492,36.84835801073417],[127.57189883470103,36.84942309879526],[127.5718249621394,36.849693734595455],[127.57154380901274,36.850061382984634],[127.57233654490001,36.85012559241957],[127.57325944339792,36.85076023411425],[127.57381236026444,36.8508671286127],[127.5745762300561,36.85067834834446],[127.57529848102337,36.850896936536614],[127.57637109176122,36.85067517870228],[127.57711654795852,36.85174790100066],[127.5777228547356,36.8515524542806],[127.5777075472125,36.85171817524706],[127.57824560267963,36.851818063444924],[127.57859103363771,36.852278689847225],[127.57856497569765,36.853076556011295],[127.5781420644471,36.85403019892554],[127.5778855805121,36.854363141223295],[127.57776729111515,36.85483744146895],[127.57730677010989,36.85505219492502],[127.57610076015801,36.857220308655876],[127.5756082485839,36.85776292411597],[127.5755253087165,36.85836503603218],[127.57598672364864,36.85869047526247],[127.57639252141267,36.8599934907233],[127.57657711078936,36.86023304238608],[127.5766570764637,36.860662500565894],[127.5768445705142,36.860786635486654],[127.57782550861988,36.862473759248054],[127.57778288404005,36.86275725960245],[127.57789492550869,36.86321596268286],[127.57663552728201,36.86462100177993],[127.577647187937,36.865514016220914],[127.57791030436087,36.866535450563376],[127.57877457313549,36.866525100024745],[127.57955619400796,36.8664032803596],[127.58131877591156,36.866591706666235],[127.5819753939422,36.867140089706915],[127.5825738508274,36.867482658639425],[127.58272959397485,36.86770355477294],[127.58274866703367,36.86820065135288],[127.58321418336568,36.8684220951919],[127.58345729510951,36.86889605444199],[127.58512933453581,36.87016181652035],[127.58516750846233,36.87109304127353],[127.58483440536949,36.871525600977876],[127.5846979197282,36.8735402966158],[127.58505787656479,36.87458580380947],[127.58422170020242,36.8751568749454],[127.58388211666674,36.875847001900766],[127.58346428487934,36.876253328784465],[127.58297515726586,36.87627936654696],[127.58156509374156,36.87722142515557],[127.58141496446608,36.87713089697021],[127.57977850858948,36.878041431624084],[127.57901893263187,36.87868746106163],[127.57830186371066,36.87946118560288],[127.57777352714778,36.879790690222],[127.57707724642933,36.87940517608328],[127.57592302949455,36.87999384836093],[127.57509996209116,36.879152139855634],[127.57495242257612,36.87882103796808],[127.57419222690066,36.878493628293214],[127.57346523661153,36.87770245806269],[127.57227907770724,36.87739801726189],[127.57189747510293,36.878586203497896],[127.57148916450105,36.878403665923884],[127.57150564347451,36.87848991864185],[127.57188258941565,36.878670336865454],[127.57195863073261,36.87885206148771],[127.57208110606625,36.88010384270463],[127.57187204189447,36.88092913603225],[127.57149297312475,36.88151205274659],[127.57100208314174,36.88257927810222],[127.56960213437837,36.884139135398065],[127.5691815308663,36.885149671041745],[127.56856299460576,36.88570944688981],[127.5676785229289,36.88595030662335],[127.56700689696359,36.88605069341552],[127.56711760552258,36.885885223818754],[127.56718177318066,36.88523335610345],[127.56676685155017,36.884778213673464],[127.56638986329455,36.88321649500448],[127.56665141258223,36.88287529179998],[127.56666303637105,36.88268711799251],[127.5647563909759,36.882550113540084],[127.56437977098368,36.88233032028967],[127.56318384674965,36.88250465199714],[127.56267307624812,36.882221926901096],[127.56144671286535,36.882797852509405],[127.56091827470232,36.88395870818433],[127.56058275170379,36.88494126963073],[127.560777355395,36.88569066597448],[127.56034149665533,36.886241429659464],[127.56012500321289,36.88631303780264],[127.55976610696838,36.88659148155491],[127.5582716562334,36.886343539776604],[127.55751495696472,36.88572692383167],[127.55681834359498,36.88600925553238],[127.5565245486122,36.88632748307461],[127.55565214355546,36.88616389940492],[127.55511904887875,36.88770801540977],[127.55518428831114,36.88849191447752],[127.55483125514802,36.888753728410116],[127.55510002628122,36.8897093605217],[127.55563098616841,36.89050860320965],[127.555204446033,36.89139049618291],[127.5529697017131,36.89230597174089],[127.55266049087672,36.89252947635183],[127.55258452904815,36.893094184020285],[127.55223814198149,36.893649927677956],[127.55188062819978,36.89395801370084],[127.5537029094025,36.89605212231885],[127.5546764718276,36.89651694636447],[127.55493135795487,36.89696274069432],[127.55471567705378,36.89733216054795],[127.55472684795492,36.897474858082106],[127.55529612878782,36.89797429635629],[127.55514044013309,36.898532005428144],[127.5553475137765,36.898691386136086],[127.55549338913227,36.89902028364777],[127.55527373596601,36.89916826303989],[127.55436225410332,36.899151719919594],[127.5537275772519,36.89866258168146],[127.55142557191544,36.898838191134836],[127.5507129497307,36.89900736399421],[127.54992173193988,36.89930972542478],[127.54964581941564,36.89962600044123],[127.54920108463025,36.89985486913585],[127.54913427059456,36.90029889554097],[127.54845582128922,36.90050336522529],[127.54801018327746,36.90034701515271],[127.54740666346892,36.899914766740636],[127.54754114437235,36.90011828929145],[127.54728128421739,36.90054502603566],[127.54700207435963,36.900788141045965],[127.54673815945887,36.90090251036111],[127.54596412456337,36.90092008966092],[127.54624605787988,36.90108807332272],[127.54592889860068,36.901580660996636],[127.54590304545991,36.90186788988103],[127.54614887289999,36.902174274080146],[127.54645598932154,36.90225539557353],[127.54662177436329,36.90257573576124],[127.5461529014587,36.902800570189655],[127.54635020399276,36.903053436094496],[127.54618258715044,36.90304222773553],[127.54588001785355,36.90321147103051],[127.54608689215121,36.90347962688637],[127.54595762277535,36.90343838118684],[127.54378126724228,36.90453922643797],[127.5439592299759,36.90518880319712],[127.54404005992755,36.90522496497187],[127.54260215536813,36.90547696520108],[127.54202430669426,36.90564725975735],[127.54144707565341,36.90586427020628],[127.54092669235241,36.90616522360393],[127.5404649904081,36.90655097103577],[127.53941005285053,36.90785287095281],[127.5392387864687,36.9080330603687],[127.53904589545087,36.90809620426676],[127.53896872349858,36.90824380170274],[127.53562594295565,36.909955554606405],[127.5357019798438,36.91007679572545],[127.53513922930084,36.91035983877825],[127.53567771848694,36.911050166934004],[127.53381780668516,36.91198559872552],[127.53351613214568,36.912038924225584],[127.53332792095729,36.91195731785111],[127.53311797063398,36.9117165705286],[127.53283261072798,36.911818002274906],[127.53288133279915,36.91207168565579],[127.5327160630594,36.9121566592844],[127.53194353892411,36.91213637760605],[127.53138530207576,36.911708523936504],[127.52995190546844,36.91125169870752],[127.52938847509638,36.91117490011057],[127.52916802035605,36.9112754488048],[127.52850115704588,36.91128911267172],[127.52809935767331,36.91103757402413],[127.52769656918181,36.91111065232726],[127.52724493053844,36.9108972323655],[127.52637373579195,36.911469815951484],[127.52660115400671,36.91192288230028],[127.52646116349952,36.912210268993995],[127.52614401867017,36.912476416652375],[127.52558562363683,36.912621486979305],[127.52463362353907,36.913254941338515],[127.52454854654879,36.91345788573967],[127.52406772542315,36.914000613805925],[127.52379823224857,36.91420219760538],[127.52375883561861,36.91414819926105],[127.52378230104102,36.91448107882594],[127.52360329262154,36.91473299754434],[127.52335571185566,36.914860505131294],[127.52347781921294,36.91511448789465],[127.52300201624278,36.91607554186867],[127.52296950455423,36.91669180489626],[127.52251299566365,36.9179049737943],[127.52287785725598,36.91834917196682],[127.52241422316351,36.91903941274593],[127.52167587494985,36.91955080108671],[127.52168587497798,36.91964198325728],[127.52126004429314,36.9195054879642],[127.52061153602067,36.919810651083104],[127.52046105932722,36.920169037964875],[127.52042996008971,36.920515068653124],[127.52026772213429,36.92054445142623],[127.52024501678262,36.92068319824313],[127.51981518704811,36.9210542735388],[127.5198704647093,36.92167170143408],[127.51965768355832,36.92183647410691],[127.51963718517626,36.92258382499178],[127.51943443505056,36.92286776428763],[127.51768327557004,36.92261838179293],[127.51743156158052,36.92284543774793],[127.51730850582646,36.923517508215085],[127.51676698876432,36.92391363093589],[127.51663101890207,36.924228578595155],[127.51625395031702,36.92457018106932],[127.51566292339261,36.92494605518098],[127.51534166428621,36.92479796651393],[127.51410564660135,36.92546807518909],[127.51361954018341,36.925504891421916],[127.51341975673152,36.92570524975559],[127.51343314029775,36.925793228376456],[127.51335710278641,36.92585194506081],[127.51324155394856,36.925809371495696],[127.51318074654405,36.92601444828139],[127.51371751573953,36.92639338048776],[127.51372183538862,36.927139902986035],[127.51381649706649,36.92756633565636],[127.51324077395856,36.92779174308528],[127.51282174714801,36.928221919597796],[127.51269223538921,36.92812236792365],[127.51232590309961,36.9284249200023],[127.51205975295643,36.92878337077528],[127.51156411156784,36.93002354092159],[127.51149304127615,36.93068583133331],[127.51132674406469,36.93093687506355],[127.51035976647083,36.93053724622948],[127.50970064966704,36.930047585426856],[127.50971971854385,36.929996880707634],[127.50919651726568,36.92969460906964],[127.50883784371484,36.92923545741466],[127.50875218287432,36.929272578410554],[127.5088085719435,36.929401487533816],[127.50874819670663,36.92986198879128],[127.50835890450684,36.92997738486089],[127.50798645755916,36.93027574295196],[127.50774589178499,36.93026188190665],[127.50761013925717,36.93040328006911],[127.50767560758688,36.93116698907007],[127.50686279073186,36.93189516615682],[127.5067304695934,36.93195817449885],[127.50647582211353,36.93194431889418],[127.5062667696622,36.93205001829813],[127.50588885430089,36.932411936875226],[127.50499038965638,36.93300577426866],[127.50471337472699,36.93305931928192],[127.50451336758132,36.93297599671938],[127.50447577305391,36.93287096442293],[127.50346509961341,36.93283626701832],[127.5032383622894,36.93269670321937],[127.50327024464696,36.93260867724143],[127.50259429143613,36.9323119679698],[127.50003411478822,36.93201478894652],[127.49962763169017,36.932111936188484],[127.49991418150339,36.932867899041774],[127.4999077041918,36.933165777025],[127.49922005808273,36.93355741080667],[127.49890080991197,36.93398236226574],[127.49874035216958,36.93455036078572],[127.49851142565515,36.934911829936034],[127.4977493442848,36.935277023534624],[127.49760034064312,36.93548717450818],[127.49659434442357,36.93577780534029],[127.49588493756217,36.9366715551844],[127.49513510370944,36.93676996366015],[127.49427742915888,36.93728838866053],[127.4943336031591,36.93752449979252],[127.49402915448123,36.93789770782837],[127.49332387435125,36.93821319664838],[127.49319687213651,36.938452525042926],[127.49278149168532,36.938772413330554],[127.49223031419409,36.93858435723698],[127.49195823570395,36.93859830622903],[127.4913198529961,36.938838263950004],[127.49050176531713,36.93900879217144],[127.48967403896133,36.93896038542031],[127.48945527302682,36.93844534666858],[127.48935917156598,36.938527559564946],[127.48785193296776,36.938587435465465],[127.48730699689422,36.9387388116485],[127.48614832778864,36.93869349236746],[127.48521095517125,36.93803346214264],[127.48490378126179,36.93760588083621],[127.48403094838916,36.93724244888546],[127.48340360989312,36.93724004074151],[127.48322037809189,36.9370984040166],[127.48305960232,36.93681282085568],[127.48269051730422,36.93649939026321],[127.4827502592393,36.9360998012174],[127.48269231071761,36.9350938291946],[127.48244607802665,36.93472291731948],[127.48175011477254,36.934363534755605],[127.48119314787975,36.93363631965187],[127.48095134679886,36.93389771512197],[127.48057753114546,36.93398698857754],[127.48060887486983,36.93404681051416],[127.48030972099461,36.93419993078128],[127.4783624392534,36.935886532996804],[127.47808053440838,36.936044514980054],[127.47757664629354,36.936033244709954],[127.47650606710253,36.93639408578877],[127.47616314553608,36.93640884816151],[127.47483607671617,36.93621845625267],[127.47303335685912,36.935810591408675],[127.4727839867493,36.935810896914],[127.47208851250315,36.93600006762796],[127.47108284071302,36.93609707395434],[127.4706438710962,36.93601663962579],[127.47056745431172,36.936202310948694],[127.47010988786913,36.93647988375519],[127.46956387685958,36.937002208972544],[127.46945454148863,36.936907991735225],[127.4683938444295,36.93795700848369],[127.46813109590255,36.93832681859648],[127.46780797316927,36.93855093887089],[127.46745695051835,36.93842765254279],[127.46722265768688,36.938649291292],[127.46715231442131,36.9389028882379],[127.46663786440489,36.93908680155696],[127.46650691888254,36.939243471348824],[127.46640042845112,36.940303283911014],[127.46599585242575,36.940745765465884],[127.46534096076209,36.941932788257155],[127.46513182717662,36.94208129170112],[127.4651425786575,36.94229948944462],[127.4648907255027,36.94271623028998],[127.46486595084065,36.94319085887103],[127.46436667095192,36.944217995230304],[127.46436699532586,36.94482855374897],[127.46392219685607,36.945095240033396],[127.46375021020076,36.94539612995413],[127.46387204602479,36.9464136548331],[127.4640428896983,36.946808929865746],[127.46348792314829,36.94842142915477],[127.46291808048149,36.94818945533967],[127.46243567472516,36.94770622524046],[127.46207580629883,36.94761998264473],[127.46162162353637,36.94776555447299],[127.46092957022479,36.94786850527435],[127.46073003989954,36.94802030688716],[127.45951181508427,36.94810518948521],[127.45889976662019,36.94771749961839],[127.45823696255997,36.94751702009006],[127.45810163437451,36.94720613772392],[127.4576185078251,36.94708864606168],[127.45615995084958,36.94740110937955],[127.45585247984934,36.9475567301368],[127.4533756498306,36.94776816540947],[127.45244169482994,36.94814139054603],[127.45223082532094,36.94806720305449],[127.45199992485539,36.948181433745724],[127.45181470668791,36.94817006175948],[127.45121527976575,36.94806498732677],[127.45054528945994,36.94825312604818],[127.45007464296152,36.948157427630115],[127.44968021444251,36.94791006532761],[127.44900419641495,36.94808931531765],[127.44810549623796,36.948836771331415],[127.44799155462407,36.94974652852345],[127.44727804270255,36.94989723932041],[127.44724345058594,36.95033842626588],[127.44702753706389,36.9505821328243],[127.44678790470408,36.95141107333062],[127.44683001381938,36.95165529506216],[127.44658615069267,36.95351013552123],[127.4462365161995,36.95496806923867],[127.4462774595964,36.95580714989493],[127.44618046381926,36.95618220634911],[127.44571655326367,36.95700223668434],[127.4457180270196,36.957435829097946],[127.44589267361341,36.95810542059941],[127.44564058445616,36.95826668471179],[127.44538408864797,36.958792941219684],[127.44587093105292,36.9600388639439],[127.4467916476252,36.96044891829191],[127.44640561471513,36.9613509074522],[127.44693070650813,36.96176455127464],[127.44698725646334,36.961497008529186],[127.44698774299938,36.96163454638299],[127.44719234858661,36.961632185610334],[127.4471310642102,36.96144342202137],[127.44766527130153,36.96154451635566],[127.44791096131435,36.961753327790284],[127.4481305096792,36.96171801859664],[127.44811690137728,36.96156603380767],[127.44823917497544,36.96154780398677],[127.44811282096562,36.9618978210349],[127.44828295965097,36.96236913834979],[127.448385223032,36.963263194427334],[127.44934380294504,36.962952966278564],[127.44963999087751,36.96305495774856],[127.4503168382743,36.96303852461331],[127.45060866693244,36.96320318234378],[127.45092132005938,36.963156838705856],[127.45112015815134,36.96288330585907],[127.45114767273007,36.962624332815764],[127.45135458505221,36.962429149574206],[127.4513453456048,36.96190470460311],[127.45161751862007,36.96160709434808],[127.45213754019188,36.961841627670836],[127.4529957533333,36.96159714062539],[127.45309312314853,36.96100858535891],[127.45331179724384,36.960565299325346],[127.45421795953041,36.960779529912315],[127.45493139002485,36.960668336874285],[127.45539902058908,36.96122776508809],[127.45521650324342,36.96180547456499],[127.45548521301222,36.96292285086374],[127.45589002872788,36.96313326299876],[127.45643663261983,36.963296147398644],[127.45726721671403,36.963826423377114],[127.45710215014513,36.965002353674244],[127.45713443907769,36.965446009459846],[127.45707512949603,36.96564051693885],[127.45689018157762,36.96583459842263],[127.45651119583574,36.96595200725101],[127.4560360095863,36.96599208732665],[127.45582219826375,36.96619353028906],[127.45570804596592,36.966506088302175],[127.4558221514702,36.96667500987955],[127.45588980808914,36.966642950696254],[127.45616965207047,36.96687630398568],[127.45622862652323,36.96721006159164],[127.45613380873183,36.96736936292182],[127.45591451859518,36.96742995275222],[127.45565498769433,36.967718270737834],[127.45544368167175,36.967797796685915],[127.455143440367,36.96805731682696],[127.45505467292715,36.96816587526106],[127.45504867448192,36.96863857413907],[127.45487158537398,36.96888907335362],[127.45489854356269,36.969166888115815],[127.45421911007935,36.96954068555825],[127.45399695387894,36.96982199915351],[127.45398237520045,36.9704838939052],[127.45437687127838,36.97113754137781],[127.45387671480479,36.972034527907326],[127.45370529176037,36.97283095279639],[127.45399314600189,36.97394622126297],[127.45342716682195,36.97474244687618],[127.45287435504034,36.975203230387486],[127.4524527644432,36.97533785922522],[127.45233595292846,36.97530157423299],[127.45202361104121,36.97515018027312],[127.45165215427325,36.97472600529013],[127.45155382683888,36.97472749586588],[127.4507325795435,36.97507153400208],[127.45045708898124,36.97529459051467],[127.45014122996653,36.97566635910739],[127.45002668695807,36.975959062933114],[127.44939818492169,36.97665560404287],[127.44925169708624,36.97727990491802],[127.44935338193835,36.97854110227684],[127.4493032029261,36.97889992672733],[127.44871354770585,36.980140526500435],[127.44882862210898,36.980393368622956],[127.44915720577566,36.98039690463858],[127.44935025929855,36.98057059841544],[127.44986990648096,36.98082187163246],[127.450168319386,36.98109968042222],[127.45032856938003,36.98136338620011],[127.45032223613096,36.98190685613396],[127.44986138547017,36.98236915988125],[127.44966612873195,36.98271694328785],[127.44969880273754,36.98322451059981],[127.44958157280557,36.98360510520735],[127.44923038156732,36.98413146632194],[127.44902013207646,36.9849677947975],[127.44871187897344,36.98557626007633],[127.4487322373903,36.98572103914353],[127.44851650296047,36.98604774123753],[127.44855566274495,36.98631941046026],[127.44821375595657,36.987509237536486],[127.44822725156664,36.98818604090905],[127.44814186733781,36.98839675418961],[127.44828080753129,36.989355600257596],[127.4481578381615,36.98954531330272],[127.44818414212261,36.9897616155648],[127.44805671226554,36.98992239558815],[127.44865827989449,36.989879077857495],[127.44856662742127,36.99041579422107],[127.44859735849651,36.99103912921212],[127.44882132472286,36.99137165336633],[127.44868735860997,36.99265515456322],[127.44871068202066,36.99393332554793],[127.44893350531028,36.99385067628397],[127.44977730081378,36.99379497729024],[127.45023936739894,36.9938948102714],[127.44970434320588,36.994266150900096],[127.45048559533943,36.995261709224174],[127.44832316330637,36.99724574976646],[127.44795546795544,36.9977053540285],[127.4479280149742,36.99819210508199],[127.44772307713781,36.99851382839436],[127.44779009327448,37.0001699826067],[127.44755439782911,37.00063159770867],[127.44766674362813,37.000926680492526],[127.44783992303464,37.000965554814854],[127.44793990698354,37.001376566433116],[127.44855355195828,37.00169787376984],[127.44883505150388,37.00176214210147],[127.44872604641934,37.002124015245336],[127.44880325768095,37.00226206844102],[127.44857157584083,37.00253790885129],[127.44827608653917,37.00264749501866],[127.44824349812698,37.0027384994587],[127.44945834472341,37.00324095512161],[127.44962656917302,37.003491104775115],[127.45006788219037,37.00382614101033],[127.44908517943968,37.00435964778879],[127.44894145937297,37.00474481736868],[127.44892236226029,37.005216578884266],[127.44854016985812,37.00537761868372],[127.44870264090501,37.00589588295581],[127.4486752707659,37.00611489447674],[127.44846780937911,37.00627511701812],[127.44838150381065,37.00723096844861],[127.44826992524999,37.00754417989277],[127.44858632286996,37.0087118014772],[127.44902446561701,37.00984335358639],[127.44818592330435,37.01038297186363],[127.44736533924826,37.01074846974261],[127.44710628072336,37.01082578837503],[127.44664325616176,37.01070145266373],[127.44651589278345,37.01079298176693],[127.44625630951819,37.01081590534382],[127.44593864410925,37.01104790922546],[127.44577031629856,37.011332399378354],[127.4453378919518,37.01151623021342],[127.44458830506915,37.01199996548328],[127.44195906327148,37.01176135038109],[127.44140603999034,37.01189699792732]]]}}
