{"type":"Feature","bbox":[127.62046212412916,36.601760132486774,128.0731949211067,36.947546560215365],"properties":{"regionCode":"43760","version":"vworld-20260909-3f8952dfda77-p2","name":"충청북도 괴산군","attribution":"국토교통부/K-Geo플랫폼 · VWorld 법정구역정보, CC BY 2.0 KR; 공공주택 복덕방 가공"},"geometry":{"type":"Polygon","coordinates":[[[127.80071682520247,36.947546560215365],[127.80009251111903,36.947353687280106],[127.7999053346232,36.94754516962097],[127.79908103904168,36.947285994438275],[127.79854651846486,36.94665759705818],[127.79635395339412,36.946696602600646],[127.79493558331127,36.94590967015135],[127.79505003396001,36.94556022986117],[127.79480908582009,36.94525775781829],[127.79487926439238,36.944073774966604],[127.79455233448232,36.943698197381075],[127.79384562322852,36.9434000415955],[127.79378026344749,36.94304614324528],[127.79290812262666,36.942926486473326],[127.79297700657108,36.94193043600109],[127.79339448326958,36.94071309706522],[127.79268551179717,36.93948318061691],[127.79162668375204,36.93865592567819],[127.79026872813327,36.93826159236207],[127.78939566646696,36.93786888451309],[127.7889070834711,36.93754434430752],[127.78797179595603,36.937217491114225],[127.78809064889839,36.93609930644911],[127.7880195023944,36.93562825165795],[127.78840667682384,36.93420787867842],[127.78841483385409,36.93380259588161],[127.78784963692688,36.933185849969675],[127.78732707707256,36.93284021922946],[127.78720546191985,36.93234045737791],[127.78682662737941,36.931974338360526],[127.78689250003744,36.93179255509274],[127.787494128365,36.931676212403175],[127.78773280716447,36.931552420643996],[127.78842889675343,36.93063511854117],[127.78812875622862,36.92909131440182],[127.78787125944082,36.92901250831482],[127.78769191813353,36.92880046910716],[127.78904529070927,36.928594613142494],[127.7887868266415,36.92747747537719],[127.78842592094011,36.926781346852415],[127.78860626819203,36.92627263650959],[127.78890786352815,36.926095137832405],[127.78787613461292,36.92604712358359],[127.78749427275972,36.92589831738941],[127.78738248170373,36.92574213926422],[127.78635099294709,36.92505248888047],[127.78625024092419,36.924913309660326],[127.78606168431541,36.92492543047222],[127.78522357580796,36.924545911990506],[127.78440844985347,36.9247733626588],[127.78396029142016,36.9247789294616],[127.78301427196634,36.92445078179044],[127.78224755104748,36.92447612311154],[127.78199492605064,36.924324702331496],[127.781532866735,36.92425548151596],[127.78144688634205,36.92412533718487],[127.78182698402719,36.923607612224686],[127.78191451870156,36.92298396060143],[127.78290715207966,36.92289921523925],[127.78307006859754,36.922694332824996],[127.78282141701848,36.92218272925257],[127.7832772663898,36.920698302274566],[127.78350715557298,36.92019343653696],[127.78365654175207,36.920043451506054],[127.78380570902173,36.919176518505616],[127.78353350892301,36.91859915192716],[127.78412162741036,36.9176052369519],[127.78487235413712,36.917279092897864],[127.78562644457416,36.91743217335696],[127.78601636669822,36.91665032318538],[127.78642399432093,36.916281600733925],[127.78676777898164,36.91579288719676],[127.78779917658396,36.915695264523855],[127.78791414440231,36.91582758241271],[127.78815395894576,36.91581602848365],[127.78863762616737,36.915789685767926],[127.78907229810605,36.91562473036851],[127.7895444312532,36.91565761582766],[127.79050507357104,36.9168327243533],[127.79169175123647,36.91654966856666],[127.79317039302713,36.9168542695414],[127.79437883662091,36.916214915303584],[127.79464182434786,36.915520763359005],[127.79377423284826,36.91439591596294],[127.79475922164657,36.91381040932887],[127.79564005968967,36.91340018881623],[127.79622537384947,36.91253667866709],[127.79625364886662,36.9120713232318],[127.79605058900079,36.91140693029574],[127.79630357301448,36.910775644809135],[127.79696842250978,36.9104326657572],[127.79714136108052,36.90982452405322],[127.79793713184107,36.909426023256614],[127.79832964371539,36.90856370137065],[127.7982899299844,36.90816750771428],[127.79773591359812,36.90729627049303],[127.79770312803947,36.90642066247497],[127.79753508045322,36.90586340623479],[127.79753063363111,36.905184790232866],[127.79774027973919,36.904459964757564],[127.7976529626978,36.9039974202648],[127.79841954067055,36.903157534342455],[127.7984759620534,36.90274927000114],[127.79741593625963,36.902762376065446],[127.79665166976635,36.902968305687985],[127.79382899981204,36.903478297064005],[127.79288212331582,36.90355280179203],[127.79204944066412,36.90385565058855],[127.79150662826892,36.90415711742446],[127.79116332544895,36.90448992156122],[127.79204817394334,36.90601015254308],[127.79206090997786,36.90630817616916],[127.7918676429722,36.90652189003361],[127.79195600796025,36.9066309255283],[127.79184789076305,36.9069326175036],[127.7904386780315,36.90682863013818],[127.78715495725758,36.90623045642403],[127.7862315004492,36.90621834083975],[127.78488868462593,36.90587820083656],[127.7848941962404,36.90554250771671],[127.78504583510538,36.905535713031234],[127.78587775354161,36.904155197674285],[127.7863043351828,36.903949936982315],[127.78625459503233,36.903744831714825],[127.78644370426574,36.903465090924506],[127.7869671560986,36.90330941584438],[127.78722018440875,36.90336277812434],[127.78813751544205,36.9030743307826],[127.78863599723589,36.90267721103482],[127.78962416481978,36.902619929401645],[127.79003494010685,36.90222032038562],[127.7914000806732,36.90171329776512],[127.79210618685102,36.901105948616426],[127.79204553855412,36.90067577745864],[127.79235116291224,36.89937900957674],[127.7922264659069,36.8991709107515],[127.79236834819905,36.89895266380746],[127.79212511458238,36.898527277668315],[127.79210094017972,36.897888183755605],[127.79188515072981,36.89758458288378],[127.79119193259766,36.897428375858986],[127.79090716422712,36.89713367370113],[127.7894340480767,36.89685394737316],[127.78932906696997,36.89666114915474],[127.78928334276235,36.89589307614997],[127.78870972616407,36.89572194351007],[127.78836305281307,36.89539611584404],[127.78794139792555,36.89526388160163],[127.78765763711634,36.89486192828441],[127.78748402216827,36.89487128549409],[127.78728936174389,36.89476888036616],[127.78709046131061,36.8944794006247],[127.78732279071204,36.89413613439121],[127.78736642663249,36.893701251270265],[127.78762445537363,36.893201669278376],[127.78748049307298,36.89292951651496],[127.7874503768907,36.8925338862045],[127.78765389861628,36.89194968459698],[127.78753123319048,36.89178824941704],[127.7875883296096,36.89147179384743],[127.7878869712094,36.89105089469217],[127.78773819735406,36.890501822779136],[127.78796570864502,36.89035398989437],[127.78791178137509,36.88999198386736],[127.78813245509268,36.88979011588763],[127.78820731474107,36.889334363441314],[127.78802903850925,36.88908064082051],[127.7880788174659,36.88873111374596],[127.78828861532415,36.88836644708668],[127.78816402365013,36.887829857852424],[127.78861668211427,36.886367191126666],[127.78894050422369,36.88578568555188],[127.78935572098192,36.88553966279703],[127.78904273268847,36.884457013530096],[127.78883278444512,36.88260661728552],[127.78827937520447,36.88206525109046],[127.78776320381886,36.880623477279634],[127.78703624789925,36.88050868583734],[127.7856869334998,36.88007393677818],[127.78512410261487,36.87962059119515],[127.78444640121151,36.880098208532566],[127.78337585312049,36.880358035010616],[127.78233473107984,36.879693518735834],[127.78109554768027,36.87968032555638],[127.78053078137606,36.879567052267156],[127.7796043570154,36.87923617553953],[127.77889030094991,36.87920330950729],[127.77851786285976,36.878751740979084],[127.77762481945324,36.878520030097015],[127.77650574264722,36.87839190956603],[127.77593020466412,36.87850759185616],[127.77478339619748,36.87785812485127],[127.77366622424273,36.87788876147401],[127.7733119446749,36.87772110495639],[127.77280046418477,36.877927309706315],[127.7714142844261,36.87755279218286],[127.77079897648308,36.877537160059916],[127.76992627824976,36.87611041779943],[127.76924256889563,36.87571173350787],[127.76818974817242,36.87526438865002],[127.76668898960065,36.87477506604835],[127.76510845218357,36.87607270099075],[127.76492446634569,36.876630476193775],[127.76360383333511,36.87718797412115],[127.76249442333884,36.87750876549702],[127.76090934707422,36.87676463450648],[127.76087156057798,36.87596712082816],[127.76032997072235,36.87549024653923],[127.7598271559959,36.87478382388826],[127.75860743502824,36.87386590116309],[127.75837883974765,36.87396612322146],[127.75758219382786,36.87405620092993],[127.75647492586275,36.87362500613046],[127.75428691500333,36.873490745906366],[127.75340501345326,36.873715073740215],[127.75248780170922,36.87474976325497],[127.75191345238869,36.87422568712264],[127.75051139706187,36.87330731737053],[127.74991069895064,36.87340911101045],[127.7488481764161,36.87378051532949],[127.7479191526388,36.87436818579913],[127.74793526611703,36.875193287040936],[127.74763257003399,36.876166032238096],[127.7469183838088,36.87654126869447],[127.74544778579293,36.877969781781644],[127.74434607770478,36.87773753741982],[127.74348438159497,36.87736316486475],[127.74148081280381,36.8778471140637],[127.73948268110445,36.87860778995359],[127.73799411801504,36.87781340165667],[127.73769093088896,36.87811260782359],[127.73749907785245,36.87864683557487],[127.73701819200551,36.87897459442668],[127.73642187838108,36.879105127190236],[127.7362542898775,36.879310670442194],[127.73525869052486,36.87989987041057],[127.73484731077096,36.87989720263497],[127.7342687113146,36.87960079459693],[127.7334608610042,36.87932620609295],[127.7332992705446,36.87938668140235],[127.73238677177385,36.878994102444636],[127.73189390267274,36.8786160952957],[127.73153203503144,36.878609616215535],[127.73135446840355,36.87850583805615],[127.73065413218791,36.87848453847171],[127.73037498199396,36.878494206303735],[127.72826484751778,36.87933492789606],[127.72796331678154,36.879901168767546],[127.72776727218789,36.87980477121016],[127.72778000208206,36.87972179453096],[127.72719977184771,36.879835722854644],[127.72708343508157,36.87966488429855],[127.72663455854455,36.879568397989104],[127.7258576668314,36.879660659370394],[127.72521074019518,36.88000726859968],[127.72483155741392,36.87993757178249],[127.72403005927717,36.87961381544897],[127.72375986710783,36.87919481954558],[127.72373494353671,36.878607388946854],[127.72336021769047,36.8785718136817],[127.72310434851885,36.878337914823284],[127.72312060182072,36.878209305526255],[127.72273379807423,36.87809738831311],[127.72237774475839,36.878193395258634],[127.72211291492586,36.87802018465265],[127.72191813349895,36.878066851103085],[127.72152568465808,36.87785741337614],[127.72151453205288,36.87798601115635],[127.72033985970458,36.87754027755727],[127.71964638461628,36.877433595226144],[127.7192511761217,36.87770001402142],[127.71913202115171,36.87791164051108],[127.7186457538811,36.878047383682386],[127.71720593676858,36.877599497774696],[127.71681116504804,36.877251240100506],[127.71622763748248,36.87717468211426],[127.71568203263992,36.877431495227675],[127.71536733497719,36.87746707683137],[127.7150644854132,36.87822425830823],[127.71449234730105,36.878786943146515],[127.714024883381,36.87863126548878],[127.71384496864152,36.87849786863746],[127.71344950760812,36.87843196530412],[127.71313023485544,36.87889856952355],[127.71228093555828,36.87867667004454],[127.71141840862892,36.87879162203906],[127.7109435002116,36.87824513565265],[127.71055071997034,36.87814722690159],[127.70856401741673,36.87838495277108],[127.7081307613591,36.87797556793653],[127.70772522514862,36.87593261891318],[127.70690506729501,36.87614082653481],[127.70690378597456,36.876501108124465],[127.70551687971906,36.87663269200202],[127.70521646438888,36.87692063446379],[127.70464537920986,36.87719910304835],[127.70405324080988,36.877619850008756],[127.70256776013605,36.8781110637079],[127.70225000303749,36.87809535157602],[127.70107195245342,36.87830770804835],[127.7001635543124,36.87823865899612],[127.6996460026319,36.878888239944395],[127.69914600592234,36.87982138298963],[127.69823280893455,36.88027414442249],[127.69800057863256,36.88061001879009],[127.69748850796353,36.88046077421555],[127.69723698527791,36.880228110515894],[127.69658732711548,36.88003958654583],[127.69586328230743,36.88008866579704],[127.69555251555106,36.8801854462569],[127.69471948538171,36.88002189022484],[127.69398563381246,36.88002996129207],[127.69385953386461,36.879830637950704],[127.69350906397416,36.87964701204936],[127.69321753267637,36.87873132367198],[127.6920651095351,36.87874542634126],[127.6917840392056,36.87864837112967],[127.69218980203192,36.87785363388266],[127.69169509940257,36.87728040826936],[127.69187308769074,36.87668442708547],[127.69149870344192,36.87594728658308],[127.6914551307956,36.87570174487161],[127.69127508760194,36.875573953468276],[127.69130249295232,36.87513298879187],[127.69096512171987,36.8748885738763],[127.69078481770119,36.87431464204065],[127.69086054913588,36.87397537109492],[127.69063885657128,36.87359669150252],[127.69032872598427,36.87356841032718],[127.69023047430063,36.87338327776762],[127.69026532929396,36.87237984369589],[127.69001690996436,36.872100362723884],[127.68979662920101,36.87156915916437],[127.68923674378027,36.87133835299063],[127.68824321676767,36.87075492748707],[127.68774215450293,36.870615714083975],[127.68749489498705,36.869981062749744],[127.68680401204566,36.869023246232416],[127.68620294829934,36.868935593766714],[127.68586633647044,36.86849851692327],[127.68599043780597,36.868047011410084],[127.68577219254114,36.867344778673015],[127.68573578394846,36.8658424771491],[127.68564492326867,36.86568378869661],[127.68572369263904,36.8654182120989],[127.68615249838663,36.865114100123705],[127.68595980795963,36.86468863755667],[127.68627739821217,36.863667986027],[127.68625112815471,36.86336577947517],[127.68692099855858,36.862963218357656],[127.68689089892649,36.86276720120473],[127.68715432246289,36.862452908291274],[127.68693876347007,36.86162612311149],[127.68710003355285,36.861306571283976],[127.68679580729251,36.86115270132118],[127.68653296667637,36.85983340854039],[127.68611896852799,36.85931023718683],[127.68518739969919,36.858992588674994],[127.684109820236,36.8589753715428],[127.68332820808288,36.85668562782123],[127.68360289328403,36.85614645141134],[127.68268687277482,36.85520229049476],[127.68206823050727,36.85495050347218],[127.68173386542344,36.85444847070017],[127.68116771273645,36.854050305523316],[127.68105197912503,36.85357569161244],[127.68056339187241,36.85334842927677],[127.68035636814203,36.853030910773846],[127.67980369363117,36.85309530123162],[127.67955486059815,36.85280687890273],[127.67902654031722,36.85259145956664],[127.67875330526284,36.85259692976706],[127.67779195958252,36.851553056972556],[127.67791891740892,36.85131754877199],[127.67786568112349,36.85094971557935],[127.67608171844503,36.85086516554439],[127.67596672438891,36.851254346567764],[127.67609786995125,36.85168628553477],[127.67603458085537,36.85192824935939],[127.67506931055746,36.85264780110861],[127.67507537364627,36.852766394216694],[127.67477623466415,36.853112897483285],[127.67389568578606,36.85333609508182],[127.67359131352691,36.85324080626217],[127.67328102067533,36.85340558326868],[127.67247692813345,36.85344952894945],[127.67217550697995,36.85363415846403],[127.67181248061847,36.85400252252377],[127.67133762781337,36.85472811836872],[127.67032247790584,36.85477814811786],[127.67011592574816,36.85490311094571],[127.66924311179373,36.85494806880696],[127.66916323427787,36.855593169094014],[127.66898175930989,36.85566740133238],[127.66871912568689,36.85603880607405],[127.668711911117,36.85631170201087],[127.66851733768446,36.85668818585677],[127.66738770621777,36.85718509113856],[127.667284098862,36.85756703746841],[127.66711583457426,36.85771341220771],[127.66655621428467,36.85775115586075],[127.6658714867597,36.857939392369865],[127.66565671076927,36.85808265497879],[127.66483760936421,36.85809972614395],[127.66406333297807,36.8578018413799],[127.66318371076987,36.858001734763356],[127.6626612891664,36.858275055180044],[127.66252785465551,36.858565963281045],[127.66217596902824,36.85884136320484],[127.66196863943799,36.85943763398807],[127.66143327109508,36.859795183101575],[127.66055036386396,36.85985255089661],[127.66031799381555,36.85998424198628],[127.6593031272478,36.86008024927074],[127.65879451406383,36.860334897268736],[127.6579986164879,36.86023340019273],[127.6575642788407,36.860273201203334],[127.65724352093484,36.86063270941902],[127.65630168993658,36.86077481426125],[127.65541418930042,36.86082500495441],[127.65443892879493,36.86044571437574],[127.65352415012542,36.860965042460265],[127.6523677100785,36.86088912183973],[127.65073377450183,36.85988877426491],[127.64906043217613,36.85974838653084],[127.64900333896105,36.85995381869526],[127.64847022625398,36.86001314761309],[127.6480768448199,36.85976760731376],[127.64802883632396,36.8595649369905],[127.6477819482688,36.859354705590206],[127.64669960954852,36.859103400318915],[127.64622170752466,36.85872645620583],[127.64559941203969,36.85860980804777],[127.64510840203857,36.858427409539566],[127.64440987552193,36.857985948025714],[127.64426811660834,36.857580200026376],[127.64437752072517,36.857008133439216],[127.64338024556817,36.85682926049939],[127.64241446952595,36.85595570210129],[127.64195642206123,36.85575766105156],[127.6414648008215,36.854966015155576],[127.64106306036555,36.85384706856934],[127.64056986058435,36.85372661498531],[127.64039806914508,36.853361232691555],[127.64019031644271,36.853164226624145],[127.64021724128868,36.85294354158361],[127.63984460141158,36.852501381250896],[127.63979942350551,36.851942611016625],[127.63957247454442,36.85134947588161],[127.63921672588637,36.85109427005619],[127.63911345070473,36.85044352967737],[127.63829697750478,36.849988506909376],[127.63810346703133,36.8496992714387],[127.63817982706688,36.8492241520473],[127.63779950593566,36.848692864255526],[127.63784470988479,36.847930774374575],[127.6375367906488,36.846974353456936],[127.63731789489371,36.84590767869431],[127.63778682403273,36.84568607149151],[127.63820849167094,36.844619391393614],[127.63868457069069,36.84432693510826],[127.63917203148229,36.843599343983115],[127.63887458181556,36.8429019877323],[127.63911619400609,36.84257795089747],[127.63899076712688,36.84232159801788],[127.63844613108827,36.841891707651655],[127.63855952057673,36.84111590704079],[127.63800969677749,36.84065775784705],[127.63789550391398,36.84014923967519],[127.63728503415312,36.83975809307052],[127.63698748617533,36.83943912237677],[127.63656052351573,36.83915513952427],[127.63666080419651,36.83893165706731],[127.6365963695355,36.838506480387935],[127.63671735680971,36.83838741621263],[127.63604264170321,36.83757077785574],[127.63616182698901,36.83712511479431],[127.63595503511458,36.83706736728036],[127.63559869244449,36.83669812945854],[127.6349399906131,36.83672977216668],[127.6340565198602,36.836436929369654],[127.63398576913612,36.83474980672875],[127.63348509032835,36.83409608300978],[127.63353747738776,36.83383611126053],[127.63333227813906,36.83345558508073],[127.63319902674264,36.83279709331153],[127.63257144184924,36.83130158889437],[127.6322541307298,36.83097605979146],[127.63228238687353,36.83091012022943],[127.63167232502126,36.830459226800166],[127.63099188674005,36.83049789232534],[127.6307978917619,36.83023859485623],[127.63073113801309,36.82948150350436],[127.63048460992279,36.82919622701734],[127.63061363601453,36.82903704470895],[127.63025691750562,36.82873438941519],[127.63010443031547,36.8284317909959],[127.63012633985366,36.828203982175],[127.63049283231874,36.828109546548724],[127.6305230126076,36.82782407424721],[127.63040768258266,36.82761454265255],[127.63040610661255,36.8271590070731],[127.63051642878727,36.82681842476659],[127.63044108643153,36.82566998398261],[127.62984528243659,36.825005562998115],[127.62963105611243,36.82494957572578],[127.62950218953031,36.824445971670144],[127.6295443377186,36.823893750716344],[127.6298209689095,36.82332566949596],[127.6299855272237,36.82262933190489],[127.62992522828905,36.822460839270875],[127.62950109680921,36.82199276864333],[127.6292860891263,36.821567119599656],[127.62970749031138,36.82119423479393],[127.62975649592268,36.82086957296596],[127.62997044313764,36.820451546020706],[127.6300582670436,36.81964951158094],[127.63022975924531,36.81922778580812],[127.62983160665009,36.81868897814186],[127.6298631390595,36.81847580196802],[127.62994180272607,36.818236968933455],[127.63002597802748,36.81825143566307],[127.63011736268469,36.817893517027024],[127.63040885838683,36.81768388719388],[127.63059696939833,36.81739262491835],[127.63059850917851,36.8172601756354],[127.63033246102768,36.81696348539962],[127.6300921220576,36.816236146721],[127.63051050933181,36.815774350042496],[127.63093799374867,36.81552339756882],[127.63101260913534,36.8154312446138],[127.63095759355966,36.815309617527156],[127.6312118011707,36.8152898998087],[127.63139784998438,36.81517746672589],[127.63134263296139,36.814998553391966],[127.63204275660914,36.81479678982149],[127.63239438220309,36.81459237987809],[127.63259825133284,36.81424288339236],[127.63284595624629,36.81421124658163],[127.63338492386718,36.81379818082905],[127.63375223724655,36.81369922852087],[127.6342078564408,36.813166953897664],[127.6349823526074,36.81283690709987],[127.63497922960666,36.812649462424105],[127.6350759747955,36.81255684545002],[127.6350502368113,36.81189893620272],[127.63515161091446,36.81188647449295],[127.63528902603133,36.81130742427536],[127.6354443913503,36.811181984431876],[127.63519149546326,36.81031597113767],[127.63501849502929,36.80879601674531],[127.63457643006983,36.80865956627488],[127.63420333630863,36.80830602693685],[127.63396178287447,36.80755744330378],[127.63398553313064,36.80730856532473],[127.63455386754221,36.80688389307044],[127.635363582786,36.807145816296305],[127.63549535354832,36.80682512637602],[127.63589747268216,36.806537851736614],[127.63574579890376,36.80581345442772],[127.63549771504572,36.805379839108284],[127.63556684803089,36.80495647239742],[127.63623656693562,36.80452905486843],[127.63679665862811,36.804514394075156],[127.63761143205562,36.80431992792236],[127.63803857750759,36.804103346477405],[127.63899849829329,36.80389777461836],[127.64014577326331,36.80345392625984],[127.64021694760366,36.803129763141825],[127.64011481683681,36.802898542309265],[127.64042818062946,36.80240554880911],[127.64033810324156,36.802042884654966],[127.64035457517066,36.80151826239823],[127.64068707575605,36.80151544098642],[127.6416933606722,36.80127654797223],[127.64168777981814,36.801135050494615],[127.64197595293214,36.8007072213929],[127.64161688658552,36.80044586365615],[127.64165075224348,36.79991319366339],[127.64136000028338,36.799816717817976],[127.64070301688955,36.799304798677895],[127.64056858272355,36.798896282174965],[127.64065792995908,36.79876300918151],[127.6405767909461,36.79845621130532],[127.6402623048187,36.79827889687592],[127.6395654914011,36.79734739520338],[127.63937168914028,36.79728408843722],[127.6391477166933,36.797068539823435],[127.63906710311991,36.79684716920945],[127.63845767032447,36.7962897745618],[127.63811432978919,36.79557289490477],[127.63824274239418,36.795474167814035],[127.63736280861532,36.79545714338218],[127.63702557573735,36.795306973690735],[127.63606638059865,36.794179426457355],[127.63585337594812,36.79413694729834],[127.63563856600159,36.794191861413644],[127.6345843529479,36.793444678954394],[127.6344373494395,36.79345045416443],[127.63408563646252,36.79366201596375],[127.63354672312096,36.79368084824913],[127.63310333416315,36.79386373679849],[127.63227044237655,36.79373031749605],[127.6308197326838,36.79398890137121],[127.62993809623663,36.7939681602746],[127.6289437917899,36.79404780394683],[127.62824539349938,36.79426584660529],[127.62703404309973,36.79425660648112],[127.62693371375855,36.79407241992528],[127.6273602687574,36.7932038032923],[127.62736480795652,36.792045759681244],[127.62715391634978,36.79194472995074],[127.62625905263799,36.791840077313424],[127.62530662805298,36.79146360663842],[127.62573171102342,36.79084404728363],[127.62631547774203,36.79042636536657],[127.6260428170274,36.79003692925151],[127.6260159569098,36.7898736015533],[127.62572111067246,36.789679532246765],[127.62548527336614,36.789361009121606],[127.625190564026,36.78940199418129],[127.62476302375165,36.789251751118506],[127.62414250820164,36.78954164741298],[127.62378347354561,36.7895127903701],[127.62366837813006,36.7891424491763],[127.62343849243695,36.7889602241185],[127.62289753891449,36.788864474322764],[127.62267943959726,36.788361413439205],[127.62241020473493,36.7882437148287],[127.62225316550519,36.78830442837824],[127.62212733041098,36.78825300230774],[127.62181300624235,36.787862818421665],[127.62136389613481,36.78788830061888],[127.62119677326496,36.787962682209006],[127.62092968188162,36.78785868046754],[127.62088520042994,36.78521476300727],[127.62114349470262,36.78411046182773],[127.62132022079459,36.783893945692284],[127.62137659893622,36.78351778728124],[127.62070988037762,36.781894317041974],[127.62066459591614,36.78093267958489],[127.62046212412916,36.78012845287251],[127.62061726221536,36.77964232625786],[127.6204907455442,36.7793705206458],[127.62082151290123,36.77857662845562],[127.62158890678369,36.77857671201736],[127.62209759006818,36.77848888847153],[127.62239207542888,36.7786113777208],[127.6224815344478,36.77884052739946],[127.62288793901085,36.779015759076444],[127.6233787634488,36.77879560822087],[127.62344099196545,36.77842416618672],[127.62360564951655,36.778101668834616],[127.62427131782475,36.777652207884714],[127.62463678425922,36.77700313768527],[127.62499101421417,36.77687622040598],[127.62527106765114,36.776916786152334],[127.62547658637355,36.77679538590803],[127.62606619557576,36.77712174063109],[127.62658132817339,36.77691683798277],[127.62683399797547,36.77668617316631],[127.62723756646255,36.77665294471065],[127.62753283688741,36.776390893908456],[127.62752011763257,36.775960508466675],[127.62737077975757,36.775728931312585],[127.62743145819407,36.77554036399952],[127.6276407999054,36.775409394839635],[127.62786345017696,36.77501988737128],[127.62776408937034,36.77423711577754],[127.62805357202627,36.77360376235418],[127.62932378487601,36.773471795038695],[127.62919824637682,36.77313002472816],[127.6287021147874,36.77248998022652],[127.62868036402074,36.772098072226754],[127.62832851394955,36.771644612680966],[127.62815091628441,36.77067586404378],[127.62823546853791,36.77022010324095],[127.62782618408097,36.76967444675606],[127.62783236460265,36.76947986704273],[127.62704829372296,36.76811588620226],[127.62699028555005,36.76749500311594],[127.62704553725665,36.76720301679793],[127.62631452779502,36.76670606581169],[127.62633327049176,36.76645561536756],[127.62556197506649,36.76583846693116],[127.62548775897459,36.76557127503834],[127.62560928048374,36.76531307708814],[127.62536543940932,36.765028566360996],[127.62540312824413,36.76454615471495],[127.62490349449877,36.76368407197971],[127.62480778358427,36.76311245845924],[127.62451039067466,36.76278441193955],[127.62432834457115,36.76273626503018],[127.62412237687533,36.762408145387695],[127.62414537509795,36.76174942183817],[127.62402780801945,36.76151137560018],[127.62414990650375,36.76106151137455],[127.62370742336068,36.76074000010094],[127.62380642317521,36.7605123494656],[127.624186705356,36.76049606911099],[127.62507516541079,36.76011507322763],[127.62541969816175,36.75978354689691],[127.62615143521461,36.759758711070965],[127.62630646102804,36.7594339438888],[127.62627897405639,36.7589557402769],[127.62706141611949,36.75884032752855],[127.6273781197348,36.758065212731154],[127.6272706309739,36.757345343374695],[127.62791236235758,36.75691150528244],[127.62809887063854,36.756398499928395],[127.6290330808908,36.756339844538466],[127.6294206728631,36.75620222024479],[127.62947161887752,36.75583029374658],[127.63002241587438,36.75556373328297],[127.629845492488,36.75489096299354],[127.63038900594874,36.75475532341667],[127.63071364279956,36.75416123472588],[127.63153011240408,36.75403862806498],[127.63172156641222,36.75385350296571],[127.63188505076585,36.75345399880734],[127.63239212406752,36.7531897673044],[127.63282347937633,36.752412645468006],[127.6328139282715,36.752282866456476],[127.63308313890424,36.75225953106295],[127.63354140161748,36.751842916144305],[127.63370311816256,36.7518231526016],[127.634033333753,36.75190637174888],[127.63413772343984,36.75209222763729],[127.63452914992801,36.752192059175435],[127.63553445174463,36.752057744565334],[127.63572506161447,36.75161151287727],[127.63567359541224,36.75116921170111],[127.63574126471251,36.75096644754656],[127.63564781516149,36.750873420394626],[127.63553719928741,36.75012702708858],[127.63530090577906,36.74983174207762],[127.63526105269531,36.749285699445714],[127.63496025137577,36.74868470124584],[127.63578395245185,36.748271701089976],[127.63568251825487,36.747670507612135],[127.63550238902216,36.74748441647448],[127.63535139106247,36.74693388458011],[127.63546904927037,36.74663158697144],[127.6356666292168,36.74654668940373],[127.63589352199693,36.7462738425594],[127.63613192537731,36.74613993816617],[127.63612936388533,36.74590485652357],[127.63651744524951,36.74554780594681],[127.63657982098161,36.745369488154275],[127.63643605865575,36.74518000670796],[127.6359427357975,36.744848465666244],[127.63579822099412,36.74451019664043],[127.63587534324292,36.743928983219135],[127.63643779339924,36.743571845361174],[127.63658813016079,36.74339086822462],[127.63641895033096,36.742960484165],[127.63646323612738,36.74255557451028],[127.63636554499388,36.74235171730946],[127.63613565223785,36.742175533551546],[127.63599184368462,36.741295531087566],[127.63725525099495,36.74013676934994],[127.63732491879665,36.73966646526895],[127.6372667471194,36.73941306273175],[127.63744626521789,36.73919173826588],[127.63792744074136,36.73913240676686],[127.63820824419176,36.73924674949444],[127.63839710045873,36.738623503255354],[127.6388956791207,36.73816711149303],[127.63886189476861,36.73766666971251],[127.63854356419756,36.73719651210646],[127.63844883636408,36.73677091720182],[127.63856555575519,36.736354191984915],[127.63861580861399,36.73556111566046],[127.63867288540901,36.73295184656094],[127.63897750175444,36.73253971913059],[127.63968781049684,36.73196230813637],[127.64051206995211,36.73205851955391],[127.64134836472081,36.731767468153826],[127.64172777329438,36.731902279071655],[127.6423379419917,36.73232864828306],[127.64290131721717,36.73232937049603],[127.64372267873755,36.73213202590106],[127.6443132100605,36.73245603627961],[127.64581439452115,36.73243195980556],[127.64622832914328,36.73269394031139],[127.64648474776274,36.733043888903076],[127.64685429986666,36.73325393331019],[127.64714587553185,36.73308504640445],[127.6481834704128,36.73311475205014],[127.64882660459759,36.73289762258273],[127.64941772863237,36.732844125375244],[127.65000991427394,36.73266662674889],[127.65044845116739,36.73340770678039],[127.65021682972004,36.73366691956805],[127.6510537714278,36.733990381384714],[127.65112848854315,36.734387683450585],[127.65106069906311,36.73498014802708],[127.65191748958009,36.73515572456754],[127.65218410531814,36.735515859675495],[127.65256804092635,36.73552871005908],[127.65307476143018,36.7352360007835],[127.65345355164634,36.73534739956511],[127.65365396378157,36.73523225969724],[127.65427465629111,36.73517702704405],[127.65434318155499,36.734354514038806],[127.65484062453234,36.73412842878633],[127.65540877717856,36.734004542158935],[127.65575791742272,36.73351128133105],[127.65568583349416,36.73339554415299],[127.6562584125152,36.732897036580574],[127.65653537847658,36.7328137272168],[127.6567918555092,36.73258537220439],[127.6586779856179,36.73219291637499],[127.65913379241617,36.73224789684516],[127.65969039969494,36.73208939907973],[127.66035380970433,36.732237662843126],[127.6615757783467,36.73217323998754],[127.6620891682875,36.732452345908236],[127.66342577680392,36.731560797993765],[127.66406970556181,36.730753829611835],[127.6644999866098,36.72999426822956],[127.66581280480776,36.729733134978595],[127.66665622005299,36.7285154182436],[127.66657247901765,36.72819516817888],[127.66691099870874,36.72751655858098],[127.66724469325608,36.72740539703341],[127.66739340005815,36.72706302097493],[127.66809957276796,36.726564689980115],[127.66835778539156,36.726580995261116],[127.66863327978679,36.726135011011486],[127.66913093318855,36.72583061315071],[127.66929505604524,36.725496367552786],[127.66988429330321,36.72505882952455],[127.66997741682417,36.72471791411844],[127.6702037707736,36.72452446580941],[127.67045519979513,36.72388717348728],[127.67140780637796,36.72266655756895],[127.67198990424087,36.722184103687546],[127.67252850101781,36.721880037965654],[127.67343045284707,36.7217693393541],[127.67392537460883,36.721440446359],[127.67451151930177,36.72126595901718],[127.67498828432718,36.72044684845884],[127.67538567169223,36.72022930699369],[127.67548184409783,36.72000237884687],[127.67739841141838,36.71979152229192],[127.67776780653767,36.71951541809247],[127.67811562561202,36.719044563088694],[127.67854620251273,36.71885967804729],[127.67894795134012,36.71795138263191],[127.67954094339909,36.717608866711956],[127.67955200614408,36.71707935218723],[127.68068050930246,36.717329470788755],[127.68208399859314,36.71723969170518],[127.68311649025568,36.71736347736247],[127.68322302121474,36.71731108141867],[127.68375640415935,36.7173350500668],[127.68399403678379,36.71838988506328],[127.68448051628357,36.719030509417195],[127.68452724698771,36.719672679637505],[127.68506776748292,36.72009575983945],[127.68576175063113,36.72039610089103],[127.68605483269279,36.720655654603895],[127.6868862968973,36.72048685093465],[127.68728362939517,36.72002615583318],[127.68776810454598,36.71980942583741],[127.68793667147204,36.71950098744366],[127.688082263749,36.71900069515643],[127.6880537292389,36.717877007505614],[127.68778503274225,36.71755389971993],[127.68791361854363,36.717404279348024],[127.68800042331016,36.71706260584389],[127.68866296314694,36.716396716321434],[127.68884351075998,36.71556365105392],[127.68913703057359,36.71546241167466],[127.68933294896777,36.71506730936489],[127.68978241982727,36.71467462800368],[127.68982684093633,36.71439217242611],[127.69007115605734,36.714097927325135],[127.69108141308911,36.71343898855789],[127.69201910158974,36.71255444798549],[127.69269169469976,36.7120670603782],[127.69298036065551,36.71208821760537],[127.69342344309973,36.71189944867854],[127.69393117494508,36.71201585538292],[127.69434889966705,36.71198235647805],[127.69467702564083,36.71162177071726],[127.69567415045005,36.710864550555236],[127.69670412235563,36.710450903150374],[127.69683282685713,36.71049179815441],[127.69729891208522,36.710259674788176],[127.698668384151,36.710355477058876],[127.6996234164569,36.710580536307916],[127.69983565050951,36.710696911770846],[127.7008746226201,36.710188762764595],[127.7014527627817,36.710237232302745],[127.70192649831175,36.709871825712185],[127.70248984656783,36.70906958523182],[127.70279014057427,36.708838126091514],[127.70280872400198,36.7083855017649],[127.7027143520015,36.70798215749466],[127.70252613526984,36.707767803428005],[127.70258572347397,36.70731888471179],[127.70235243106195,36.70690393988609],[127.70253544990938,36.70623927318043],[127.70247293901276,36.70600663745454],[127.70289492787651,36.70555618565221],[127.70290981984346,36.705233035189764],[127.70256434313478,36.70491194439252],[127.70219962799669,36.70378043281654],[127.70282250203479,36.70307324259538],[127.70296738233066,36.70278563965471],[127.70326896001923,36.70256508309349],[127.70340059132418,36.70186791718585],[127.70451284419667,36.701423789293],[127.70545062148575,36.70047480227542],[127.70659658133806,36.70106858842316],[127.70693073515183,36.70110339146165],[127.70732981108695,36.70072646528595],[127.70848479527808,36.70032642573313],[127.7084143573106,36.70006428129771],[127.70964234854233,36.699130516164544],[127.71086078745057,36.697953164347865],[127.71125018521624,36.697466745585395],[127.71121182631391,36.69701043933564],[127.71135566708328,36.69666779560391],[127.71136759783663,36.69599860215783],[127.71310126747494,36.695324230040775],[127.71372655856781,36.6952176568549],[127.71363790980195,36.694219892650054],[127.71319564698196,36.69260416634351],[127.7132623575905,36.69153353711579],[127.71312988039003,36.69134303566943],[127.71314187408711,36.69095064870864],[127.7128956083159,36.69068279738857],[127.71289477518604,36.69028393901956],[127.71323013746125,36.690075816331316],[127.71387012296155,36.689999767481886],[127.7145800262635,36.68954786691677],[127.71543085866078,36.689327719661534],[127.71625437335744,36.688826731990524],[127.71746450388117,36.688462798611006],[127.71861123856377,36.6882694660473],[127.71871767074232,36.68810999741633],[127.71869029060242,36.68776648141978],[127.71904748673956,36.68737281010369],[127.71904234646611,36.686798821914],[127.7195872716401,36.686487556502115],[127.7199767933487,36.68652118787205],[127.72055496009621,36.68618300126196],[127.72125389148532,36.68530979909117],[127.72137463091549,36.68488430631587],[127.72243857784322,36.68447554654544],[127.72354006833159,36.68304051470946],[127.72279403761897,36.68169722979737],[127.72317933689104,36.68144873934968],[127.72437978759652,36.68165737246229],[127.72604959168362,36.68241938047898],[127.72664116856588,36.68261013799601],[127.72714810843304,36.68251346096901],[127.72687497104991,36.6817260386011],[127.72658789861495,36.68162644054383],[127.72630962112476,36.68127974847815],[127.72635329630346,36.67996801629912],[127.72623296273213,36.67938347388756],[127.72603867922211,36.679099125332904],[127.7256814426588,36.678885129326424],[127.72556917607548,36.67835722406693],[127.7258023737234,36.67807814963462],[127.72602035815339,36.67750694875069],[127.72578339200376,36.67705933249433],[127.7253929807808,36.675810550837234],[127.72497609986438,36.67524863249181],[127.72455758278271,36.67520452276667],[127.72362290131059,36.674215078409006],[127.72230702128444,36.67346543926801],[127.72205863728534,36.67303850233023],[127.7216454183599,36.67269006523845],[127.72138206668991,36.67263107471577],[127.72023902117725,36.67202845415663],[127.7196724130268,36.67126162506071],[127.7192410997281,36.67083076609731],[127.71840293216351,36.67038307326156],[127.7176364278782,36.67008685814275],[127.71680321099716,36.67001272290899],[127.71648158657881,36.669644668341945],[127.71559010991433,36.66915890495547],[127.71569716894695,36.66949902590737],[127.7155454260118,36.66951054944405],[127.71522319854495,36.66916334762949],[127.71385653340022,36.66852539178193],[127.71322667892113,36.66834359585237],[127.71255608680737,36.66770834507366],[127.71244934144289,36.66749431225997],[127.71241207520418,36.666936479737856],[127.71264191458702,36.66654718946603],[127.71464687700023,36.66536972784271],[127.71454662879577,36.66525504937299],[127.71265121428313,36.66630334815793],[127.71218155206073,36.66568091951507],[127.7118867760875,36.66497533622776],[127.71170466896315,36.66422917947659],[127.7107466491684,36.66347087542062],[127.71039293651688,36.66303351068964],[127.71027878034592,36.662765985257344],[127.71147183346505,36.661180229970384],[127.71223997773963,36.66041987169099],[127.71222112388733,36.66020718723995],[127.71191323377924,36.659744566424735],[127.71199004104612,36.65880658858297],[127.71224765427094,36.65832507507376],[127.71220697808455,36.65776433406964],[127.71229069145225,36.65720093012116],[127.71090975587443,36.6565772601504],[127.71050713556289,36.65612308420372],[127.71043426263576,36.655779204853616],[127.71019563308565,36.65555740262788],[127.70996850412364,36.654670360266124],[127.70936417823047,36.65403877011055],[127.71033373934142,36.65307771207103],[127.7108659351139,36.65290390066269],[127.71121036337506,36.65258792260917],[127.71183247780556,36.65157011649761],[127.71216151065828,36.65122406392665],[127.71267697541612,36.65032959264162],[127.71375490097171,36.65103541554244],[127.71552818387343,36.65162301802028],[127.71591755120046,36.65154630791228],[127.71638982966887,36.65161245175103],[127.71781201204139,36.65133689273992],[127.71816451534129,36.65139182115806],[127.71845641968439,36.65176193364482],[127.71910252911418,36.65197795832646],[127.72011909877185,36.65186602254139],[127.72116271018275,36.651242615748224],[127.72171269386016,36.65116331121176],[127.72301398620382,36.65138952615962],[127.72337384770994,36.65129544989483],[127.72359081255746,36.65080675221412],[127.72399461720023,36.650293207514395],[127.72479212178993,36.6495819318092],[127.72419452456202,36.648818590881994],[127.72458528053357,36.64798729901179],[127.72454567285843,36.647632285818446],[127.7247818668086,36.64733367645415],[127.72468282475359,36.647065910266],[127.72523931879793,36.6460442213452],[127.72540940696048,36.64598459749733],[127.72535642919067,36.645606248420144],[127.72571641652378,36.645205092214525],[127.72565500568707,36.64492594167048],[127.72585126588022,36.64467980059282],[127.72637082112425,36.644499743287994],[127.72712193147272,36.643939006303235],[127.72757377748269,36.643713336362936],[127.72980126272648,36.64315680443425],[127.73146745864517,36.6423208477768],[127.73175107127841,36.641932857178354],[127.73228634045621,36.641526933327235],[127.73317032256988,36.64059872702579],[127.7347736362862,36.639650210514056],[127.73637085261413,36.64050774054195],[127.73661917494313,36.64051571442854],[127.73810142685164,36.64127956584074],[127.738961981384,36.64005154593468],[127.73893932689435,36.63960682598333],[127.73857580259026,36.63929462561363],[127.73815042948567,36.63755248353283],[127.73781772219871,36.63734584377551],[127.73769750099517,36.63643030269757],[127.73930325599079,36.635715160522416],[127.73946580273787,36.63550373599301],[127.74022242123262,36.634936890000866],[127.74065995263022,36.63427667251377],[127.74003105957931,36.6331550139359],[127.74065970025451,36.63293588473188],[127.74098875104899,36.632656617539816],[127.74518085141835,36.632243631453015],[127.74426724071606,36.631421745764605],[127.7435983222266,36.63110498074759],[127.74426103299736,36.6303741328075],[127.74412732275422,36.629684833913664],[127.74426443902345,36.629065339900066],[127.74442907992915,36.62881171405625],[127.74478545112544,36.62850634855763],[127.74550646991004,36.62802725191262],[127.74628020259316,36.6276257131227],[127.74761632615777,36.62724864583783],[127.74854365529391,36.62665417715666],[127.74919500733331,36.62612059791858],[127.74935103264897,36.62578530033312],[127.74935320101808,36.62506543388923],[127.74922048475558,36.62464253601211],[127.74884101122139,36.6241331608306],[127.74908531724067,36.6239286865263],[127.74992924095626,36.625236099277586],[127.74997173211189,36.625640575125665],[127.75003431102802,36.62495571687107],[127.74979580981069,36.62373104587315],[127.74947656705757,36.62298627346788],[127.75066515608877,36.62275041001708],[127.75024629905536,36.621880344338585],[127.75133714439806,36.621464488001585],[127.75233990391716,36.62153786007549],[127.75239072097992,36.621373961088416],[127.75278225805673,36.621000253511355],[127.75485750327847,36.61977401277706],[127.75653947397772,36.61853607030288],[127.75666856146276,36.61830075728237],[127.75723103820069,36.617986892133345],[127.75780725925019,36.61799085209749],[127.75907421961716,36.61730603235911],[127.75954447771392,36.616855606621066],[127.75955062188123,36.616695512345196],[127.76028094469085,36.616616889914766],[127.76100266230513,36.615742125195645],[127.76135107773116,36.61549767744917],[127.76142831479035,36.615323168999666],[127.76324658573343,36.614150802067954],[127.76415283679572,36.613323670927265],[127.76462833362629,36.61304758845354],[127.7649089171874,36.610631028470536],[127.76570874498564,36.61056056255702],[127.76676235814723,36.609310502865554],[127.76686495486395,36.60848603933599],[127.76852485370195,36.606408457448794],[127.7687391538323,36.606417074130874],[127.76883715760559,36.606101825752276],[127.76864200165637,36.606039842369974],[127.76869426122244,36.60519762438758],[127.76949722555032,36.60398046471176],[127.77071359139786,36.604915084147066],[127.77093846725967,36.605272133273694],[127.77123484737304,36.605518392567355],[127.77172237835306,36.605519009253875],[127.77213911456057,36.60577345688929],[127.77233643498911,36.606233613070955],[127.77320157083949,36.60632224447218],[127.77339732346309,36.60617440935311],[127.77388985169415,36.606002197200056],[127.77462095012899,36.60623804730259],[127.77643964864981,36.607107213555736],[127.77667966286114,36.60804001509138],[127.77712963911253,36.60806259062644],[127.777482476353,36.60829475130202],[127.77913373767151,36.60830920987677],[127.77933276226865,36.60825310660299],[127.78085584018575,36.608439398827784],[127.78145460353667,36.60871676402616],[127.78206038264503,36.60974410098208],[127.78235439147413,36.60985737224787],[127.7825137936773,36.61024231858499],[127.78281773026353,36.61032249817459],[127.78394022950269,36.61093157706044],[127.78421521394753,36.61144906159273],[127.78427176316032,36.61199450292558],[127.78459044830808,36.612674591910256],[127.78627985413264,36.613769194285986],[127.78672969643243,36.613272272389935],[127.78887203295437,36.612391427814536],[127.79009542932049,36.61144038049284],[127.79073048237865,36.61073778962101],[127.79179794385563,36.610332490122765],[127.79315280002051,36.608535548153405],[127.7933765681046,36.608015591601806],[127.79367129667285,36.60763537962652],[127.7939718748312,36.60745492829671],[127.79426310737362,36.60701877100605],[127.79425680288978,36.606649573952026],[127.79636804013705,36.60515176049657],[127.79724562933374,36.60435806551711],[127.79868050833646,36.602168451312586],[127.79981691210536,36.60252348790211],[127.80115904093809,36.60206709852156],[127.8015367185335,36.60207602759598],[127.80245204066458,36.60240117258295],[127.80273319608355,36.6023738608864],[127.80332098655889,36.602629084614776],[127.80358372388861,36.60295585291892],[127.80429966084873,36.60334072709083],[127.806252794204,36.60362126142116],[127.80666068159258,36.60393165176036],[127.80717391116649,36.604492548286835],[127.8074447337751,36.60453386160821],[127.80795578831119,36.60499127721016],[127.80811526188592,36.605489026233066],[127.80841826892083,36.60581069785441],[127.80922766602218,36.60597857084871],[127.80920541533526,36.60610419477165],[127.8101186517571,36.60653251473578],[127.8104600936265,36.60679506894453],[127.8107940217692,36.60676171394475],[127.81085360095526,36.606893006098275],[127.81109586226374,36.60699270894751],[127.8112581316652,36.60717281938779],[127.81169926465651,36.60726851982997],[127.81190346987707,36.60759030379827],[127.8123538402367,36.60750361886624],[127.81275058052249,36.607712317414226],[127.8141823787482,36.607480196238456],[127.8145748270619,36.607711843158526],[127.81475583884266,36.60770344464259],[127.81573949594652,36.60815416651362],[127.81593468585972,36.60837792941154],[127.81671161943069,36.60850621841638],[127.81683355373471,36.6081826854637],[127.8174815352185,36.6081580845282],[127.81762905228283,36.60828240834338],[127.81812353399707,36.60831426450953],[127.81836036348615,36.608224060984206],[127.81905152037012,36.60893631649162],[127.82022968809281,36.60982672323048],[127.82081196621444,36.6104745747065],[127.82126138065007,36.61138353075903],[127.82094712286022,36.61325839305282],[127.82211930224548,36.61286970119654],[127.82273144192833,36.61256354787533],[127.82421938680028,36.61252503378037],[127.82482987696754,36.611943937211024],[127.8265992164112,36.61160348976439],[127.827487773704,36.61096246805789],[127.82851746374507,36.611529423727006],[127.82905989260131,36.61172690930288],[127.82928272997513,36.612384044429305],[127.82978178027483,36.61269372971148],[127.8303503338664,36.61273706572681],[127.8309005308768,36.61263172816649],[127.8317179308805,36.61268516633651],[127.83225519643271,36.612918668288046],[127.83316040369176,36.612125318590714],[127.83331276610403,36.61179954749067],[127.83381679325102,36.61164784979955],[127.83449433424039,36.61119638390534],[127.83520726040699,36.61122428151212],[127.83598055167461,36.6108573957566],[127.83679441800047,36.61021693001768],[127.8377594941583,36.60998367484535],[127.83805858178077,36.609128668494215],[127.83891659680546,36.60895843382488],[127.83928591035941,36.608725982875036],[127.83974721113823,36.6088067770491],[127.84095014686594,36.608092578973746],[127.84147428257859,36.608532981676106],[127.84163188525962,36.608770536201064],[127.84249074132227,36.609079477132646],[127.84361205326927,36.609616567240884],[127.84493834901842,36.61042043588862],[127.84536808870784,36.610549179922735],[127.84569070499779,36.61077219807036],[127.8464989087645,36.610733841426295],[127.84660778131085,36.610885915719514],[127.8475753556485,36.6109744318263],[127.84853107685966,36.61235014853845],[127.8493021228447,36.613287120899514],[127.8497457597491,36.613379436501226],[127.85035399836808,36.613396108829626],[127.85100940081455,36.61331557497753],[127.85153145912992,36.6134207967255],[127.85312339501232,36.61292935560717],[127.85510885338786,36.61204379117893],[127.85637404001804,36.61281780045576],[127.85820788737134,36.61373759817585],[127.85563741278166,36.61773808752936],[127.85372821629768,36.61838257942417],[127.85291858200746,36.618216506743465],[127.8510783568522,36.61863806798446],[127.85028052412875,36.61919241639462],[127.8497026299859,36.61991517167992],[127.8497303635391,36.62136618648656],[127.84945556925649,36.621736000106516],[127.84775012192345,36.62340375118991],[127.84740807184765,36.624398972089885],[127.84688678008354,36.62529779229248],[127.84733178575524,36.62600548027271],[127.84730897216002,36.62649812361332],[127.84746964020843,36.62678392847541],[127.8469698357335,36.627202923154215],[127.84652309178126,36.62781815745166],[127.84643499781487,36.62827313657057],[127.84667758201968,36.628745407340524],[127.84667977372395,36.63000684597893],[127.84708858647782,36.63095868126484],[127.84703477254884,36.63140764150712],[127.84681285227714,36.63150249204244],[127.84641190822319,36.63191374095734],[127.84643286989089,36.632403117370146],[127.84685192948866,36.63264719102592],[127.8478037021617,36.632561307620215],[127.84825795915073,36.632702663712614],[127.8488843368146,36.63265067559689],[127.84945686043963,36.63306134278691],[127.85150946037686,36.63361471744825],[127.85206794798309,36.63412982978595],[127.85242278847863,36.63475200300204],[127.85324878479048,36.634473012802836],[127.85389932307474,36.634406850749606],[127.85378413653548,36.63366558997069],[127.85436379628673,36.633407889945005],[127.85516501768949,36.633278979500986],[127.85605163654832,36.633620160986425],[127.85757865779843,36.63309199477327],[127.85875071799677,36.63354039720303],[127.85940080165439,36.63359872258391],[127.86105266224453,36.63429955232013],[127.86253921691548,36.63421717061783],[127.86317654257734,36.63471753976946],[127.86333009726032,36.63573635921776],[127.86420602331296,36.63636927150881],[127.86418879329165,36.637239751609165],[127.86439907923587,36.637646004565234],[127.86447695353938,36.63848886212526],[127.86448885815442,36.63985999941136],[127.86530887912583,36.63984705382522],[127.86648834413458,36.640102727479864],[127.86680462247114,36.64037229191391],[127.86722400954876,36.64144141905804],[127.86776294715075,36.64169006301347],[127.8680164489752,36.64209343344563],[127.86797106243493,36.64258171890368],[127.86842368790276,36.64267988972274],[127.86880737145505,36.64296978339343],[127.8690217172569,36.643673711133935],[127.86958683114334,36.64344510425423],[127.87001976441506,36.64352661461036],[127.87053937958531,36.64393049224806],[127.87058094452394,36.64443322757372],[127.87007787524463,36.6452891764224],[127.87025829750571,36.64575480221298],[127.87037387335288,36.64704745001349],[127.87238393542914,36.64837516650316],[127.87244693607909,36.648771270328226],[127.87317888841322,36.64978864667382],[127.8731652474222,36.65032457509018],[127.87334012422505,36.6505514912164],[127.8736855069093,36.652982335253455],[127.87369404088372,36.654052371783145],[127.87402592276753,36.65489383554455],[127.87519750863214,36.655448569721884],[127.87569279329774,36.65605099583471],[127.87613136869327,36.65626771629641],[127.87717082986948,36.656472783401114],[127.87850532755782,36.65658235060103],[127.8796735662394,36.65678912306205],[127.88003221836824,36.65670879426846],[127.88011424864291,36.655112048675406],[127.88054754342073,36.654408022462405],[127.88118420880699,36.652928774853216],[127.88147437157347,36.651100595904005],[127.88202379613507,36.64878125123826],[127.88189148948254,36.64752929764655],[127.88201219691852,36.6469460355294],[127.88220536584791,36.64660248518577],[127.88258650359761,36.646263332438544],[127.88319744300318,36.64529975374467],[127.8839619309811,36.64473907082465],[127.88382954403336,36.64468603903509],[127.88429936339497,36.644303799385376],[127.88435988886935,36.64346292390446],[127.88459498908342,36.64305224441892],[127.88511468873027,36.64252322188335],[127.88594212379525,36.64199405689555],[127.88692242670265,36.641573322364366],[127.88784428824047,36.64090423063254],[127.88825643528195,36.640844925820204],[127.88871591904295,36.64063789457511],[127.88894350737313,36.6404134808747],[127.88922964250361,36.63985788559718],[127.88938876798348,36.638076921112294],[127.88925078118379,36.63739083361398],[127.88926260996631,36.636944484273826],[127.88887884970443,36.63625591214784],[127.88810436987725,36.63544925456367],[127.88787336378802,36.63534691581059],[127.88780581418854,36.63486409443714],[127.88789858264397,36.634598832973715],[127.8887536136075,36.63339977982939],[127.88873412035218,36.63247981241934],[127.88856952661877,36.63160522154571],[127.8886101178031,36.63126934072628],[127.88877999232264,36.630716557142385],[127.88956942405369,36.62944286417737],[127.89017631118725,36.62885600207982],[127.89088910748536,36.6286614601026],[127.89229312601324,36.62847335562005],[127.89357955236768,36.628440860248794],[127.89448604619264,36.62805805962272],[127.89482866553426,36.627772518028024],[127.8964732061663,36.62695354941014],[127.89706394852183,36.62675461491174],[127.89778751994042,36.626633400785366],[127.89818663065246,36.6266169351755],[127.89907679563699,36.62687841723807],[127.8999325048729,36.627002656770095],[127.9011563757237,36.62705011683871],[127.90130901177767,36.62709907497537],[127.90190392722245,36.62770391342081],[127.9022889534193,36.62794464147929],[127.90306620660677,36.62802265495303],[127.90385465379218,36.627965396052225],[127.90426510462,36.62780033262949],[127.9049886560863,36.62745160112968],[127.90616460593779,36.626554680123384],[127.90700929595671,36.62633453059961],[127.90705905332312,36.62614697625256],[127.90811932082262,36.62606420354123],[127.90871106514962,36.62621031753065],[127.90906071345007,36.62640669065245],[127.90933889779791,36.626371797653114],[127.9096149089306,36.62600192927022],[127.90995228455911,36.62519341331482],[127.9094041181293,36.62450144577248],[127.90922170437399,36.624079057465536],[127.90952861992781,36.62267436317107],[127.91150709801063,36.61959925854925],[127.9121298886082,36.61806526029209],[127.91248899422966,36.61596371615623],[127.91292048824515,36.61515450781834],[127.91395528753772,36.613893049370205],[127.9149532013099,36.61288678459497],[127.91946849042631,36.61002239431356],[127.92011419225433,36.609303998956676],[127.91982545339042,36.607536163517246],[127.92018300428504,36.60403559237163],[127.92149892603794,36.601760132486774],[127.92273800376144,36.60229462581382],[127.92592207861297,36.6029389488771],[127.92747956814586,36.60312752582545],[127.92670252155249,36.60349987517175],[127.92558417797908,36.60446890198953],[127.92599148897263,36.60574072108743],[127.92550747028396,36.607753605521694],[127.92562614244535,36.60875858512282],[127.92489469853378,36.6102465130181],[127.92490481480492,36.61086429485555],[127.92511200758172,36.611983295360915],[127.92458234326911,36.61318753954516],[127.92548841185703,36.61451133458197],[127.92467745959033,36.615827533266305],[127.92491197874594,36.61661637718627],[127.92528418098917,36.616986726317045],[127.9264811931838,36.6170690023582],[127.92752617810416,36.617333901045775],[127.92877660851006,36.617376197440684],[127.92952217302795,36.617579528855835],[127.93063771539242,36.61828181195051],[127.93215722704142,36.618788202158164],[127.93367000177774,36.61959693661478],[127.93357417034463,36.620546227735716],[127.93312564398474,36.62134372048551],[127.93273281705928,36.62286671093921],[127.93205742365542,36.62431348483585],[127.93172271623258,36.624770178994375],[127.93227314483651,36.625577698310686],[127.93284574304855,36.626099907655004],[127.9330098038705,36.62726869297365],[127.93335498033177,36.62844847730047],[127.93325618921003,36.62955963500946],[127.93442541779379,36.63041517154029],[127.93467146349346,36.63131228770738],[127.93531935894556,36.63251695779454],[127.9366315594571,36.633770075052205],[127.93626878175607,36.63458444071923],[127.93519968263477,36.63584163768064],[127.93457049475124,36.636080301691216],[127.93391678933475,36.636823455553916],[127.93451247910679,36.63923407312211],[127.93456379488988,36.64024978966135],[127.93445196494359,36.6410801868113],[127.93467452799231,36.642033569556716],[127.93502009202895,36.642704637435656],[127.93547871072302,36.642852426995596],[127.9357663083227,36.64307823879299],[127.9359476289301,36.64506894041741],[127.9381547063538,36.64614399483242],[127.93892329291079,36.6463580690414],[127.93942730127321,36.64666663682705],[127.93947771964471,36.64703708538808],[127.93931332723746,36.648076612585406],[127.9388271360697,36.64897598270435],[127.93912820354565,36.65252953740818],[127.93909781967812,36.65323709937395],[127.93661865710148,36.65346486676506],[127.93416309511014,36.653791707135454],[127.93176887095437,36.65518886015395],[127.93166198029874,36.656497308259326],[127.93173263328995,36.65686851201073],[127.93169231325388,36.65744005708842],[127.931934847675,36.65878750563492],[127.93150992329454,36.660350264980316],[127.93229048344938,36.66186715957513],[127.93220986541334,36.66495048978515],[127.92979249346183,36.667020387277205],[127.92949848698412,36.66919770021797],[127.92772167816378,36.6693522359552],[127.92338830187974,36.66840407293035],[127.92182459045728,36.66896785262705],[127.92019889447599,36.66894313477117],[127.91853144699591,36.668258702102605],[127.917771106137,36.66758786030269],[127.91745499808225,36.668776626684014],[127.91599528019458,36.671883631180684],[127.91551164491447,36.672328852458314],[127.91490719723139,36.67269677382117],[127.91429945316348,36.675081408204484],[127.91336577514483,36.676441667844024],[127.91292804288412,36.67769773666693],[127.91251691152996,36.67819674170868],[127.9104798909272,36.67809229221663],[127.90986271134186,36.678168143283294],[127.90939127362263,36.678654129331896],[127.90886068167633,36.67944580826522],[127.90833974728717,36.67970101037531],[127.90629932912756,36.680145415402855],[127.90461895903036,36.68024940775441],[127.90350489564653,36.68074523291774],[127.90181815529941,36.6806507219852],[127.90112536892794,36.68075488941412],[127.90054174807841,36.681283885537404],[127.90009664702399,36.682355543695955],[127.89869482960849,36.682399357272296],[127.8968943996106,36.68143404145053],[127.89534821043009,36.68117031148972],[127.89447888329187,36.68127245883265],[127.89163193373615,36.68255676337955],[127.89119309356194,36.68253895733736],[127.89004381677886,36.681538836964535],[127.88932324270736,36.681259744057336],[127.88941162858772,36.68066464413928],[127.8881972227232,36.67936793674153],[127.88812688388671,36.67919395389858],[127.88749392648828,36.678655828686324],[127.88671200268183,36.678884250373386],[127.88590611472834,36.6793659521237],[127.88513248044698,36.67932837122217],[127.88481418813616,36.679540337067],[127.88441138202046,36.67924480761066],[127.88402526599498,36.6792027514319],[127.88287924706087,36.679313206437776],[127.88157913738166,36.68003611976341],[127.88136783365691,36.67969833920809],[127.88096950308848,36.679489477850474],[127.88082444820466,36.678993893758566],[127.88069730640922,36.67894976867972],[127.88064211862694,36.678819849844864],[127.87985823892615,36.67865176827671],[127.87925682770093,36.6789174041003],[127.8786992365264,36.67895573567405],[127.87843133352615,36.679193029101185],[127.87831936179677,36.67957754233145],[127.87807282864644,36.679465042764306],[127.87757623500146,36.67956945627085],[127.87721118250822,36.67974291781375],[127.87697620447446,36.67971330526945],[127.87690318510946,36.68011118908254],[127.87700973140467,36.68032332483137],[127.87695666311946,36.68064461472984],[127.87658810255014,36.6808358483302],[127.87626287396978,36.680870685731065],[127.87408239754885,36.68186315535071],[127.87474227880554,36.6825126653979],[127.87582461303752,36.68301316497978],[127.87648672917076,36.682835662371],[127.87748176207873,36.6822356332476],[127.87759110065194,36.6824941806359],[127.87808414015024,36.682366849970826],[127.87840737180119,36.68236467836427],[127.8786118377568,36.68246809593379],[127.87888499009901,36.68292464087836],[127.87907289357068,36.68303545203608],[127.87961825984037,36.68306580755526],[127.88016900327668,36.683193008014435],[127.8803473894817,36.68327532273384],[127.88077225616712,36.683713613894426],[127.88181977556378,36.683402438485615],[127.88198251958391,36.68344822944641],[127.88209324110092,36.6838227586693],[127.88186253174393,36.684688046467635],[127.8818529625979,36.68593346248372],[127.8816733764854,36.68624322593894],[127.88143354082908,36.68642561300349],[127.88068012666142,36.68663106729217],[127.88069156038762,36.68704595535541],[127.8808886804419,36.68728994827776],[127.88141006108094,36.68768792014544],[127.88262752634876,36.68784742989616],[127.88411193882568,36.687575066565806],[127.88582028997793,36.688243687949644],[127.88616688973995,36.68868545105399],[127.88636995704088,36.68926504711471],[127.88647149885277,36.69011209471636],[127.88683862220209,36.69062314024809],[127.88749385623373,36.6913394311218],[127.88859559241857,36.69186578865495],[127.8893756136148,36.691969979663675],[127.89082464413289,36.69231350240992],[127.89241587432373,36.69235975426322],[127.89351063169556,36.69213061881763],[127.89418241205254,36.692160673441926],[127.89437346648494,36.692315579157835],[127.89447163223974,36.692572248904355],[127.89447859375703,36.69329338558045],[127.89380398175992,36.6946534672084],[127.8941883302099,36.69491508228391],[127.89480365828237,36.694927362663876],[127.89537562725815,36.69471157519327],[127.89610897856191,36.69436266164604],[127.89779273332626,36.69328577594097],[127.89822952604477,36.69311324314842],[127.90011569662657,36.69321018099415],[127.90131691863508,36.693124957906505],[127.9024865435015,36.693318436505635],[127.90308526914573,36.69358868062211],[127.90373231209601,36.693602251687594],[127.90439750398107,36.69350952502749],[127.90662932389968,36.69269744759935],[127.90738534128062,36.69259449756425],[127.90782609349944,36.69264619965745],[127.9089052890206,36.69320171166232],[127.90927742368983,36.693271574493764],[127.91015670773943,36.69322214945791],[127.91104992333231,36.69298314567083],[127.91175046686358,36.692651000530894],[127.91270315916672,36.69264305771483],[127.91436712268114,36.693016526947844],[127.914739006405,36.693344886382924],[127.91497335201535,36.69377136906661],[127.9153763311282,36.693971652610465],[127.91584275387324,36.693986417065275],[127.91731123280944,36.693333169103575],[127.918139603938,36.692402725488556],[127.91854264330667,36.692267801607485],[127.91896069397652,36.69223345787209],[127.91990947798104,36.6923469802189],[127.92152585029642,36.69233206828936],[127.92194248538596,36.69219207975061],[127.92261553821254,36.692126204898976],[127.92392061334787,36.691642660050555],[127.92455050973153,36.69126283330307],[127.92517257751268,36.69122534761688],[127.92620879577025,36.69040236818434],[127.92657581861884,36.690308814132365],[127.9269046384072,36.69049015346574],[127.92720000349833,36.69045974363203],[127.92749883131991,36.69056960397385],[127.92799842675197,36.69058591097398],[127.9284024900574,36.690943078498194],[127.92847761878204,36.69091013302339],[127.92838801364874,36.69075771722929],[127.92799149455743,36.69047342002682],[127.92888230805299,36.69076375367062],[127.92877850823047,36.69091003608783],[127.92976969808177,36.692263657143776],[127.93058458250383,36.6925907854003],[127.93156757386188,36.69446882714728],[127.93183249347082,36.69559908220322],[127.9316341601445,36.69759600101386],[127.93145646790177,36.69814152034424],[127.93137739618302,36.69885666361079],[127.93161762463663,36.699966702776635],[127.93210965407903,36.70051595376455],[127.93290979492876,36.70385975669878],[127.93363325035314,36.70613182382257],[127.93446650696885,36.7054767667906],[127.93486392571458,36.705324487305695],[127.9351245579462,36.7051139858977],[127.93541389032711,36.70471654534833],[127.93567077951127,36.70458178978925],[127.93620211804321,36.70470001509568],[127.93733958808484,36.70480888581182],[127.9386215592936,36.705352932975536],[127.93914410402516,36.705379212109506],[127.93975237996476,36.70523489713248],[127.94092109728379,36.70474529317943],[127.9415608080194,36.70462739212056],[127.94272513946119,36.70409192122616],[127.94317707357345,36.70442175906252],[127.9449170660486,36.70484135905952],[127.94595174874055,36.70448175112174],[127.94647231996751,36.704442307435066],[127.94775963562334,36.705509752397276],[127.9490166813247,36.705685719499336],[127.94974500445824,36.706695236348104],[127.94961007987955,36.70803572128768],[127.94925132217774,36.70847893578014],[127.94909341505792,36.71044232215503],[127.95009401027613,36.71254485387789],[127.94962739777338,36.713511632034],[127.94873146443571,36.71402530002127],[127.94925104008766,36.715851392310455],[127.94881531077141,36.71753986913082],[127.94894698585296,36.71783010462556],[127.94948037713753,36.7182765264653],[127.95004585732057,36.71836649021974],[127.95042123522234,36.718258560797345],[127.95211951635966,36.71908593701632],[127.95253521569433,36.71943230606121],[127.95318329693686,36.71965536126863],[127.95431267120374,36.72062680622465],[127.95450853571265,36.72201984318278],[127.95512979438985,36.72351886113267],[127.95530462481169,36.72445908181293],[127.95612493526416,36.725617973246955],[127.95617118203829,36.725931206920336],[127.95496995751658,36.72674564595696],[127.95358794186923,36.72730688099069],[127.95353197374712,36.7281467130175],[127.95380848540493,36.72912237415423],[127.95468536140991,36.72987755102862],[127.95550922441002,36.73178004294843],[127.95606491079083,36.731870491039516],[127.95682420392026,36.73257867553496],[127.95684965835768,36.73336534764227],[127.95698096133985,36.733521433414616],[127.95717082142986,36.73414766583845],[127.95693172023442,36.73485993445223],[127.95703978633207,36.73554818509907],[127.95783334342272,36.73609781482339],[127.95849829992876,36.73681537639449],[127.95991414260047,36.736963573330605],[127.9605611161116,36.736317063294976],[127.96137735678995,36.73527901776393],[127.9616010503063,36.734325195852264],[127.96233265061996,36.73386254254308],[127.96293410974602,36.73265804067972],[127.96419079522092,36.73209885594138],[127.96516020462659,36.731441104930475],[127.96577668529352,36.731117103452114],[127.96937507699438,36.73132623878506],[127.97020311867863,36.731134158180126],[127.9708102380818,36.73080292521726],[127.97171999499788,36.72962359735923],[127.97191989465921,36.72927412147765],[127.97245776498123,36.727739648828106],[127.97301608657467,36.727003262342734],[127.97294025828941,36.72633665735891],[127.97356215908312,36.72601147073324],[127.97382914845224,36.72625329457988],[127.97388426932687,36.72622415579295],[127.97363950517601,36.72599256552712],[127.9740043719418,36.725673045340145],[127.97486724368721,36.725025926943],[127.97573030527596,36.72474164916764],[127.97635841346677,36.72433650006121],[127.97611494711252,36.72372757701439],[127.97646278991506,36.723464722816466],[127.97701952097681,36.722805318689346],[127.97854771505409,36.721977269029956],[127.97899679532816,36.72149975189638],[127.97913171640295,36.72109429998945],[127.9793809443809,36.72087532675621],[127.97988486651617,36.72069140172852],[127.98020611711243,36.72025699904043],[127.98045207576733,36.72030224685197],[127.98153325529364,36.71998129746794],[127.9825741627524,36.71951321653293],[127.98337914288095,36.7190634454388],[127.98376224617533,36.7184369621506],[127.9842169573999,36.71843718309343],[127.98482857761198,36.71877024288972],[127.98598135434757,36.71777322013858],[127.98685890255457,36.717442527979564],[127.98774923597162,36.71750231824558],[127.9884744181407,36.71736411048677],[127.98870051013186,36.71743588114819],[127.98928415009877,36.71738867117812],[127.99026460284239,36.71726734596881],[127.99074283682158,36.71711500004324],[127.99127180924897,36.71739067656408],[127.99161887673012,36.71798416216229],[127.99203744524469,36.717852250523165],[127.99341941236197,36.71777933039832],[127.9947013255652,36.71818827410029],[127.99486950314268,36.71835478083314],[127.99516578318688,36.7183980978603],[127.9958905376751,36.71832341161525],[127.9972214705816,36.7183485169569],[127.99793031211512,36.717912149481656],[127.99962173600886,36.71716244416332],[128.00032777887932,36.71739437984814],[128.00100388799035,36.71742351506654],[128.0018572159021,36.71775512346733],[128.00257838797285,36.71839551276881],[128.00279629180062,36.71884000270468],[128.00373923221065,36.71989356587351],[128.0041952729193,36.72114857664812],[128.0061175665618,36.72295360233568],[128.0059970244549,36.72398420676138],[128.0069850343124,36.72477056159399],[128.00655410144788,36.72537877867524],[128.0087058544038,36.7264919301141],[128.00940555846051,36.728308983237206],[128.01130701428875,36.72952352958068],[128.0141406777499,36.73008017218832],[128.0148888865638,36.73008827464881],[128.01586410995145,36.72862252862681],[128.01729919491584,36.72749767022725],[128.01955338065497,36.72488173917307],[128.01939132920566,36.72356953753295],[128.02094196773044,36.7218268638535],[128.02238848659542,36.72143899499489],[128.02372520125303,36.72044921382267],[128.02451592741602,36.72005705046883],[128.02550826437914,36.719032523330775],[128.0258037438981,36.718499790063234],[128.02685434483033,36.718649242725995],[128.02721484985872,36.71881818933899],[128.02917591926186,36.718974559936974],[128.03076060267492,36.718772486664875],[128.03142965764104,36.7185282308508],[128.03297606821448,36.71695657312839],[128.0339841898777,36.71659871838743],[128.03466321876184,36.71612846484164],[128.03539620186885,36.71578963958175],[128.03611027579316,36.715343233634016],[128.036602833397,36.71518355906236],[128.0373061780639,36.71526182925104],[128.0379552692136,36.715172458818046],[128.03898644582534,36.715325536098106],[128.04005034486673,36.71468226986309],[128.04169519519547,36.714381173192905],[128.04367031616644,36.71327150415635],[128.04530453975153,36.712154890562104],[128.04560548724706,36.71152284869598],[128.0455447504907,36.711015830961905],[128.04652636839427,36.70909096075223],[128.049168519329,36.70743583372846],[128.04968126526856,36.707198652760006],[128.05056350884024,36.707161893767875],[128.05106912827367,36.70722330666907],[128.0516586310751,36.707395231847684],[128.05312842025415,36.707633656369964],[128.05412669243017,36.70820788537782],[128.0553984958772,36.70865273947908],[128.05662020930984,36.708527732161876],[128.05893769875692,36.70864695292218],[128.06016709090804,36.70845649640939],[128.06140679821098,36.708404032231556],[128.06175939318243,36.70821198282694],[128.06303234286858,36.708089444509575],[128.06378912399987,36.7078664186621],[128.06610270900606,36.70789883265764],[128.06665924094582,36.7081295387856],[128.06745612757268,36.70810811548427],[128.06885172818005,36.70795844134042],[128.07079269132444,36.70741311777663],[128.07145798208785,36.70823816472078],[128.0713912940164,36.70888399636036],[128.07219050887198,36.70975017035466],[128.0728184177804,36.71062731201076],[128.072952911883,36.71126930569626],[128.0731949211067,36.71174485082922],[128.07308524783159,36.71237149025349],[128.0728925078324,36.71258462489929],[128.07289319833524,36.71287458598933],[128.0723080656535,36.71348196484855],[128.07205381994493,36.71415568798817],[128.07203319358382,36.714871984315614],[128.07154559082232,36.71585954849791],[128.07090123311704,36.71653828758468],[128.07067547635327,36.717515061518085],[128.07028768767682,36.71806368505615],[128.06986219920393,36.71831995080994],[128.06975185339527,36.71872178413313],[128.06894137801055,36.71989895289544],[128.0683741307202,36.72033015629801],[128.06825351805728,36.72063392628504],[128.06828060905488,36.721256649635684],[128.0685080026964,36.72178220764036],[128.0684575407729,36.72212915856822],[128.065923292256,36.723951068606844],[128.0652411511985,36.72422645183704],[128.06402842055186,36.72500078923621],[128.06269872167923,36.726293321448104],[128.06209365082694,36.72621844652366],[128.0607459450134,36.72705052311127],[128.05856344680998,36.73030824061153],[128.05733700057797,36.73122518322347],[128.05620869401503,36.730441549403714],[128.05561396346744,36.730566651583175],[128.05399316923405,36.73205024965737],[128.05287181111837,36.73355039050824],[128.052160901118,36.7353372518642],[128.05086107248857,36.73687534716811],[128.0489644897391,36.737717165507334],[128.04749135265033,36.73852764546498],[128.04642280283008,36.73926753830782],[128.04464074938812,36.739741349412945],[128.04250753838016,36.740734269594654],[128.04011292235091,36.742274835047844],[128.0385110471469,36.74367194950466],[128.03698947033774,36.7443264128172],[128.03638979078733,36.744448544144554],[128.03503061066132,36.745425196710364],[128.03440365860249,36.745610251515316],[128.0336567457329,36.746721070536225],[128.0323424686149,36.74760068022828],[128.03262782011686,36.749371906204146],[128.03234877661987,36.75055149314711],[128.03267208966642,36.75267820049493],[128.0322049679685,36.75442558481633],[128.03226524188165,36.75519179653339],[128.03290435809055,36.755702050233396],[128.03350598083262,36.75680224098253],[128.03427499447145,36.757419112662674],[128.034527383051,36.75813869331036],[128.0358422504965,36.75907191177379],[128.03631280597327,36.7599568562697],[128.03743698095067,36.76109452609515],[128.03758509337902,36.7615423192332],[128.0381652824093,36.76230409148008],[128.03870465864807,36.763259894439244],[128.0389633014727,36.76402517329051],[128.04012660352123,36.76570210702615],[128.040540075566,36.766064414716425],[128.04072821446388,36.76673387713895],[128.04110648832415,36.767283693694],[128.04117610236784,36.7683310509279],[128.0415712960243,36.76843304750571],[128.04206846539032,36.76844518874925],[128.042519151524,36.76896377647713],[128.04375301135607,36.76984965061211],[128.04472226405207,36.77106063387126],[128.04467532529068,36.771894522800764],[128.04480457947167,36.77237585556974],[128.04458580091537,36.7724882117331],[128.04475886099775,36.773972582516805],[128.04457625874653,36.77458028251128],[128.04576477601293,36.77690302268955],[128.04569432561806,36.777968607222164],[128.04684559757933,36.778589293314],[128.0465688104417,36.77937105092522],[128.04562123741326,36.78128403241418],[128.04557234578343,36.78242986745548],[128.04667252072818,36.782940320725736],[128.04832500534255,36.783208198869104],[128.04876717738048,36.78362921513469],[128.05005390844454,36.785574657432164],[128.05049406794927,36.78729819739513],[128.0511812150056,36.78883137109539],[128.05320715563985,36.791631020793474],[128.05416240994992,36.79226387116749],[128.05492677728648,36.79260960887075],[128.05550219431024,36.79437766345208],[128.0555161382675,36.79551971110829],[128.05568837345112,36.795877941711964],[128.0553235441452,36.796240079874835],[128.05521542167514,36.79676928120767],[128.05569432235538,36.79729268161746],[128.05563510850786,36.79767670238606],[128.05608756979356,36.798332872879655],[128.05597068038037,36.79885085824485],[128.05549130899493,36.799451638780404],[128.055515546672,36.80031282049155],[128.05514522463412,36.80104820383678],[128.05510230086136,36.80293038528046],[128.0549357110499,36.803989197358845],[128.0539835037131,36.80517506668737],[128.053833080165,36.80518511543511],[128.0540769009272,36.80561598578173],[128.05505151570895,36.80612588654315],[128.05795568690675,36.80699944542193],[128.05773351308403,36.80830678794447],[128.05683717045542,36.80910052294691],[128.0569011907377,36.8095299968527],[128.0575935646818,36.809721793258284],[128.0578210821144,36.8099149755207],[128.057850057107,36.810235330161795],[128.0573982083307,36.810471228929806],[128.05751104081557,36.811354673086285],[128.0577046790989,36.81174937512963],[128.05824221524753,36.81206089080468],[128.05863510174623,36.8131328136431],[128.05939495533104,36.813626020489764],[128.05930000989733,36.81639825844551],[128.05720139307488,36.81735741237288],[128.05681747584686,36.81722316166913],[128.05551064949807,36.81866064582164],[128.05464710261924,36.81909430026966],[128.0538590307531,36.81880123772762],[128.05288550616422,36.81880458907213],[128.05256761510822,36.81866009170549],[128.05150162479475,36.81901350110667],[128.0503493406895,36.81965421302447],[128.04959534398276,36.820833624132014],[128.04888963002986,36.8215013713724],[128.04836913572566,36.82142079633951],[128.04726226751885,36.822256165949],[128.04635453977448,36.82213439839525],[128.04620007615,36.82204826963568],[128.0451934460471,36.821847784086025],[128.04520669652462,36.8216752355618],[128.04241702176324,36.82062199999854],[128.0391120815897,36.8214651613902],[128.03642373734468,36.82462235555815],[128.03547512570478,36.82498437420476],[128.03191751483243,36.825279773823546],[128.031237665377,36.825062097381],[128.03029333924613,36.82534069684204],[128.02844090779067,36.82488248961035],[128.02743052310896,36.825247822443515],[128.025564618603,36.825602615196075],[128.0240044442348,36.82600149952267],[128.02361205971118,36.82556451066251],[128.0235082814298,36.82522404490531],[128.0229659212297,36.824805889261015],[128.0238156393996,36.82343204757088],[128.02383722606103,36.823016425779215],[128.02320937543826,36.82231238833518],[128.0228588677863,36.81967674631499],[128.02274553076478,36.81919589484558],[128.02254196260597,36.81887559312848],[128.02252886774608,36.81816207934342],[128.02212302358876,36.817380071364944],[128.02243340828406,36.81703469201632],[128.0234320608008,36.81623639251079],[128.02365564888117,36.815275008562814],[128.0233953869209,36.81418408641216],[128.023075493721,36.8135813350549],[128.02298465049304,36.81312470846774],[128.0227652779725,36.8129362481865],[128.02237953698764,36.81286559563908],[128.02167158659427,36.811955473935406],[128.02128986457822,36.81118495183198],[128.02109594516094,36.810285795534064],[128.0192803379181,36.809060775282006],[128.01857820378487,36.808718124985106],[128.01819871523404,36.8082571833361],[128.01747950187655,36.80801988349747],[128.01663189530223,36.80785809997324],[128.01578288907896,36.80807811076986],[128.01509042309294,36.80851354322249],[128.01370916465027,36.808750223480544],[128.01314208564506,36.80824116064782],[128.0124001574135,36.808006948841836],[128.01209311223494,36.807279854049064],[128.01157621971606,36.806794539118926],[128.01159528416952,36.80672188129481],[128.00984004327555,36.80737471356329],[128.0089917751331,36.80806068088921],[128.0070216783336,36.80890831257905],[128.00513942623436,36.809960504854935],[128.00368579902667,36.8105534491375],[128.00195824877517,36.81037945509893],[128.00013204849242,36.81112989806966],[127.9996444637053,36.81158515130913],[127.99866687114663,36.81216865483404],[127.99774307491026,36.81290571273217],[127.99535774016513,36.812863858553975],[127.99393952038483,36.812692615019365],[127.99251874657833,36.81261594290939],[127.99142300389906,36.812943552780546],[127.99116183619464,36.81327958797191],[127.99022977671373,36.81377119516859],[127.98825105324781,36.81501027843097],[127.986572213701,36.815698680958604],[127.98524027692933,36.81606364622465],[127.98241044650794,36.81597942637526],[127.98244372801571,36.8168012316119],[127.98308968842906,36.81787237617388],[127.9827325274642,36.81863733928115],[127.98241391544191,36.818879019598086],[127.98226921049701,36.81968482251605],[127.98173888892768,36.820252296573415],[127.98224809564019,36.82153734236084],[127.9823452838042,36.822003075617395],[127.98183637000979,36.823454725858824],[127.97923657728919,36.82361592239154],[127.97691268052787,36.823461472198],[127.97600706295933,36.82365556349385],[127.97508202577903,36.82424495841485],[127.97380099238958,36.82472213966215],[127.97304371767488,36.82507057113247],[127.97241605949067,36.82546242728651],[127.9717167178747,36.82633632137418],[127.9716138238362,36.8280808484185],[127.972094711868,36.828351478558105],[127.97237967796251,36.829031275635494],[127.97313814421324,36.829746220650634],[127.97328691576688,36.83032529983755],[127.97355082594343,36.83061348427206],[127.97351200261764,36.83079466467722],[127.97379217571263,36.83161493537246],[127.97444504010669,36.83317830268111],[127.97535271462786,36.834527441467294],[127.97610148962902,36.835213971581915],[127.97666933286489,36.83560250589988],[127.97718657206225,36.83613698847582],[127.97653492013693,36.8369082293904],[127.97639377325339,36.83726231478232],[127.97572572102655,36.83807993744547],[127.97546756982375,36.83878088253867],[127.97542227542671,36.83968675013928],[127.97439420626198,36.8420528347803],[127.97371710830134,36.84197049476913],[127.97343326279632,36.84244013315013],[127.97229365890713,36.843195010913135],[127.97225120952986,36.84366200864218],[127.97134193355815,36.84497093379834],[127.9702327266809,36.84534053048168],[127.97007632179272,36.84567663920823],[127.97040143789133,36.847498030337476],[127.96924844474214,36.84835975428785],[127.96813363974333,36.84960829785015],[127.9677367283499,36.85027117471077],[127.96689256281391,36.85100924579672],[127.96786433491623,36.8530602403219],[127.96795886830552,36.853076519920776],[127.96796018728084,36.85397560784819],[127.96814219613907,36.85529576844868],[127.96896231790481,36.85667389133899],[127.96854259315468,36.8569194337075],[127.96807763762511,36.85745641680525],[127.96798700779921,36.85759847715441],[127.96802178417423,36.85779285823273],[127.96848032443752,36.858531989239985],[127.96920073007126,36.85906384448734],[127.96932791073688,36.85924619188856],[127.96755874109066,36.859993607412804],[127.96562077738753,36.86062519167798],[127.96522502432343,36.86066582122141],[127.96339612068711,36.86114813363177],[127.96266670604257,36.86152651436209],[127.96191319354557,36.86257406988332],[127.96121471449858,36.864085411316175],[127.96076731978194,36.8645769469036],[127.9606087513412,36.865068685175],[127.95966417540998,36.86588171354326],[127.95796380980394,36.867111607907134],[127.95722533899868,36.86731797977301],[127.95702383339582,36.86754657049916],[127.95703026907726,36.867904861489365],[127.95665412713161,36.86840528602813],[127.95505002314673,36.86885527159561],[127.953990636042,36.869313421838065],[127.95313159935044,36.86984914439122],[127.95228158747476,36.87063614835377],[127.95085990297109,36.87157207303988],[127.94993513445391,36.87228763658751],[127.94839803667705,36.8728068926692],[127.94765621216264,36.872572352408774],[127.94647744559008,36.87237247004406],[127.94589478444466,36.873121728101026],[127.94542909301855,36.8735002977103],[127.94510611390929,36.874915426419506],[127.94545513693024,36.87561672479051],[127.94570709271396,36.87588415836828],[127.94689007935295,36.87636302054701],[127.94760375423238,36.87733058495401],[127.94788221651443,36.877488998513975],[127.94784727607168,36.87800965665479],[127.94766286858426,36.8785030328616],[127.94793064431647,36.87891130456214],[127.9481218160031,36.87959305811129],[127.94842071521768,36.879986077648695],[127.94870024671441,36.880884963272614],[127.94863385144696,36.881195249866806],[127.94896971556734,36.881807770102654],[127.94933571938394,36.88223102526085],[127.94941029557626,36.8828713004434],[127.94991427135749,36.88302519786967],[127.95008597768384,36.88316373469414],[127.95108292330298,36.88434996421305],[127.95154665342876,36.8844964189731],[127.95154496331799,36.8846416187655],[127.95189407023798,36.884727491926476],[127.95176052337746,36.8854518922371],[127.95116056027894,36.886314748568275],[127.95069096167545,36.886620366865614],[127.94984813555178,36.88699564393985],[127.94660886901126,36.88779664318003],[127.94594597916236,36.88809881965398],[127.94423937748375,36.88812820351974],[127.94270020023593,36.8879204837776],[127.94248170747007,36.88779352570153],[127.94005076782878,36.88774918954143],[127.9395600680257,36.88793985368785],[127.93886416563954,36.88800863483305],[127.93748804715732,36.88843550153875],[127.93719636748428,36.88841426319363],[127.93581556449286,36.8878533070037],[127.93527749758161,36.887822295926135],[127.93451326199965,36.887542301751694],[127.93357620076796,36.88738288877384],[127.93224079891432,36.887572467749436],[127.9312921091018,36.88804952008271],[127.93089316190145,36.887726004460546],[127.93068977840538,36.88800014702277],[127.93037872245401,36.88796636615618],[127.92921896775266,36.886125567823164],[127.92746414674166,36.88549380947095],[127.92723364121876,36.88486832304101],[127.9269860095613,36.88459577249731],[127.9264921060516,36.88461380655178],[127.92614258481194,36.884222466636245],[127.9254395668234,36.88378359424646],[127.92429695776462,36.88290871332026],[127.92290117982745,36.882277565105504],[127.92162602150421,36.88182992319577],[127.92022591776632,36.88150350607817],[127.91935638387619,36.88119242991131],[127.91869882515425,36.881272313221],[127.91772765041888,36.88105367393399],[127.91747497593592,36.88109877366785],[127.91732733920547,36.881492928459174],[127.91697050044756,36.88197349417976],[127.91647873508494,36.88217348628687],[127.91627619511463,36.88212942521938],[127.91602109934638,36.88257462905844],[127.91582674755558,36.88260123780993],[127.9157033080831,36.882881731642115],[127.91519170903803,36.88312354765706],[127.91499232836357,36.88373453027752],[127.91415938541337,36.88458885489097],[127.91413229371958,36.88477800672145],[127.91388629625817,36.88505571015379],[127.9136511313685,36.8856867443359],[127.91245317070079,36.88575983710755],[127.91167787017329,36.886060489375346],[127.90998418206273,36.886529025916126],[127.90920052290471,36.885834059503765],[127.90841014993445,36.88586400964941],[127.90809383446414,36.886191426263714],[127.90711075087945,36.88646888174599],[127.90647619520101,36.886448764655434],[127.90573524825847,36.88702918282208],[127.90444510607293,36.8872432301723],[127.90354012658823,36.8879574871724],[127.90362432582323,36.888521020812554],[127.90341080167158,36.89160045985722],[127.90360193130356,36.892028922343265],[127.90309154059851,36.89259666189959],[127.90312462556764,36.89357353805837],[127.9025200668259,36.894338044493956],[127.90225844692117,36.89490300099761],[127.90179011939061,36.895494581815434],[127.90117314966379,36.896035501662745],[127.90096678554552,36.896782647788825],[127.90064505658194,36.89735031844178],[127.90006810275703,36.896427059432206],[127.89943958100653,36.895870669134545],[127.89812194583614,36.89495429069275],[127.8959535675517,36.89294365974609],[127.89485668027963,36.89235790630026],[127.89392368694655,36.89195929553222],[127.89306070424908,36.89164054447013],[127.89211743056714,36.89143805022727],[127.88467118801705,36.890501304897356],[127.88309253288664,36.890208937694894],[127.88217312691849,36.89307051013183],[127.8815597198432,36.895891593942906],[127.8786085066929,36.89577311987423],[127.87583270523086,36.89581682476295],[127.87413873642913,36.89562509679865],[127.87218936707544,36.89560695988135],[127.87019079223991,36.89659742914702],[127.86931217734335,36.89692752878405],[127.86789443202882,36.89713890243109],[127.86716326617311,36.896973560424364],[127.86616965765405,36.8968696583385],[127.86560629456241,36.896587444289985],[127.86478571315534,36.89651980082491],[127.86401986021251,36.89628960879999],[127.86244588091742,36.897784786394844],[127.8608930006898,36.899505099706836],[127.86048693438066,36.8997716967866],[127.85989558988229,36.89985635372895],[127.85951196791967,36.90088264130016],[127.85934892093323,36.90198670048605],[127.85908726092669,36.90291742221007],[127.85858933208429,36.90336440146554],[127.85833316410755,36.904920895818236],[127.85686677026234,36.905995941055],[127.85592805848476,36.90633171920371],[127.85504801757352,36.90724218695035],[127.85357865812266,36.907662103264514],[127.85286990021004,36.907984793008886],[127.85246548735728,36.90926052952644],[127.85161504010446,36.90938948630617],[127.85096616034201,36.90899420085342],[127.84986374674995,36.908989975763895],[127.84794176453659,36.90930262230059],[127.8460857435177,36.909225481290605],[127.8440374846346,36.91054643801487],[127.84378182039566,36.91111846067571],[127.84333918020344,36.91093616904847],[127.84149792106716,36.91119126293003],[127.84107579466766,36.911478774021454],[127.84057288900229,36.912259503014354],[127.83918318041374,36.91257452658098],[127.83795505954532,36.91364405461184],[127.8381424781211,36.9141976607688],[127.83855132104051,36.914580814917045],[127.83919487622656,36.91497599915379],[127.8397780660004,36.91580586200439],[127.84028675643665,36.916031150735314],[127.84119022863757,36.91691049503658],[127.84212398303448,36.91738431749628],[127.84212077185106,36.91774917912102],[127.84175626328363,36.91815776888552],[127.84158309305572,36.91821470588781],[127.84057752394219,36.919325629409194],[127.8399619304103,36.91983202844462],[127.84087729104766,36.921055906392596],[127.84240617031894,36.921683281867],[127.8419433693853,36.92235560230354],[127.8420198683037,36.922653538546804],[127.8418325155841,36.92333145995019],[127.84241615342754,36.9238982784971],[127.84245075367997,36.92414248973666],[127.84233351088929,36.92458748049198],[127.84246630837963,36.92541367675236],[127.84293373467631,36.926114977638406],[127.8431575549029,36.92662202228486],[127.84300067599412,36.92773697709641],[127.84234186702153,36.928379432281574],[127.84170737442201,36.92848045203652],[127.84116146922466,36.92902774962658],[127.84013861592136,36.929732773185876],[127.83985225004272,36.930053337802605],[127.83767951797323,36.930134691934065],[127.83664536832111,36.930516340641596],[127.83578868332064,36.93035881692175],[127.8356783924994,36.930095481797835],[127.83538048504873,36.92997756278793],[127.8347354929791,36.930854494695495],[127.83462072689835,36.93119480862905],[127.8347322537264,36.93188815764779],[127.83465780020545,36.93204864417683],[127.83363378660708,36.93295976629975],[127.83355739180085,36.93316410314155],[127.83311658535459,36.933169489596146],[127.83272290024543,36.93329826616167],[127.83241449238388,36.933495818616365],[127.83253834848442,36.93401554026793],[127.83227802580355,36.93472121342176],[127.83224186177806,36.93509038748741],[127.83180747536808,36.935405361778116],[127.83207704016924,36.93662131414391],[127.83230272249705,36.9369727426919],[127.83298178208837,36.93712701858752],[127.83344782776518,36.93743174556356],[127.83311533163287,36.93788077404212],[127.83320073158482,36.93827738981683],[127.83299433269215,36.938469200064745],[127.8329387905913,36.93985041732829],[127.83243202177665,36.93983024716947],[127.83200867386698,36.94008788245915],[127.83159581665234,36.94018277741467],[127.83043076941361,36.939826580216206],[127.82973405494025,36.94005276702056],[127.82941700661328,36.94046659828469],[127.82875700408371,36.94036503367437],[127.82803786792535,36.94038196360296],[127.82762231085167,36.940416454300646],[127.82724569413188,36.94056153045497],[127.82618980202147,36.940416534532645],[127.82620790517625,36.9407806517425],[127.82586159949406,36.9417713740841],[127.82581150747909,36.94216594446936],[127.82569424798737,36.94223921123653],[127.82533279288262,36.942126393236805],[127.82508101023157,36.942159441037454],[127.82465787377642,36.94196015976454],[127.82410166685688,36.94245992888999],[127.82405910628847,36.942802175064415],[127.8215750499337,36.94344675168466],[127.8210554570017,36.942589810668665],[127.82048221355967,36.94264158307649],[127.82030660452442,36.94245431860021],[127.82013179234774,36.9420181511437],[127.82022297002196,36.94145088199489],[127.81973238448333,36.94137237508579],[127.8193775345644,36.94106854937622],[127.8190291906186,36.94115929505929],[127.81789136971886,36.94096782791814],[127.81713979821421,36.94118725293501],[127.81626673881222,36.94109020898941],[127.81600258910179,36.941268007887295],[127.81497534617444,36.94054858560114],[127.81435563272615,36.94073613133525],[127.81292969821462,36.940669733622755],[127.81193518482644,36.94074146383626],[127.8110499800031,36.94015116973319],[127.80944248809936,36.939582608296945],[127.80829204130775,36.941060661754946],[127.80771261058838,36.941095177242545],[127.80715542145823,36.941590640241145],[127.80736818868759,36.942534921042466],[127.80723112431069,36.94331007748111],[127.80741745604223,36.943528203656044],[127.8073567151371,36.94425204863221],[127.80705564710019,36.94457192189881],[127.80663932198016,36.945964142272175],[127.80554897163627,36.94606571691808],[127.80539330339433,36.946209272602786],[127.804667482695,36.946184476507106],[127.80330593964244,36.94663678060084],[127.80284383479564,36.94663692682007],[127.80097557066965,36.94750901121336],[127.80071682520247,36.947546560215365]]]}}
