{"type":"Feature","bbox":[127.44538408864797,36.83382689861472,127.798487262824,37.15527621864686],"properties":{"regionCode":"43770","version":"vworld-20260909-3f8952dfda77-p2","name":"충청북도 음성군","attribution":"국토교통부/K-Geo플랫폼 · VWorld 법정구역정보, CC BY 2.0 KR; 공공주택 복덕방 가공"},"geometry":{"type":"Polygon","coordinates":[[[127.62989721384139,37.15411727693346],[127.62990477357283,37.154391620880766],[127.62966003802777,37.154481877513454],[127.62969025468678,37.15458548057226],[127.62916975217988,37.15478028490706],[127.62833149107705,37.15527621864686],[127.62746210884048,37.153878854319835],[127.62732619323747,37.15304851769044],[127.62732334696766,37.1522577003539],[127.62745845157065,37.15172947672409],[127.62791218819198,37.15136153516098],[127.62857872315625,37.151012599272946],[127.62928622951486,37.14976677288119],[127.63113723794808,37.14786100774711],[127.63112958616482,37.14693805420635],[127.63201651150315,37.14693333779092],[127.63275209442486,37.14587781153854],[127.63294439544316,37.145682606218784],[127.63344775276354,37.145436472100315],[127.63430275696017,37.14461510945402],[127.63466237539689,37.14398221086321],[127.63493441173381,37.14368951317404],[127.6354117721814,37.14342313991449],[127.63563508049131,37.143196927333946],[127.63601193152773,37.14304325763435],[127.63699848211643,37.14243233034437],[127.63744256121561,37.14202792213625],[127.63777098359466,37.141191680506026],[127.63768830014331,37.14047083463855],[127.63742860924714,37.13991612394016],[127.63753426792024,37.13960791553718],[127.63748379260153,37.1391271056322],[127.63724016728614,37.138534445755646],[127.6369408201219,37.1372903276206],[127.63667270628862,37.13679224657016],[127.63676642003205,37.13669795616926],[127.63666501124261,37.13587175985821],[127.6363823295984,37.1345776763465],[127.63647435549815,37.13287412822415],[127.63640793970609,37.132493272717014],[127.63584263791739,37.1309302553823],[127.63550524551799,37.13020588349186],[127.63517090195265,37.12974382463662],[127.63503549177895,37.12879354420967],[127.63494175851636,37.126932234467105],[127.63423776432639,37.12424467251985],[127.63398209812415,37.12373931007185],[127.63387652032651,37.12237355991828],[127.63398068819606,37.121485586747674],[127.63389565669101,37.120468555775616],[127.63310943306202,37.1201662399317],[127.63438680122799,37.11808740927277],[127.63506100766642,37.11567545705901],[127.63627512242051,37.11447313746852],[127.63599353248905,37.11253850697341],[127.63495509846788,37.11004262810728],[127.63468553758396,37.108811655716636],[127.63412343055658,37.10727630471283],[127.6343356382443,37.10693256710274],[127.63493865719995,37.105250468462664],[127.63511790263232,37.104707822059474],[127.63519707218344,37.10405766457528],[127.63447135607677,37.100495249137104],[127.63454167617724,37.09983573222844],[127.63429345931993,37.0990421465324],[127.63181940831342,37.09647603464815],[127.62506165715642,37.09330843281788],[127.62198740513017,37.09204465407393],[127.62059796283529,37.09114842727743],[127.61941240456184,37.09019939137786],[127.61942293519738,37.09149642114635],[127.61855149648774,37.09094719330504],[127.61609848088823,37.089899868519026],[127.61506546461462,37.0891879262158],[127.61480683022428,37.08877034112678],[127.6137951163928,37.08803268165845],[127.61195077116004,37.087256222391126],[127.6094055029487,37.08681448333468],[127.60847530932793,37.08672588895188],[127.60735292383278,37.08645015879717],[127.60599260647341,37.08644061926304],[127.6048308031589,37.086558255386116],[127.60422624719362,37.086727530391364],[127.60391260084367,37.08748496656504],[127.60348920924224,37.08757821283481],[127.60206057528085,37.08772799379182],[127.60119722151367,37.08773381047335],[127.60042659107332,37.08744525999199],[127.60017252989982,37.0871523336531],[127.59955623308548,37.08583054938087],[127.59990229870604,37.0849777097062],[127.60024469783227,37.084437738440826],[127.60013580625242,37.083486347828924],[127.59955542009718,37.08231118965453],[127.59955978380698,37.08157683954966],[127.5996779510802,37.081568423702734],[127.59975899360552,37.08144424665675],[127.60018564771812,37.080596872508984],[127.60050848501587,37.08035191511833],[127.60084519228734,37.07994883415527],[127.60109169536217,37.0798818805976],[127.6020306054285,37.079276436726374],[127.60245165419092,37.07886630869273],[127.60274388658975,37.07835622117854],[127.60338542602108,37.077791561010024],[127.60328989193101,37.07773861307447],[127.6038040399668,37.077187957915896],[127.60371906459216,37.07715055436647],[127.6038768608623,37.07689571879465],[127.60380412017065,37.07684240334806],[127.60407684702486,37.07667064008343],[127.60458323195256,37.07651566236418],[127.60494425366159,37.07616048077718],[127.60507923102743,37.07574445363584],[127.604895155508,37.07499091381629],[127.60507859270797,37.0749899798251],[127.60484639487676,37.0743007148394],[127.60432907857599,37.073875625112876],[127.60420249981962,37.073127593415165],[127.60410807834937,37.070548373962566],[127.60445831088505,37.06970281320696],[127.60518582116774,37.06887599345373],[127.60372915193074,37.06853103254285],[127.60295171739759,37.06855792889572],[127.6028261658136,37.06914078660094],[127.60210208751377,37.07055324018785],[127.60180514294358,37.07060929224576],[127.60123843419588,37.07099628599898],[127.60078701497197,37.0708930003604],[127.59994774411417,37.070453516106106],[127.59950976995259,37.07057706860859],[127.59877818286475,37.0710302349271],[127.59850884659784,37.07199234785207],[127.59816002594394,37.07260318386613],[127.59770232547633,37.07308328558244],[127.59627331194315,37.07371103184169],[127.59564271231095,37.07373889863724],[127.595228627598,37.07386634445202],[127.59353948343048,37.07348392936946],[127.59194355573251,37.07289450518464],[127.59164013917054,37.07311300721403],[127.59050457483684,37.073409680250826],[127.58928040277573,37.07281806820691],[127.58865129007302,37.073005862959],[127.58840852584456,37.073366899814054],[127.58742329588354,37.07408211365135],[127.58722987426106,37.0745084672307],[127.58677064208189,37.07440595976791],[127.5852736715073,37.07452955175286],[127.58305732548025,37.07547467781407],[127.58228929387421,37.075270117702665],[127.58237115970172,37.07476583987534],[127.58220175389573,37.07470439504809],[127.58181582904616,37.07500112641435],[127.58113111828484,37.07515110272301],[127.58083747164517,37.07540551584674],[127.57917881342344,37.07550438588524],[127.57798008184209,37.07534734483675],[127.57725611062983,37.074538814621555],[127.57709116199837,37.07392819132225],[127.57598541851156,37.07359446652789],[127.57549279048543,37.073110616775004],[127.57526503724527,37.07227537952441],[127.5748786073775,37.07180799734136],[127.57436530220227,37.07134136413688],[127.57389892017879,37.07155879433052],[127.57376290749026,37.0714922775973],[127.57369875963421,37.07133094854212],[127.57412883829676,37.07120543739744],[127.57415458610963,37.07114075257705],[127.57375340417332,37.070742099227104],[127.57368130487838,37.070544818764915],[127.57373329621684,37.06998132831459],[127.5733221228351,37.06953442777257],[127.57203045203228,37.06913146948059],[127.5704075650567,37.06788164517924],[127.57064319805251,37.067397062645945],[127.57027312626447,37.066364826629176],[127.56931952816063,37.065536244469186],[127.5687467949966,37.06534696137891],[127.56845887588851,37.06477648301102],[127.56747334275025,37.06394032674911],[127.5672156514061,37.06353804626573],[127.56619246280103,37.063342462550985],[127.56577995637593,37.062835195934426],[127.56592726783823,37.062229502427606],[127.56572306407593,37.062004792852505],[127.56546589658382,37.06126697116951],[127.56496072023788,37.06059252768137],[127.56504600328995,37.05999866154414],[127.56472476305062,37.059240949623536],[127.56543746432172,37.058477875282506],[127.56555774976209,37.058170989607255],[127.56618494451205,37.05762959165367],[127.56663986465422,37.05695108355372],[127.56826300153324,37.05590872292525],[127.56792343074856,37.05530626751421],[127.56761962876088,37.05415632246252],[127.567764431882,37.05288727225301],[127.56713438934523,37.05243953082804],[127.56715322559108,37.051755657419925],[127.5679921586101,37.05070864781252],[127.56798921748444,37.04914377241843],[127.56897931589909,37.048976651707505],[127.56954772368114,37.04817352314093],[127.56912561281086,37.047800667483834],[127.56849454663354,37.047575016554305],[127.5677576684462,37.04747045308143],[127.56708830736699,37.047530728451974],[127.56598272834665,37.04676382289756],[127.565640002396,37.046404300490785],[127.56519033904758,37.04627862324713],[127.56503736809849,37.046053184191926],[127.56402255293612,37.04568638661364],[127.56297829476951,37.04495155588752],[127.56245399508497,37.044799793229856],[127.56228880634157,37.044276500890916],[127.56191943804929,37.04386558888031],[127.56085025984375,37.0432595926642],[127.55843671910887,37.04229309058786],[127.55829894382445,37.042326742278874],[127.55781207436532,37.04183567961612],[127.55751408266289,37.041823752400354],[127.55728379643399,37.04172889386505],[127.55684276560075,37.041250145698676],[127.5557264352309,37.04171145355607],[127.5546152149575,37.041862347895176],[127.55461984687243,37.04212140778663],[127.55477261033707,37.04233730891325],[127.55473031233633,37.04279751530951],[127.55521957325664,37.04294513138502],[127.55563049438135,37.04329000563649],[127.55486095364496,37.04383259046499],[127.55500314515373,37.04402550949681],[127.55481045767006,37.044036662894534],[127.55384465453697,37.044406180121186],[127.55321496320062,37.0450173061374],[127.55215326995344,37.0452083050879],[127.55142663871008,37.04485987650396],[127.5510826514315,37.04494633219639],[127.54865688356568,37.04642990561057],[127.5477722580381,37.04664841617196],[127.5464624311487,37.047673886776714],[127.5448249451492,37.048261695659605],[127.54309246268367,37.04906919805512],[127.54263149039227,37.04938824736783],[127.54236958379889,37.04992359546946],[127.5422191966782,37.05006364739105],[127.54097270637449,37.050736122413994],[127.5406084885069,37.05070802370311],[127.5400343056745,37.05083675268686],[127.53910100484069,37.050873451285035],[127.53892882244475,37.05096371632733],[127.5381123079276,37.05106405155683],[127.53721845531554,37.05135243400093],[127.53590178837456,37.05152860877404],[127.53467704557468,37.05200757018288],[127.53391266712008,37.05269398687091],[127.53310773372094,37.05359602226622],[127.53297587954388,37.05407878630474],[127.5330809039747,37.054618732651655],[127.53279978675049,37.05519875945665],[127.53261409699486,37.05536185491431],[127.53199691933092,37.055645662944976],[127.5304186690348,37.05579466155926],[127.52866787399391,37.05526948733343],[127.5279269880201,37.05512283479023],[127.52621426928384,37.05548562572366],[127.52525557147817,37.055528363370115],[127.52410673573971,37.055343181806585],[127.52298757042374,37.05546572860804],[127.52235902871573,37.05563738270484],[127.52128561610405,37.05606416598148],[127.51971513212787,37.05681064473589],[127.51898150699296,37.05737573831306],[127.51858878069135,37.05756158609132],[127.51842374631849,37.05779264040208],[127.5182128439489,37.05840195228701],[127.51707150718774,37.058053717742],[127.51649832632825,37.05802356473959],[127.51605307716135,37.05832271264815],[127.5155629779816,37.05806007301452],[127.51543570183048,37.057454010378336],[127.51465384943022,37.05705772184987],[127.51252022757242,37.05635008786027],[127.51215204249108,37.05582321969368],[127.51158238837708,37.05556381678834],[127.51143509029247,37.0550794902961],[127.51169392101134,37.05472161355383],[127.51152809387104,37.05434490220787],[127.51112300169103,37.05389477339041],[127.51068057407295,37.05384113360577],[127.51059930423686,37.05352019404943],[127.51033842539366,37.05313097750148],[127.51001878196298,37.05289017757793],[127.50992815760593,37.05195683039466],[127.51015904406971,37.0517360313695],[127.51018502240889,37.05147373856721],[127.50968788586256,37.05099417162192],[127.50907818650685,37.05010639624007],[127.50913498509796,37.04992783826933],[127.508896481117,37.04942072325593],[127.50791237651563,37.049306456698424],[127.50743755798737,37.04886959408015],[127.50628165919284,37.04861427340248],[127.50469510525646,37.04813820129657],[127.5045460935716,37.048004167223766],[127.50349249059285,37.04852369305643],[127.50260833900117,37.04842078987269],[127.5014774522854,37.04806599346447],[127.50110632428316,37.048133632222516],[127.50032105460642,37.04775865412864],[127.49984688573933,37.04764324635434],[127.49908421669673,37.047577203737525],[127.49840589878738,37.047811083072716],[127.498023792766,37.047807660882114],[127.49763646019716,37.04807604725604],[127.49733635593614,37.048164895409755],[127.49665994004172,37.04812457510777],[127.49643711212013,37.048329095355776],[127.49580856871579,37.048514157573116],[127.49560343833626,37.04911704826767],[127.49473383827389,37.04940950162345],[127.49333057759132,37.05053818135769],[127.49117360566225,37.051585724537915],[127.49095448971343,37.05176548123664],[127.49056463897203,37.051843325849134],[127.49037762716263,37.051956594173745],[127.49032235198116,37.05220635929886],[127.4903845989002,37.05258993396404],[127.49024060115299,37.0528116121023],[127.48994972050073,37.052854748521455],[127.48972198553021,37.05268195097629],[127.48946558777618,37.05264249972175],[127.48920121064926,37.05272270366228],[127.48820809665237,37.053400965906896],[127.48784954648924,37.053828435183526],[127.48705385614521,37.0544547580125],[127.4864815141948,37.05479697792593],[127.48623730670585,37.05486047394472],[127.48582636127546,37.054922309045686],[127.48512091227326,37.05468633525465],[127.4843786646977,37.05386021916653],[127.48342836209177,37.05362811500358],[127.48255947124622,37.05398010890162],[127.48185982213138,37.05402704084882],[127.48136571867548,37.05362493337727],[127.47985029282351,37.05357751358705],[127.47927639951031,37.05340880134484],[127.47904337207066,37.05346420766636],[127.47853825956848,37.05336189465621],[127.47806806079736,37.053486341884806],[127.47752301627868,37.05352176541816],[127.47719295992644,37.05365406911171],[127.47637866961585,37.05348755899817],[127.47508137401255,37.05291518896305],[127.47469071028534,37.05300395168711],[127.47440878244514,37.05291714612844],[127.47391663176123,37.052991713811934],[127.47350059632818,37.052910627689236],[127.47235799668412,37.05320642522389],[127.47190555109417,37.05380938783676],[127.47103034511287,37.05379399718839],[127.47024565322205,37.053609189140694],[127.46999065266165,37.05386651157835],[127.469672196646,37.053865502118875],[127.46899196815363,37.05348783244062],[127.46823410802833,37.05349197685404],[127.4680731613226,37.05317967663027],[127.46744278635634,37.05252680335452],[127.46781447935551,37.052259962840196],[127.46797005927397,37.05190108056941],[127.46813154984515,37.05136247152977],[127.46834898818462,37.05101613525585],[127.46836425114601,37.05038938944932],[127.4680071078467,37.050315060484174],[127.46750612478102,37.05005431938661],[127.46704347586227,37.04996806864171],[127.46589456020543,37.04914036145968],[127.4651573157824,37.04884204252685],[127.46495366130709,37.04866540034199],[127.46397686652045,37.04844985399],[127.46350770222625,37.04821247079915],[127.46356079279548,37.04885221788727],[127.46339460138299,37.04818697941664],[127.46246862953998,37.04764603606395],[127.46190368982403,37.04687499324818],[127.46117177747297,37.04686811239434],[127.46029635559607,37.04617213055172],[127.46005906138988,37.04580151567412],[127.4598157670432,37.04512701517076],[127.45927396316667,37.04483392681073],[127.45915884587792,37.044323142546844],[127.45895998375654,37.04412876034494],[127.45833833434538,37.043983529647186],[127.45755034782229,37.043651134186995],[127.45753300272706,37.04287216981334],[127.457375718852,37.04252299610867],[127.45704730681706,37.04247375840235],[127.45682747369483,37.042255368735844],[127.45716974248565,37.041297040375966],[127.45707524109922,37.040634143786356],[127.45717985721463,37.0402461761679],[127.4576971017781,37.04028422205252],[127.45867545045517,37.03950243515784],[127.45885447073144,37.0394758148399],[127.4594779961992,37.03879544452247],[127.45969241249409,37.03815252250344],[127.45933297191768,37.03717470109231],[127.45949937295829,37.03674067088158],[127.45942168842603,37.03648154420617],[127.45963086167733,37.035663344750745],[127.45847160603596,37.034523978325936],[127.45833849481754,37.0334815631578],[127.45812118190764,37.033259759997854],[127.4579459169102,37.033271921509254],[127.45791998831875,37.03321116442065],[127.45811872887374,37.03305840495736],[127.45764760130584,37.032732944857436],[127.4575199407182,37.032346696162406],[127.45692106745972,37.031885070195884],[127.45634912182769,37.031162466711756],[127.45624083456192,37.030340170941166],[127.45685747457904,37.03005391062672],[127.45758310043904,37.03007573462776],[127.45796416971379,37.03000047392824],[127.45803881992354,37.02903021006857],[127.45835535755221,37.028277187700304],[127.45884366856788,37.02759153451819],[127.45911361575958,37.027462325464754],[127.4592927338711,37.026166703942536],[127.45950672594356,37.025835263966215],[127.45962380955142,37.025259284324726],[127.45973536259372,37.02508317201631],[127.45938651730349,37.024738622267215],[127.45924126720446,37.02443549059098],[127.4595062974203,37.02388900265742],[127.45903432031014,37.02310441717403],[127.45926025490094,37.02271093551341],[127.45903183981281,37.0223430966145],[127.45899455184403,37.021919830828125],[127.4587469526303,37.02177594737408],[127.45837875810241,37.02118154472999],[127.45835979568238,37.02049624556155],[127.45740076130829,37.02035939114233],[127.45682455685576,37.02065219591272],[127.45634515817126,37.02070080645282],[127.45604627571154,37.02103603170941],[127.4557838900664,37.02100909837923],[127.45524617496892,37.02109749932518],[127.45483923093548,37.02140665615436],[127.45436372630084,37.02125012855855],[127.45369528922866,37.02123812386949],[127.45334717385046,37.02001213764006],[127.45258898370601,37.020357710607996],[127.45199536929913,37.02000739782138],[127.45174371072103,37.019451431868795],[127.45093959637782,37.0192889872173],[127.45061107130846,37.01853319182595],[127.45008148610458,37.018343721922825],[127.4497233921526,37.018380223314026],[127.44942834023456,37.01745134416478],[127.44900755188617,37.01720804567948],[127.44865360421292,37.016652966425205],[127.44832793577004,37.01654305668801],[127.44866287060337,37.015678594476455],[127.44859069071674,37.01551112065915],[127.4491209622227,37.015276866461846],[127.4488772828455,37.01499655795848],[127.44857479466557,37.013560558440396],[127.44859887705583,37.01313699984986],[127.44827162473123,37.012616500901125],[127.44763301031985,37.01243653661696],[127.44716402009583,37.01196746224564],[127.44710628072336,37.01082578837503],[127.44818592330435,37.01038297186363],[127.44902446561701,37.00984335358639],[127.44858632286996,37.0087118014772],[127.44826992524999,37.00754417989277],[127.44838150381065,37.00723096844861],[127.44846780937911,37.00627511701812],[127.4486752707659,37.00611489447674],[127.44870264090501,37.00589588295581],[127.44854016985812,37.00537761868372],[127.44892236226029,37.005216578884266],[127.44894145937297,37.00474481736868],[127.44908517943968,37.00435964778879],[127.45006788219037,37.00382614101033],[127.44962656917302,37.003491104775115],[127.44945834472341,37.00324095512161],[127.44824349812698,37.0027384994587],[127.44827608653917,37.00264749501866],[127.44857157584083,37.00253790885129],[127.44880325768095,37.00226206844102],[127.44872604641934,37.002124015245336],[127.44883505150388,37.00176214210147],[127.44855355195828,37.00169787376984],[127.44793990698354,37.001376566433116],[127.44783992303464,37.000965554814854],[127.44766674362813,37.000926680492526],[127.44755439782911,37.00063159770867],[127.44779009327448,37.0001699826067],[127.44772307713781,36.99851382839436],[127.4479280149742,36.99819210508199],[127.44795546795544,36.9977053540285],[127.44832316330637,36.99724574976646],[127.45048559533943,36.995261709224174],[127.44970434320588,36.994266150900096],[127.45023936739894,36.9938948102714],[127.44977730081378,36.99379497729024],[127.44893350531028,36.99385067628397],[127.44871068202066,36.99393332554793],[127.44868735860997,36.99265515456322],[127.44882132472286,36.99137165336633],[127.44859735849651,36.99103912921212],[127.44856662742127,36.99041579422107],[127.44865827989449,36.989879077857495],[127.44805671226554,36.98992239558815],[127.44818414212261,36.9897616155648],[127.4481578381615,36.98954531330272],[127.44828080753129,36.989355600257596],[127.44814186733781,36.98839675418961],[127.44822725156664,36.98818604090905],[127.44821375595657,36.987509237536486],[127.44855566274495,36.98631941046026],[127.44851650296047,36.98604774123753],[127.4487322373903,36.98572103914353],[127.44871187897344,36.98557626007633],[127.44902013207646,36.9849677947975],[127.44923038156732,36.98413146632194],[127.44958157280557,36.98360510520735],[127.44969880273754,36.98322451059981],[127.44966612873195,36.98271694328785],[127.44986138547017,36.98236915988125],[127.45032223613096,36.98190685613396],[127.45032856938003,36.98136338620011],[127.450168319386,36.98109968042222],[127.44986990648096,36.98082187163246],[127.44935025929855,36.98057059841544],[127.44915720577566,36.98039690463858],[127.44882862210898,36.980393368622956],[127.44872048202517,36.980221751573495],[127.4493032029261,36.97889992672733],[127.44935338193835,36.97854110227684],[127.44926341543098,36.97717899481117],[127.44939818492169,36.97665560404287],[127.45002668695807,36.975959062933114],[127.45014122996653,36.97566635910739],[127.45059866663863,36.975153812891335],[127.45132914461051,36.97479379011668],[127.45165215427325,36.97472600529013],[127.45202361104121,36.97515018027312],[127.4524527644432,36.97533785922522],[127.45287435504034,36.975203230387486],[127.4530898578738,36.97504907639985],[127.45342716682195,36.97474244687618],[127.45388600277467,36.97412565415878],[127.45399277653624,36.973903007560075],[127.45375546758311,36.97324254239978],[127.45370529176037,36.97283095279639],[127.45387671480479,36.972034527907326],[127.45437687127838,36.97113754137781],[127.45398237520045,36.9704838939052],[127.45399695387894,36.96982199915351],[127.45421911007935,36.96954068555825],[127.45489854356269,36.969166888115815],[127.45487158537398,36.96888907335362],[127.45504867448192,36.96863857413907],[127.45505467292715,36.96816587526106],[127.455143440367,36.96805731682696],[127.45544368167175,36.967797796685915],[127.45565498769433,36.967718270737834],[127.45591451859518,36.96742995275222],[127.45613380873183,36.96736936292182],[127.45622862652323,36.96721006159164],[127.45616965207047,36.96687630398568],[127.45588980808914,36.966642950696254],[127.4558221514702,36.96667500987955],[127.45570155935215,36.966459681142126],[127.45582219826375,36.96619353028906],[127.4560360095863,36.96599208732665],[127.45671717217616,36.96591361772214],[127.45707512949603,36.96564051693885],[127.45727858256761,36.96391553383879],[127.45724158845047,36.96378990368762],[127.45643663261983,36.963296147398644],[127.45589002872788,36.96313326299876],[127.45548521301222,36.96292285086374],[127.45521650324342,36.96180547456499],[127.45539902058908,36.96122776508809],[127.45491187964663,36.96066168038075],[127.45421795953041,36.960779529912315],[127.45331179724384,36.960565299325346],[127.45309312314853,36.96100858535891],[127.4529957533333,36.96159714062539],[127.45213754019188,36.961841627670836],[127.45161751862007,36.96160709434808],[127.4513453456048,36.96190470460311],[127.45135458505221,36.962429149574206],[127.45114767273007,36.962624332815764],[127.45112015815134,36.96288330585907],[127.45092132005938,36.963156838705856],[127.45060866693244,36.96320318234378],[127.4503168382743,36.96303852461331],[127.44963999087751,36.96305495774856],[127.44934380294504,36.962952966278564],[127.448385223032,36.963263194427334],[127.44828295965097,36.96236913834979],[127.44811282096562,36.9618978210349],[127.44823917497544,36.96154780398677],[127.44811690137728,36.96156603380767],[127.4481305096792,36.96171801859664],[127.44791096131435,36.961753327790284],[127.44766527130153,36.96154451635566],[127.4471310642102,36.96144342202137],[127.44719234858661,36.961632185610334],[127.44698774299938,36.96163454638299],[127.44698725646334,36.961497008529186],[127.44693070650813,36.96176455127464],[127.44640561471513,36.9613509074522],[127.4467916476252,36.96044891829191],[127.44587093105292,36.9600388639439],[127.44538408864797,36.958792941219684],[127.44564058445616,36.95826668471179],[127.44589267361341,36.95810542059941],[127.4457180270196,36.957435829097946],[127.44571655326367,36.95700223668434],[127.44618046381926,36.95618220634911],[127.4462774595964,36.95580714989493],[127.4462365161995,36.95496806923867],[127.44658615069267,36.95351013552123],[127.44683001381938,36.95165529506216],[127.44678790470408,36.95141107333062],[127.44702753706389,36.9505821328243],[127.44724345058594,36.95033842626588],[127.44727804270255,36.94989723932041],[127.44799155462407,36.94974652852345],[127.44810549623796,36.948836771331415],[127.44900419641495,36.94808931531765],[127.44968021444251,36.94791006532761],[127.45007464296152,36.948157427630115],[127.45054528945994,36.94825312604818],[127.45121527976575,36.94806498732677],[127.45181470668791,36.94817006175948],[127.45199992485539,36.948181433745724],[127.45223082532094,36.94806720305449],[127.45244169482994,36.94814139054603],[127.4533756498306,36.94776816540947],[127.45585247984934,36.9475567301368],[127.45615995084958,36.94740110937955],[127.4576185078251,36.94708864606168],[127.45810163437451,36.94720613772392],[127.45823696255997,36.94751702009006],[127.45889976662019,36.94771749961839],[127.45951181508427,36.94810518948521],[127.46073003989954,36.94802030688716],[127.46092957022479,36.94786850527435],[127.46162162353637,36.94776555447299],[127.46207580629883,36.94761998264473],[127.46243567472516,36.94770622524046],[127.46291808048149,36.94818945533967],[127.46348792314829,36.94842142915477],[127.4640428896983,36.946808929865746],[127.46387204602479,36.9464136548331],[127.46375021020076,36.94539612995413],[127.46392219685607,36.945095240033396],[127.46436699532586,36.94482855374897],[127.46436667095192,36.944217995230304],[127.46486595084065,36.94319085887103],[127.4648907255027,36.94271623028998],[127.4651425786575,36.94229948944462],[127.46513182717662,36.94208129170112],[127.46534096076209,36.941932788257155],[127.46599585242575,36.940745765465884],[127.46640042845112,36.940303283911014],[127.46650691888254,36.939243471348824],[127.46663786440489,36.93908680155696],[127.46715231442131,36.9389028882379],[127.46722265768688,36.938649291292],[127.46745695051835,36.93842765254279],[127.46780797316927,36.93855093887089],[127.46813109590255,36.93832681859648],[127.4683938444295,36.93795700848369],[127.46945454148863,36.936907991735225],[127.46956387685958,36.937002208972544],[127.47010988786913,36.93647988375519],[127.47056745431172,36.936202310948694],[127.4706438710962,36.93601663962579],[127.47108284071302,36.93609707395434],[127.47208851250315,36.93600006762796],[127.4727839867493,36.935810896914],[127.47303335685912,36.935810591408675],[127.47483607671617,36.93621845625267],[127.47616314553608,36.93640884816151],[127.47650606710253,36.93639408578877],[127.47757664629354,36.936033244709954],[127.47808053440838,36.936044514980054],[127.4783624392534,36.935886532996804],[127.48030972099461,36.93419993078128],[127.48060887486983,36.93404681051416],[127.48057753114546,36.93398698857754],[127.48095134679886,36.93389771512197],[127.48119314787975,36.93363631965187],[127.48175011477254,36.934363534755605],[127.48244607802665,36.93472291731948],[127.48269231071761,36.9350938291946],[127.4827502592393,36.9360998012174],[127.48269051730422,36.93649939026321],[127.48305960232,36.93681282085568],[127.48322037809189,36.9370984040166],[127.48340360989312,36.93724004074151],[127.48403094838916,36.93724244888546],[127.48490378126179,36.93760588083621],[127.48521095517125,36.93803346214264],[127.48614832778864,36.93869349236746],[127.48730699689422,36.9387388116485],[127.48785193296776,36.938587435465465],[127.48935917156598,36.938527559564946],[127.48945527302682,36.93844534666858],[127.48967403896133,36.93896038542031],[127.49050176531713,36.93900879217144],[127.4913198529961,36.938838263950004],[127.49195823570395,36.93859830622903],[127.49223031419409,36.93858435723698],[127.49278149168532,36.938772413330554],[127.49319687213651,36.938452525042926],[127.49332387435125,36.93821319664838],[127.49402915448123,36.93789770782837],[127.4943336031591,36.93752449979252],[127.49427742915888,36.93728838866053],[127.49513510370944,36.93676996366015],[127.49588493756217,36.9366715551844],[127.49659434442357,36.93577780534029],[127.49760034064312,36.93548717450818],[127.4977493442848,36.935277023534624],[127.49851142565515,36.934911829936034],[127.49874035216958,36.93455036078572],[127.49890080991197,36.93398236226574],[127.49922005808273,36.93355741080667],[127.4999077041918,36.933165777025],[127.49991418150339,36.932867899041774],[127.49962763169017,36.932111936188484],[127.50003411478822,36.93201478894652],[127.50259429143613,36.9323119679698],[127.50327024464696,36.93260867724143],[127.5032383622894,36.93269670321937],[127.50346509961341,36.93283626701832],[127.50447577305391,36.93287096442293],[127.50451336758132,36.93297599671938],[127.50471337472699,36.93305931928192],[127.50499038965638,36.93300577426866],[127.50588885430089,36.932411936875226],[127.5062667696622,36.93205001829813],[127.50647582211353,36.93194431889418],[127.5067304695934,36.93195817449885],[127.50686279073186,36.93189516615682],[127.50767560758688,36.93116698907007],[127.50761013925717,36.93040328006911],[127.50774589178499,36.93026188190665],[127.50798645755916,36.93027574295196],[127.50835890450684,36.92997738486089],[127.50874819670663,36.92986198879128],[127.5088085719435,36.929401487533816],[127.50875218287432,36.929272578410554],[127.50883784371484,36.92923545741466],[127.50919651726568,36.92969460906964],[127.50971971854385,36.929996880707634],[127.50970064966704,36.930047585426856],[127.51035976647083,36.93053724622948],[127.51132674406469,36.93093687506355],[127.51149304127615,36.93068583133331],[127.51156411156784,36.93002354092159],[127.51205975295643,36.92878337077528],[127.51232590309961,36.9284249200023],[127.51269223538921,36.92812236792365],[127.51282174714801,36.928221919597796],[127.51324077395856,36.92779174308528],[127.51381649706649,36.92756633565636],[127.51372183538862,36.927139902986035],[127.51371751573953,36.92639338048776],[127.51318074654405,36.92601444828139],[127.51324155394856,36.925809371495696],[127.51335710278641,36.92585194506081],[127.51343314029775,36.925793228376456],[127.51341975673152,36.92570524975559],[127.51361954018341,36.925504891421916],[127.51410564660135,36.92546807518909],[127.51534166428621,36.92479796651393],[127.51566292339261,36.92494605518098],[127.51625395031702,36.92457018106932],[127.51663101890207,36.924228578595155],[127.51676698876432,36.92391363093589],[127.51730850582646,36.923517508215085],[127.51743156158052,36.92284543774793],[127.51768327557004,36.92261838179293],[127.51943443505056,36.92286776428763],[127.51963718517626,36.92258382499178],[127.51965768355832,36.92183647410691],[127.5198704647093,36.92167170143408],[127.51981518704811,36.9210542735388],[127.52024501678262,36.92068319824313],[127.52026772213429,36.92054445142623],[127.52042996008971,36.920515068653124],[127.52046105932722,36.920169037964875],[127.52061153602067,36.919810651083104],[127.52126004429314,36.9195054879642],[127.52168587497798,36.91964198325728],[127.52167587494985,36.91955080108671],[127.52241422316351,36.91903941274593],[127.52287785725598,36.91834917196682],[127.52251299566365,36.9179049737943],[127.52296950455423,36.91669180489626],[127.52300201624278,36.91607554186867],[127.52347781921294,36.91511448789465],[127.52335571185566,36.914860505131294],[127.52360329262154,36.91473299754434],[127.52378230104102,36.91448107882594],[127.52375883561861,36.91414819926105],[127.52379823224857,36.91420219760538],[127.52406772542315,36.914000613805925],[127.52454854654879,36.91345788573967],[127.52463362353907,36.913254941338515],[127.52558562363683,36.912621486979305],[127.52614401867017,36.912476416652375],[127.52646116349952,36.912210268993995],[127.52660115400671,36.91192288230028],[127.52637373579195,36.911469815951484],[127.52724493053844,36.9108972323655],[127.52769656918181,36.91111065232726],[127.52809935767331,36.91103757402413],[127.52850115704588,36.91128911267172],[127.52916802035605,36.9112754488048],[127.52938847509638,36.91117490011057],[127.52995190546844,36.91125169870752],[127.53138530207576,36.911708523936504],[127.53194353892411,36.91213637760605],[127.5327160630594,36.9121566592844],[127.53288133279915,36.91207168565579],[127.53283261072798,36.911818002274906],[127.53311797063398,36.9117165705286],[127.53332792095729,36.91195731785111],[127.53351613214568,36.912038924225584],[127.53381780668516,36.91198559872552],[127.53567771848694,36.911050166934004],[127.53513922930084,36.91035983877825],[127.5357019798438,36.91007679572545],[127.53562594295565,36.909955554606405],[127.53896872349858,36.90824380170274],[127.53904589545087,36.90809620426676],[127.5392387864687,36.9080330603687],[127.53941005285053,36.90785287095281],[127.5404649904081,36.90655097103577],[127.54092669235241,36.90616522360393],[127.54144707565341,36.90586427020628],[127.54202430669426,36.90564725975735],[127.54260215536813,36.90547696520108],[127.54404005992755,36.90522496497187],[127.5439592299759,36.90518880319712],[127.54378126724228,36.90453922643797],[127.54595762277535,36.90343838118684],[127.54608689215121,36.90347962688637],[127.54588001785355,36.90321147103051],[127.54618258715044,36.90304222773553],[127.54635020399276,36.903053436094496],[127.5461529014587,36.902800570189655],[127.54662177436329,36.90257573576124],[127.54645598932154,36.90225539557353],[127.54614887289999,36.902174274080146],[127.54590304545991,36.90186788988103],[127.54592889860068,36.901580660996636],[127.54624605787988,36.90108807332272],[127.54596412456337,36.90092008966092],[127.54673815945887,36.90090251036111],[127.54700207435963,36.900788141045965],[127.54728128421739,36.90054502603566],[127.54754114437235,36.90011828929145],[127.54740666346892,36.899914766740636],[127.54801018327746,36.90034701515271],[127.54845582128922,36.90050336522529],[127.54913427059456,36.90029889554097],[127.54920108463025,36.89985486913585],[127.54964581941564,36.89962600044123],[127.54992173193988,36.89930972542478],[127.5507129497307,36.89900736399421],[127.55142557191544,36.898838191134836],[127.5537275772519,36.89866258168146],[127.55436225410332,36.899151719919594],[127.55527373596601,36.89916826303989],[127.55549338913227,36.89902028364777],[127.5553475137765,36.898691386136086],[127.55514044013309,36.898532005428144],[127.55529612878782,36.89797429635629],[127.55472684795492,36.897474858082106],[127.55471567705378,36.89733216054795],[127.55493135795487,36.89696274069432],[127.5546764718276,36.89651694636447],[127.5537029094025,36.89605212231885],[127.55188062819978,36.89395801370084],[127.55223814198149,36.893649927677956],[127.55258452904815,36.893094184020285],[127.55266049087672,36.89252947635183],[127.5529697017131,36.89230597174089],[127.555204446033,36.89139049618291],[127.55563098616841,36.89050860320965],[127.55510002628122,36.8897093605217],[127.55483125514802,36.888753728410116],[127.55518428831114,36.88849191447752],[127.55511904887875,36.88770801540977],[127.55565214355546,36.88616389940492],[127.5565245486122,36.88632748307461],[127.55681834359498,36.88600925553238],[127.55751495696472,36.88572692383167],[127.5582716562334,36.886343539776604],[127.55976610696838,36.88659148155491],[127.56012500321289,36.88631303780264],[127.56034149665533,36.886241429659464],[127.560777355395,36.88569066597448],[127.56058275170379,36.88494126963073],[127.56091827470232,36.88395870818433],[127.56144671286535,36.882797852509405],[127.56267307624812,36.882221926901096],[127.56318384674965,36.88250465199714],[127.56437977098368,36.88233032028967],[127.5647563909759,36.882550113540084],[127.56666303637105,36.88268711799251],[127.56665141258223,36.88287529179998],[127.56638986329455,36.88321649500448],[127.56676685155017,36.884778213673464],[127.56718177318066,36.88523335610345],[127.56711760552258,36.885885223818754],[127.56700689696359,36.88605069341552],[127.5676785229289,36.88595030662335],[127.56856299460576,36.88570944688981],[127.5691815308663,36.885149671041745],[127.56960213437837,36.884139135398065],[127.57100208314174,36.88257927810222],[127.57149297312475,36.88151205274659],[127.57187204189447,36.88092913603225],[127.57208110606625,36.88010384270463],[127.57195863073261,36.87885206148771],[127.57188258941565,36.878670336865454],[127.57150564347451,36.87848991864185],[127.57148916450105,36.878403665923884],[127.57189747510293,36.878586203497896],[127.57227907770724,36.87739801726189],[127.57346523661153,36.87770245806269],[127.57419222690066,36.878493628293214],[127.57495242257612,36.87882103796808],[127.57509996209116,36.879152139855634],[127.57592302949455,36.87999384836093],[127.57707724642933,36.87940517608328],[127.57777352714778,36.879790690222],[127.57830186371066,36.87946118560288],[127.57901893263187,36.87868746106163],[127.57977850858948,36.878041431624084],[127.58141496446608,36.87713089697021],[127.58156509374156,36.87722142515557],[127.58297515726586,36.87627936654696],[127.58346428487934,36.876253328784465],[127.58388211666674,36.875847001900766],[127.58422170020242,36.8751568749454],[127.58505787656479,36.87458580380947],[127.5846979197282,36.8735402966158],[127.58483440536949,36.871525600977876],[127.58516750846233,36.87109304127353],[127.58512933453581,36.87016181652035],[127.58345729510951,36.86889605444199],[127.58321418336568,36.8684220951919],[127.58274866703367,36.86820065135288],[127.58272959397485,36.86770355477294],[127.5825738508274,36.867482658639425],[127.5819753939422,36.867140089706915],[127.58131877591156,36.866591706666235],[127.57955619400796,36.8664032803596],[127.57877457313549,36.866525100024745],[127.57791030436087,36.866535450563376],[127.577647187937,36.865514016220914],[127.57663552728201,36.86462100177993],[127.57789492550869,36.86321596268286],[127.57778288404005,36.86275725960245],[127.57782550861988,36.862473759248054],[127.5768445705142,36.860786635486654],[127.5766570764637,36.860662500565894],[127.57657711078936,36.86023304238608],[127.57639252141267,36.8599934907233],[127.57598672364864,36.85869047526247],[127.5755253087165,36.85836503603218],[127.5756082485839,36.85776292411597],[127.57610076015801,36.857220308655876],[127.57730677010989,36.85505219492502],[127.57776729111515,36.85483744146895],[127.57780634880957,36.85676313376647],[127.57803718941334,36.85722831481013],[127.57912960407448,36.85834931357843],[127.58013466891968,36.858935518715505],[127.58165535935666,36.8595791298171],[127.58277313720761,36.85986931503887],[127.58408595900197,36.860083976905976],[127.58413063438185,36.85989476586192],[127.58458836533657,36.859944802195834],[127.58465433474578,36.859884268799625],[127.58459595584178,36.8598471952855],[127.58595332892882,36.85945713519736],[127.5864046665827,36.85874214885401],[127.58638814090666,36.85758287782396],[127.58672362984298,36.85751611447744],[127.5870341395527,36.857219381473364],[127.5877265225804,36.85721877153866],[127.58876193620661,36.85768478292678],[127.58957549788393,36.85726017068274],[127.5905437600127,36.8572578919785],[127.59122535306363,36.85778522328242],[127.59172475892824,36.85750175933994],[127.59263737555735,36.85687662167223],[127.59330550620494,36.855543007977516],[127.59399387811386,36.855392036454624],[127.59470896196562,36.85420874355895],[127.5950889714849,36.8537614578627],[127.59598310228996,36.85201522177569],[127.59654177109036,36.85156151630112],[127.59771413032925,36.85187860794631],[127.59869269939374,36.85234513347212],[127.59972689579853,36.85239170184135],[127.60038057551344,36.8526774785791],[127.60126508043818,36.852454479402724],[127.60183887473767,36.852150557892195],[127.60320806315661,36.85189460317433],[127.6035134590431,36.85222363921713],[127.60441668761997,36.85279620444389],[127.60440465182869,36.85354384852556],[127.60465091668455,36.853614964890646],[127.60591668457222,36.85360548183329],[127.60674104543484,36.85319726793515],[127.60716423055145,36.85359448365988],[127.6074884099971,36.854126731274604],[127.60847160279069,36.854607058043264],[127.61044215655208,36.85594257698984],[127.61101513602135,36.85579444828715],[127.61139904241156,36.856602210469134],[127.6120961991185,36.85701077839184],[127.61228222070324,36.85736523523799],[127.61376485819686,36.85835924379219],[127.6145461076528,36.858135739945766],[127.61572038690241,36.85856729085482],[127.61661330587363,36.858623208645355],[127.6174966975155,36.85769868065909],[127.61710678365856,36.856781272153924],[127.617161976438,36.856408163010165],[127.61645954163991,36.85516112380105],[127.61591013474647,36.853542563646066],[127.61546099454905,36.85293642852923],[127.61444058718159,36.853238618094935],[127.61378731753089,36.85167711829149],[127.61315522853818,36.85141015780169],[127.61298448010766,36.8510942575301],[127.61278488941603,36.85006054218814],[127.6123928520612,36.84912618765812],[127.61189365108382,36.84856146496086],[127.61152782660866,36.84779942125144],[127.61175905837803,36.847426725692074],[127.61155236430193,36.847152506447706],[127.61162301011943,36.846709214655384],[127.61226790662778,36.846362202912005],[127.6121753638868,36.84610397702647],[127.61206251140891,36.84602269370847],[127.61199758159988,36.845153426182385],[127.61256205247173,36.84497503922162],[127.61280029694089,36.84413985204305],[127.6132721798787,36.8439425465927],[127.61331698385312,36.84311259781432],[127.61309675867328,36.842284201236076],[127.61342160763748,36.84184209745584],[127.6134866325484,36.8403970691141],[127.61318543117714,36.83970875820734],[127.61316644834483,36.839326949160046],[127.61376416409242,36.839149143107925],[127.61383906437666,36.838861193348755],[127.61358156884444,36.838629039628785],[127.61374185060684,36.837404557037566],[127.61340203173651,36.8364365489354],[127.61377808301624,36.8358967912362],[127.61368904194748,36.83569429684445],[127.61402772432204,36.83550056806966],[127.61442182045428,36.835539248235804],[127.6153313571341,36.83529276101286],[127.6152056451258,36.83433968008215],[127.61551959386331,36.834245886055434],[127.61553493325457,36.83390134101578],[127.6159449291463,36.83393730170385],[127.61642129611882,36.83382689861472],[127.61660648156973,36.83397518706948],[127.61682379591005,36.833979208837356],[127.61696926526416,36.834484379903955],[127.61798021163973,36.83539338367584],[127.61820018980363,36.835746991157286],[127.6182708574187,36.836178433484605],[127.61859726695303,36.83631821078471],[127.61879728698842,36.83657842696958],[127.6195024893813,36.83665485879996],[127.6197868079117,36.83685027581523],[127.62036978019864,36.837010790040125],[127.62152035625671,36.83644572660703],[127.62196554899943,36.8364570637395],[127.62236996422793,36.83611363086676],[127.62319763780988,36.83603488573166],[127.62379550712008,36.83563195426337],[127.62423643979835,36.836839714711196],[127.62422022163727,36.837227348113665],[127.62494267025139,36.83769373855487],[127.62517141682265,36.83811743625164],[127.62522735342417,36.83857114516194],[127.62559382662708,36.83923900876775],[127.62598867963725,36.84029277340137],[127.62605272754507,36.84108844449328],[127.62640948098758,36.8425295141097],[127.6276596562955,36.84287314234491],[127.62804356229667,36.843574306362314],[127.62853038134654,36.8435786273249],[127.6293204740021,36.84342096407691],[127.62968737189702,36.84367582715979],[127.63005563499033,36.84365716476649],[127.6303653566927,36.84391986071918],[127.63060948083549,36.84431383090491],[127.63073881935867,36.84484525256131],[127.63102388255616,36.845165159243216],[127.63237833683941,36.84541518574506],[127.6328263464466,36.84567531060855],[127.63320160689142,36.84570235119067],[127.63346866707471,36.84581406419094],[127.6343341021482,36.8466070084296],[127.63488049550689,36.846820637477016],[127.63523936453763,36.8471551097926],[127.63584370377988,36.8473479167183],[127.63660337443429,36.84707455483834],[127.6375367906488,36.846974353456936],[127.63784470988479,36.847930774374575],[127.63779950593566,36.848692864255526],[127.63817982706688,36.8492241520473],[127.63810346703133,36.8496992714387],[127.63829697750478,36.849988506909376],[127.63911345070473,36.85044352967737],[127.63921672588637,36.85109427005619],[127.63957247454442,36.85134947588161],[127.63979942350551,36.851942611016625],[127.63984460141158,36.852501381250896],[127.64021724128868,36.85294354158361],[127.64019031644271,36.853164226624145],[127.64039806914508,36.853361232691555],[127.64056986058435,36.85372661498531],[127.64106306036555,36.85384706856934],[127.6414648008215,36.854966015155576],[127.64195642206123,36.85575766105156],[127.64241446952595,36.85595570210129],[127.64338024556817,36.85682926049939],[127.64437752072517,36.857008133439216],[127.64426811660834,36.857580200026376],[127.64440987552193,36.857985948025714],[127.64510840203857,36.858427409539566],[127.64559941203969,36.85860980804777],[127.64622170752466,36.85872645620583],[127.64669960954852,36.859103400318915],[127.6477819482688,36.859354705590206],[127.64802883632396,36.8595649369905],[127.6480768448199,36.85976760731376],[127.64847022625398,36.86001314761309],[127.64900333896105,36.85995381869526],[127.64906043217613,36.85974838653084],[127.65073377450183,36.85988877426491],[127.6523677100785,36.86088912183973],[127.65352415012542,36.860965042460265],[127.65443892879493,36.86044571437574],[127.65541418930042,36.86082500495441],[127.65630168993658,36.86077481426125],[127.65724352093484,36.86063270941902],[127.6575642788407,36.860273201203334],[127.6579986164879,36.86023340019273],[127.65879451406383,36.860334897268736],[127.6593031272478,36.86008024927074],[127.66031799381555,36.85998424198628],[127.66055036386396,36.85985255089661],[127.66143327109508,36.859795183101575],[127.66196863943799,36.85943763398807],[127.66217596902824,36.85884136320484],[127.66252785465551,36.858565963281045],[127.6626612891664,36.858275055180044],[127.66318371076987,36.858001734763356],[127.66406333297807,36.8578018413799],[127.66483760936421,36.85809972614395],[127.66565671076927,36.85808265497879],[127.6658714867597,36.857939392369865],[127.66655621428467,36.85775115586075],[127.66711583457426,36.85771341220771],[127.667284098862,36.85756703746841],[127.66738770621777,36.85718509113856],[127.66851733768446,36.85668818585677],[127.668711911117,36.85631170201087],[127.66871912568689,36.85603880607405],[127.66898175930989,36.85566740133238],[127.66916323427787,36.855593169094014],[127.66924311179373,36.85494806880696],[127.67011592574816,36.85490311094571],[127.67032247790584,36.85477814811786],[127.67133762781337,36.85472811836872],[127.67181248061847,36.85400252252377],[127.67217550697995,36.85363415846403],[127.67247692813345,36.85344952894945],[127.67328102067533,36.85340558326868],[127.67359131352691,36.85324080626217],[127.67389568578606,36.85333609508182],[127.67477623466415,36.853112897483285],[127.67507537364627,36.852766394216694],[127.67506931055746,36.85264780110861],[127.67603458085537,36.85192824935939],[127.67609786995125,36.85168628553477],[127.67596672438891,36.851254346567764],[127.67608171844503,36.85086516554439],[127.67786568112349,36.85094971557935],[127.67791891740892,36.85131754877199],[127.67779195958252,36.851553056972556],[127.67875330526284,36.85259692976706],[127.67902654031722,36.85259145956664],[127.67955486059815,36.85280687890273],[127.67980369363117,36.85309530123162],[127.68035636814203,36.853030910773846],[127.68056339187241,36.85334842927677],[127.68105197912503,36.85357569161244],[127.68116771273645,36.854050305523316],[127.68173386542344,36.85444847070017],[127.68206823050727,36.85495050347218],[127.68268687277482,36.85520229049476],[127.68360289328403,36.85614645141134],[127.68332820808288,36.85668562782123],[127.684109820236,36.8589753715428],[127.68518739969919,36.858992588674994],[127.68611896852799,36.85931023718683],[127.68653296667637,36.85983340854039],[127.68679580729251,36.86115270132118],[127.68710003355285,36.861306571283976],[127.68693876347007,36.86162612311149],[127.68715432246289,36.862452908291274],[127.68689089892649,36.86276720120473],[127.68692099855858,36.862963218357656],[127.68625112815471,36.86336577947517],[127.68627739821217,36.863667986027],[127.68595980795963,36.86468863755667],[127.68615249838663,36.865114100123705],[127.68572369263904,36.8654182120989],[127.68564492326867,36.86568378869661],[127.68573578394846,36.8658424771491],[127.68577219254114,36.867344778673015],[127.68599043780597,36.868047011410084],[127.68586633647044,36.86849851692327],[127.68620294829934,36.868935593766714],[127.68680401204566,36.869023246232416],[127.68749489498705,36.869981062749744],[127.68774215450293,36.870615714083975],[127.68824321676767,36.87075492748707],[127.68923674378027,36.87133835299063],[127.68979662920101,36.87156915916437],[127.69001690996436,36.872100362723884],[127.69026532929396,36.87237984369589],[127.69023047430063,36.87338327776762],[127.69032872598427,36.87356841032718],[127.69063885657128,36.87359669150252],[127.69086054913588,36.87397537109492],[127.69078481770119,36.87431464204065],[127.69096512171987,36.8748885738763],[127.69130249295232,36.87513298879187],[127.69127508760194,36.875573953468276],[127.6914551307956,36.87570174487161],[127.69149870344192,36.87594728658308],[127.69187308769074,36.87668442708547],[127.69169509940257,36.87728040826936],[127.69218980203192,36.87785363388266],[127.6917840392056,36.87864837112967],[127.6920651095351,36.87874542634126],[127.69321753267637,36.87873132367198],[127.69350906397416,36.87964701204936],[127.69385953386461,36.879830637950704],[127.69398563381246,36.88002996129207],[127.69471948538171,36.88002189022484],[127.69555251555106,36.8801854462569],[127.69586328230743,36.88008866579704],[127.69658732711548,36.88003958654583],[127.69723698527791,36.880228110515894],[127.69748850796353,36.88046077421555],[127.69800057863256,36.88061001879009],[127.69823280893455,36.88027414442249],[127.69914600592234,36.87982138298963],[127.6996460026319,36.878888239944395],[127.7001635543124,36.87823865899612],[127.70107195245342,36.87830770804835],[127.70225000303749,36.87809535157602],[127.70256776013605,36.8781110637079],[127.70405324080988,36.877619850008756],[127.70464537920986,36.87719910304835],[127.70521646438888,36.87692063446379],[127.70551687971906,36.87663269200202],[127.70690378597456,36.876501108124465],[127.70690506729501,36.87614082653481],[127.70772522514862,36.87593261891318],[127.7081307613591,36.87797556793653],[127.70856401741673,36.87838495277108],[127.71055071997034,36.87814722690159],[127.7109435002116,36.87824513565265],[127.71141840862892,36.87879162203906],[127.71228093555828,36.87867667004454],[127.71313023485544,36.87889856952355],[127.71344950760812,36.87843196530412],[127.71384496864152,36.87849786863746],[127.714024883381,36.87863126548878],[127.71449234730105,36.878786943146515],[127.7150644854132,36.87822425830823],[127.71536733497719,36.87746707683137],[127.71568203263992,36.877431495227675],[127.71622763748248,36.87717468211426],[127.71681116504804,36.877251240100506],[127.71720593676858,36.877599497774696],[127.7186457538811,36.878047383682386],[127.71913202115171,36.87791164051108],[127.7192511761217,36.87770001402142],[127.71964638461628,36.877433595226144],[127.72033985970458,36.87754027755727],[127.72151453205288,36.87798601115635],[127.72152568465808,36.87785741337614],[127.72191813349895,36.878066851103085],[127.72211291492586,36.87802018465265],[127.72237774475839,36.878193395258634],[127.72273379807423,36.87809738831311],[127.72312060182072,36.878209305526255],[127.72310434851885,36.878337914823284],[127.72336021769047,36.8785718136817],[127.72373494353671,36.878607388946854],[127.72375986710783,36.87919481954558],[127.72403005927717,36.87961381544897],[127.72483155741392,36.87993757178249],[127.72521074019518,36.88000726859968],[127.7258576668314,36.879660659370394],[127.72663455854455,36.879568397989104],[127.72708343508157,36.87966488429855],[127.72719977184771,36.879835722854644],[127.72778000208206,36.87972179453096],[127.72776727218789,36.87980477121016],[127.72796331678154,36.879901168767546],[127.72826484751778,36.87933492789606],[127.73037498199396,36.878494206303735],[127.73065413218791,36.87848453847171],[127.73135446840355,36.87850583805615],[127.73153203503144,36.878609616215535],[127.73189390267274,36.8786160952957],[127.73238677177385,36.878994102444636],[127.7332992705446,36.87938668140235],[127.7334608610042,36.87932620609295],[127.7342687113146,36.87960079459693],[127.73484731077096,36.87989720263497],[127.73525869052486,36.87989987041057],[127.7362542898775,36.879310670442194],[127.73642187838108,36.879105127190236],[127.73701819200551,36.87897459442668],[127.73749907785245,36.87864683557487],[127.73769093088896,36.87811260782359],[127.73799411801504,36.87781340165667],[127.73948268110445,36.87860778995359],[127.74148081280381,36.8778471140637],[127.74348438159497,36.87736316486475],[127.74434607770478,36.87773753741982],[127.74544778579293,36.877969781781644],[127.7469183838088,36.87654126869447],[127.74763257003399,36.876166032238096],[127.74793526611703,36.875193287040936],[127.7479191526388,36.87436818579913],[127.7488481764161,36.87378051532949],[127.74991069895064,36.87340911101045],[127.75051139706187,36.87330731737053],[127.75191345238869,36.87422568712264],[127.75248780170922,36.87474976325497],[127.75340501345326,36.873715073740215],[127.75428691500333,36.873490745906366],[127.75647492586275,36.87362500613046],[127.75758219382786,36.87405620092993],[127.75837883974765,36.87396612322146],[127.75860743502824,36.87386590116309],[127.7598271559959,36.87478382388826],[127.76032997072235,36.87549024653923],[127.76087156057798,36.87596712082816],[127.76090934707422,36.87676463450648],[127.76249442333884,36.87750876549702],[127.76360383333511,36.87718797412115],[127.76492446634569,36.876630476193775],[127.76510845218357,36.87607270099075],[127.76668898960065,36.87477506604835],[127.76818974817242,36.87526438865002],[127.76924256889563,36.87571173350787],[127.76992627824976,36.87611041779943],[127.77079897648308,36.877537160059916],[127.7714142844261,36.87755279218286],[127.77280046418477,36.877927309706315],[127.7733119446749,36.87772110495639],[127.77366622424273,36.87788876147401],[127.77478339619748,36.87785812485127],[127.77593020466412,36.87850759185616],[127.77650574264722,36.87839190956603],[127.77762481945324,36.878520030097015],[127.77851786285976,36.878751740979084],[127.77889030094991,36.87920330950729],[127.7796043570154,36.87923617553953],[127.78053078137606,36.879567052267156],[127.78109554768027,36.87968032555638],[127.78233473107984,36.879693518735834],[127.78337585312049,36.880358035010616],[127.78444640121151,36.880098208532566],[127.78512410261487,36.87962059119515],[127.7856869334998,36.88007393677818],[127.78703624789925,36.88050868583734],[127.78776320381886,36.880623477279634],[127.78827937520447,36.88206525109046],[127.78883278444512,36.88260661728552],[127.78904273268847,36.884457013530096],[127.78935485664447,36.88551997347174],[127.78894050422369,36.88578568555188],[127.78861668211427,36.886367191126666],[127.78816402365013,36.887829857852424],[127.78828861532415,36.88836644708668],[127.7880788174659,36.88873111374596],[127.78802903850925,36.88908064082051],[127.78820731474107,36.889334363441314],[127.78813245509268,36.88979011588763],[127.78791178137509,36.88999198386736],[127.78796570864502,36.89035398989437],[127.78773819735406,36.890501822779136],[127.7878869712094,36.89105089469217],[127.7875883296096,36.89147179384743],[127.78753123319048,36.89178824941704],[127.78765389861628,36.89194968459698],[127.7874503768907,36.8925338862045],[127.78748049307298,36.89292951651496],[127.78762445537363,36.893201669278376],[127.78736642663249,36.893701251270265],[127.78732279071204,36.89413613439121],[127.78709046131061,36.8944794006247],[127.78728936174389,36.89476888036616],[127.78748402216827,36.89487128549409],[127.78765763711634,36.89486192828441],[127.78794139792555,36.89526388160163],[127.78836305281307,36.89539611584404],[127.78870972616407,36.89572194351007],[127.78928334276235,36.89589307614997],[127.78932906696997,36.89666114915474],[127.7894340480767,36.89685394737316],[127.79090716422712,36.89713367370113],[127.79119193259766,36.897428375858986],[127.79188515072981,36.89758458288378],[127.79210094017972,36.897888183755605],[127.79212511458238,36.898527277668315],[127.79236834819905,36.89895266380746],[127.7922264659069,36.8991709107515],[127.79235116291224,36.89937900957674],[127.79204553855412,36.90067577745864],[127.79210618685102,36.901105948616426],[127.7914000806732,36.90171329776512],[127.79003494010685,36.90222032038562],[127.78962416481978,36.902619929401645],[127.78863599723589,36.90267721103482],[127.78813751544205,36.9030743307826],[127.78722018440875,36.90336277812434],[127.7869671560986,36.90330941584438],[127.78644370426574,36.903465090924506],[127.78625459503233,36.903744831714825],[127.7863043351828,36.903949936982315],[127.78587775354161,36.904155197674285],[127.78504583510538,36.905535713031234],[127.7848941962404,36.90554250771671],[127.78488868462593,36.90587820083656],[127.7862315004492,36.90621834083975],[127.78715495725758,36.90623045642403],[127.7904386780315,36.90682863013818],[127.79184789076305,36.9069326175036],[127.79195600796025,36.9066309255283],[127.7918676429722,36.90652189003361],[127.79206090997786,36.90630817616916],[127.79204817394334,36.90601015254308],[127.79116332544895,36.90448992156122],[127.79183169046568,36.90395646882211],[127.79288212331582,36.90355280179203],[127.79382899981204,36.903478297064005],[127.79665166976635,36.902968305687985],[127.79741593625963,36.902762376065446],[127.7984759620534,36.90274927000114],[127.798487262824,36.902941714727646],[127.79833819182105,36.903280074994434],[127.7976529626978,36.9039974202648],[127.79774027973919,36.904459964757564],[127.79753063363111,36.905184790232866],[127.79753508045322,36.90586340623479],[127.79770312803947,36.90642066247497],[127.79773591359812,36.90729627049303],[127.7982899299844,36.90816750771428],[127.7982744700733,36.90880641200618],[127.79804611450322,36.90910507770538],[127.79793713184107,36.909426023256614],[127.79714136108052,36.90982452405322],[127.79696842250978,36.9104326657572],[127.79630357301448,36.910775644809135],[127.79605058900079,36.91140693029574],[127.79625364886662,36.9120713232318],[127.79622537384947,36.91253667866709],[127.79564005968967,36.91340018881623],[127.79475922164657,36.91381040932887],[127.79377423284826,36.91439591596294],[127.79464182434786,36.915520763359005],[127.79437883662091,36.916214915303584],[127.79317039302713,36.9168542695414],[127.79169175123647,36.91654966856666],[127.79050507357104,36.9168327243533],[127.7895444312532,36.91565761582766],[127.78907229810605,36.91562473036851],[127.78863762616737,36.915789685767926],[127.78815395894576,36.91581602848365],[127.78791414440231,36.91582758241271],[127.78779917658396,36.915695264523855],[127.78676777898164,36.91579288719676],[127.78642399432093,36.916281600733925],[127.78601636669822,36.91665032318538],[127.78562644457416,36.91743217335696],[127.78487235413712,36.917279092897864],[127.78412162741036,36.9176052369519],[127.78353350892301,36.91859915192716],[127.78380570902173,36.919176518505616],[127.78365654175207,36.920043451506054],[127.78350715557298,36.92019343653696],[127.7832772663898,36.920698302274566],[127.78282141701848,36.92218272925257],[127.78307006859754,36.922694332824996],[127.78290715207966,36.92289921523925],[127.78191451870156,36.92298396060143],[127.78182698402719,36.923607612224686],[127.78144688634205,36.92412533718487],[127.781532866735,36.92425548151596],[127.78199492605064,36.924324702331496],[127.78224755104748,36.92447612311154],[127.78301427196634,36.92445078179044],[127.78396029142016,36.9247789294616],[127.78440844985347,36.9247733626588],[127.78522357580796,36.924545911990506],[127.78606168431541,36.92492543047222],[127.78625024092419,36.924913309660326],[127.78635099294709,36.92505248888047],[127.78738248170373,36.92574213926422],[127.78749427275972,36.92589831738941],[127.78787613461292,36.92604712358359],[127.78890786352815,36.926095137832405],[127.78860626819203,36.92627263650959],[127.78842592094011,36.926781346852415],[127.7887868266415,36.92747747537719],[127.78904529070927,36.928594613142494],[127.78769191813353,36.92880046910716],[127.78787125944082,36.92901250831482],[127.78812875622862,36.92909131440182],[127.78842889675343,36.93063511854117],[127.78773280716447,36.931552420643996],[127.787494128365,36.931676212403175],[127.78689250003744,36.93179255509274],[127.78682662737941,36.931974338360526],[127.78720546191985,36.93234045737791],[127.78732707707256,36.93284021922946],[127.78784963692688,36.933185849969675],[127.78841483385409,36.93380259588161],[127.78840667682384,36.93420787867842],[127.7880195023944,36.93562825165795],[127.78809064889839,36.93609930644911],[127.78797179595603,36.937217491114225],[127.7866353116111,36.93699248962967],[127.7852379760879,36.9373204240791],[127.78430671884713,36.937724726749444],[127.78321066222509,36.93725489571708],[127.78272453100259,36.93685086136857],[127.78184626333734,36.93582548548813],[127.78169696302977,36.935338658387366],[127.78093414399818,36.93491370615085],[127.77888907019276,36.9342843358175],[127.77841980341017,36.93437770195028],[127.77800204870523,36.93426141263866],[127.7778209861999,36.934347602043914],[127.77745159077703,36.934352258800324],[127.77709858288155,36.934170676267144],[127.77673747206575,36.933855101986474],[127.77564407046648,36.933403268525176],[127.77411223438988,36.93382857866057],[127.77308162918958,36.934737917793846],[127.77203564317209,36.935063044382154],[127.77177609084681,36.93561003263057],[127.77175976850826,36.93616753560268],[127.77167745440848,36.936228512281296],[127.77080574714049,36.936662517404834],[127.77006557058615,36.93677966401527],[127.76984506905956,36.9370323962412],[127.76908125192331,36.93868672972453],[127.76838174412487,36.93879950262846],[127.76778434590189,36.93960352869445],[127.76676662596473,36.94040453012066],[127.76652972618028,36.94014169274608],[127.76478321060439,36.939831125029386],[127.76382885720815,36.94088546920537],[127.76352474996145,36.94199724901943],[127.7629285330277,36.943061896307945],[127.76257533402195,36.94329174851377],[127.7626252473831,36.943721063175516],[127.76239490635464,36.944078053865404],[127.76157235380737,36.94458572716216],[127.76080735307534,36.94477973367704],[127.76090578929019,36.94509599087901],[127.7623266275942,36.94558476890772],[127.76330206608114,36.946153095641364],[127.76382801407753,36.946331258974546],[127.76293181399076,36.94738159853429],[127.76255840012156,36.94844560716372],[127.76202198102763,36.949093570109554],[127.76063963912478,36.95001842373653],[127.75913008296455,36.95078561418649],[127.75857630062912,36.95125129047089],[127.75830802186483,36.951615550806856],[127.75812762960553,36.95279647713486],[127.75689931168644,36.95338464351418],[127.7563565386459,36.95303740156002],[127.75606850327149,36.95365984873419],[127.75593428215565,36.95366339410903],[127.7557642785711,36.95387076337028],[127.7556724524866,36.95414536712183],[127.75583903048191,36.95442070163469],[127.75577247955313,36.9544906044009],[127.75579146553503,36.955010891536126],[127.75554366223459,36.95482864939021],[127.75545609026365,36.954897127849854],[127.75529474725461,36.954728258727556],[127.7544221651803,36.954862175423784],[127.75438523754386,36.95531395716834],[127.75377509233128,36.956030202250545],[127.75344159553732,36.95664782885405],[127.75332387696368,36.95768652357673],[127.75294461660928,36.95794437602929],[127.75164695145796,36.95715165478576],[127.75098265297862,36.956657481110106],[127.75092242688198,36.95640297840553],[127.75074179215821,36.95621460051533],[127.75010310724262,36.95583746934303],[127.74893419901514,36.95607196339547],[127.74753535172557,36.955781749484515],[127.74630140214299,36.95575311073478],[127.74513505226679,36.95552533232907],[127.74461746532884,36.95402364689991],[127.74252738548344,36.95344387502026],[127.74206293546393,36.953119396373644],[127.74187507734219,36.952876525239766],[127.74098184602373,36.95243006194124],[127.73999965387416,36.95243141636477],[127.7392976995783,36.95234319653358],[127.73804231792437,36.95340335781786],[127.73770617812661,36.95350777516838],[127.7372171340182,36.95396699507253],[127.73684217132734,36.95411975824533],[127.73648312475518,36.95412625207094],[127.73440265912609,36.95374128311997],[127.7341404270615,36.9536093362752],[127.73338374253015,36.95357675465795],[127.73290999073211,36.953693753403265],[127.73274702846302,36.9547111999707],[127.73228349695599,36.95542519238718],[127.73196291517641,36.95555551030719],[127.730537924053,36.95680256060853],[127.73049809608415,36.95740876939411],[127.72990221493669,36.95794819680069],[127.72870480297007,36.9582521098539],[127.72680350786143,36.95899683448992],[127.72609872092735,36.95860487707304],[127.72571280585275,36.95824375044327],[127.72566386411243,36.95805176305066],[127.72544697389117,36.95796992695956],[127.72479824955946,36.958549945527864],[127.72403522273268,36.95862699193452],[127.72369627198631,36.95895993326356],[127.72273102117795,36.95908358549985],[127.7225191346363,36.959290630517536],[127.72210579280483,36.95910496162127],[127.72209648383877,36.958742465593524],[127.72089446752311,36.95866676673138],[127.72028672712622,36.95881995184354],[127.71860724493683,36.95894029600217],[127.71803544565562,36.9584482086556],[127.7169842647464,36.95837139807114],[127.71630266228803,36.958458481024245],[127.71576778082462,36.959347021077626],[127.71532063842912,36.96032595532568],[127.71506672885347,36.9604974939245],[127.71467110693953,36.96111871014278],[127.7143995887035,36.961158103545976],[127.71415438232181,36.96137616617576],[127.7132866412613,36.96173390954309],[127.71208637929989,36.961904469519816],[127.71124956230955,36.96215756408223],[127.71078478967785,36.96254631151367],[127.71064212711514,36.963381439728224],[127.71028627684899,36.96450554716549],[127.70937673608788,36.96487592907354],[127.70821104546604,36.964902957923],[127.70743452334094,36.964834409827894],[127.7072153340543,36.96514605846532],[127.70650261209182,36.96560339062975],[127.70604642974376,36.96580322431686],[127.70543068229324,36.967145248716264],[127.70549221478421,36.96739720827183],[127.70476957969102,36.96848693681555],[127.70418849643181,36.969108918513435],[127.70412261740809,36.96965909055311],[127.70374695800889,36.97021619656167],[127.70362470658951,36.97097742310325],[127.70345319027791,36.971172977496266],[127.7034333499129,36.97140436934859],[127.70373569643579,36.97179352607741],[127.70380743443273,36.97204774945616],[127.70240584395935,36.972582928470054],[127.7008689430031,36.97351439883432],[127.70055517356936,36.97387450682942],[127.69936556869125,36.97418572953361],[127.69754401129474,36.974049847088374],[127.69706443539415,36.9744588311464],[127.69660714442004,36.97471816526662],[127.69633644034047,36.97465345134853],[127.69451396981496,36.97506784912531],[127.69444787107838,36.97565283312162],[127.6945545127115,36.97572165503719],[127.69455101332754,36.97590676353003],[127.69496656212212,36.97658687306529],[127.69458796872853,36.97694284922051],[127.6947572766753,36.97789661407883],[127.69467593096287,36.97819244845025],[127.69419979347482,36.97865579562367],[127.692970132235,36.97934116427054],[127.6924638862759,36.97927768598197],[127.6918095093595,36.979321679007136],[127.69124691347488,36.97958836495561],[127.69081168237948,36.97967314120035],[127.69055853328243,36.97994601124324],[127.68979109754422,36.98035567068809],[127.6891150834485,36.98033279987181],[127.6881842452859,36.98077641590792],[127.6877609714975,36.98087531468947],[127.68717646377222,36.98125283774604],[127.68656232280621,36.98151635012119],[127.68689106554896,36.981854278573124],[127.68735397954163,36.98286480179886],[127.68735428708467,36.98330092002045],[127.68719194206102,36.98372103093374],[127.68732427424924,36.98444940534385],[127.68680827921244,36.985030189429324],[127.68628006495395,36.985867546717934],[127.68584155495302,36.98584272853629],[127.68542857711468,36.9860075073928],[127.6844766438017,36.98606650076917],[127.68399031432203,36.98575462035959],[127.68233871225912,36.985798523229604],[127.6819959810385,36.985377802607886],[127.68058251523439,36.985600854514296],[127.6800197548172,36.985924577573016],[127.67954773338263,36.985953224546606],[127.6791066165897,36.98583957878131],[127.67845215407397,36.98602442647053],[127.67829294211687,36.986182046973205],[127.67777039497297,36.98642512790278],[127.67625436767698,36.98646359760457],[127.67542475552051,36.98587239388155],[127.67493912402375,36.985752506313204],[127.67422946238037,36.98578619483997],[127.67385784736038,36.98601709644148],[127.67352864372751,36.98611779883622],[127.6729481831359,36.98595620388519],[127.67206542681939,36.985867755091434],[127.6712843140155,36.98659303982459],[127.67091271294662,36.986803766870416],[127.67067601033395,36.98727892312136],[127.67024239450848,36.98780988493961],[127.66894434058585,36.9877757951671],[127.66874534574362,36.987931294186446],[127.66784799739432,36.98707184616063],[127.66754915443857,36.987000095111284],[127.66736095716907,36.986786076545265],[127.66709955545119,36.986803808388316],[127.66675715416771,36.98669559734706],[127.66645531243186,36.98631394212817],[127.6663451105089,36.985762227144996],[127.66585471119728,36.98522810270601],[127.66581365198203,36.98497026769574],[127.6655526835645,36.98460550011527],[127.66497456646724,36.984557552990815],[127.66494237692524,36.98446864499871],[127.66453552266474,36.98428969595222],[127.66405382066813,36.9841692553412],[127.6638580309591,36.98399619962054],[127.66373818298227,36.9835848664194],[127.66347554959478,36.98349802802903],[127.6637668330718,36.98355615375624],[127.6639179979286,36.98388594410655],[127.66430466628661,36.98396917180281],[127.66458613998152,36.984260804810575],[127.66490357767191,36.984382684886285],[127.66492499312604,36.98420493899456],[127.66461833116058,36.984122276691494],[127.66432519881258,36.98382543692201],[127.66404133270493,36.983732969907976],[127.66399142789443,36.98356709194864],[127.6637265496112,36.98333885302851],[127.66395089875284,36.98333718583789],[127.66448118607666,36.98370897784794],[127.6645778271895,36.98368075670937],[127.66510618799626,36.98383033712369],[127.66519648827065,36.98369143774495],[127.66489663993548,36.98331316320292],[127.66495168971103,36.98316216148333],[127.664811794421,36.983006449145044],[127.66495983523866,36.98292960632701],[127.66505645434047,36.98296767705763],[127.66529929305754,36.982759282182684],[127.66537853958677,36.98281454214686],[127.66535868913991,36.98297438509551],[127.66553988176463,36.98347237897439],[127.66567437381745,36.983449460540676],[127.6656697363366,36.9832529755579],[127.66581905945519,36.98313654384942],[127.66597019507246,36.98315225757465],[127.66657185160217,36.98401251068745],[127.66697023716844,36.98402712776464],[127.66710664693984,36.98386456046529],[127.66735208732833,36.983801768074315],[127.66725499732567,36.98353212963589],[127.66738506977357,36.9835200454444],[127.66787763118492,36.98397257093221],[127.66819153542666,36.983831989893844],[127.66856450687449,36.98340312518668],[127.66854089914729,36.98319742023916],[127.66825362529681,36.982961921510395],[127.66830000976172,36.9827325282821],[127.66853836242414,36.9826056976482],[127.66865339188297,36.98267601102861],[127.66852980167245,36.982859010301375],[127.66867775419234,36.98301172663139],[127.66913476500991,36.98273212622985],[127.66921819590834,36.982457337192045],[127.66914010179987,36.982305506391995],[127.66882800610261,36.98216761493826],[127.66813855673006,36.982061963300765],[127.66809155375155,36.98196426458394],[127.66823081759979,36.98193512554208],[127.66901449992844,36.98220409607196],[127.66903657990387,36.981837627398875],[127.66869806000375,36.9817716255621],[127.6679672675735,36.9810026656891],[127.66750764489576,36.98079128624166],[127.66736104586863,36.98064199197139],[127.6672648295745,36.98042061011189],[127.6673034321226,36.98025837316237],[127.66742923341901,36.98013842984491],[127.66751843684352,36.98018273082288],[127.66706627985812,36.97865612895868],[127.6655826550671,36.97809741654588],[127.66348812922314,36.9779528410039],[127.66249456977378,36.977481330215035],[127.66177758112273,36.97739688659275],[127.66144893566005,36.97759118978975],[127.66122152000705,36.97787714522621],[127.65948311381318,36.97799820088503],[127.65894341682115,36.978545988357084],[127.65845769305663,36.97861222859273],[127.65712775694618,36.979349153601255],[127.65678525215537,36.979442249728045],[127.65586209158928,36.97988632001698],[127.65565207305112,36.980106066779626],[127.65556581715698,36.980553585038265],[127.65408854149311,36.98143409589259],[127.6532029172285,36.98209764716134],[127.65314837608307,36.98239926343056],[127.6526536912544,36.982695677182335],[127.65212274358775,36.98258288304122],[127.65133238590799,36.98261338661447],[127.65101084376055,36.98284707912961],[127.65078755851482,36.98346699617178],[127.6508978045876,36.98383109920467],[127.65135788311301,36.98415489112981],[127.65194460865801,36.98514375634764],[127.65302501070254,36.985849068499235],[127.65369245719384,36.98655861099516],[127.65370285394486,36.9870804236793],[127.65267344540437,36.98823699753143],[127.6526952610359,36.98884624814417],[127.6525515259815,36.989231933556695],[127.65289866184031,36.98989874277447],[127.6525785311427,36.99078334279085],[127.65255558088575,36.991689968356205],[127.65315542327465,36.992272159349696],[127.6532145895218,36.99302017448257],[127.653638797576,36.99353556715802],[127.65414323959733,36.99397498325822],[127.65446211593061,36.99455528551074],[127.6541590278439,36.99481844109247],[127.65390436779221,36.99524334750449],[127.65396830067418,36.99568293789346],[127.65338816819016,36.99655317908196],[127.65344991300356,36.997143062782314],[127.65325366891015,36.997493092220765],[127.6538808611208,36.99806747858911],[127.65391288558898,36.998337848137595],[127.65539767319314,36.99970182751208],[127.65539482995139,36.99999574281724],[127.65562019460965,37.000507969634235],[127.65510668873378,37.001266669678],[127.65529823128381,37.00131882184535],[127.65509825939732,37.001275536457506],[127.6550518689768,37.001391920925],[127.65543658868178,37.00149272178343],[127.65596089707283,37.001762536884264],[127.65651184851025,37.00185581223156],[127.65669671221968,37.00203250691978],[127.6570039665967,37.002163617642175],[127.65733892798856,37.00269122961431],[127.65732574550199,37.00288822109288],[127.65741135649407,37.00299861350892],[127.65769942222727,37.00312255614981],[127.65873548116389,37.00327380719225],[127.65905720939448,37.00346326514806],[127.65961379012649,37.00344268267847],[127.66047256832765,37.00354399158946],[127.66290894225523,37.00311493448606],[127.66458778356666,37.00301051573875],[127.66552156588095,37.003069090988326],[127.66522882618364,37.00390418130921],[127.66520190961225,37.00428955248318],[127.66432320385151,37.0044531091947],[127.66307641130796,37.0043239070163],[127.66254650995369,37.00507925198289],[127.66203831006848,37.00558833082773],[127.66167891951636,37.00622069325703],[127.66072745688773,37.00693288890863],[127.6601281943343,37.00803225241909],[127.65985555757231,37.008105139036836],[127.65975133353693,37.00893728569602],[127.65956110672114,37.0094509877282],[127.65938008471196,37.00965636817218],[127.65953258646726,37.010231336405724],[127.65884878323884,37.010537951848896],[127.65845777200988,37.010603596387575],[127.65817116109473,37.01080106240977],[127.65731445511368,37.01093836360355],[127.65710208121752,37.011242525856765],[127.65730794659392,37.01174765648898],[127.65716954165354,37.012168837672476],[127.65686467448043,37.01244347713093],[127.65690089331655,37.01264299908467],[127.6567356904979,37.01292174072221],[127.65613116693639,37.01321912752979],[127.65615789913114,37.013432937369124],[127.65727121945193,37.01417013601709],[127.65649650280517,37.015163930183036],[127.65631354165502,37.01593039502467],[127.65702221660639,37.01654240776864],[127.65735140247594,37.01735010863591],[127.65738978351784,37.01820596175966],[127.65788155707615,37.01873675023763],[127.65846490050353,37.01872765788012],[127.65936938808393,37.01941498211861],[127.66008899360438,37.02038835913315],[127.66077101980805,37.02099271005299],[127.66094859175162,37.021511416831494],[127.66187839090362,37.02214225898245],[127.66273782794943,37.0226073273919],[127.66461722206489,37.02319803320622],[127.66459615601855,37.0235283909171],[127.66471956153563,37.02399686846052],[127.66444557351741,37.024214157936136],[127.66428907446267,37.025080449472426],[127.66442605825043,37.02544709998387],[127.6648338261103,37.025926479725015],[127.66482877655734,37.026644891309424],[127.66461564019927,37.02740433843892],[127.66450328319104,37.03035670401888],[127.66428530277015,37.03057204026968],[127.66501861619511,37.03123354847251],[127.66577814089464,37.03172989019488],[127.66648277707078,37.032050123567075],[127.66658672189715,37.0326386773411],[127.66745030638025,37.03320399327422],[127.66864652085953,37.033281730182296],[127.66994773420852,37.0340805262002],[127.67024070193357,37.03436315735126],[127.67184991852588,37.03448631585461],[127.672025339045,37.03465876970636],[127.67160156030478,37.037275748326095],[127.67189398842493,37.037673965354095],[127.67208366437069,37.037769190364756],[127.67212340907251,37.03804010079566],[127.67210094055979,37.03904468462872],[127.67183083744753,37.0396831556628],[127.67201224878897,37.04022496219047],[127.67256515608037,37.04034048601242],[127.67382570330733,37.04097676687387],[127.67500697408454,37.042145380323774],[127.67587368638934,37.04340586658158],[127.67652148332361,37.043684257528156],[127.6769674904143,37.04415270716667],[127.67814190315937,37.04427646367805],[127.67958463827736,37.04455716623065],[127.68158098474682,37.04614260012634],[127.68366393133076,37.04641334718045],[127.68428671127599,37.04689849449158],[127.68463391367092,37.04704876467917],[127.68519356649902,37.047088026092446],[127.685644950796,37.04737838303267],[127.68566641304638,37.04750140426372],[127.6865422163685,37.04806733017147],[127.68641656447174,37.04853920496808],[127.68645557270345,37.04931249489107],[127.68703772299375,37.04968762802396],[127.6870046294108,37.04997905613091],[127.68747726970327,37.050227773047325],[127.68792755080942,37.05026395814599],[127.68834675709216,37.05095216917936],[127.68949536587675,37.05149143299216],[127.6898984366514,37.05157227090341],[127.68988730406045,37.05198005046339],[127.69027789840752,37.0523194003552],[127.69024706293092,37.05259810096527],[127.69118488555785,37.05311720909257],[127.69127222334266,37.053483670489165],[127.69086861260269,37.054008264272426],[127.69071228621243,37.05444653295287],[127.6910800625539,37.05474346462403],[127.6910235748462,37.05524216174191],[127.69058791307802,37.05559532821312],[127.69029055876933,37.0563061618575],[127.69053517814625,37.05663023643115],[127.6905606792593,37.05725229957365],[127.69021469390246,37.05789587211327],[127.68986992604815,37.05819351682643],[127.68978887448841,37.05841858283456],[127.68982451125076,37.0586235440631],[127.69029249612262,37.05939876732746],[127.69021557702156,37.05959592040435],[127.69020494591328,37.06026557918544],[127.6892662893853,37.06171574713885],[127.68954790422252,37.06240365092462],[127.6895644424599,37.062973737010594],[127.6893771767457,37.063746437110304],[127.68938074888118,37.06415806847101],[127.68915637257983,37.06450343507833],[127.68899085764632,37.065388320724],[127.68885371046896,37.06565794461658],[127.68914145470076,37.06608180443236],[127.68910978809731,37.06643644202668],[127.68862519361912,37.06724399473889],[127.6883066671751,37.067280873575776],[127.68770237318834,37.0679721492623],[127.68755892870857,37.06829388424207],[127.68757427993232,37.06856646358623],[127.68734692492895,37.0691802089315],[127.68740303935286,37.07007963488854],[127.68724512110124,37.07075292686024],[127.68729802773233,37.0711374856742],[127.68717702305902,37.07129358815433],[127.68687658651658,37.072208139665356],[127.68670915105712,37.07243817079981],[127.68651793040287,37.07325427351529],[127.68545698903051,37.07376015943716],[127.68534453098786,37.07417518070365],[127.68487769895974,37.07463230524993],[127.68450051511091,37.07469381122001],[127.68400159186695,37.07511085052682],[127.68328723771432,37.075309322904374],[127.68295579791369,37.075908964778314],[127.68285593413651,37.07629568085675],[127.68332874100575,37.077333465077835],[127.68355673216423,37.07814189696681],[127.68380704051631,37.07849084761624],[127.68450297605779,37.07873965781421],[127.68520719076542,37.079129456214524],[127.68565343522475,37.08012680151167],[127.68611643480651,37.08041341912634],[127.68663344961799,37.080947312961015],[127.68935997197467,37.080985252027475],[127.69118631170326,37.08124632006297],[127.69222049305398,37.08130930439306],[127.6923774692896,37.08310040575495],[127.69295935035109,37.08416918608208],[127.69312933864227,37.0849711430639],[127.69344444304127,37.08553950307029],[127.69393873028756,37.086003612970266],[127.69464126657007,37.086379145560926],[127.69518952958356,37.08704052568841],[127.69591808015643,37.087302400813925],[127.69634689320766,37.088147294365314],[127.69637895663729,37.08877175603483],[127.69664901423232,37.08898227874921],[127.69678730144487,37.08945282190254],[127.69738899048521,37.08985993441907],[127.69766831743009,37.089939550218894],[127.69822783012567,37.09096529561353],[127.6993453347204,37.09163527984108],[127.69958597030559,37.09230259127117],[127.69965265432508,37.09322183034693],[127.70010394633294,37.094299324457914],[127.70015482389701,37.095525893255704],[127.6997903161188,37.095706311940106],[127.69851580945758,37.097519290704746],[127.69832070000822,37.098018812792326],[127.69798563486152,37.098222444252364],[127.6981171215364,37.09938382620573],[127.69839334563218,37.09945093531382],[127.69865304484588,37.09975404143198],[127.69944802716991,37.09958492631499],[127.69991292255335,37.09964413520379],[127.69999909217641,37.100013298833304],[127.70050599805249,37.10057110168546],[127.7004991693261,37.10122620120535],[127.70085771788679,37.101879043525784],[127.70073027393157,37.10235362569537],[127.70093768561216,37.102959265125186],[127.70200240781232,37.102975659511074],[127.70257007878395,37.1034254454273],[127.7032347289296,37.10346446663938],[127.70464965072722,37.10405019528966],[127.70488278851005,37.10444223369995],[127.70564891553464,37.104856626860055],[127.70593172445606,37.10512799151619],[127.7066204527946,37.10506243523429],[127.70715280925573,37.10532204897237],[127.70793317321589,37.10552608187071],[127.70806104601452,37.10530181732479],[127.70953450137239,37.10548113938382],[127.71134735682394,37.105873894691335],[127.71148786163243,37.106312021636576],[127.71260960479212,37.106367402133074],[127.7127237091142,37.1067304573522],[127.71252283130431,37.10705779324858],[127.71253812887375,37.107499283760646],[127.7128375436868,37.10831920013709],[127.71331749838295,37.1089071410601],[127.71327774728641,37.109064269589204],[127.7148573928218,37.110041648406344],[127.71504703993504,37.10989889936516],[127.71584327962098,37.10972328835606],[127.71636322017012,37.11005560997705],[127.71718673737185,37.10963121732952],[127.71759641799693,37.109754123619],[127.71770599427157,37.110433782183556],[127.71808051033928,37.11043605422201],[127.71864956150354,37.11065261186343],[127.71884334138768,37.11057747039915],[127.72049173364033,37.11077815823697],[127.72106071590288,37.11122179299839],[127.72107341004633,37.11132567829919],[127.72084188660423,37.11138530808009],[127.72113871604002,37.1120564852784],[127.72104515115045,37.11229726965659],[127.7212906160448,37.11266080859675],[127.7222188714241,37.11360323288357],[127.72235397710052,37.11405011102101],[127.72282003933483,37.11477018030309],[127.72276009417469,37.11504195497442],[127.72285978598333,37.115908471917066],[127.7220775484536,37.11658225911896],[127.72200670633208,37.11740484139302],[127.72213999554349,37.11818278134609],[127.72190565102859,37.11873669395903],[127.72183630212875,37.11921818001232],[127.72216415858291,37.12025146209346],[127.7221239684777,37.12086280839245],[127.72167739599543,37.12143970739789],[127.72078843390862,37.12232908538629],[127.72053181871988,37.12307635725384],[127.71971193671195,37.12347255830397],[127.71940068543815,37.12393387330351],[127.7188063907727,37.12425002232429],[127.71818269280244,37.12479254254205],[127.7181782167409,37.1249682091132],[127.71763868838866,37.12533965284433],[127.71517744252819,37.125686334487725],[127.71457708075592,37.125577544702516],[127.71386070562676,37.12639944152169],[127.71271624775656,37.127061781312115],[127.71253379499741,37.12730855188671],[127.71196854501984,37.12776938820513],[127.71178819800951,37.1281818567994],[127.71180355483192,37.12881972584707],[127.71126360607926,37.129071491855825],[127.71058677661664,37.129956467834916],[127.71057548954086,37.130400295537406],[127.71004288048206,37.13108994619653],[127.7100586272828,37.13167192095859],[127.71092867489777,37.13244936623081],[127.71052872655955,37.13339106162215],[127.71058523765987,37.13378249524309],[127.71045378078531,37.13404668096407],[127.71014516475768,37.134291715436454],[127.70967228503584,37.13512269283684],[127.70964344869262,37.13568257116154],[127.70874361919732,37.13581310734895],[127.70719875323198,37.13664431879415],[127.70672774363511,37.13668510833227],[127.70632916359143,37.13706421189147],[127.705853274474,37.13688845459377],[127.70523412740442,37.136895729947824],[127.70461436038549,37.13703073082258],[127.7044452039433,37.13729330540777],[127.70308147777381,37.13766446578161],[127.70164009758476,37.13761618544458],[127.70022959008367,37.13779784188685],[127.6993466016981,37.13838076792115],[127.6969077871122,37.139239172586535],[127.69602794457617,37.13977908706546],[127.69542725384987,37.14042958463155],[127.69481603184077,37.140029840984816],[127.69371912822474,37.13907665599025],[127.69283200891032,37.138503863373714],[127.69252323638091,37.1381275264243],[127.6921518796308,37.13790203647719],[127.69045824566162,37.137345335500804],[127.6885897714101,37.13557057673102],[127.68762837462428,37.13540131731229],[127.68681300382363,37.135083732793],[127.68628562407036,37.13522837905647],[127.68558436019399,37.135632569257574],[127.68521990317402,37.13561636203212],[127.68319193095628,37.13612689262282],[127.68280458299162,37.13644601309945],[127.68249847999164,37.1363985039216],[127.68206200291363,37.135958744408654],[127.68064884671199,37.13565837326257],[127.679707040267,37.136053308420216],[127.678478175478,37.136260469954735],[127.67797341908853,37.13657758075543],[127.67738404063252,37.136745885087635],[127.6767865147771,37.13667905576954],[127.67647641484065,37.13644228005471],[127.67557646522175,37.13637807771835],[127.67526559933205,37.136471883505315],[127.67473117893834,37.13629186542451],[127.67367080991606,37.136454806906016],[127.67335726297655,37.136612347494115],[127.67162636725297,37.136176094058236],[127.67124803702812,37.1364715843948],[127.670222366183,37.13610515746902],[127.66941322875675,37.136511020449575],[127.66800425968397,37.137964261263114],[127.66728759416726,37.13852186074278],[127.66665192402142,37.13875732746278],[127.665991700927,37.139430356748726],[127.66436066293328,37.139226889264904],[127.66370181319478,37.139503495103426],[127.66246608920825,37.139177106914325],[127.66131928178905,37.13936564226534],[127.66060820271441,37.139736195769316],[127.65994371270233,37.1399019839218],[127.65988605960055,37.14067916021117],[127.65919736265265,37.1408450092634],[127.65844393651382,37.14114348212341],[127.65815042288297,37.1415936811221],[127.65746000215978,37.14197565233768],[127.65729912822765,37.142323206646275],[127.65687201054187,37.142295168809305],[127.65581549011412,37.142412301112756],[127.65558334161813,37.14237329691147],[127.65546500797961,37.14273968303618],[127.65572894093445,37.14402917696578],[127.6563396277568,37.14424860441386],[127.656529370284,37.14464758933093],[127.65633834965944,37.144883764683875],[127.65534583698786,37.145428162527],[127.65515248961056,37.14571103434512],[127.65476129306943,37.14596839273538],[127.6546567183595,37.14630110266235],[127.65438134376241,37.14634016320884],[127.65396889382733,37.14661369107018],[127.65375660624679,37.14692406043716],[127.65350537348891,37.14695280603432],[127.65323628819145,37.14726748647471],[127.6529698109478,37.14739432149604],[127.65237607402378,37.14804496113009],[127.65119635150064,37.14741755322915],[127.65011232348454,37.14761403254814],[127.65015608797603,37.14785927142085],[127.64934183248313,37.14917305182162],[127.64897105924518,37.149527750994714],[127.64839434480582,37.14984372963809],[127.64806762002154,37.15062135095496],[127.64755005189264,37.150703520756466],[127.64719676012436,37.15067102398685],[127.64679607981493,37.15114569985854],[127.646423491964,37.15121638850048],[127.64509765950308,37.15092616112282],[127.64438551782497,37.15118699287335],[127.64368221626573,37.15169085384761],[127.642951459834,37.15188529017837],[127.64233697469605,37.15178570718779],[127.64204256280715,37.151616696358744],[127.64168907607572,37.151226024341945],[127.64107933029736,37.15122727271629],[127.64046996251982,37.15149255399935],[127.63999029971376,37.151997607933744],[127.63994778081386,37.15216734127235],[127.63965794552722,37.15249589702981],[127.63868519616352,37.153127765719326],[127.63766994893197,37.15299416197058],[127.63718202706764,37.15282917851806],[127.63677876769054,37.15297096544418],[127.63605699868536,37.153080721864434],[127.63566450631261,37.15295389141912],[127.6351638602754,37.15316290754512],[127.6349393058303,37.153165191611464],[127.63455425745781,37.15293465157701],[127.63370290118004,37.153228819594524],[127.6333111461631,37.15296981266883],[127.63290364688292,37.153556973272586],[127.63176467519146,37.15405190163809],[127.63126487905011,37.154103683865955],[127.63071465576961,37.153945617018636],[127.63040518656724,37.154116374767966],[127.62989721384139,37.15411727693346]]]}}
