{"type":"Feature","bbox":[127.00838165815365,36.619698972250234,127.42041707616475,36.89219701052632],"properties":{"regionCode":"44131","version":"vworld-20260909-3f8952dfda77-p2","name":"충청남도 천안시 동남구","attribution":"국토교통부/K-Geo플랫폼 · VWorld 법정구역정보, CC BY 2.0 KR; 두꺼비집 가공"},"geometry":{"type":"Polygon","coordinates":[[[127.29600970128209,36.889749914541184],[127.29521593694814,36.89022047158633],[127.29458509417053,36.89031514463344],[127.29455617411999,36.890980577960576],[127.29341842525996,36.89120110327448],[127.29302780171976,36.891586328621266],[127.29269494973718,36.89169386022972],[127.29247608275051,36.891961463558566],[127.29150537310743,36.89218484928184],[127.2905880846894,36.89219701052632],[127.29020205153006,36.89200101074207],[127.2900178194293,36.891732357417496],[127.28956043129702,36.89146375221964],[127.28924392178213,36.89095672522888],[127.2886524844785,36.89068769839172],[127.28848545459135,36.89036201996651],[127.28738215536382,36.889496742704026],[127.2865694271137,36.889391987661085],[127.28619877289835,36.88904639645174],[127.28569092075392,36.888774773763046],[127.28491450870786,36.888705644430104],[127.28450456722548,36.88845467497369],[127.28332134336189,36.88894075305105],[127.28243647087213,36.888122054629534],[127.28178959512294,36.88805026632564],[127.28139448586246,36.88784878539292],[127.28093413987739,36.888080288478335],[127.28054882589097,36.8888408588748],[127.2799038740939,36.88905517761603],[127.27959971555408,36.88937200819632],[127.27867860300651,36.889709172233765],[127.27789337156847,36.89024661663841],[127.27614511491056,36.88941878162011],[127.2751796358469,36.88906268595597],[127.27499314168134,36.8887083061075],[127.27472134911655,36.888515367741704],[127.27470457155256,36.888091362205394],[127.27376965220031,36.88748348885408],[127.27270173762008,36.8873452154161],[127.27254075228305,36.88527654563831],[127.2721456266764,36.88460260112797],[127.2721358299459,36.88410860108281],[127.27139902398582,36.88247259075567],[127.26852246309808,36.88279842576355],[127.26792973226722,36.883023198723606],[127.2674278522612,36.88311691219893],[127.26709201139407,36.88296226729173],[127.26619452873898,36.8831068783827],[127.26578723730213,36.8826596253501],[127.26522749749209,36.882534229538294],[127.2644504052586,36.881948178737126],[127.26247050310815,36.88152826513656],[127.26223093927995,36.880897477019765],[127.26183816085837,36.88067993472189],[127.26137400034048,36.87988693307227],[127.26145553276848,36.87938310721078],[127.2607254764184,36.87860748446204],[127.26032358308778,36.878686277074245],[127.25987707854675,36.87815130621842],[127.25951927757464,36.87799644762697],[127.25818849424803,36.87847721432835],[127.25769838729782,36.87853120149116],[127.25640428590901,36.8792895677414],[127.25447562299215,36.87959442964428],[127.2520251038765,36.87879632457739],[127.25176109606808,36.8784512555905],[127.25105498725812,36.87810835454487],[127.2510385000731,36.87766760924958],[127.25065258324084,36.87706902994811],[127.25033040386111,36.876954627247464],[127.25035166756615,36.87661810667686],[127.24993959063251,36.87619488680405],[127.24954250931619,36.87538533696216],[127.24926729414062,36.873685153692094],[127.24936086795493,36.8726088403504],[127.24924479119535,36.872388754665344],[127.24957961768898,36.87185274396571],[127.24991531162303,36.87150628410941],[127.2477096959743,36.87104387379892],[127.24713167328292,36.87114140396343],[127.24708915931355,36.870740154731905],[127.24683243371808,36.87044401756068],[127.24647672848886,36.87036713102516],[127.24602975058448,36.87044054540011],[127.24529061243997,36.870168833910576],[127.24504512425847,36.87017327460382],[127.24452347749677,36.8698370005602],[127.2442397014667,36.869806440124215],[127.24375714060784,36.86959339529712],[127.24243876369954,36.86879977021582],[127.24186840050123,36.86877936239295],[127.24142064926733,36.86836060188805],[127.24068236434275,36.86837902023063],[127.24074901065728,36.86790301783029],[127.23965932369963,36.867482432232265],[127.23927787758554,36.86751374218399],[127.23867857814638,36.86714885260148],[127.23807806545757,36.8670286533709],[127.23757847054878,36.86669537757803],[127.23742155971605,36.866263534291875],[127.23703147268003,36.86587855768139],[127.23663598645003,36.865826987479295],[127.23619356227513,36.866361336935114],[127.23579116740923,36.86639516558596],[127.23457325595834,36.866901800667414],[127.23334820632178,36.86689251941114],[127.2332291560075,36.86608864167581],[127.23277042947339,36.86592522208528],[127.23256980380047,36.865483651904405],[127.23265791405721,36.864760640638],[127.23252012689163,36.864322501947],[127.23227356393355,36.86395715446553],[127.23221643634903,36.863501398578556],[127.23145348880286,36.862688468737204],[127.23154889500051,36.86227559150853],[127.2310895439732,36.86197709984053],[127.23103223759945,36.86184877879397],[127.23113702149779,36.86166519349674],[127.2307105670916,36.86140807790038],[127.2307618074816,36.86085341847632],[127.23013780382044,36.859268243841974],[127.2299955936041,36.85915544012707],[127.23022783300341,36.85834771873665],[127.23072827961803,36.85773382938297],[127.23059820540938,36.857422688982304],[127.23010784504973,36.85696901211007],[127.23001181310225,36.85666331202145],[127.22933048165184,36.85602636346602],[127.22877456146162,36.85574587205592],[127.22866345551101,36.85531567696692],[127.22829521942576,36.85497236857967],[127.22827999668927,36.85471196265776],[127.22839648539515,36.8544981820791],[127.22874242825982,36.85428521366791],[127.22867243870688,36.853940785481036],[127.22879740477136,36.85380343538261],[127.22876107690342,36.85366087997534],[127.22857002888883,36.85348154868378],[127.22816169887192,36.853363409274216],[127.22793632600833,36.853156705783356],[127.22791887171567,36.852381885866],[127.2276557476448,36.852113741860336],[127.22705787510101,36.85183092497386],[127.22679641486528,36.85122645976587],[127.2269645432419,36.85116355074389],[127.22677195059762,36.85093640027578],[127.22622782899543,36.85078320595161],[127.22554705628846,36.85023919266089],[127.22428114476422,36.85012054519744],[127.22381289456528,36.84924190575504],[127.22291434335897,36.848822862002585],[127.22235023841466,36.8491907471847],[127.22146765348626,36.8493784864573],[127.22092173469183,36.849392723883625],[127.22061557352207,36.849318561659636],[127.22045228178492,36.84938333641684],[127.21915633364459,36.849103655350966],[127.21851520522534,36.84861505244216],[127.21646646736316,36.848886653339434],[127.21578065937649,36.848552881582236],[127.21515907017442,36.84866672789135],[127.21466211302354,36.848227325092154],[127.21347553714317,36.84805357897354],[127.21259630012202,36.84750105035067],[127.21238525724233,36.84721946198616],[127.21207994715203,36.84728629840249],[127.21129394466881,36.848080057560935],[127.2106691560545,36.84814803774956],[127.21032275101112,36.848454434304756],[127.21017798512307,36.848848666117426],[127.21014408976626,36.84940145953817],[127.20988329474856,36.84960060009148],[127.2094220646748,36.85056584317114],[127.20847071988258,36.85117317290195],[127.20771675550273,36.8515201260837],[127.20704160794108,36.85165711804765],[127.20666783822875,36.85194006856915],[127.20606323919296,36.85260446173562],[127.20575674180243,36.852635436733415],[127.2053122552452,36.85280436222916],[127.2048241686273,36.85281474946352],[127.20425264409832,36.85271820846146],[127.20380524913321,36.852886962419085],[127.20314090577075,36.85246159286117],[127.20274144578163,36.85236966415917],[127.2023148951206,36.85240609756715],[127.2020565368661,36.8526400593808],[127.20171918915952,36.85255809982933],[127.20113473266345,36.85258310418538],[127.20090594891059,36.8527086054282],[127.20035021527755,36.8526413504621],[127.19991241946413,36.85273990449484],[127.19937398172007,36.85319276539627],[127.19866846239461,36.85304147162139],[127.19832526156125,36.853273973369305],[127.19782545915886,36.853107341576504],[127.19754522368778,36.85313704240332],[127.1972251200038,36.85296571602001],[127.19665863918684,36.85297116980025],[127.19639124916263,36.853095795760765],[127.19618401173322,36.85308632197811],[127.1955381219152,36.85230209966338],[127.19526381216016,36.85228409231642],[127.19536642385982,36.851450555348826],[127.19396628358163,36.85043525724171],[127.1937313363201,36.85005407108641],[127.19303413307954,36.849930779133906],[127.19196359287295,36.8492511434631],[127.19168899301366,36.848848514659295],[127.19143040967647,36.848767810114964],[127.19097432732593,36.84882190125501],[127.19065446698382,36.84861275403037],[127.1897397068214,36.84828734913107],[127.18914318453993,36.84796510636991],[127.18843225633816,36.84738841332974],[127.1878233989437,36.847406734745505],[127.18731812621552,36.84666425506087],[127.18733113727201,36.84655021821704],[127.18698058676284,36.8462582873829],[127.18665869840405,36.84614295365374],[127.1854001868956,36.8460139948277],[127.1847406660842,36.84634932975162],[127.18403539559432,36.84600069898951],[127.18418996307882,36.845751009738635],[127.18391672961037,36.845391764697176],[127.1836699860002,36.84462266917739],[127.1830744947267,36.844343600321324],[127.1828203201956,36.84378951625932],[127.18236934813059,36.843493470769445],[127.18225852505759,36.84323706902269],[127.18161574342051,36.843061294871426],[127.1813458336303,36.84284743343585],[127.18083095080975,36.84220824917406],[127.18038539714446,36.842094399945886],[127.17991786016235,36.84231413213625],[127.17949661045694,36.84232532564192],[127.17906133485944,36.842709411395035],[127.17700703972284,36.841272317550626],[127.17635473823024,36.84163456335747],[127.17593454596339,36.842184300915555],[127.17580555017744,36.84266804739234],[127.17456256104896,36.8430858183159],[127.17445432693238,36.84404744212124],[127.17323154555014,36.844484938636285],[127.17280661470329,36.845248646312854],[127.17204954525897,36.84586016579487],[127.17113131553046,36.845948354139594],[127.17118222270558,36.845763783546275],[127.17084070428639,36.845103782076976],[127.17074415113426,36.84507488876634],[127.17080424349528,36.845056481453376],[127.17057193471443,36.84496048396051],[127.1699405303439,36.844910380897545],[127.16938994346499,36.84402094571074],[127.16945990728327,36.84343298736434],[127.16875510938812,36.842896232119195],[127.1686716961473,36.84247418638283],[127.16807220417326,36.84138249783074],[127.16719984000433,36.84017072311925],[127.16638743403067,36.83965753122606],[127.16594961222407,36.83959795285245],[127.16563490736456,36.83905033895246],[127.16532397132747,36.83873271877377],[127.16476728110922,36.83847152628799],[127.16446933989116,36.838145300873556],[127.16419923949869,36.83745169256677],[127.16349103867286,36.836889794016905],[127.16347565035318,36.83627416723487],[127.16357537499604,36.83597625255191],[127.16247815173442,36.83535598457649],[127.16222016900623,36.835038695767466],[127.16153900348205,36.834975077769045],[127.16125971532908,36.834712314345566],[127.16104485867639,36.83466731393666],[127.16053505085168,36.834130148423206],[127.15975039739268,36.833806765380714],[127.15911483600601,36.83395000209173],[127.15875693583621,36.83386421979887],[127.15780515916252,36.83303856327329],[127.15728555319292,36.8324226938165],[127.15722508656083,36.83019336928545],[127.15664648048545,36.82938585657283],[127.15678214469982,36.82945653543085],[127.1568305922208,36.82939050057598],[127.15654319521973,36.82925755033227],[127.1563526953207,36.82895276469455],[127.15621055163702,36.82839717069563],[127.15591794550463,36.82811285699461],[127.1554583278827,36.82778485785145],[127.15468117978318,36.827444928290554],[127.15457968552673,36.82730665892493],[127.1544961892341,36.827368952735206],[127.1538429100939,36.826689010654746],[127.15389437901908,36.82663648068947],[127.15365656061545,36.826321003051724],[127.15371537271201,36.825986126043716],[127.15322890679708,36.825395912984696],[127.15263286094853,36.82439496066606],[127.15192970466522,36.82434839369343],[127.15025901865272,36.82457037933235],[127.15008349374516,36.82453394315974],[127.15003088435569,36.82426933098],[127.15018762591222,36.82422905319859],[127.14905069171402,36.81874185690605],[127.1506498264091,36.81873815500258],[127.15060029396929,36.81777482386333],[127.15048115210534,36.81760362791303],[127.15033260530687,36.817749012335014],[127.14987743745357,36.817417711275844],[127.1493428063875,36.81659386914905],[127.1487763315957,36.81598520060347],[127.14831986168595,36.8158077086539],[127.1476204029843,36.81260976123877],[127.1475438506304,36.81262209361148],[127.14631880298187,36.81039982965123],[127.14597414581425,36.808517069185015],[127.14626134280469,36.80635020306576],[127.14574092836338,36.80355749267179],[127.1431919125019,36.802940300963456],[127.14272970231183,36.803548329135154],[127.14324385269272,36.80411489994319],[127.1433313224893,36.80443667798311],[127.1430817400914,36.80474278523584],[127.14288530776199,36.805585954833305],[127.14261801859735,36.80613326400656],[127.14206682578376,36.806793378113035],[127.14197785442671,36.80710243529537],[127.14211757024258,36.807432048228954],[127.14121058398692,36.808112917805694],[127.140511610723,36.80906917825225],[127.1395162183782,36.809916069967485],[127.13857821445559,36.8112151391895],[127.13582591227483,36.81333621535766],[127.13431295641917,36.813391828335746],[127.13489086210265,36.81561600433645],[127.13295836948598,36.81595435755217],[127.1331988148643,36.81709290592741],[127.13078724873841,36.81747807072446],[127.13113699963115,36.818916282951974],[127.13082957907308,36.81925517050141],[127.13010161443894,36.819664313500525],[127.12892996788334,36.82003778197306],[127.1283777610076,36.82009307065271],[127.12831245805108,36.82002929704508],[127.12837014225184,36.8194086825621],[127.12811913645238,36.81877263719869],[127.1265750439141,36.817802548151796],[127.12580792778995,36.81779356593586],[127.1252288279114,36.81787826307913],[127.12488115997414,36.81756840060319],[127.12424099571588,36.81725654226332],[127.12411017653103,36.817049594109605],[127.1225348199343,36.81632783812251],[127.12183036642396,36.81620825711005],[127.1204509364081,36.81504874532361],[127.11973895235292,36.81499988482399],[127.11943472382133,36.814470057862636],[127.1189709960296,36.81425327050361],[127.1181010015156,36.813150644838274],[127.11776699931853,36.81297283219458],[127.11760916816449,36.812607218546816],[127.11717943707981,36.812337588598545],[127.11720326458476,36.81069309579215],[127.11603542160032,36.80953009782136],[127.1157092644026,36.808872382078086],[127.11546843843465,36.807450595155395],[127.1156045122645,36.8071539928239],[127.11625853558353,36.80697196238055],[127.11803603726013,36.80687489750944],[127.11780276256498,36.80653604037258],[127.11780864388327,36.80464434555773],[127.1175520254364,36.80352650558684],[127.11612912500989,36.80209152378859],[127.11547166445264,36.801724684295564],[127.11541890342285,36.80154703641364],[127.11407987883298,36.80169410408945],[127.11404901312484,36.8015664174595],[127.11474211486592,36.801487750709434],[127.11465742944912,36.8006683021029],[127.11419568574647,36.8004626967197],[127.11348370315247,36.80055856026244],[127.11342530320647,36.799218896040514],[127.11104205889416,36.797278592835966],[127.11109335238905,36.79725417934009],[127.11073379288528,36.79662184394961],[127.11099511186538,36.795230708684116],[127.11079774223498,36.79414142649628],[127.11053584445743,36.793690743724746],[127.11035297880301,36.79307266236558],[127.110890328967,36.79300291876779],[127.11128111280543,36.79274897815311],[127.11088238718939,36.79117592591678],[127.11092413567926,36.791051633645814],[127.1114367645492,36.79003908200993],[127.11234886923893,36.78940342401852],[127.11274704720861,36.788436171683486],[127.11274287840212,36.788086852281154],[127.11303737326533,36.78743959109369],[127.11365293186368,36.787166966529135],[127.1131745815226,36.786336506165505],[127.11324108142404,36.78483997527126],[127.11284642400976,36.784782914813626],[127.11289438108139,36.7847208478335],[127.11249460060907,36.783742248240415],[127.11269262959394,36.78365955767708],[127.11295413163025,36.78365793518033],[127.11284539014949,36.78302473762875],[127.1126380250109,36.78271821628763],[127.11271182150394,36.782560080886306],[127.11312268122218,36.78236977787293],[127.11337329745528,36.781825434851626],[127.11352782318549,36.781687131284954],[127.11437668416416,36.7811556756012],[127.11531807216966,36.780971835186726],[127.11673941597799,36.78083856286605],[127.11732218582604,36.78069848713284],[127.11758583660384,36.780463987142404],[127.11792916290405,36.77998936261728],[127.11796201910418,36.77981903067619],[127.11765885109028,36.77929028520717],[127.11786351888831,36.77884071223779],[127.11781960722263,36.77851476877302],[127.11749325135177,36.77804939561719],[127.11836121991853,36.777774949387194],[127.11841434490995,36.777307411361264],[127.11875068116555,36.776918856750285],[127.11924221621206,36.77656910059832],[127.11955964959279,36.77594010038776],[127.11970230093817,36.77458943916193],[127.11938526387904,36.77411963660488],[127.11938331605971,36.772847127301176],[127.12019730213338,36.77179894958165],[127.11942889906211,36.76834528144955],[127.11873034220588,36.76804175563463],[127.11945597881403,36.767034768425766],[127.11951375904323,36.76677729068036],[127.11919134419647,36.76516290129211],[127.11890005176936,36.76488236774219],[127.11872489220924,36.764461307246265],[127.11860712515728,36.763525357530455],[127.11755881149529,36.7627073284468],[127.11558285369003,36.76230798416856],[127.11530710203911,36.76249331927442],[127.11470910524427,36.76253090580368],[127.11443265586851,36.76223505452988],[127.11351563202251,36.761989115146605],[127.11267413379765,36.76201500144092],[127.11183870745604,36.761011526344916],[127.11157794587469,36.76049806242632],[127.11116349534032,36.76020233076701],[127.11042734970916,36.760128981330816],[127.11003538809618,36.759391743371864],[127.10814545796926,36.75885222610063],[127.10777629082008,36.75895806875491],[127.10772854988677,36.759226047468616],[127.10740063438658,36.75935523427315],[127.10689318986556,36.75971575104611],[127.10598395182045,36.75989410921706],[127.10606229206722,36.7597221078669],[127.1054247859775,36.75845336935018],[127.10502686635898,36.758464826611565],[127.10430977568471,36.75883255304074],[127.1034480103064,36.75898164366943],[127.10296193641133,36.75899156516587],[127.10221198378075,36.758707577040845],[127.1015799557296,36.75901292071282],[127.10079760176943,36.75918399432695],[127.10034847965746,36.75953225287223],[127.09941319860317,36.75973377460204],[127.09835412999267,36.76020668874557],[127.09768680682829,36.76032197911183],[127.09716321260058,36.760329482815294],[127.0956236967834,36.760698209612165],[127.09533965332726,36.76063813254077],[127.09517948650152,36.76012832038944],[127.09475911756645,36.76011726078754],[127.09390572105849,36.76068910508404],[127.0929033895371,36.76103990639963],[127.09225680012842,36.76113458625245],[127.0920827919418,36.76102747630056],[127.0919906475612,36.76050817435316],[127.09179772772004,36.760145921066446],[127.09179574220501,36.75990451423289],[127.09192053037181,36.75946873213643],[127.09212843304853,36.75927024830417],[127.09267370924738,36.75906047558573],[127.09339521334171,36.759210648813806],[127.09573384898098,36.75917349796194],[127.09584119366662,36.75903808183835],[127.09598720216381,36.75813694487566],[127.09605954080686,36.757145996126],[127.09630811465924,36.75632152536638],[127.09679614090246,36.75600098799679],[127.09839021003977,36.75562676655054],[127.09759076581268,36.754373472560694],[127.09720888975667,36.753998141825306],[127.09711292691003,36.753390725568714],[127.0965183815486,36.7531156852045],[127.09680079495479,36.75269261157988],[127.09677282771433,36.752443152822536],[127.09611291014967,36.75144398338037],[127.09524912913825,36.75115143717719],[127.09490254139959,36.750755174917465],[127.09481923711758,36.75053161050305],[127.09386898699285,36.7499189193783],[127.09324373087878,36.749671670133395],[127.09240943709494,36.74919589105576],[127.09151931272088,36.74886517449461],[127.09060318287541,36.74942294977419],[127.08948872776645,36.75031792630818],[127.08892447671019,36.75052348968289],[127.08824181580498,36.75007358623264],[127.08779141126635,36.74999967092824],[127.08685133817706,36.749279809888364],[127.08653106400877,36.749222269701924],[127.08674203993209,36.74875598924702],[127.087647592279,36.74825310052551],[127.08765460234095,36.74805340943587],[127.08794045986916,36.74786791427807],[127.08837456420011,36.74701192942524],[127.08857315549936,36.746005626420484],[127.08827776441473,36.74499555047513],[127.08750730183982,36.74491410785103],[127.08737610795852,36.74481761167746],[127.08630387142249,36.744548759800935],[127.08553508214914,36.74248588756313],[127.08570461882917,36.74218466844339],[127.08560816549652,36.7415637524122],[127.08572704307075,36.74115602955853],[127.08737860446426,36.74004246894554],[127.08662638631976,36.7396774985914],[127.08632841429737,36.73930948052159],[127.08572692903519,36.7388687490304],[127.08539058715063,36.73874968813805],[127.08505982897971,36.738408749264096],[127.08457973805096,36.73742228308392],[127.08327865083417,36.73619880254482],[127.08242021273469,36.734986748962655],[127.08200739962426,36.73430343297852],[127.08196571630391,36.73380829032959],[127.08130341426244,36.73304075912493],[127.08151929540827,36.73268592640774],[127.08146698103337,36.73222332905735],[127.08071231817178,36.730925667102326],[127.08047916675136,36.73029887161737],[127.0807858017113,36.72986697711466],[127.08070143255692,36.72922014140752],[127.08333777277527,36.7281995673097],[127.08279134538753,36.72755955046369],[127.08289003986822,36.72678854167034],[127.08307301177184,36.72603548787964],[127.0843420690749,36.72455302153778],[127.08475678241713,36.723134942058955],[127.08468571864664,36.72236430157936],[127.08280743186468,36.721614157701886],[127.08179577960098,36.720896211225586],[127.08156809062011,36.72023812591885],[127.07990705490064,36.71825879876626],[127.0795339823563,36.71740543165508],[127.07949242409042,36.716964054164],[127.07959551157671,36.71660962317923],[127.07938355156017,36.71624663937548],[127.07953975223394,36.715916438506774],[127.07936695782931,36.71474384641662],[127.07936991745181,36.71389325696504],[127.0797073434769,36.71328891867688],[127.07907221957484,36.712649612465476],[127.0789077854049,36.71145070833025],[127.07897841885591,36.710892085716466],[127.07927802277347,36.71012569520783],[127.07843516284402,36.71025332616387],[127.07772198161558,36.71007147067911],[127.07664801355136,36.70955182036564],[127.07464445847347,36.70986796625568],[127.07366677069193,36.70918801638248],[127.073452190554,36.70868789089526],[127.0723525709045,36.708164973684255],[127.07162733743928,36.70830559971539],[127.07084677874275,36.70831808474483],[127.0702307985607,36.708563332377345],[127.0684154998873,36.70906026057861],[127.0679803968023,36.709026019059664],[127.06700100646562,36.70914564531691],[127.0644860286331,36.70921496299319],[127.0628495289942,36.70851984039982],[127.06265980580105,36.70873042246248],[127.06240256470328,36.708777618877235],[127.06034997501989,36.70855523445655],[127.06021942526569,36.70860177162642],[127.05897591138708,36.708363336558776],[127.05845283238855,36.70838027728219],[127.05803002521323,36.70773435954065],[127.05751057265692,36.70751747839521],[127.05689538465411,36.70675073450119],[127.05651634477385,36.70605403694931],[127.056215419331,36.705897696952654],[127.05573105020734,36.70543253511008],[127.05514902762303,36.705168761245694],[127.05442398240054,36.705293773272395],[127.053570506745,36.70492916986537],[127.05284388684808,36.70492359151076],[127.05190670866706,36.70479183406038],[127.05091888295114,36.704383588129296],[127.0504524573619,36.703947207175105],[127.04911487017601,36.70335215544997],[127.04903691013538,36.70276325769402],[127.04855697574423,36.70203333310212],[127.04850259651218,36.70155194919395],[127.04793904382477,36.7009662788744],[127.0460395796593,36.69930789625384],[127.04532158876327,36.698109338828345],[127.04315473753826,36.69609066716564],[127.0415903528867,36.695514619954295],[127.04123928176779,36.694820009055746],[127.03890992669437,36.69313499008276],[127.0383357757196,36.69294126540402],[127.03749461140006,36.69241697901918],[127.03657550740722,36.692098490821834],[127.03629862108086,36.69188871809981],[127.03558881758691,36.691552255758786],[127.03467715788673,36.69138235689121],[127.03213122381723,36.69039463158942],[127.03091124749642,36.69007704998197],[127.02947229008976,36.68949828979609],[127.028793926854,36.68885108942818],[127.02736715958825,36.68720157763647],[127.02663499462486,36.686662233524636],[127.02603693617496,36.68584172193728],[127.02602043928745,36.68554451704116],[127.02573872245635,36.68532858661974],[127.02549758437976,36.684521100714946],[127.02496965833204,36.68421460862152],[127.02459919959455,36.68356444712488],[127.02433416332764,36.68345626378073],[127.0235786771974,36.68207354305655],[127.02261627032097,36.681319441741664],[127.02222217060525,36.6807946128378],[127.0218820287516,36.67987055144912],[127.02188642389306,36.67871437253145],[127.0212092362067,36.67815933847873],[127.01953522285089,36.67717426190563],[127.01943917805329,36.67659407660901],[127.01989532857641,36.67524872937558],[127.01850499982784,36.67495590535352],[127.01666526444929,36.67326734875382],[127.01560016616362,36.67247500212472],[127.01523919582695,36.671522491688684],[127.01532579316746,36.67091440040993],[127.0152549638844,36.6706868030249],[127.01539327452603,36.67039352729736],[127.0157712107242,36.66867278863953],[127.01519135052784,36.668047700626694],[127.01505077540176,36.66740299084618],[127.0152938724433,36.667004193852684],[127.01549101954804,36.66643445204721],[127.01381624647496,36.66480995113641],[127.01314843276809,36.66402975041402],[127.01190367716099,36.66342438052048],[127.01182407111554,36.66283682532438],[127.01158587489132,36.66245214620431],[127.01116670793884,36.66206892179224],[127.01115897497858,36.66140655829763],[127.01157665219812,36.66084936558274],[127.01070020654711,36.660427702750596],[127.00940571107401,36.65896892231518],[127.00902436251387,36.65875147769327],[127.00845646077529,36.65823636514671],[127.00838165815365,36.657233999540495],[127.00917740893787,36.65714502870256],[127.00938982370167,36.65616820125712],[127.01038142359158,36.65554362139808],[127.01115369285722,36.65396011685559],[127.0116571791848,36.654017702850346],[127.01289641417263,36.65439605539611],[127.0138460285894,36.65351920106284],[127.01527560820738,36.65290354434976],[127.01595813955169,36.65211292166353],[127.01618305360746,36.65110647643647],[127.0162806203662,36.651001836864886],[127.01693851206296,36.65111563654323],[127.01742884939979,36.65110046873948],[127.02052246414002,36.650002468513875],[127.0208258990675,36.65030120727554],[127.02098124628748,36.65083124111038],[127.02144873689957,36.65169526612977],[127.02250324892981,36.652146253208315],[127.0241860421565,36.65492082326419],[127.02531173373501,36.656029291144506],[127.02716177199946,36.65595925707896],[127.02905869222768,36.65564889189682],[127.03055105930122,36.65516301673211],[127.0319305354269,36.65489351379993],[127.03343853312172,36.654855397944985],[127.03403074463466,36.65492156125721],[127.03438765186237,36.655004366616765],[127.03493316780109,36.655398123488084],[127.03616038731136,36.655213104364],[127.036921499036,36.655308543943605],[127.03773810354272,36.65503752868165],[127.03986896154524,36.65472389071914],[127.0417614356748,36.653290867599544],[127.04221363401982,36.65240153477181],[127.04302186037225,36.65165688676278],[127.0447588271311,36.6513162036177],[127.04557434277338,36.65163222575976],[127.04651377911382,36.65181291225699],[127.04790140124591,36.65157528290859],[127.04973694855003,36.65202219758114],[127.05053867429031,36.65195560173395],[127.05125686668801,36.651750485928424],[127.05156773060023,36.651898042036144],[127.05407956611246,36.651196583576954],[127.05405459293772,36.6508002698435],[127.05421010117959,36.65037626542705],[127.0552005363361,36.64994082956967],[127.0553768081833,36.649202635013125],[127.05609471532333,36.64910954557883],[127.05613557161452,36.64848123233179],[127.0565074906436,36.648009662418865],[127.05656311495159,36.647774333952846],[127.05715842588761,36.647099788336234],[127.05715588866782,36.64671170058901],[127.05764184659067,36.64645852545047],[127.05775010628047,36.64611919771],[127.05795976477916,36.64586148474319],[127.0582466636091,36.645779507451174],[127.05865219697783,36.64541841188907],[127.0595792192179,36.64555295181615],[127.06016187539568,36.64517491413642],[127.06058705994973,36.64502398915706],[127.06121692490608,36.64521641691275],[127.06175958305833,36.644855837327725],[127.06199708458313,36.64504865772037],[127.06261617155151,36.64526791906465],[127.06290614328063,36.64552703468557],[127.06356955037906,36.64558864259111],[127.0637725177492,36.64581268310249],[127.0645706457302,36.64620237988518],[127.06491410921079,36.64596431830905],[127.06509697483136,36.64605201763922],[127.06562517978466,36.64607525427412],[127.06654385661004,36.645463898495066],[127.06723616593304,36.645200171506296],[127.06861386571451,36.64508236764824],[127.06904588879702,36.64517563086241],[127.06977959091378,36.64513589846961],[127.07017856322703,36.644842421796525],[127.07016642780982,36.644185622980885],[127.07093015702114,36.643734434693926],[127.072400811866,36.642680165486084],[127.07280905294763,36.64253340714846],[127.07302131579246,36.6415412254652],[127.07312201227982,36.641387280062844],[127.0735961968146,36.64127336034872],[127.0743087821173,36.641199449802734],[127.07579935053319,36.64205767754897],[127.07662332369657,36.642001874868136],[127.07713092631265,36.64217235561816],[127.07779707501491,36.64224092923196],[127.07875877903385,36.64192753561886],[127.07943975170394,36.64189485920772],[127.08001493986919,36.64173869307413],[127.08034322197095,36.64145132255361],[127.0807397706223,36.64128454757352],[127.08101983540018,36.641304321759755],[127.0820228753722,36.641686727273054],[127.08289822282876,36.641896889307404],[127.08310259601053,36.64172462309958],[127.08338651115352,36.6417556251516],[127.08399718902226,36.64156510168779],[127.0845649501566,36.64175244024951],[127.08504549712485,36.6414573984727],[127.08573633643118,36.64160814850879],[127.08605124070091,36.64156192210682],[127.08667913069709,36.64169645548486],[127.08683786129079,36.64154412230322],[127.08734559120043,36.641871022748745],[127.08834132878324,36.64203950544987],[127.08841801851446,36.642190784533014],[127.08861949531307,36.64228630103729],[127.0887919121365,36.642899475363954],[127.08925329918641,36.64291318493609],[127.08963445783152,36.64323546341995],[127.08947214605993,36.644080709526555],[127.09003952701602,36.6447869617803],[127.0898504705332,36.64509744232786],[127.09003891599403,36.64554311703424],[127.09042373101698,36.64561694218073],[127.09091306564207,36.646111049977755],[127.09126931254305,36.64612930920624],[127.09144847756846,36.64627696766442],[127.09133474435666,36.64662146780379],[127.09183852668275,36.64750664257194],[127.09202166150618,36.64760453708227],[127.09221244037782,36.64797271873133],[127.0926088845728,36.64842418007167],[127.09317161777118,36.648743784675105],[127.09322518489894,36.64904401765087],[127.09300407870725,36.64931562407552],[127.0931207352741,36.64971672753226],[127.09280294981377,36.65022646889527],[127.09286002621039,36.65056430246101],[127.09268110394596,36.651799075592194],[127.09324697094385,36.65316589632749],[127.09325894482251,36.653424953056295],[127.0939297836736,36.65407939166707],[127.09432124604244,36.65382008525062],[127.09469150500853,36.65378726581117],[127.0958880190868,36.65399360908844],[127.09623420592749,36.65431165827789],[127.09667840389714,36.6550511472901],[127.09721929823586,36.6551058643087],[127.0976051093687,36.65543261662648],[127.09814473675182,36.65459543885954],[127.09867463443823,36.65456880326368],[127.09916866951218,36.65471200236561],[127.09981159249561,36.654711591302515],[127.10036788191121,36.654498331234855],[127.10050100377418,36.654243820435],[127.10181088877778,36.655551774169865],[127.10288770447558,36.656273026428906],[127.10312561982464,36.65632746880212],[127.10333943032224,36.65674399638493],[127.10425691403174,36.65697977120648],[127.10421391275533,36.65720847668122],[127.10483296827672,36.65716648175675],[127.10524924755049,36.657339235135794],[127.10566592519312,36.65776420331357],[127.10601899567732,36.65783826427859],[127.10630581587768,36.65803206995631],[127.10675616112225,36.658099932459166],[127.10738977345956,36.657828610130984],[127.10763909688438,36.65798300392382],[127.10791243096223,36.65794758843205],[127.10814717638357,36.65839741055086],[127.10866355553851,36.658865145491106],[127.1088423082025,36.6586232213685],[127.11000652730246,36.65855404187796],[127.11076031179357,36.65880667614455],[127.11137745732051,36.658822871767256],[127.11152950732055,36.658175035010686],[127.11214811195178,36.65767499553066],[127.11213704295547,36.657449893735816],[127.11236415544255,36.6573262564338],[127.11276000958419,36.657236881300676],[127.11354489067968,36.657509738350555],[127.11438508767277,36.65753424862019],[127.11472663880305,36.65711383560048],[127.11497309125627,36.656973208697664],[127.1156925682487,36.65657008385007],[127.11619680601831,36.65654403396765],[127.11694475302625,36.65607709566478],[127.11744990023386,36.65607862536058],[127.1184180825296,36.656260824429594],[127.11903880451074,36.65601561752364],[127.12006941358915,36.655932838705525],[127.12056645541674,36.65499209600067],[127.1210553923902,36.654306399996955],[127.12200457730835,36.65411305881397],[127.12329312126178,36.653593258057825],[127.12395971153823,36.65299290935163],[127.12526787976859,36.65290289657635],[127.12559780762201,36.654460998442644],[127.12587939013844,36.65432368839084],[127.1254792692788,36.65290596478344],[127.12611578460715,36.65301156364973],[127.12658900916094,36.65322919296721],[127.12671021147908,36.6536256605623],[127.12725262144349,36.653613979253734],[127.12766723405129,36.6533693080145],[127.12780610841507,36.65283827931559],[127.12828593704963,36.65239546915147],[127.12817447784808,36.65166996244338],[127.12859420947849,36.65135787055358],[127.12845852693337,36.65121177918187],[127.12821741036623,36.65027089843827],[127.12848723032626,36.65005110404157],[127.12852598637323,36.6493813722379],[127.12838045607397,36.64900463966741],[127.12837393368314,36.64853894520748],[127.1286233954402,36.64811114540242],[127.12910224079513,36.64760728127714],[127.12991936655355,36.647382769521194],[127.1297647955065,36.64692432450375],[127.13004785813234,36.64645340670047],[127.13064360342855,36.64623411054195],[127.1308242568167,36.64586308482905],[127.13107973915287,36.645630539694764],[127.13150284236146,36.64576047946633],[127.1320314008514,36.64544627399998],[127.13224107539519,36.64520721670441],[127.13292692682984,36.644909486965645],[127.13519538018724,36.644259157960654],[127.13558946240899,36.64438747806068],[127.13590037393759,36.6436755146167],[127.13680895274634,36.64405031037241],[127.13720950960578,36.64443859542469],[127.13784734649239,36.64420893575234],[127.13879461157488,36.643645216879136],[127.13901705173706,36.64312319887566],[127.1395024783214,36.64301033620632],[127.1398503159894,36.64303558795636],[127.1404966813955,36.642857187802285],[127.14067204753493,36.64251240934773],[127.14068558263077,36.64214167725757],[127.14108378362184,36.64170883255802],[127.14129454725504,36.6410543835331],[127.14108783655713,36.640361602260775],[127.1408586677258,36.640016721773115],[127.14109132315801,36.6392444218681],[127.14105448106403,36.638544927416774],[127.14122161457868,36.63791996073044],[127.14104864115909,36.63765677170784],[127.1407741393133,36.63748579654955],[127.14061686939395,36.63668882254235],[127.14150348087345,36.636331990963825],[127.14258594347116,36.63562978883801],[127.14319469512523,36.635458058067705],[127.1436845623682,36.635455386314746],[127.14491646956213,36.63499924141008],[127.14488298146729,36.63454595904066],[127.14501454589715,36.63417011100559],[127.1446185889899,36.633702811508776],[127.14459291282995,36.63347164784724],[127.14530405062716,36.632428065055805],[127.14523511241258,36.63191781080972],[127.14534586495594,36.63169257595109],[127.14569097636681,36.631499814013274],[127.14626963347683,36.63055586979123],[127.14626908536106,36.63031702450491],[127.14650033544169,36.62966213524603],[127.14776551416317,36.62907906357017],[127.14853694169264,36.62924180227315],[127.14889575319862,36.62877295080522],[127.14835076898015,36.62840596245262],[127.14813638470882,36.62761960129414],[127.14792294325113,36.62747721615018],[127.14780103967306,36.627035846481775],[127.14790382647185,36.62671498917437],[127.14817582324125,36.62635441944879],[127.14815189534616,36.626010406877995],[127.1486671689673,36.625478038646996],[127.14924691802365,36.62377837306052],[127.14949945035437,36.623525237092885],[127.14938141697247,36.6229349260513],[127.14948384428249,36.62249020961833],[127.14900517027569,36.62201112874303],[127.14891541083806,36.62174143073575],[127.14988617030426,36.621278954908234],[127.15009406949434,36.62039974907557],[127.15044945749175,36.619698972250234],[127.1509023968383,36.62015139780907],[127.1513009850986,36.62084510117296],[127.1516173890851,36.62108196073436],[127.15222348590211,36.62178600722132],[127.15306990559552,36.62187419247767],[127.15346692400871,36.62252763752606],[127.15344095963168,36.62276995792734],[127.15432149259911,36.62389079556488],[127.15498931962922,36.62420869446906],[127.15547739028683,36.624198610843244],[127.15583244485488,36.62404234583813],[127.15657997825686,36.62392394214891],[127.157413364701,36.62341639048577],[127.15771506263383,36.62356452765411],[127.15794374614072,36.624009693750786],[127.15919765354423,36.62393586820084],[127.16010990505656,36.62407201069157],[127.16049735205002,36.62445083287181],[127.16048659801805,36.62471232785162],[127.16017640530285,36.62542600663249],[127.16036752144306,36.626280745319214],[127.16004992603203,36.62636945361847],[127.15948657830134,36.62603360842998],[127.15764273886045,36.626788647430345],[127.1570523665099,36.62723269558795],[127.15707587544634,36.62745963165653],[127.15690790922159,36.62764445939021],[127.15718179591872,36.62780910525759],[127.15648994256371,36.628616719793946],[127.15667016912026,36.62907516790864],[127.15616986712556,36.6299957665944],[127.15627588254902,36.63007486491018],[127.15611555956615,36.63069864569356],[127.156288993409,36.631699911198716],[127.15661402172982,36.6318971055188],[127.1568505445477,36.63181614676389],[127.15753602468187,36.632266692695055],[127.15710407420224,36.632638160425905],[127.15692753390805,36.633085236790485],[127.15751636745696,36.63373017032765],[127.1575463646885,36.634716977661874],[127.15808213046786,36.63536342888785],[127.15801325401232,36.63580516323254],[127.15755111723882,36.635948238808304],[127.15728410215316,36.63642270234738],[127.15700674404802,36.636609858341465],[127.15642700077639,36.637850793714286],[127.15694235141058,36.638235651464136],[127.15748794948857,36.639035592716475],[127.15755979328743,36.639174346123156],[127.1574980665526,36.639543979175976],[127.15717126727678,36.63968370275592],[127.1565349153651,36.639782052733395],[127.15635723377487,36.63992046400976],[127.15588482088799,36.640710798655405],[127.15634296359012,36.6413717686742],[127.15550269487288,36.64196730547931],[127.1547348667369,36.64225324111017],[127.15414410473505,36.642680603661475],[127.15382146919649,36.64305300342116],[127.15336377413253,36.64371933398846],[127.15356391103971,36.644551602294904],[127.15351479342375,36.64486324231716],[127.15314439713403,36.64521357686484],[127.15348956199263,36.645846231618606],[127.15414545386997,36.64669060896061],[127.15374378462599,36.64796170484934],[127.15405413569657,36.64829651726927],[127.15396612018623,36.64909431787519],[127.15411509830429,36.649329924444366],[127.1539937886212,36.64966173208121],[127.15443854404612,36.65053659713381],[127.15461713746224,36.6507023205924],[127.15444725059317,36.65110999248209],[127.15428943632517,36.65244965162231],[127.15456694130884,36.652824973928475],[127.15566328165059,36.653188137031684],[127.15636364968996,36.65359804457111],[127.15737099102482,36.65433669999468],[127.15829543234845,36.65431843734947],[127.15833348778862,36.654895522271865],[127.15980618131704,36.65593374553244],[127.16056872026489,36.65611893799316],[127.16044513606477,36.65695773826093],[127.16048214288222,36.65733213449067],[127.15993174750517,36.65749583548884],[127.15968184774954,36.65850388943506],[127.1599984812529,36.65869462410943],[127.1593104335198,36.65905325774159],[127.15917781903815,36.65930670371484],[127.1594096351052,36.65971805866758],[127.15934011650134,36.66030765790408],[127.15893535848726,36.660944119774776],[127.15904225428764,36.66135087153965],[127.15838804164686,36.661761594400154],[127.1579546772253,36.661696049193544],[127.15768295199945,36.6620191449463],[127.15753041423491,36.66201084905761],[127.15725363233018,36.66234517444862],[127.15645451981095,36.662528029104735],[127.1563738202665,36.66269108671493],[127.15616259313178,36.662755366332576],[127.15626938986443,36.66332988553283],[127.15566284968,36.66378645072194],[127.15535175990992,36.663863710049185],[127.15485832940422,36.66427457550327],[127.15452137926272,36.66429097749803],[127.1543609606292,36.66441710639357],[127.15527202975001,36.66526865039722],[127.15563396297439,36.66747449784417],[127.15582188827324,36.667520303924576],[127.15637983692349,36.668195007096536],[127.15621805387043,36.66854622536506],[127.15640406961421,36.66879442453709],[127.1561168946802,36.66903770527169],[127.15687247452672,36.66940539040647],[127.157190647142,36.66977024299742],[127.15755759892252,36.669785778393674],[127.15757296752784,36.67031179602583],[127.15775722547238,36.67068139502281],[127.15800310951164,36.671001303071876],[127.15872336094928,36.67132740198211],[127.15861093257497,36.67224946537608],[127.15870151480584,36.672576462167086],[127.15854961750995,36.67302279703202],[127.15986867824809,36.67388504065637],[127.16051242601567,36.67406660716797],[127.16091904344505,36.67471634107876],[127.1617982528874,36.6754318621683],[127.16221017333548,36.67558894899795],[127.16257074306164,36.675993308527794],[127.16344711358266,36.67623020681764],[127.1635856903408,36.6770415532006],[127.16379966882235,36.677376750002146],[127.16412369492484,36.678497529911716],[127.1638315560546,36.67888574603861],[127.16393285900394,36.679508031126716],[127.1634920940458,36.68009160637175],[127.1634319956337,36.68033789227841],[127.16356862143242,36.681127971956414],[127.16366191591082,36.68120213398892],[127.16315429716737,36.68222684181085],[127.16295012949406,36.68305809833211],[127.16242582759064,36.68364632240203],[127.16226987702426,36.68487361097155],[127.1618863942965,36.68570783627787],[127.16196585496209,36.68597248040012],[127.1614189263853,36.686204308647376],[127.16120164255192,36.68697778948391],[127.1607663553364,36.687690147509414],[127.16086558624104,36.688136253688704],[127.15987133882899,36.68816129893987],[127.15993866943518,36.68840936918537],[127.16110243313864,36.68958269835702],[127.1614449735758,36.69021874593998],[127.16115198301925,36.69118245595095],[127.16079933929741,36.69175062625491],[127.16065715572138,36.692293428166764],[127.16034967705382,36.69272666522859],[127.1597508270203,36.693186582500545],[127.15908925190689,36.69383801339035],[127.15869012391555,36.69435844652982],[127.15860990301962,36.69467606204961],[127.15832494333654,36.695084724256326],[127.15805413252892,36.69532455487026],[127.15711403418088,36.69565741084834],[127.1570267091265,36.69531299595016],[127.1571231838727,36.69480019832384],[127.15703085115774,36.69428672524101],[127.15665238845284,36.69354413435082],[127.15682020080152,36.692915771105945],[127.15658343743026,36.69195624011294],[127.15662832496733,36.69114109792051],[127.15658220323999,36.69102628876911],[127.15622354677085,36.690764182757626],[127.15445128917628,36.690688172529235],[127.15334327309647,36.690981762218605],[127.15250376496661,36.69028401940864],[127.15182212282333,36.69001553647074],[127.15088820018254,36.68945422175998],[127.15060369940888,36.689844821207615],[127.14958787777844,36.689852430332444],[127.14916521824374,36.69026682270224],[127.1491404849814,36.69067279856453],[127.149025943126,36.69094440478519],[127.1483385351071,36.690592997004146],[127.14750974902226,36.69072259770448],[127.14658561540278,36.69010193357925],[127.14620930113794,36.6900236002305],[127.14547725348474,36.68929824425115],[127.14482958422944,36.68923546927153],[127.14451788651097,36.68936009977745],[127.14382785072637,36.68899765817675],[127.14287875511837,36.68975473852867],[127.1417488716614,36.68998379769171],[127.14155412655614,36.69075034102544],[127.14193121814822,36.69097363755939],[127.14218947568756,36.69132798709564],[127.14286713196279,36.6916567341004],[127.14290648812603,36.69178051782074],[127.14246496917652,36.692236108581575],[127.14253114482217,36.69260432757046],[127.14234859898079,36.69288674818784],[127.14238793345713,36.69318291747093],[127.14230247067239,36.69321537021992],[127.14176717282747,36.69422646506323],[127.14059709864307,36.694420758803595],[127.14048142966942,36.69458200606197],[127.14090324631952,36.69688508526877],[127.14068680297899,36.69732327282608],[127.14037083208139,36.69743250721218],[127.13929760395813,36.6982361769404],[127.1388297001148,36.69825394744681],[127.13819893128904,36.69974278140681],[127.1383355041752,36.69990909815192],[127.13797219729574,36.70135575810676],[127.1382891928231,36.70166277694833],[127.13711522036219,36.70216655730821],[127.13603050603331,36.70294085808797],[127.13593421502678,36.70338821120552],[127.13628761347964,36.704341693478064],[127.13614350170143,36.70503959204401],[127.13584774905769,36.70519991071191],[127.13536545562422,36.70593392339999],[127.13480989459092,36.706195238800795],[127.13459095608928,36.70665708151591],[127.13437844959847,36.70679201019147],[127.1337775905897,36.706794760890965],[127.13330632439701,36.70636189869247],[127.1329748688041,36.70633178104999],[127.13249630113734,36.706419059222036],[127.13203072039526,36.70615958800476],[127.13138422898531,36.70648167990406],[127.13063200936215,36.706573221559744],[127.13007853378983,36.706829622617406],[127.12999593477402,36.706759324373735],[127.12961937991659,36.707451762769104],[127.12920245252653,36.70750261203338],[127.12902887163058,36.707639101928436],[127.12799017788481,36.7079719115047],[127.12773396554182,36.708519685736356],[127.1277656813089,36.70883191486088],[127.12888243400403,36.709601977362276],[127.12918925989193,36.71000091688997],[127.12948787899714,36.710104277523655],[127.12955850904842,36.71022463597963],[127.13045745948945,36.7101197497379],[127.13164532431314,36.710270718883315],[127.13255358749458,36.71108961367416],[127.13250657815524,36.711267132545416],[127.13313789227631,36.71194575430888],[127.13327171789459,36.71235778667114],[127.13424798366499,36.71275486196718],[127.13443829185512,36.713276584764884],[127.13566966725715,36.713019051011734],[127.13622833531878,36.71326567036537],[127.13660019243513,36.71351388502253],[127.13677159057386,36.713901018293015],[127.13763090800154,36.71425379958421],[127.13801928984955,36.714479183203295],[127.13812943541153,36.71462411026057],[127.13881563966487,36.71493334154027],[127.13914695492392,36.71523984387569],[127.13951282566687,36.71579125612651],[127.14025698916895,36.715813495008604],[127.14053995437955,36.71600417468002],[127.14043957857263,36.716503466893016],[127.14093417806107,36.71684654719266],[127.14183668957193,36.716813352925705],[127.14184447880874,36.716916540939984],[127.14170721694465,36.71700868742522],[127.14270410826525,36.717200187092565],[127.14306848931027,36.71711051553996],[127.14373268046798,36.71744161611937],[127.14428936157103,36.71725594957785],[127.14511363186517,36.717520318911085],[127.14522636923472,36.71782088597317],[127.14566098111175,36.718134669826696],[127.14574362986187,36.71873832831859],[127.14591933612448,36.719028337308174],[127.1465535548577,36.71904262474106],[127.14708091027079,36.71932817570381],[127.14724392549805,36.71929616593749],[127.14764465963626,36.719810078996964],[127.14790031002637,36.7197593374969],[127.14824583609102,36.71988661052383],[127.14882779772049,36.72056096231242],[127.14881989353115,36.72101812665606],[127.14875216552826,36.72123737241301],[127.14854656241705,36.72142569780127],[127.14809348840788,36.72155665685068],[127.14761855672602,36.72184388779444],[127.14768001092607,36.722009050527866],[127.14762127300564,36.72230287732916],[127.14779969046954,36.7226444876538],[127.14818510630575,36.72271439956857],[127.14929341292377,36.72443300031061],[127.14925654692131,36.7245778271288],[127.14944443301951,36.724795249669235],[127.14948254428752,36.72532409430428],[127.14933598487677,36.72546722148271],[127.14928841521768,36.7259320844514],[127.14964948300553,36.72598755119732],[127.14970950973556,36.725883803475895],[127.14981177396162,36.72588608133777],[127.15023476762421,36.72614343368798],[127.15093463607175,36.72626297449427],[127.15194619254562,36.72668183717461],[127.15205124167495,36.72680730215389],[127.1520121071471,36.7284426150788],[127.15194635498091,36.72848067980685],[127.15241055929194,36.728459582302385],[127.15301872163123,36.72832220081434],[127.15367963306419,36.72836767707306],[127.15477942268589,36.72770304241573],[127.15590453222732,36.72728238947176],[127.15584400203338,36.72733193017284],[127.15646540556598,36.72722399720397],[127.15685986920414,36.727452592842276],[127.15752568522917,36.7274561998618],[127.1580084132074,36.728646030184784],[127.15783694536115,36.72891272510982],[127.15764621076111,36.72971535520778],[127.15829769722804,36.73015531571125],[127.15834729493257,36.73058662485292],[127.1586233037468,36.730942129101244],[127.1594540326485,36.73150413642911],[127.15964381714925,36.732843987],[127.15989169837432,36.73288834342149],[127.16061034473233,36.73275189343747],[127.16135286231571,36.73312950334595],[127.16265403196353,36.73320198137809],[127.16284111818737,36.73313216189067],[127.16321608527194,36.7333626914141],[127.16469458306648,36.73382192716059],[127.16555991411009,36.733548006296786],[127.16661121677079,36.73348113087043],[127.16660287528514,36.73317905069435],[127.16644984881664,36.7328983610713],[127.16654893405885,36.73280098147682],[127.16679562129342,36.73320236723984],[127.1670021521865,36.73331699139797],[127.16712235873835,36.73329002366221],[127.16713386868169,36.73294268347307],[127.16696569428612,36.732368922691755],[127.1670993308391,36.73239004860843],[127.16786365541125,36.73310115417205],[127.16858488123407,36.733135176203426],[127.1690082883487,36.7329532423977],[127.16967491082126,36.7324332064203],[127.16993902976144,36.73237652214316],[127.17043543051375,36.732480004684994],[127.17075392192538,36.732270646753264],[127.17114502331255,36.73224161501284],[127.17133325256601,36.73214617787576],[127.17186395767303,36.73163771313613],[127.17205583319432,36.73069803661995],[127.1718831133815,36.73073654417612],[127.17286289419582,36.729554098205305],[127.17306321665964,36.729197691439815],[127.17358063748938,36.728689578884335],[127.17412876318885,36.72857394794483],[127.17424393687998,36.728569546677555],[127.17444505170768,36.729313707961026],[127.17468756162674,36.72894381048162],[127.17513264673222,36.72895062975498],[127.1769954426362,36.72855521887376],[127.17996746911543,36.72906725578516],[127.1813145279258,36.72941349213464],[127.18179073599916,36.73008882452341],[127.18270863467185,36.72988536616965],[127.18321892514575,36.7303190139537],[127.18436102509956,36.73004166089254],[127.1845748960232,36.729688615088406],[127.18579549174468,36.72912535702431],[127.18729980491463,36.72798700785072],[127.18853339941859,36.727867758207225],[127.18892737728481,36.72771704952414],[127.18942361128002,36.72777691279757],[127.18952350543402,36.72827538563747],[127.1904000501511,36.7286149542164],[127.1914698735678,36.728409744429435],[127.19258519250225,36.72864085993645],[127.19384767354072,36.72770656155202],[127.19540976928772,36.72859822122569],[127.19567226213312,36.728358058529516],[127.1962671572567,36.728205808953824],[127.1972833983303,36.72819292130879],[127.19759572402639,36.727645043424644],[127.19855831147679,36.72728604545013],[127.19905227426574,36.72739594551074],[127.20020492991299,36.72686083612794],[127.20136141107493,36.72612377891591],[127.2023006834076,36.726265747841154],[127.20312238330457,36.72614920402839],[127.20370330115364,36.72529897988336],[127.20422102118697,36.7250722161967],[127.20366858382863,36.72373864733381],[127.20382272815617,36.723018664281796],[127.2044751168342,36.7224128151627],[127.20435610006653,36.72163284965658],[127.2048078887423,36.72087610409951],[127.20628929734222,36.7206918385098],[127.20797119063546,36.71950975955811],[127.20783929415386,36.71903974019624],[127.20904510417769,36.71862259744712],[127.20997784147188,36.71848257284898],[127.21067843841755,36.71821847022408],[127.21144922665826,36.718292717584],[127.21230515740324,36.71810755862595],[127.21248775924488,36.71821202368548],[127.21251541120704,36.718492628226805],[127.21254552896427,36.718278000277834],[127.21348379556566,36.71900597740724],[127.21401993282386,36.71878207635424],[127.21458327370655,36.718832854919256],[127.21487714952309,36.71838149094497],[127.21503912293218,36.71837608227168],[127.21511016244567,36.71821332195482],[127.21484819023952,36.71707378850716],[127.21502845109373,36.71689859510813],[127.21521497064985,36.71689386336539],[127.21528278174563,36.71661263672665],[127.21599091669056,36.71644368305007],[127.21607401402834,36.71609782001669],[127.21813959888982,36.71558807578579],[127.21924215226402,36.71547491103534],[127.21966251419889,36.71553968887098],[127.220040486071,36.71550441269425],[127.22031492344254,36.715603525004475],[127.2212076631362,36.71559982803848],[127.22194733317924,36.715490901004294],[127.22277920758955,36.71553882044089],[127.22363003748184,36.71572004433409],[127.22401602186855,36.715335880300174],[127.22403203802143,36.71501732423168],[127.22420997358451,36.714720504934114],[127.22378599830164,36.71439533769225],[127.22343044610109,36.713828881805675],[127.22348974274672,36.713688566628285],[127.22340235619417,36.713561726820686],[127.22333779024109,36.712971245697304],[127.2236371517998,36.71165975943133],[127.22393827199235,36.71159901297029],[127.22425762723687,36.71097724606626],[127.22511656415261,36.71037255543828],[127.22651016293948,36.71001850163591],[127.22743596317719,36.70900438899722],[127.22862371645768,36.708195871134144],[127.2290557097005,36.708412845354886],[127.22974737529394,36.70782682094079],[127.23034339141752,36.70782054951114],[127.23078218179654,36.70801941304328],[127.23126152389167,36.70854598398109],[127.231678793385,36.7088218400751],[127.23224072753013,36.709050789595736],[127.23302752215719,36.70895194016481],[127.23342999132274,36.70897378353296],[127.23425587112992,36.70879925634434],[127.2344084994572,36.708073981255126],[127.2353037036034,36.70738692707115],[127.2364045530922,36.70745178482156],[127.23687176131176,36.706512564351954],[127.23680227686464,36.706392897302266],[127.23699049418148,36.70588212264262],[127.23704733792835,36.704408628445876],[127.23879907140302,36.703243085101654],[127.23921495570386,36.70324451786758],[127.23955834555147,36.70334706528696],[127.23966613611537,36.70232349301396],[127.24075920602546,36.701922888863315],[127.24169136526639,36.70125929398363],[127.2419589044702,36.70117402204763],[127.242469930631,36.70116749114775],[127.2432600630998,36.70093168858944],[127.24394260281542,36.701115660687236],[127.24436983879211,36.70108605447133],[127.24475847413402,36.70076766312761],[127.24466759299686,36.70048687716532],[127.24476200289061,36.70001594140252],[127.24364370522231,36.699491147429754],[127.24370725507136,36.69887669970561],[127.24402417668104,36.69845285903632],[127.24387188780122,36.697946767085725],[127.24437024244061,36.69741206495551],[127.24530260339735,36.69679370341669],[127.24535630479022,36.69634342118892],[127.24571085285251,36.69589139647931],[127.24712820487034,36.69621126966701],[127.24741040667978,36.69558225597068],[127.24804912251302,36.69504797647911],[127.24843128561346,36.69541432843484],[127.24882523591646,36.695564493239075],[127.24984306212814,36.69565227911768],[127.2499158319104,36.69587174748444],[127.25051525283865,36.69646097266426],[127.25083130772161,36.696555378300474],[127.25121757005772,36.697012987320704],[127.25217266228411,36.69675568457501],[127.25228048390414,36.69624789236615],[127.25292019956822,36.69610813353877],[127.25409681896264,36.69495658693145],[127.25459856080481,36.69485783111542],[127.25488973993419,36.6945841642999],[127.25548807604052,36.69431087731368],[127.25627850530608,36.694096624200654],[127.25709786582982,36.6937234079209],[127.25721774216682,36.69332186316572],[127.25791560380983,36.69221983472557],[127.259942922412,36.692629850273214],[127.26012346287645,36.692618860798696],[127.26059319692614,36.6923219493479],[127.2611068001631,36.692633930996045],[127.26146376317125,36.69275268562018],[127.26173962289207,36.69262795463471],[127.2641397947908,36.6922470733409],[127.26522959988226,36.69220435468565],[127.26611424033078,36.6926236593002],[127.26680480803677,36.69241463002905],[127.26700820029934,36.692727314305984],[127.26817677860097,36.69311421129368],[127.26875073543943,36.69356035750854],[127.2697425220296,36.69372575353995],[127.27031684044628,36.69434619726346],[127.27083505231658,36.69458434285211],[127.27149849254815,36.69444325684898],[127.27215524238439,36.69463239800647],[127.2724099674595,36.69463847800644],[127.273015688357,36.69506065049718],[127.27347693873115,36.695265775295056],[127.27577285732696,36.69351873484938],[127.27581387459698,36.69325284620318],[127.27664754896558,36.69189463953907],[127.27729038530359,36.69162710471472],[127.27770877879216,36.69134912125007],[127.27831708494789,36.69154881166808],[127.27903451289772,36.69191038338375],[127.27997082085469,36.692134746926904],[127.28060138905911,36.6917352820674],[127.28135667078887,36.6904081989332],[127.28261093814275,36.690610066921764],[127.28424879709937,36.690471157101754],[127.28526323147153,36.69060596581375],[127.28562253951506,36.691564278504366],[127.28566583206744,36.691992954489635],[127.28706083288071,36.69271559485823],[127.28792916647939,36.69380368443555],[127.28873827853641,36.69427832993429],[127.28948725022003,36.69540939535454],[127.29013395514333,36.69580363784523],[127.29158520341286,36.69703461685277],[127.29180565402487,36.69708936222458],[127.29201149170325,36.697299406118006],[127.29243165738664,36.69710855347756],[127.29330586286567,36.69702259940016],[127.29369894361862,36.69720139881449],[127.29460631135652,36.69717879688935],[127.29503181733847,36.69757970759585],[127.29574456952756,36.69773341004365],[127.29634262968813,36.697735815618756],[127.2965470218951,36.69765178224452],[127.29680088072669,36.697826520137895],[127.29735354435742,36.69853952699842],[127.29731323072215,36.69868990937102],[127.29747941988187,36.69913961234829],[127.29793345551084,36.699286806933365],[127.29885218153866,36.69937463675436],[127.2994090476548,36.69964597730439],[127.30007600626347,36.69967339370167],[127.30067965076651,36.69986891966794],[127.3008529080087,36.70001147146001],[127.30132087458725,36.699977097107215],[127.3017453324827,36.70030524998284],[127.30181690444765,36.700488807314805],[127.30253967209167,36.700712506027195],[127.30292536046784,36.70091631859021],[127.30300599653016,36.7011475463982],[127.30348751890311,36.701292974906835],[127.30408001052639,36.70215155019406],[127.30429047658242,36.70218306796106],[127.30446198665743,36.70243663869145],[127.30468693351015,36.70255857341262],[127.30503383422486,36.702448978527435],[127.305575165705,36.703063907816016],[127.30583035984014,36.703096857140345],[127.30619996332113,36.70336021926652],[127.30663760067648,36.703436830619374],[127.30712476336862,36.70370095949559],[127.30774766241363,36.70416975917123],[127.30775640736242,36.704351833893476],[127.30839791112713,36.70480555305946],[127.30804020241455,36.7049009021939],[127.3081098417685,36.70531112764194],[127.30758853093636,36.70563382606516],[127.30741986749406,36.70588819256296],[127.30747170973136,36.70640870979113],[127.3076491992912,36.70662139223303],[127.3074266060295,36.70707702026075],[127.30701706864618,36.70759369827],[127.30710774341385,36.70790152236935],[127.30657490391401,36.70794341170117],[127.30610070105017,36.70826962183728],[127.3063115652061,36.708998023040266],[127.30658820896544,36.70933845913139],[127.30654720742767,36.70946442201021],[127.30690979288858,36.71007296535184],[127.30692732636334,36.710363122490186],[127.3072065495983,36.71101951748881],[127.3072336907343,36.71133586562657],[127.30694999656242,36.71158351992381],[127.30724208555482,36.71210168379427],[127.30754643078991,36.71232867978549],[127.30789381981337,36.713073429533836],[127.30770189029344,36.71337767197122],[127.30813550054799,36.71388505490341],[127.30880631138776,36.713900889692596],[127.30889675812223,36.71407785039188],[127.30886773736198,36.71446295423684],[127.30801091543006,36.71525718090828],[127.30789712944961,36.71565147625724],[127.3079995015866,36.716438518551456],[127.30842620269716,36.716824698868514],[127.30835956798106,36.71753074246386],[127.3079872607795,36.718132826295985],[127.30809533044767,36.71866489976161],[127.30881359375626,36.72019202306549],[127.30873474204687,36.720783466433446],[127.30903241172744,36.721241023767966],[127.3093014380055,36.721378565362976],[127.3092997456675,36.72176779093132],[127.30960452044593,36.72189487058589],[127.31008454825523,36.72242020905069],[127.31008598509663,36.72270081257705],[127.31062935850623,36.72292201532797],[127.31090919411984,36.72318987270833],[127.3110871555481,36.72384854841938],[127.31068897650162,36.72381556516233],[127.30924848709314,36.724104275110115],[127.30943522214484,36.72457742752722],[127.30972425472879,36.724426337931696],[127.31044444503056,36.724372062019135],[127.31043960775334,36.72429893138594],[127.31241882102321,36.72378015123818],[127.31340878779396,36.72383069925469],[127.31422944849454,36.72403945212879],[127.31684795504762,36.724384528672914],[127.31801266287235,36.724907985617634],[127.31846085317174,36.725250234904095],[127.31902477969787,36.726470182223174],[127.31938856224122,36.726478024178135],[127.31977161727981,36.726796851837356],[127.32088798487445,36.72863030919386],[127.32243538703491,36.73070289746857],[127.32284030904255,36.73100379556137],[127.32446512675547,36.73147236504045],[127.3249458240615,36.73177159716542],[127.32520298261223,36.732058614105135],[127.32546186517922,36.73317905709188],[127.32546393121498,36.733670544666204],[127.32573841761152,36.73367516040402],[127.32713481866605,36.73422056339257],[127.3283030866567,36.73455502763435],[127.32939904990312,36.73445402760356],[127.32965123254685,36.73437070783222],[127.33006496444561,36.73405288133456],[127.33037752058381,36.73362824223139],[127.33062132720165,36.73301019777531],[127.33064213920083,36.732711243522964],[127.33106917962408,36.732710170049984],[127.33115258722039,36.73283402228507],[127.33161260659107,36.73246924725804],[127.33239503561849,36.73201845286928],[127.33267898539003,36.73173585175159],[127.33279823723426,36.73146761008349],[127.33334546325946,36.73110295614257],[127.33492802748471,36.73131535667641],[127.33557170376478,36.73074527550162],[127.33589618837762,36.730664851308724],[127.33603288265216,36.73055162053512],[127.3365518340056,36.72992745700583],[127.33670187264363,36.72986435901439],[127.33689582788577,36.7293451507731],[127.33755016096399,36.72930391934001],[127.33838645986569,36.7294684029611],[127.33920281200713,36.72972510792889],[127.33918995834524,36.73015425417144],[127.33949828850886,36.73026898921387],[127.33999521521281,36.731520582968436],[127.34039550047997,36.73178638172157],[127.34135759850997,36.7327361593967],[127.34246832171527,36.73282327376149],[127.34229174699418,36.73361038576581],[127.34253025602999,36.73378576045372],[127.34286333496097,36.73471957392162],[127.34276727638144,36.73488392611242],[127.34316956626441,36.73524239584802],[127.34301994930834,36.73546769897267],[127.34316625496956,36.735695249276006],[127.34296705331731,36.73593367745163],[127.34289699211925,36.736227569128786],[127.34251308633901,36.736611904438156],[127.34246288512784,36.73701462737204],[127.3421054892271,36.73740236253071],[127.3419926932162,36.73766120677659],[127.34175515716906,36.737826185086234],[127.3415129839067,36.73847019694833],[127.34081214815563,36.738593846364104],[127.34057433594064,36.73884967504287],[127.3403692792611,36.73891331162051],[127.34001912138868,36.739398565144384],[127.33989120471234,36.739799049388246],[127.3397156006587,36.73978857037939],[127.33931681279982,36.739934521561715],[127.33817832012625,36.73994874227047],[127.33740499897857,36.74011532413613],[127.33740838004486,36.74108898452789],[127.33752953596719,36.74180307806284],[127.33733572138493,36.74228298904627],[127.33749976345409,36.74249367473371],[127.33749889726566,36.7429268586351],[127.33745369261514,36.74325744209934],[127.33705066524836,36.743947513659116],[127.33711234275371,36.744345179988926],[127.33659689001733,36.74434676851762],[127.33638036938027,36.74459838080707],[127.33644410271589,36.74499503158981],[127.3346044619084,36.74634587638312],[127.33430994973496,36.74681458267967],[127.33407898721833,36.74693788088292],[127.33307541787279,36.74668346791826],[127.33267554256773,36.74681480914532],[127.33263684438428,36.74752355984924],[127.33239518345661,36.74750578510327],[127.33254009534973,36.74755416962746],[127.33298019318839,36.74815119120869],[127.33337618623021,36.74833143657354],[127.3336480213321,36.74867535834108],[127.33428687835307,36.7488702428047],[127.33440179264579,36.74924682838896],[127.33427583987613,36.74952128712548],[127.33434857299885,36.74982833510839],[127.33469585298928,36.750101032514166],[127.33477720747993,36.75069962715376],[127.33494604128623,36.750972180467045],[127.33514227646594,36.75100134131304],[127.33532324132835,36.7512922073177],[127.3354835527966,36.75195635982668],[127.3353469395537,36.75240719012702],[127.33550802279869,36.75264172006099],[127.33648298945316,36.75267974591253],[127.33675526414947,36.752788689434624],[127.33712844101447,36.75253836231442],[127.33767729287418,36.75279927116044],[127.33797401503992,36.75275652984302],[127.33831567069771,36.752828311506704],[127.33864441814437,36.75274434229428],[127.33889515957229,36.752588732379735],[127.33938512655811,36.75278851533687],[127.33964609965771,36.752997686022866],[127.34042700604395,36.75302278636374],[127.34098730625729,36.753357492202646],[127.34172643508265,36.753344108029275],[127.34229028605564,36.75317835791215],[127.34261796515558,36.75323102527957],[127.34288365969401,36.753433986615676],[127.34392031949254,36.75370616342969],[127.34420750164524,36.753409491460395],[127.34466471807349,36.75335194556573],[127.34553148596342,36.75361533231385],[127.34600586726474,36.753414526901096],[127.34653309121502,36.75347634547304],[127.34704516804877,36.75305703521719],[127.34784137921726,36.75292626689199],[127.3484388431614,36.75332292495887],[127.34882122460493,36.75334677953284],[127.34923128132098,36.753547267793785],[127.35018409958784,36.75368590899949],[127.35036186189699,36.753975030718316],[127.35115924893265,36.75412487767531],[127.35225255328447,36.754081985667355],[127.35378740862625,36.7546684251534],[127.35392149504521,36.75480956679608],[127.35416559450093,36.75564547537016],[127.35453598498344,36.75586219361996],[127.35557033072904,36.75601695838226],[127.35613212048358,36.75667603158572],[127.3561736529771,36.75740970638972],[127.35662209439364,36.75782151854815],[127.35646656702617,36.75808002485384],[127.35661560317068,36.75851971607884],[127.35692754120639,36.75893494221959],[127.35723972070416,36.76029174337035],[127.35781441886375,36.76097340662609],[127.35848284756571,36.76077424836109],[127.36007692392494,36.75971661133753],[127.36058934207962,36.760045619712805],[127.36091589634229,36.76001840310413],[127.36131174760524,36.760402365910664],[127.36245382042222,36.761086389484035],[127.3632029896413,36.76105509832634],[127.36379025858727,36.761116084584735],[127.36418449864425,36.76140592157922],[127.36419253765952,36.7615005490393],[127.36455765021608,36.76154076909809],[127.3646703419083,36.761370521488814],[127.36499450626873,36.76116099668793],[127.36549274362096,36.76096141108528],[127.36567145732008,36.761026349059705],[127.36591469293518,36.760923969339636],[127.36644136287757,36.76092808556446],[127.36693430610842,36.76094028677175],[127.36896616292277,36.761489804156255],[127.36958575382997,36.761575063403185],[127.36988651022347,36.760868906584754],[127.36986951045448,36.76010552662505],[127.37015386144832,36.759773768534075],[127.3709836722151,36.75948092880665],[127.37108550197308,36.75923270878068],[127.37142535569761,36.758935034941096],[127.37146291433962,36.75856342727706],[127.37204505491705,36.7580499493074],[127.3723019690013,36.757926626205276],[127.37260452342504,36.75809450484134],[127.37293124123869,36.758115436766545],[127.3732567650012,36.75802328227667],[127.3748611633566,36.75798024091432],[127.3756674803571,36.75853485488724],[127.37614408056425,36.758464076497035],[127.37651190135529,36.75864372512626],[127.37711766404355,36.758560174846544],[127.37764197159078,36.75865229642119],[127.37799542164456,36.75898666997114],[127.37923590863551,36.759084508194846],[127.37919136024418,36.758584510793646],[127.37939208770452,36.75845815847456],[127.37986595629647,36.758445352753654],[127.3802262488149,36.7582900377339],[127.38094827516818,36.758161833686835],[127.38119288714692,36.75827835817484],[127.38188042968329,36.758174806450135],[127.38259512517548,36.75866405689363],[127.38302215526211,36.75867715047103],[127.38302923709881,36.75891547876149],[127.38341556700558,36.7588062416637],[127.38352654984578,36.75897574548864],[127.3841133751408,36.758969941406484],[127.38501711969957,36.75964259855637],[127.38559329610673,36.75953959204213],[127.38614031662104,36.75929703923603],[127.38637116232299,36.759285515441405],[127.38725903476154,36.757148289257806],[127.38788049465579,36.75681230280423],[127.3877454073756,36.75628108141558],[127.38757406078118,36.756128113453265],[127.38716787606683,36.755953939950444],[127.38719415295836,36.75580039871721],[127.3874710344854,36.755567195691],[127.38768582870232,36.755521415050616],[127.38799837594003,36.755299313712484],[127.38830865046367,36.754937358351796],[127.38845875296734,36.754374948717135],[127.38869431163356,36.75409174132048],[127.38865511159878,36.75348912661888],[127.3892736976358,36.75311375512142],[127.38992809721474,36.75288443345421],[127.39070758884884,36.75282175625798],[127.3911035560203,36.75263361618513],[127.39147528590631,36.752661331935954],[127.39250879152947,36.75250787892249],[127.39298403797694,36.75273666661781],[127.3934601167214,36.75267506116827],[127.39364778974267,36.75252617381515],[127.39338154803403,36.75195216955944],[127.39356076530753,36.751656117107295],[127.39419890158898,36.751602207035376],[127.39434463120773,36.751382333850124],[127.39462607323303,36.751170067525564],[127.3947046618222,36.750740259850105],[127.39455200980679,36.750483118909735],[127.39456121523652,36.74981559425961],[127.394755530197,36.74963784826172],[127.39490744154135,36.749188791842975],[127.39514429436471,36.74882275531371],[127.39557639229481,36.74899235311749],[127.3958076415421,36.748766203021084],[127.39602067800652,36.747933151546455],[127.39686324130503,36.74781978072896],[127.39700312136806,36.74767841895795],[127.39762507934252,36.747644512763536],[127.39799083521059,36.74739937522835],[127.3990683158224,36.74693037626486],[127.39967864140634,36.747009256293346],[127.4002210357725,36.74741975094929],[127.4009500821573,36.74728518382466],[127.40128682227451,36.74646054894792],[127.4030677711362,36.74551580741656],[127.40401007400712,36.74487879209593],[127.40419746498134,36.744850331882716],[127.40430147699534,36.74492147303893],[127.4046219166492,36.7453032083606],[127.40451818959497,36.74540014801115],[127.40443865745002,36.74602157798605],[127.4046547501079,36.7464214166962],[127.40475711818696,36.747292782863255],[127.40502273784281,36.74756380005449],[127.40512667124945,36.74820922793292],[127.4055826883759,36.74871739028579],[127.40548983399306,36.749160663930326],[127.40528467780729,36.7492753683955],[127.4055386899458,36.74982917320665],[127.4055975615913,36.75026188465064],[127.4069150255613,36.75085293613571],[127.40688467767365,36.751029276234746],[127.407155350562,36.75129042305417],[127.40746133836282,36.75143577451119],[127.40784131251097,36.75186524257838],[127.40843377356178,36.75220580955032],[127.40896643115052,36.75232202239603],[127.40922036643046,36.752247441302494],[127.40957833316936,36.752261534445736],[127.40972129236232,36.75262583832543],[127.4107326281851,36.752958649834945],[127.41137081509132,36.753559033092564],[127.41161847162564,36.7542229338124],[127.41138242201465,36.75468832219085],[127.41149127590081,36.75507432226154],[127.41079587336968,36.75611833232061],[127.41126851857351,36.756020512763016],[127.41130282733613,36.755849382490496],[127.41205433203292,36.75711408076919],[127.41255735975294,36.75741215160579],[127.41346714390406,36.75734754147481],[127.41432001386421,36.75716826659702],[127.41496502230358,36.75685138682822],[127.4151502651214,36.75660810242414],[127.41648224707393,36.75676900694465],[127.4185997873178,36.757255760715196],[127.41961053315669,36.757686394140386],[127.41969792863613,36.75766152183421],[127.4201509955007,36.75835340035224],[127.42021194186779,36.758852273075],[127.42010916889484,36.7594457345106],[127.42039514843381,36.76039899706762],[127.42041707616475,36.76083767688676],[127.41952917609869,36.76178382378148],[127.41897184000797,36.76221472747237],[127.41873842243123,36.76221554548813],[127.41892994258934,36.76227055997223],[127.41764271710971,36.76306768120583],[127.41717607874509,36.76353374270509],[127.41684042391678,36.764261027054864],[127.41708147667983,36.76547072696735],[127.41685614765933,36.766324949383645],[127.41601811410493,36.76715013102949],[127.41520950372714,36.767638495774655],[127.41504092409758,36.76784036969188],[127.41440849377295,36.76919126060232],[127.4139110738404,36.7698497557285],[127.41390854407645,36.77032046405605],[127.41403970046308,36.77068995555674],[127.41435093997572,36.77101217517967],[127.41425055399843,36.77137507376093],[127.41294995917445,36.773216622645215],[127.41266445599535,36.77331148678715],[127.41228375948278,36.772850959338804],[127.4118722030838,36.77294026562862],[127.41084522024059,36.77283299272567],[127.41059363175756,36.77306246965982],[127.41016133638556,36.77310053791571],[127.41001337394762,36.77324949435315],[127.40969189713164,36.77328642587371],[127.40941081621244,36.77320203765177],[127.4088609019382,36.773618247915536],[127.4086492882702,36.77388487955245],[127.4082036102215,36.773973297733264],[127.40768121409872,36.77378814841043],[127.40747630036175,36.773792758036755],[127.40696389105096,36.774016114036996],[127.40638185168339,36.77382672950119],[127.40631160466646,36.77396458395861],[127.40594306769223,36.77420666787105],[127.40510304930062,36.774253800699114],[127.40482052172833,36.774485151804264],[127.4047980595708,36.77458920753711],[127.4044369836786,36.77466605922572],[127.40331742925504,36.77447479519314],[127.40316405705494,36.77470161545514],[127.40326237688635,36.775073888185986],[127.40247543297446,36.77549770061562],[127.40189671186536,36.775711761831055],[127.40198023117193,36.77591426627919],[127.40176641659505,36.7764506109483],[127.40124231350802,36.77718627408213],[127.40179002864748,36.77804897887295],[127.40156579240926,36.778474110069745],[127.40155619506004,36.778789633241914],[127.40110689893127,36.77905768955925],[127.40100117115448,36.77927723186703],[127.40048594122653,36.77951407410902],[127.39991424568119,36.780187575866],[127.39976957820433,36.78042948053562],[127.39981779456917,36.78085649621389],[127.39838773201376,36.78157661902327],[127.39746276318547,36.78214478995072],[127.39642918737145,36.781910379906364],[127.39549693690708,36.782477606052765],[127.39549627819932,36.783018882064965],[127.39523571792976,36.78320289464462],[127.39534961963675,36.78345321204579],[127.3949825511706,36.78409477151372],[127.39529069460026,36.78490758972916],[127.39563558075173,36.7853485266885],[127.3967459834259,36.785927099688216],[127.39615553313396,36.78704409380664],[127.39600289144848,36.78783566814363],[127.39649422837351,36.788395523092674],[127.39669639705428,36.7891577243985],[127.39654667725566,36.7894793287589],[127.39659009215713,36.78994877511792],[127.39673825214447,36.790278908394086],[127.3973095365166,36.7911479573108],[127.39777259890779,36.791474415830045],[127.39821057578051,36.79149105943938],[127.39864841653973,36.791694571526435],[127.3994348790264,36.792272613448354],[127.39971808087068,36.792616786569695],[127.39976453959642,36.79317674750513],[127.40049879479372,36.79423507060398],[127.40056610146559,36.794498858475954],[127.40127830745115,36.794839148698166],[127.40171751079211,36.795148487147216],[127.40124522371627,36.79696584717751],[127.40095962315054,36.797305683349954],[127.40079974576129,36.79781973790812],[127.40118146758054,36.79875135868527],[127.40080749635565,36.799090307802416],[127.39951610020188,36.79921909722224],[127.39876540607194,36.799030474643715],[127.39748775462736,36.799672577744765],[127.39719988587221,36.80044993265411],[127.39626952764111,36.80093931157197],[127.39567976606764,36.801499400035404],[127.39510275805621,36.80252089749205],[127.39493442733664,36.80309415575534],[127.39420554357199,36.803926136600715],[127.39350680000521,36.80381731647789],[127.39296917224006,36.80421238189814],[127.39160807868376,36.806587510839776],[127.3907822475888,36.80709375031352],[127.39041816704373,36.80749594961366],[127.38936424982944,36.80794421147806],[127.38897634940122,36.807920018685],[127.38786598545754,36.80847375160619],[127.38740597495628,36.80941072117498],[127.38626867689095,36.80963636446866],[127.38559634362673,36.810394424940675],[127.38466954171827,36.811105544199314],[127.3847064770852,36.811368147913115],[127.38419351793331,36.81186695271427],[127.38373870455025,36.812182892831366],[127.38336882624144,36.81230340169018],[127.38298438824012,36.812970035004724],[127.382157034937,36.81375267550596],[127.38149018868957,36.81408284357678],[127.3805931567534,36.81385708881353],[127.38024421050098,36.81396364694717],[127.37885139678282,36.81386567425908],[127.37853747800236,36.81461799008869],[127.37778947873831,36.81498262581986],[127.37646797563407,36.81514523067399],[127.37533658134974,36.81502803797029],[127.37410957485602,36.81598227516044],[127.37095436232963,36.81670550156256],[127.3695185019615,36.81625572735011],[127.3685662899791,36.816388006179565],[127.36742054405367,36.816797867831085],[127.36661371297068,36.81696959349076],[127.36562618159445,36.818386371410476],[127.36397197199032,36.819742873985334],[127.3635423585753,36.81967332017295],[127.36265861956821,36.820151383392925],[127.36183490640859,36.82041382235385],[127.36075178366792,36.82055280235384],[127.3601863249297,36.82110955888635],[127.3595270737149,36.82142465860477],[127.35918092861641,36.8220044041949],[127.35810949371681,36.82246297358952],[127.35715023688941,36.823559742325024],[127.35740692628738,36.82445600778741],[127.35808285528267,36.82544254193204],[127.3577194309544,36.82616970823666],[127.35762759398894,36.826682130077806],[127.35717879188738,36.82711613573261],[127.35722505212999,36.82750385517354],[127.35654256467505,36.82799640735388],[127.35605396366927,36.82865345779397],[127.35444484085289,36.82947497379821],[127.3525186213167,36.83000411475158],[127.35173486870379,36.830660971820635],[127.35102514508074,36.83081041708426],[127.35053937270295,36.830789281025396],[127.35003244834475,36.83061996366982],[127.34818001162874,36.830362160231964],[127.34763180274501,36.829800426817336],[127.34673128010262,36.82937023917044],[127.34636870450795,36.82930588961573],[127.3451463691432,36.82957595594124],[127.34483821938721,36.829806147914134],[127.34452876422185,36.83027378220382],[127.34391494708198,36.83048821066501],[127.3434048346744,36.83030113260971],[127.34230825891429,36.83040332869652],[127.33928827949379,36.83125039862006],[127.3381919640909,36.83101974602684],[127.33776784349195,36.830495912976204],[127.3366004094186,36.82972778008045],[127.33544001542433,36.83041987903167],[127.33485906651455,36.830663932027676],[127.33453821517274,36.830666570785866],[127.33398785557148,36.831211876653946],[127.3335543674575,36.831966613844834],[127.33409885928369,36.832360284817554],[127.33439020211628,36.833429034325945],[127.33500159099904,36.834438496304465],[127.33534231852146,36.83561662533546],[127.33520533399337,36.83683860100083],[127.33560687393917,36.83742720164293],[127.33464262809866,36.83781072039058],[127.33418005165285,36.8380919683256],[127.33403735177293,36.83843123265242],[127.33409005067655,36.83931886298932],[127.33433994975253,36.840096980346196],[127.33464016486992,36.84045839042943],[127.33470645170472,36.84128467089502],[127.33461924790099,36.84214178427788],[127.33520182374397,36.84313213052635],[127.33567843565956,36.84432382295055],[127.33613012008632,36.84453336466906],[127.33665735955691,36.845066562508954],[127.3368005505795,36.84564082318818],[127.33658644135703,36.84610601514305],[127.33666769034363,36.846475323723396],[127.33602784381068,36.84729657919015],[127.33665048171333,36.84802459598629],[127.33662067285626,36.84862949393453],[127.33623314956519,36.84912367384632],[127.33634846148072,36.84959284677586],[127.33627044526801,36.85065450073702],[127.33640286259116,36.85086512815946],[127.33630178124334,36.851312129866095],[127.33640175776098,36.85171210487437],[127.33628226649695,36.85216493527172],[127.33633055921901,36.85284892656347],[127.33692423458773,36.85369924813817],[127.33654248880539,36.85462353767145],[127.3355614120964,36.85538787004297],[127.3347961825,36.856180814762105],[127.33410283164679,36.856284112428476],[127.33264629822669,36.8569739549367],[127.3321053066261,36.856897903610005],[127.33120239213294,36.85733040374831],[127.3307969610836,36.85726827179042],[127.32957723638292,36.857510587949605],[127.32813073943632,36.85816256389747],[127.32649659295922,36.85803919544817],[127.32633353275472,36.857778405552594],[127.32451456071495,36.856899713530254],[127.32307459120696,36.85724671039269],[127.322576386024,36.857618127979],[127.32092421184986,36.85792494793162],[127.3201886238941,36.85846696550736],[127.3199178128055,36.85847139459427],[127.31929987670458,36.85906482395517],[127.31873558948024,36.85908877846147],[127.3172997797525,36.85868555896831],[127.31660645447204,36.859186153719605],[127.31535644430049,36.85898429027004],[127.31519734496159,36.858657920708296],[127.31483431085879,36.85825002600088],[127.31350429132065,36.858001612880976],[127.3127296542405,36.85746650158307],[127.31200289092878,36.85778318148251],[127.31123916989532,36.85848543154512],[127.31083631629652,36.858651587044164],[127.31033867477333,36.85863106824314],[127.30994008681677,36.85915837522603],[127.30917222815971,36.85928722428825],[127.30875396772895,36.859780184156726],[127.3072965961658,36.85970296932873],[127.30712763474418,36.86051064936358],[127.30716778886485,36.861309552886105],[127.30577905268461,36.86335380270381],[127.3075574100614,36.86503325449439],[127.30776648867275,36.865591049734086],[127.30766389045166,36.865994093263616],[127.30833672524237,36.866500835361734],[127.30857773795404,36.86696213218008],[127.30902257542765,36.867065805526124],[127.30939309921709,36.867425751807026],[127.30996417864154,36.867574509592345],[127.31061254821824,36.86788381193688],[127.31052905033717,36.868543341437274],[127.31071389218341,36.86943838158399],[127.31128405005357,36.870134973056906],[127.31129328160895,36.8704881225674],[127.31079906903798,36.87108152602332],[127.31033647280282,36.871877779513795],[127.31034568026358,36.87252401014648],[127.31017525312367,36.872784462208024],[127.31016148604165,36.87302287302427],[127.3098573157828,36.873435964404514],[127.3103155472368,36.87432186439659],[127.31068031568125,36.87481538093675],[127.31004409412441,36.87556142415288],[127.30950960562534,36.87821069246389],[127.30959847008505,36.878594842435184],[127.31007174803766,36.87904557432873],[127.31069323654548,36.87947949027918],[127.3112124571633,36.88034340274878],[127.30930267114462,36.881700944665724],[127.30901343627652,36.881660549134565],[127.30835009699948,36.88217404694166],[127.3084344689758,36.88345405337349],[127.30804782135309,36.88459309925145],[127.3079970366832,36.885063905171904],[127.30781529356165,36.88543518918378],[127.30772924085656,36.88547956583107],[127.30719409032922,36.88535718750786],[127.30557807760796,36.885508868128284],[127.30401681865841,36.885420663137545],[127.30388123994234,36.886108467123975],[127.30320969014308,36.886651376470894],[127.30233231053028,36.88718439872028],[127.30165835373093,36.88729808009842],[127.30114074701514,36.88769863994518],[127.30058071406134,36.888301860710726],[127.30005571065776,36.88918604113352],[127.29959692440842,36.88945021678933],[127.2992700500568,36.889797835278905],[127.29873156419708,36.889846973390135],[127.29837745284749,36.88970991034419],[127.29721690590554,36.889646411010816],[127.29600970128209,36.889749914541184]]]}}
