{"type":"Feature","bbox":[126.82910551416089,36.64856256452989,127.12019730213338,36.94225285141555],"properties":{"regionCode":"44200","version":"vworld-20260909-3f8952dfda77-p2","name":"충청남도 아산시","attribution":"국토교통부/K-Geo플랫폼 · VWorld 법정구역정보, CC BY 2.0 KR; 공공주택 복덕방 가공"},"geometry":{"type":"Polygon","coordinates":[[[127.06855049953528,36.94001969713113],[127.06835477025552,36.94026345239288],[127.06837087767829,36.940916297625506],[127.06851640426328,36.94168010672489],[127.06795289936896,36.942170436211015],[127.0677224354352,36.94225285141555],[127.0672975988581,36.94219675974153],[127.06663995135263,36.94198501761187],[127.06548701670809,36.94192588369315],[127.06500501643387,36.94172917468439],[127.06388781578308,36.94099363458776],[127.06244877979339,36.939781945513054],[127.06092909941937,36.93960823033954],[127.06023651181474,36.93932277652292],[127.059324535557,36.93908985236147],[127.05927158866017,36.93899079444904],[127.0594490039378,36.938529534314284],[127.0593932399132,36.93820709877211],[127.05905892095195,36.93776560317621],[127.05849786731295,36.937398889829524],[127.05781799623637,36.93728366017037],[127.05722187909225,36.93698344506393],[127.05691951777246,36.93693559558428],[127.05650394626456,36.93710020971071],[127.05609429511571,36.93747631266123],[127.05526521502065,36.9376561611159],[127.05471292685553,36.93758307957607],[127.05452656244715,36.937434248095734],[127.0543140717174,36.93699694786755],[127.05383181102907,36.936939546913585],[127.05361612481195,36.9364025768674],[127.05278789107106,36.93527317414151],[127.05229740664996,36.935203126596384],[127.05179693478513,36.93491194730193],[127.05130571054211,36.93482230627474],[127.05075664869537,36.93450940169964],[127.0500036075678,36.93432267247427],[127.0495916404353,36.93388154103927],[127.04925384646766,36.933833189740916],[127.04892916266814,36.93399620946369],[127.04867404290857,36.933771022056305],[127.0475781504997,36.9332218804769],[127.04599610177134,36.93320127108082],[127.04550518728121,36.93340326084491],[127.04511912810098,36.93336370411384],[127.04476851194293,36.93351574531522],[127.04429670919006,36.933479619881524],[127.04391887840863,36.93372698833312],[127.04373222572767,36.93372881894716],[127.04329728653029,36.933574274897026],[127.04224527400882,36.932806169315015],[127.0413579781714,36.932552451173194],[127.04080081713937,36.932617210917066],[127.0403468329011,36.93246857164018],[127.0400924840938,36.93246139413506],[127.0382933828147,36.9326536697202],[127.03794322739768,36.9325911504458],[127.03722527778652,36.93226177083705],[127.0369710459628,36.93204829862007],[127.03648641659944,36.93145256161674],[127.03632981629836,36.93081317914259],[127.03576162924134,36.93067631631302],[127.035047885694,36.93060955258674],[127.03466762892825,36.93047282867531],[127.03471935942758,36.93010369298453],[127.03461002206005,36.93009703745507],[127.0347680344696,36.92999483761152],[127.03474761212004,36.92974574777773],[127.03387737834741,36.929437176866735],[127.033900055142,36.92925906993952],[127.03344297752878,36.92874095278382],[127.03287289701473,36.92870210631102],[127.03102021421952,36.92810338555835],[127.03040580413054,36.92826729102403],[127.02996972463669,36.928841964779565],[127.0297875036023,36.92890075878772],[127.02909758838817,36.92880662450028],[127.02820427200626,36.9285427548469],[127.02769797961254,36.928589813857556],[127.02710356028075,36.928926500380264],[127.0263505839531,36.92869931439075],[127.02579647502394,36.92874844804992],[127.02463791606795,36.929785921838906],[127.02411538219148,36.93036136538745],[127.02322975002402,36.93059653442936],[127.0222486378459,36.930579678149456],[127.02203471678612,36.93063098773488],[127.02136205739481,36.93108696113404],[127.02101211692347,36.931609729673845],[127.0208719316249,36.93235284154532],[127.021026097521,36.93291569780037],[127.02131554585867,36.93330851519108],[127.02127865415044,36.934019829570104],[127.02120670026422,36.93426067585207],[127.02083037457218,36.93459989509866],[127.02046916844255,36.93449400323335],[127.02007295724665,36.93422156946246],[127.01984511483118,36.933924724332904],[127.01910268192428,36.93359108357798],[127.01845970918413,36.933784333524805],[127.0180326524571,36.93414051973914],[127.0173104436177,36.934362962356175],[127.01691735695852,36.93477056749365],[127.01557345651277,36.935388074505966],[127.01531377645838,36.93542793342554],[127.01501325961289,36.935415651393136],[127.01358439358872,36.93462299392034],[127.01176414592724,36.93418971589097],[127.01131270271064,36.93431185291072],[127.01100057807828,36.934675301433636],[127.01109397545646,36.93500981323391],[127.01051938031328,36.93581896941267],[127.00981125236447,36.935911201751125],[127.00846940578666,36.935648550088644],[127.00753439791598,36.93573902561991],[127.00711435874875,36.935562641226284],[127.00696579059239,36.935342458219736],[127.007100898217,36.934945859210345],[127.00744943536692,36.93443843840332],[127.00748216564587,36.934288462132855],[127.00740333780605,36.934177306343244],[127.0064146634003,36.93415509546005],[127.00478598954285,36.93498779072294],[127.00422986101836,36.93516313977394],[127.00379620002374,36.93517248149336],[127.00337108675784,36.93500840344314],[127.00317251236393,36.93411535672184],[127.00305307864957,36.93400434551095],[127.00259611837875,36.93386864589129],[127.0026299024186,36.933632922865726],[127.00079388642237,36.933601739536975],[126.9997000408456,36.93377505138384],[126.99821582893708,36.93471543017966],[126.99689016310603,36.93500922032354],[126.99764560798927,36.934951381191944],[126.99927925002761,36.93459033741193],[126.99861577931229,36.9350771429793],[126.9981247694159,36.93532086572946],[126.99790679217412,36.93534685434298],[126.99737790453459,36.93520366412354],[126.9969765043982,36.935211651708265],[126.99652595158557,36.93531858291759],[126.99518142193408,36.935338532748275],[126.99473436641507,36.93509754927211],[126.99423060312878,36.93500210221151],[126.99311817751666,36.93456755375026],[126.99153847214933,36.9335091330953],[126.98555265841155,36.93248747948594],[126.98538249318806,36.93206186336764],[126.98535364079486,36.93294317747582],[126.98527029210989,36.93292786406683],[126.97954698817679,36.92861301351056],[126.9735160032239,36.92623347294725],[126.96504985791397,36.92415760493112],[126.95401943542171,36.92083097744161],[126.93866533338361,36.91732034661338],[126.92662102181379,36.91113657792023],[126.91669584080073,36.90625001534158],[126.91032272207117,36.90168727750906],[126.90967806105084,36.90163442015002],[126.9114252164807,36.89372297312475],[126.91131905571532,36.89282088512853],[126.91092046368975,36.891993665727256],[126.91053283070033,36.89152295898869],[126.90992478599706,36.89101175801404],[126.90593266123263,36.88867542928354],[126.90356242423488,36.888115327775544],[126.90255447381342,36.88800569197199],[126.89566469219055,36.88772878987413],[126.88447850624054,36.887010011772404],[126.88266871771495,36.88677690361642],[126.88227286978425,36.88646520086597],[126.881718973987,36.886303011326895],[126.88138287174009,36.88681670225171],[126.8815634960482,36.886327796096836],[126.88148853667346,36.886244069124295],[126.86967482606792,36.88292657243541],[126.86756884708247,36.88203130314565],[126.86568580054774,36.881389812348466],[126.865137846188,36.88112548328271],[126.86341557707098,36.88005688030811],[126.86262602038983,36.8807132967978],[126.86254064986738,36.88067052323451],[126.86305129539575,36.879979539573505],[126.86284400277347,36.87978754814572],[126.85276263929289,36.88231674432818],[126.8525228179234,36.88247568227987],[126.85008232122524,36.883126153833665],[126.84942406844876,36.88325912342553],[126.84910336315244,36.88324323437264],[126.84490786643278,36.88428600391038],[126.84488713035736,36.88421933148041],[126.84314735193435,36.87759705873743],[126.83654942203921,36.84231019521201],[126.83690950532636,36.83122717171479],[126.8372477203967,36.8303265404024],[126.84365931594125,36.82251419823119],[126.8435966581687,36.821899897820835],[126.84380223036894,36.82143511093467],[126.84457245152774,36.82064299880596],[126.846038443737,36.81958246385862],[126.84825979716291,36.81691484077195],[126.85028681432735,36.81200642276217],[126.85230955047103,36.809170500303345],[126.85789734385305,36.80056839869478],[126.85777855465604,36.800455796322744],[126.8578350665904,36.80025627004272],[126.85808063511729,36.79998128104135],[126.85906143536381,36.794040205557046],[126.85872898687894,36.7920573741715],[126.85649312707189,36.789441460787586],[126.85335769530512,36.78862660061521],[126.84775526490117,36.78897993541826],[126.84473979135501,36.78889517359631],[126.84421208169795,36.78871039793141],[126.84289314147821,36.78797677611116],[126.83834868185086,36.78692453472549],[126.83611238826471,36.78616826672407],[126.83437533829893,36.785177242501454],[126.83331421212378,36.78373397687537],[126.83276099079217,36.78057931606827],[126.8322239840384,36.7760309309368],[126.83138798266334,36.776057465357],[126.83083367057289,36.77580521945485],[126.83056097037448,36.775309748474335],[126.8305547983681,36.77512828238481],[126.83002181187776,36.77493572476246],[126.82958952040083,36.77446142396233],[126.8292757182478,36.773798338917494],[126.82910551416089,36.7730174271794],[126.82915001147916,36.772109460880955],[126.82955559411629,36.77141498718366],[126.82987849137018,36.77121534273798],[126.83051952008701,36.77098806082454],[126.83092109712078,36.771082559206086],[126.83174068440461,36.77052131376248],[126.83210245787366,36.77016492650293],[126.83143571198292,36.768693273879755],[126.83120305165833,36.76792479975848],[126.83136675692425,36.76780803422159],[126.83115884145441,36.766249051082454],[126.83108369074911,36.7662433207755],[126.83093772713922,36.766461495522506],[126.83093687821416,36.76640057903548],[126.83111329059824,36.76445226241166],[126.83127051320207,36.76457438914983],[126.83155512136868,36.76350024050806],[126.83217574609623,36.76214503575233],[126.83087452826823,36.76208150434562],[126.83280301948417,36.76067987187001],[126.83430965890693,36.76022092643793],[126.83625428550678,36.760023343757474],[126.83798204820343,36.76063361396022],[126.83772944796637,36.75847261646626],[126.8372272145399,36.75691749782284],[126.83729796565548,36.75615241664134],[126.83738210127046,36.755568308209945],[126.83794638729519,36.75395020954081],[126.83898932593537,36.7530326282799],[126.84005422334711,36.75260604955335],[126.84118375822472,36.75228067124735],[126.84104796575107,36.752072124760986],[126.84186030768808,36.751663768298144],[126.8440206811237,36.75296370003734],[126.84592127975691,36.753470867382056],[126.84662486310592,36.753430207789556],[126.84723469795634,36.75325325491344],[126.84778379527371,36.75290010843281],[126.84794836489448,36.752495468834695],[126.84801702882025,36.75202984593756],[126.84799859647732,36.75042260579184],[126.84817806749328,36.75021341806859],[126.84909498447159,36.7498605577235],[126.84976782202949,36.74947067678975],[126.85004463519826,36.74905872700724],[126.85091641576292,36.74916964200607],[126.85125126514613,36.74876578916714],[126.85198215156475,36.74856659955053],[126.85231898168897,36.74875484184078],[126.8527674049085,36.74876556619764],[126.8532666972839,36.748177439258114],[126.85418059905922,36.74804825396726],[126.85442191543885,36.74804930919537],[126.85495398849325,36.74821394987644],[126.85539889242654,36.74843830862911],[126.85552188437238,36.74858124760708],[126.85578822435654,36.74863174933024],[126.85608365361335,36.74844046191148],[126.8562574345038,36.74811727323607],[126.85637805502968,36.74804533974972],[126.85702400403436,36.74800570210611],[126.8581435515987,36.74741298762132],[126.85851091701188,36.74718405107246],[126.85862257793853,36.747014829535836],[126.85898492497415,36.74703921585093],[126.85903268681005,36.74659425925292],[126.85875905083596,36.7463738064786],[126.8584518393093,36.746315253730145],[126.85826319174826,36.74596874633082],[126.85857764543744,36.74523797038609],[126.85879829143049,36.74494382316063],[126.85872697866921,36.74460480153913],[126.85857997169589,36.744557363812774],[126.8583123741098,36.744677132198746],[126.85776261751958,36.744486694067966],[126.8573618351681,36.74449589606629],[126.85703730075072,36.744221240562396],[126.85680042009415,36.744262150843035],[126.8567940212733,36.74408504858685],[126.85733999695913,36.743259715486445],[126.8574300219707,36.74295839269283],[126.85876482819165,36.74212990135943],[126.8591972764392,36.74133607038047],[126.85937065234614,36.74118501664496],[126.85944216718968,36.740880496899145],[126.85936570529115,36.740722837148525],[126.85946986391619,36.74066923772658],[126.85939736670578,36.74025690986855],[126.85927249862443,36.740083006468005],[126.85934634766632,36.739385950341266],[126.8596050738862,36.73893645639639],[126.85983955289244,36.73879847020531],[126.85977643333851,36.73840005384281],[126.8599841420975,36.73793979143482],[126.86154537859379,36.736641122603366],[126.86219346843893,36.73647056405784],[126.86275393084472,36.736522326763186],[126.86271465002247,36.73619055143825],[126.86303894391244,36.736043210136124],[126.8632181295958,36.73560810953918],[126.86302131960655,36.7353461140227],[126.86317160883765,36.73516633459659],[126.86316433424399,36.73465231328246],[126.86297264534419,36.73432089601304],[126.86286255370099,36.7343237034132],[126.8629056824657,36.734029839579655],[126.86371667386764,36.73207459138114],[126.86472910106876,36.732063351443664],[126.86502298344125,36.73199586190261],[126.86504484521082,36.732054052897816],[126.86509612352913,36.73189411940286],[126.86504692752759,36.73193364954263],[126.8649337709772,36.73176073021739],[126.86496922095209,36.731712452855604],[126.86508585773832,36.731791867032435],[126.86573161741802,36.73124595207051],[126.86680663136293,36.72944289663358],[126.8697566044753,36.728731341488405],[126.87013458927156,36.72872135470307],[126.87160946488852,36.728022289365605],[126.87205984763494,36.72824254598272],[126.87251325540446,36.72828816449245],[126.87358166507124,36.72856595130649],[126.87389926864175,36.728783434097636],[126.8748984033108,36.72825572485871],[126.87543345132941,36.72832602133314],[126.87646179674141,36.729105273758016],[126.87766492904862,36.72933179249312],[126.8780285519979,36.729575607850876],[126.87895858359816,36.729543226538446],[126.8797929719903,36.72968390841726],[126.88222519432733,36.73050941427635],[126.88289129549038,36.73086688754588],[126.8848149359087,36.73140487798159],[126.88566402715009,36.73129472679656],[126.88667404941701,36.731454204401544],[126.88705216292095,36.73088252956481],[126.88777634291232,36.73035507167171],[126.88857081959618,36.72949007089042],[126.88870019147534,36.72771920186226],[126.8900549794376,36.72650578232712],[126.8907554853133,36.72573911630419],[126.89161566408465,36.7251602001331],[126.89208079960018,36.72447895761741],[126.89309488351114,36.72397148637105],[126.89444190805503,36.72448792675029],[126.89544151824524,36.7244495158862],[126.89616734459433,36.72397532360796],[126.89714451932178,36.723627984024624],[126.89796274255721,36.72357907568982],[126.89873827691376,36.723057198595455],[126.89826019101562,36.72260023216211],[126.89826635466527,36.72220115151649],[126.89844171053427,36.72184604881194],[126.89836615741676,36.72158292601969],[126.89875227239727,36.720860573865096],[126.89938172719815,36.720248805943896],[126.89954180057481,36.719412489259],[126.89888235841907,36.71868561285135],[126.89905172999632,36.71714576478426],[126.89947008033667,36.71680024877255],[126.90100049632538,36.71691721828893],[126.90230073233997,36.71509953539702],[126.90287096731474,36.71476889401191],[126.90278248202169,36.714197060919545],[126.90298428097853,36.71339342073252],[126.90266198328526,36.71256943198203],[126.90261533895867,36.71166588628511],[126.90325250915136,36.711530460841],[126.90440407539514,36.71044912566167],[126.90488153694179,36.71026378541042],[126.90543856245048,36.709547449289936],[126.90447184917521,36.70934076827398],[126.90320093141486,36.707877316430405],[126.90317869803444,36.70678307772532],[126.90289090599013,36.706573816100324],[126.90289787322055,36.70619248809162],[126.90260774773884,36.70548344252492],[126.90255264908681,36.70483139335148],[126.9020346858087,36.704559695713],[126.90205633761312,36.70366749865437],[126.90194015106944,36.703398686894154],[126.90217022216213,36.70295118427622],[126.90205351047045,36.70272510163127],[126.9022684418192,36.70231039948104],[126.90362456574024,36.70226775105935],[126.90436623169258,36.701832840923046],[126.90684998399031,36.70157631545807],[126.9075041859387,36.70171705691015],[126.9078883679146,36.7021499613729],[126.9085730341488,36.702311510268984],[126.90916582384615,36.7022491814943],[126.90974297045418,36.702438979510816],[126.91022554646456,36.70274212823635],[126.91067849174478,36.703578189933076],[126.91103879826879,36.70384645777933],[126.91163252825062,36.703649733243886],[126.91195858760771,36.703682176460475],[126.91246684756615,36.70387376472047],[126.913289825299,36.70384987589801],[126.91341419695469,36.7036217684889],[126.91385187578587,36.70359647431631],[126.91470577672045,36.70312077549612],[126.91574396677089,36.70335395351717],[126.91739031148688,36.703207748788394],[126.91898998944527,36.702572542741706],[126.91970268291765,36.70240643511913],[126.9202095488408,36.702018371296774],[126.92059599581513,36.701394383809856],[126.92204987710345,36.700702886670314],[126.9230849919232,36.70105532669145],[126.92334549672913,36.70096112253827],[126.924025528495,36.70130237930192],[126.92487752790494,36.701571710392976],[126.92510021779327,36.70198580944634],[126.92617542633367,36.702707669484326],[126.92657485767353,36.70273987460314],[126.92749702162848,36.70375089802437],[126.92819036212728,36.70407384457898],[126.93056531501317,36.70382331161329],[126.93103117718292,36.703496473486084],[126.93328636735886,36.702753173010606],[126.93356333848894,36.70208715045021],[126.93620846093923,36.70261764179621],[126.93704765166947,36.703096412948746],[126.93861326625645,36.70339732453431],[126.93925612317067,36.70298695909709],[126.93988785434055,36.70272219463706],[126.94056256798224,36.701801678886824],[126.9411261922648,36.70146284695752],[126.9418693377684,36.701494309592086],[126.94238221004107,36.7016289125188],[126.94376612830342,36.70293840863824],[126.9448160509044,36.70311583751718],[126.94638174898235,36.7027188987206],[126.94835173181384,36.70335067745351],[126.94988457446608,36.70373281499912],[126.95024229118086,36.703341234533546],[126.95123671363642,36.703193954354155],[126.95236116478819,36.70251051786377],[126.95292592038108,36.70124253923388],[126.95468151394206,36.69890224650905],[126.95615832057523,36.698738454750284],[126.95698243579727,36.69798504949383],[126.95897255909009,36.697300184896335],[126.96034795957351,36.6975879872851],[126.9612893494292,36.69670976357188],[126.96186620219859,36.69670770441239],[126.96488210446589,36.69611627266488],[126.96670547779385,36.69546413568317],[126.96776300462116,36.69476796499063],[126.96951161881263,36.694010240735956],[126.97070100225719,36.692814315853894],[126.97230361452877,36.690916325335316],[126.96769112815521,36.68662531086912],[126.96745206611487,36.683310997856],[126.96780961278226,36.68278114873534],[126.96757640253897,36.681877075667806],[126.96807953737923,36.681073235094885],[126.96773139684765,36.680423875750144],[126.96777551264185,36.680032893572125],[126.96764640249873,36.679329303263316],[126.96870336919591,36.67701796933546],[126.96848024395398,36.67653659071266],[126.96860219781567,36.675662578520644],[126.96891308109696,36.67490550152491],[126.9688460246205,36.67395437412318],[126.97000043687348,36.67272206102923],[126.97033555662124,36.671024123765115],[126.97047866537766,36.670658834251405],[126.9713627109685,36.670112376333805],[126.97142898277241,36.66958215371138],[126.9715820392494,36.66924559387073],[126.9719175196532,36.669019764177186],[126.97220141096905,36.66846047919612],[126.97308128836741,36.66771135990285],[126.97334725782481,36.66758164289344],[126.97363579253373,36.667132193440935],[126.9744487870383,36.666624580068394],[126.97511945298463,36.66524324055452],[126.97490742141703,36.66468242912949],[126.97560474459493,36.663718449947794],[126.97624375583067,36.66333265220106],[126.97665675637371,36.663273832121206],[126.976879299367,36.663129292361084],[126.97691448642047,36.66250784710193],[126.97767355113064,36.66201444481933],[126.97856367226105,36.660916892628755],[126.97819264489961,36.66039562724279],[126.97779994013226,36.659393280728445],[126.97792592998381,36.659336246252074],[126.97780991923277,36.659168216736994],[126.97780787556174,36.658755463349586],[126.97806266288951,36.65826526411698],[126.97804053009526,36.65741449605131],[126.9777943661384,36.65670252100506],[126.97731964373111,36.65585899688068],[126.97746354686343,36.65518486715563],[126.97814155788453,36.65412184850587],[126.97806246653506,36.653631963301954],[126.97992879388521,36.65300569587271],[126.98180923621679,36.652521188312924],[126.98258879976467,36.65182107434366],[126.98290277416,36.651893024060556],[126.98473129821404,36.651736751390594],[126.98525120371899,36.65092049197766],[126.9864844868903,36.6507941801753],[126.98705938079159,36.650806723161494],[126.9875853940172,36.649887308191694],[126.988425156693,36.64905880660522],[126.98924096515913,36.64868084365685],[126.99004380214689,36.64899712062203],[126.9917450980502,36.64857878765112],[126.9928813741826,36.64856256452989],[126.99548621224389,36.6508237544968],[126.99599210163265,36.65090144782731],[126.99671219881039,36.651211836128546],[126.99812130027236,36.651483106841944],[126.99838124662656,36.65183430106397],[126.99971748282616,36.65208879213107],[127.0009024624062,36.6514535782836],[127.00173266248706,36.651570013746976],[127.00205984759435,36.65131691224424],[127.00272001144985,36.65123312922679],[127.00351659702706,36.65192459250791],[127.00368931593344,36.65261287927473],[127.00509737348115,36.652459688678206],[127.0058979873563,36.65294728890056],[127.00619616327823,36.65287598101961],[127.0072461878668,36.65425457983394],[127.00750825524291,36.655178394791385],[127.00865234909226,36.65561419855429],[127.00938982370167,36.65616820125712],[127.00917740893787,36.65714502870256],[127.00838165815365,36.657233999540495],[127.00845646077529,36.65823636514671],[127.00902436251387,36.65875147769327],[127.00940571107401,36.65896892231518],[127.01070020654711,36.660427702750596],[127.01157665219812,36.66084936558274],[127.01115897497858,36.66140655829763],[127.01116670793884,36.66206892179224],[127.01158587489132,36.66245214620431],[127.01182407111554,36.66283682532438],[127.01190367716099,36.66342438052048],[127.01314843276809,36.66402975041402],[127.01381624647496,36.66480995113641],[127.01549101954804,36.66643445204721],[127.0152938724433,36.667004193852684],[127.01505077540176,36.66740299084618],[127.01519135052784,36.668047700626694],[127.0157712107242,36.66867278863953],[127.01539327452603,36.67039352729736],[127.0152549638844,36.6706868030249],[127.01532579316746,36.67091440040993],[127.01523919582695,36.671522491688684],[127.01560016616362,36.67247500212472],[127.01666526444929,36.67326734875382],[127.01850499982784,36.67495590535352],[127.01989532857641,36.67524872937558],[127.01943917805329,36.67659407660901],[127.01953522285089,36.67717426190563],[127.0212092362067,36.67815933847873],[127.02188642389306,36.67871437253145],[127.0218820287516,36.67987055144912],[127.02222217060525,36.6807946128378],[127.02261627032097,36.681319441741664],[127.0235786771974,36.68207354305655],[127.02433416332764,36.68345626378073],[127.02459919959455,36.68356444712488],[127.02496965833204,36.68421460862152],[127.02549758437976,36.684521100714946],[127.02573872245635,36.68532858661974],[127.02602043928745,36.68554451704116],[127.02603693617496,36.68584172193728],[127.02663499462486,36.686662233524636],[127.02736715958825,36.68720157763647],[127.028793926854,36.68885108942818],[127.02947229008976,36.68949828979609],[127.03091124749642,36.69007704998197],[127.03213122381723,36.69039463158942],[127.03467715788673,36.69138235689121],[127.03558881758691,36.691552255758786],[127.03629862108086,36.69188871809981],[127.03657550740722,36.692098490821834],[127.03749461140006,36.69241697901918],[127.0383357757196,36.69294126540402],[127.03890992669437,36.69313499008276],[127.04083649954998,36.694485735996324],[127.04123928176779,36.694820009055746],[127.0415903528867,36.695514619954295],[127.04315473753826,36.69609066716564],[127.04532158876327,36.698109338828345],[127.0460395796593,36.69930789625384],[127.04793904382477,36.7009662788744],[127.04850259651218,36.70155194919395],[127.04855697574423,36.70203333310212],[127.04903691013538,36.70276325769402],[127.04911487017601,36.70335215544997],[127.0504524573619,36.703947207175105],[127.05091888295114,36.704383588129296],[127.05190670866706,36.70479183406038],[127.05284388684808,36.70492359151076],[127.053570506745,36.70492916986537],[127.05442398240054,36.705293773272395],[127.05514902762303,36.705168761245694],[127.05573105020734,36.70543253511008],[127.056215419331,36.705897696952654],[127.05651634477385,36.70605403694931],[127.05689538465411,36.70675073450119],[127.05751057265692,36.70751747839521],[127.05803002521323,36.70773435954065],[127.05845283238855,36.70838027728219],[127.05897591138708,36.708363336558776],[127.06021942526569,36.70860177162642],[127.06034997501989,36.70855523445655],[127.06240256470328,36.708777618877235],[127.06265980580105,36.70873042246248],[127.0628495289942,36.70851984039982],[127.0644860286331,36.70921496299319],[127.06700100646562,36.70914564531691],[127.0679803968023,36.709026019059664],[127.0684154998873,36.70906026057861],[127.0702307985607,36.708563332377345],[127.07084677874275,36.70831808474483],[127.07162733743928,36.70830559971539],[127.0723525709045,36.708164973684255],[127.073452190554,36.70868789089526],[127.07366677069193,36.70918801638248],[127.07464445847347,36.70986796625568],[127.07664801355136,36.70955182036564],[127.07772198161558,36.71007147067911],[127.07843516284402,36.71025332616387],[127.07927802277347,36.71012569520783],[127.07897841885591,36.710892085716466],[127.0789077854049,36.71145070833025],[127.07907221957484,36.712649612465476],[127.0797073434769,36.71328891867688],[127.07936991745181,36.71389325696504],[127.07936695782931,36.71474384641662],[127.07953975223394,36.715916438506774],[127.07938355156017,36.71624663937548],[127.07959551157671,36.71660962317923],[127.07949242409042,36.716964054164],[127.0795339823563,36.71740543165508],[127.07990705490064,36.71825879876626],[127.08156809062011,36.72023812591885],[127.08179577960098,36.720896211225586],[127.08280743186468,36.721614157701886],[127.08468571864664,36.72236430157936],[127.08475678241713,36.723134942058955],[127.0843420690749,36.72455302153778],[127.08307301177184,36.72603548787964],[127.08289003986822,36.72678854167034],[127.08279134538753,36.72755955046369],[127.08333777277527,36.7281995673097],[127.08070143255692,36.72922014140752],[127.0807858017113,36.72986697711466],[127.08047916675136,36.73029887161737],[127.08071231817178,36.730925667102326],[127.08146698103337,36.73222332905735],[127.08151929540827,36.73268592640774],[127.08130341426244,36.73304075912493],[127.08196571630391,36.73380829032959],[127.08200739962426,36.73430343297852],[127.08242021273469,36.734986748962655],[127.08327865083417,36.73619880254482],[127.08457973805096,36.73742228308392],[127.08505982897971,36.738408749264096],[127.08539058715063,36.73874968813805],[127.08572692903519,36.7388687490304],[127.08632841429737,36.73930948052159],[127.08662638631976,36.7396774985914],[127.08737860446426,36.74004246894554],[127.08572704307075,36.74115602955853],[127.08560816549652,36.7415637524122],[127.08570461882917,36.74218466844339],[127.08553508214914,36.74248588756313],[127.08630387142249,36.744548759800935],[127.08737610795852,36.74481761167746],[127.08750730183982,36.74491410785103],[127.08827776441473,36.74499555047513],[127.08857315549936,36.746005626420484],[127.08837456420011,36.74701192942524],[127.08794045986916,36.74786791427807],[127.08765460234095,36.74805340943587],[127.087647592279,36.74825310052551],[127.08674203993209,36.74875598924702],[127.08653106400877,36.749222269701924],[127.08685133817706,36.749279809888364],[127.08779141126635,36.74999967092824],[127.08824181580498,36.75007358623264],[127.08892447671019,36.75052348968289],[127.08948872776645,36.75031792630818],[127.09060318287541,36.74942294977419],[127.09151931272088,36.74886517449461],[127.09240943709494,36.74919589105576],[127.09324373087878,36.749671670133395],[127.09386898699285,36.7499189193783],[127.09481923711758,36.75053161050305],[127.09490254139959,36.750755174917465],[127.09524912913825,36.75115143717719],[127.09611291014967,36.75144398338037],[127.09677282771433,36.752443152822536],[127.09680079495479,36.75269261157988],[127.0965183815486,36.7531156852045],[127.09711292691003,36.753390725568714],[127.09720888975667,36.753998141825306],[127.09759076581268,36.754373472560694],[127.09839021003977,36.75562676655054],[127.09679614090246,36.75600098799679],[127.09630811465924,36.75632152536638],[127.09605954080686,36.757145996126],[127.09598720216381,36.75813694487566],[127.09584119366662,36.75903808183835],[127.09573384898098,36.75917349796194],[127.09339521334171,36.759210648813806],[127.09267370924738,36.75906047558573],[127.09212843304853,36.75927024830417],[127.09192053037181,36.75946873213643],[127.09179574220501,36.75990451423289],[127.09179772772004,36.760145921066446],[127.0919906475612,36.76050817435316],[127.0920827919418,36.76102747630056],[127.09225680012842,36.76113458625245],[127.0929033895371,36.76103990639963],[127.09390572105849,36.76068910508404],[127.09475911756645,36.76011726078754],[127.09517948650152,36.76012832038944],[127.09528441576909,36.76056353799135],[127.09551747968489,36.76069689030977],[127.09716321260058,36.760329482815294],[127.09768680682829,36.76032197911183],[127.09835412999267,36.76020668874557],[127.09941319860317,36.75973377460204],[127.10034847965746,36.75953225287223],[127.10079760176943,36.75918399432695],[127.1015799557296,36.75901292071282],[127.10221198378075,36.758707577040845],[127.10296193641133,36.75899156516587],[127.1034480103064,36.75898164366943],[127.10430977568471,36.75883255304074],[127.10502686635898,36.758464826611565],[127.1054247859775,36.75845336935018],[127.10606229206722,36.7597221078669],[127.10598395182045,36.75989410921706],[127.10604544254622,36.759900253536976],[127.10689318986556,36.75971575104611],[127.10740063438658,36.75935523427315],[127.10772854988677,36.759226047468616],[127.10777629082008,36.75895806875491],[127.10814545796926,36.75885222610063],[127.11003538809618,36.759391743371864],[127.11042734970916,36.760128981330816],[127.11116349534032,36.76020233076701],[127.11157794587469,36.76049806242632],[127.11183870745604,36.761011526344916],[127.11267413379765,36.76201500144092],[127.11351563202251,36.761989115146605],[127.11443265586851,36.76223505452988],[127.11470910524427,36.76253090580368],[127.11530710203911,36.76249331927442],[127.11558285369003,36.76230798416856],[127.11755881149529,36.7627073284468],[127.11860712515728,36.763525357530455],[127.11872489220924,36.764461307246265],[127.11890005176936,36.76488236774219],[127.11919134419647,36.76516290129211],[127.11951375904323,36.76677729068036],[127.11945597881403,36.767034768425766],[127.11873034220588,36.76804175563463],[127.11942889906211,36.76834528144955],[127.12019730213338,36.77179894958165],[127.11938331605971,36.772847127301176],[127.11938526387904,36.77411963660488],[127.11970230093817,36.77458943916193],[127.11955964959279,36.77594010038776],[127.11924221621206,36.77656910059832],[127.11875068116555,36.776918856750285],[127.11841434490995,36.777307411361264],[127.11836121991853,36.777774949387194],[127.11749325135177,36.77804939561719],[127.11781960722263,36.77851476877302],[127.11786351888831,36.77884071223779],[127.11765885109028,36.77929028520717],[127.11796201910418,36.77981903067619],[127.11792916290405,36.77998936261728],[127.11758583660384,36.780463987142404],[127.11732218582604,36.78069848713284],[127.11673941597799,36.78083856286605],[127.11531807216966,36.780971835186726],[127.11437668416416,36.7811556756012],[127.1134226468287,36.781780683982575],[127.11312268122218,36.78236977787293],[127.11296193773948,36.78249475045501],[127.11271579067456,36.782553028085594],[127.1126380250109,36.78271821628763],[127.11284539014949,36.78302473762875],[127.11295413163025,36.78365793518033],[127.11269262959394,36.78365955767708],[127.11249460060907,36.783742248240415],[127.11289438108139,36.7847208478335],[127.11284642400976,36.784782914813626],[127.11324108142404,36.78483997527126],[127.1131745815226,36.786336506165505],[127.11365293186368,36.787166966529135],[127.11303737326533,36.78743959109369],[127.11274287840212,36.788086852281154],[127.11274704720861,36.788436171683486],[127.11234886923893,36.78940342401852],[127.1114367645492,36.79003908200993],[127.11092413567926,36.791051633645814],[127.11088238718939,36.79117592591678],[127.11128111280543,36.79274897815311],[127.110890328967,36.79300291876779],[127.11035297880301,36.79307266236558],[127.11053584445743,36.793690743724746],[127.11079774223498,36.79414142649628],[127.11099511186538,36.795230708684116],[127.11073379288528,36.79662184394961],[127.11109335238905,36.79725417934009],[127.1101523859584,36.79770144152403],[127.1097817350621,36.79772804805549],[127.10934025045903,36.7979082265174],[127.10825719000573,36.797275483894126],[127.10740883436266,36.79704568537942],[127.10671955038006,36.79697707641222],[127.10616257078104,36.79903103393813],[127.10550454070072,36.79943200652988],[127.10541965143649,36.79976275005784],[127.10532603056508,36.799812267130775],[127.10375387971352,36.79952550070113],[127.10380335070768,36.799113977087984],[127.10356492000737,36.79897880175832],[127.10286431114014,36.79878593211389],[127.10227570962248,36.79789984388119],[127.10148298427701,36.79742838762097],[127.10119839763794,36.79714555114204],[127.10109159598042,36.79679200067982],[127.10115165821857,36.79645835256725],[127.10107221443724,36.79650037488826],[127.10124112387182,36.79584264267082],[127.100515995943,36.79513239399722],[127.10049036870177,36.794504126306535],[127.09893211535508,36.79424534429719],[127.09954157477313,36.79336837540173],[127.09973373496997,36.79272648454415],[127.09799953993276,36.79243936537581],[127.09782949417614,36.793102243161954],[127.09738429991205,36.79352587118749],[127.09728032936691,36.7937727855717],[127.09727216323806,36.793971394586464],[127.09771208482681,36.79446887005332],[127.09686937533199,36.79488736020932],[127.09581161762311,36.794587360615914],[127.09438337402999,36.79583706665078],[127.09417313853953,36.79726397919717],[127.09609951083463,36.79925996207369],[127.09581273467214,36.799895922111276],[127.09626858691244,36.80001879252617],[127.09674298758101,36.801310878898704],[127.09645918012636,36.802140726977775],[127.09635773346484,36.803596867855305],[127.09610054586314,36.80398285271467],[127.09606537520894,36.804466035528186],[127.09619687163793,36.80497671379582],[127.09736456002157,36.80577323823528],[127.09787116863627,36.806003591155054],[127.09802158469716,36.80687678374022],[127.09783127078256,36.80862084641654],[127.09836742424575,36.80962350159118],[127.09852158099267,36.81051224334032],[127.09828285109066,36.81154005786877],[127.0983712372231,36.811875574391635],[127.09800486473979,36.81287681897341],[127.0975096980672,36.81371378693404],[127.09667593365113,36.81447456323761],[127.09661531240398,36.81501677078718],[127.09695630597643,36.815703616211636],[127.09824886789447,36.816737126410715],[127.09866057339208,36.816956346519916],[127.09951560251218,36.818548370333666],[127.10033948707822,36.81947964499813],[127.10153346375064,36.821946765404306],[127.10169042719633,36.82377933060522],[127.10204613097761,36.82438775285087],[127.1021515955375,36.8252025392322],[127.10203317250378,36.825217173938775],[127.10126454012257,36.82611484250805],[127.10092345344071,36.826876890437994],[127.10063976308801,36.82724161463205],[127.10106148295695,36.82751818027163],[127.10176516031628,36.82861860664793],[127.10090389528837,36.831003258050785],[127.10089030916455,36.83165935268547],[127.10128269995013,36.83198468181214],[127.1025197345608,36.83238626585398],[127.10255698656405,36.83304674033717],[127.1030819853319,36.83392870522625],[127.1056295214271,36.83649707862021],[127.1053897962805,36.83666938999785],[127.10530457426805,36.83719946407528],[127.1053489626301,36.83786756564049],[127.10490009565459,36.838330075069656],[127.10444082549219,36.838312397328075],[127.10399057918457,36.83756447569898],[127.10282131665072,36.83745532874256],[127.10225306813854,36.83763874427963],[127.10160376857253,36.8376867970079],[127.10116553015044,36.83793395074895],[127.0999412746696,36.83740108799619],[127.09901966746237,36.837607188136374],[127.09821519291573,36.83797128761497],[127.09825632118883,36.8386006177294],[127.09843174351352,36.83888072465546],[127.09826733798418,36.83942530442732],[127.09823425985432,36.8398902726446],[127.09830575581674,36.84009166444567],[127.09819598254295,36.84019345066174],[127.0987902592743,36.84058651233378],[127.09921964560486,36.84122317325111],[127.0997952001427,36.84172893769574],[127.10080414780697,36.84220291492054],[127.10169628855628,36.84230141340117],[127.10191723443052,36.84244302471488],[127.1021027090442,36.84276384088157],[127.10191170710787,36.84329124467201],[127.10191503407616,36.844317646189985],[127.1026658038841,36.84466482312247],[127.10380060498625,36.844567102448664],[127.10456096298623,36.84516525605653],[127.10451921269508,36.845203413917446],[127.1053171019544,36.84609665344365],[127.105375835173,36.84649868156122],[127.10582950216504,36.846696048728475],[127.10581095447169,36.847072336953154],[127.10694866929413,36.84859361207072],[127.1074761795606,36.84906314966599],[127.10773826089992,36.85002296433128],[127.10760753945918,36.850467978433954],[127.1077619606229,36.851100449162374],[127.10821613054871,36.85159836085492],[127.10853139062738,36.85179479263696],[127.10919098495383,36.85244571453034],[127.11016498268204,36.85365177505735],[127.11055555139528,36.85487326330014],[127.1104352302589,36.85518865918621],[127.1101065116934,36.85564373414496],[127.10970124289331,36.85678063848331],[127.10970066981601,36.85693526203143],[127.1098622763614,36.85717604755219],[127.1086643630855,36.85805053801504],[127.10846043015079,36.85857095276654],[127.1071362194297,36.85957146981401],[127.10720254498541,36.860066292139074],[127.10679197694772,36.860209734097054],[127.10637383596388,36.86014627029994],[127.10569082359547,36.85990014039826],[127.10498263773418,36.86054234963109],[127.10499772412207,36.860769294970034],[127.10452918530471,36.86098899267534],[127.10457533997781,36.861063779743226],[127.10337942947285,36.86087627460931],[127.1027757248409,36.86132654533909],[127.10275854842665,36.86152523416748],[127.10127335326126,36.86116933094899],[127.09943159641296,36.86103125696375],[127.0992029685221,36.86205574846961],[127.09869403638321,36.862065328338375],[127.09819786470707,36.86197689400524],[127.0966378602526,36.862145766481255],[127.09626751294526,36.861746281177766],[127.09543311193109,36.86188917370738],[127.09485829182005,36.86176496012418],[127.09431466014486,36.86194763336718],[127.09357009939056,36.861893054936154],[127.09341355268027,36.86172759066746],[127.09240991450766,36.86142691029028],[127.09178820240444,36.86101376255404],[127.09133263769333,36.86095120269548],[127.09119194828956,36.86106880263676],[127.09096754304525,36.86088379611712],[127.09002784592477,36.861011769448616],[127.08913357043443,36.86125650309891],[127.08891778799209,36.86161766875737],[127.08852979318631,36.86189672637965],[127.08742030632796,36.861862398528864],[127.08721690257477,36.86298554632621],[127.0875375571375,36.86333830170219],[127.08766463019279,36.86326220257615],[127.08764770654375,36.86395162424394],[127.08784836580699,36.86457731659743],[127.08869004266072,36.86604279374346],[127.08864561388292,36.866303245727615],[127.08876188938883,36.866607837454595],[127.08870564540287,36.867523418204655],[127.08857408427276,36.868316118378566],[127.0883695026202,36.86848853832814],[127.08825458120006,36.86911264037379],[127.08808604276162,36.86938444581782],[127.08770767351803,36.87069197248002],[127.0879635681799,36.87190957124525],[127.08767445769189,36.87260387767368],[127.08737656196823,36.872896840962525],[127.08755324782177,36.873640502521056],[127.08719124320811,36.87404188620171],[127.08760355033499,36.87464932287734],[127.08717136111625,36.8750083702967],[127.08688669262276,36.87508560039563],[127.0864849244635,36.87544049795228],[127.08631391308141,36.87583812607138],[127.08674926725102,36.87656295301682],[127.08705843823375,36.87755312311344],[127.08738093558212,36.87773646156589],[127.08751633510452,36.87803135399509],[127.08800402780614,36.87812011904548],[127.08818639813795,36.87857743540762],[127.08791414931412,36.879284739490075],[127.08876678783083,36.879700496181655],[127.08870312033852,36.880488159841796],[127.08877377985227,36.88065855753022],[127.08945879459658,36.88092334479988],[127.08983721015177,36.88129534040404],[127.08990579779363,36.88187415222574],[127.09016672664889,36.88220244258943],[127.09103795353185,36.882255638786184],[127.09086026590066,36.88319162919728],[127.09057447826987,36.88389087650525],[127.0905691825241,36.88458553500848],[127.09038473488647,36.88509038428787],[127.09038602001645,36.885452097106786],[127.09023852126315,36.88542587732279],[127.09025999712642,36.88557516362801],[127.08991516241927,36.88612528705858],[127.08942659165062,36.886617510122015],[127.08919378393018,36.886670675554775],[127.08908255602879,36.88706008314498],[127.08857411233477,36.887439824420014],[127.08843165332823,36.887891188275255],[127.08829969447743,36.88907887195297],[127.08834216938499,36.88930970640709],[127.08815124884103,36.88971724990613],[127.08759118236117,36.88964058598203],[127.08753698580054,36.88976990424081],[127.08831578736205,36.890016714897975],[127.08882046925619,36.89059439531243],[127.09045184243364,36.89104014383909],[127.09191315084614,36.892371324173034],[127.09175410260312,36.89276058949586],[127.09197687154553,36.89319696370025],[127.09223624274154,36.89338024680259],[127.09295175645114,36.893611198504075],[127.09177996993584,36.89433824767107],[127.09121590255842,36.89548526735133],[127.09118450812629,36.895694002421564],[127.09045197813924,36.8969476751739],[127.08942423099543,36.899838254065514],[127.08901934116855,36.900267255947696],[127.08846528115042,36.900556858593795],[127.08812183381046,36.90090681272441],[127.08709773493516,36.901403181528394],[127.0864763461764,36.90220701347073],[127.08606090365045,36.90236078228941],[127.08498830240265,36.901890370072124],[127.084708821992,36.901981431695745],[127.0846881806099,36.90333874119922],[127.08460119424045,36.90341400573985],[127.0847988603377,36.90404417987691],[127.0860641361658,36.90463969061084],[127.08650127036215,36.90563003760935],[127.08650386490362,36.90584565742281],[127.08694245912505,36.905990706648424],[127.08720422056014,36.90672845676034],[127.08717916780344,36.90695186274462],[127.08749047168118,36.907348603284184],[127.08767895290288,36.907343250294915],[127.08802429957765,36.907596151331944],[127.08840689584648,36.907664462396575],[127.0889692323312,36.908119586400936],[127.09056197796376,36.90862749149326],[127.09078550939856,36.90859583105811],[127.09094857682435,36.90875446194623],[127.09183186646334,36.90861579186023],[127.0923350572379,36.90882131586957],[127.09284899183415,36.908719189702126],[127.09266768699574,36.908233506729275],[127.09274281368114,36.90824501798998],[127.09339198054123,36.909192058966944],[127.09334628067325,36.91038240651279],[127.09370787330047,36.9108306421695],[127.09407924015811,36.91110660872622],[127.09402031347723,36.91138282983834],[127.09413229922029,36.91174245655074],[127.09393222527139,36.912555414395264],[127.09386031019322,36.91335807732438],[127.09365696813394,36.91368993581642],[127.09347898646793,36.9137519199747],[127.0931103704284,36.91371862411277],[127.09268370416703,36.91401547514214],[127.09235937039129,36.91451629523071],[127.09202934334051,36.91477883631769],[127.09195092132617,36.9149662054948],[127.0919433932608,36.915538059163104],[127.09143302945287,36.916418358748935],[127.0910495070372,36.917334416882866],[127.09057256935695,36.9177368846681],[127.08964886718204,36.91824990505188],[127.08897629120983,36.91847835077258],[127.08901271104375,36.91881565470152],[127.08932321108881,36.91908695944138],[127.08963637840802,36.919576630503414],[127.08964041222099,36.919882761990536],[127.08939172076485,36.920687139631205],[127.08898587709791,36.92088776244428],[127.08887879872682,36.921032780221836],[127.08893083193196,36.921067235165445],[127.08833829025556,36.92167930035617],[127.08838563900565,36.92184754398317],[127.08765220618025,36.922702345209835],[127.08751972663038,36.923070263850974],[127.08773063629947,36.9232743428891],[127.08785250231293,36.92353692130358],[127.0875672020909,36.92394980930096],[127.08749680463158,36.924265699051865],[127.08725842365803,36.92431646807811],[127.08684255687369,36.92459884322715],[127.08604948132707,36.924627246992195],[127.08587778931084,36.92503591847113],[127.08523090433926,36.92506485156956],[127.0850191654807,36.92530371684704],[127.08463475039049,36.92545734112827],[127.08399640963944,36.926074958873805],[127.08386174621533,36.92635364204443],[127.08308214833637,36.927135764324255],[127.08285045738104,36.92747447020401],[127.08236345098369,36.92782801025466],[127.082120951619,36.928180970001264],[127.08210731093672,36.9283698995914],[127.0816351097054,36.9290013218573],[127.08146842044412,36.92907371037741],[127.0803624274917,36.93025765558284],[127.08007923710666,36.93117052702352],[127.08017692165937,36.93120271142625],[127.07998863114796,36.9313421990799],[127.08005820736584,36.93158040175232],[127.08035822694927,36.93186744873054],[127.08037126993841,36.93200887498298],[127.07998384333631,36.93216855083403],[127.07994465174643,36.93237979963691],[127.07967592109527,36.932583343894116],[127.07984808865895,36.93304973939977],[127.07941185723033,36.933743872254894],[127.07901999048988,36.933863629350775],[127.07812158010061,36.933899508553296],[127.0773586371411,36.9344764603031],[127.07700829488007,36.93485733791841],[127.07605039813765,36.935129393746614],[127.07498310219732,36.935711681415235],[127.07473883804559,36.93593787046354],[127.07487255295713,36.93660686129015],[127.0747373707503,36.936772690463194],[127.07468771523315,36.93719956349905],[127.07445686797764,36.937529413890324],[127.07458066428067,36.93786235193721],[127.07455503140622,36.938033221053296],[127.07408082282882,36.938629199567124],[127.0735846642449,36.938966661965424],[127.07359253423162,36.93938304974436],[127.0737769588039,36.93953887749048],[127.0737110511599,36.93991806642609],[127.07276432928842,36.94056673390981],[127.07153183016706,36.94067720109027],[127.06981182869075,36.939956390068936],[127.0689646924002,36.93990630468164],[127.06855049953528,36.94001969713113]]]}}
