{"type":"Feature","bbox":[127.19636742297116,36.23166134127999,127.29239471470763,36.350248887467586],"properties":{"regionCode":"44250","version":"vworld-20260909-3f8952dfda77-p2","name":"충청남도 계룡시","attribution":"국토교통부/K-Geo플랫폼 · VWorld 법정구역정보, CC BY 2.0 KR; 두꺼비집 가공"},"geometry":{"type":"Polygon","coordinates":[[[127.21866999816608,36.350115185247475],[127.21749817693016,36.350248887467586],[127.21421296436905,36.3498502995471],[127.21316193825527,36.349604144223605],[127.212202637162,36.34949462678303],[127.20842251095196,36.348408732445726],[127.20792670680835,36.34834380273754],[127.20701359873418,36.3479006936066],[127.20578454719693,36.34705661794445],[127.20399452611956,36.3460447696537],[127.20585133454102,36.34321672666737],[127.20441535691381,36.34162035594463],[127.20396228891293,36.341328755838454],[127.20306034566909,36.341223032323256],[127.20270576535788,36.34107078053452],[127.20098170586911,36.33959155546148],[127.19981705707113,36.33873892761169],[127.19970723962527,36.33807452895426],[127.19951278369926,36.337653336694785],[127.19830225518025,36.33706194755683],[127.19813104231724,36.336271658134294],[127.19747634804955,36.33600154037068],[127.19734426891382,36.335610170226076],[127.19684133102578,36.335300601331916],[127.19674700620698,36.33508923217695],[127.19640197035591,36.334767056344845],[127.19762873940729,36.33311334987434],[127.19836316061442,36.3319536698829],[127.19865109512439,36.330602054530715],[127.19893885317998,36.329828875401],[127.19898478522539,36.329392493814716],[127.19892678049263,36.32807660262123],[127.19840381216163,36.327788330830586],[127.19830360313472,36.3275325991853],[127.1985959345862,36.326968847443176],[127.19923556434458,36.3268144992011],[127.19960976291617,36.326297614648226],[127.20044873254955,36.32555086729509],[127.2007001432818,36.324604436586576],[127.20108874866344,36.32445294928235],[127.20258479396223,36.32343648367936],[127.20273309479444,36.32277214746209],[127.2024783041256,36.32187357038258],[127.20255065552143,36.32086301157255],[127.20281213560592,36.32050137173459],[127.20237656226548,36.31999880504666],[127.20204493638381,36.31929210897398],[127.20210250207637,36.317777105385126],[127.20266572541077,36.31675999136106],[127.20261445624773,36.31650377333067],[127.20292104022185,36.31600185145942],[127.20315846838558,36.3153265669955],[127.20331366818955,36.31409844988843],[127.20316673430479,36.313118594234],[127.20371683209233,36.31115942049509],[127.20367239635273,36.31073762763949],[127.20377921939912,36.310142094438056],[127.20366912274955,36.309698745156645],[127.20376507636604,36.309085168460506],[127.20398319746695,36.308549958894275],[127.2039879394099,36.30805866326502],[127.20416421667646,36.307821301054595],[127.20427178672612,36.30675150787527],[127.20476606301355,36.30636452260925],[127.20469960558718,36.30567919717558],[127.20520594837805,36.30502550335895],[127.20554969257101,36.303357304090376],[127.20545824334063,36.30299905003636],[127.20559277854605,36.30264748669417],[127.20554154178357,36.302151952411556],[127.20562391096433,36.30162810861256],[127.20489833856178,36.30077556583224],[127.20460740906796,36.30010731248296],[127.20416572124404,36.29847587971932],[127.20407808206348,36.29744643107246],[127.20230801659432,36.29464713065571],[127.20147337736266,36.29421607056555],[127.20213699072482,36.292186966805964],[127.20214252584739,36.29146614711762],[127.202764202267,36.29059077570918],[127.2029284329142,36.289327285246614],[127.20281844256309,36.288491696031855],[127.20216101882376,36.28731991145092],[127.20200377161015,36.28610380454735],[127.20187689692757,36.285841817724794],[127.20195552413098,36.285618520065825],[127.20169491473254,36.28521068262638],[127.2013859569248,36.284454034042525],[127.20124730235993,36.28430627383627],[127.20074777928058,36.28420611963111],[127.19982855640467,36.282790071445476],[127.19973492912848,36.2817883246516],[127.19885821842038,36.28133242682471],[127.19808358594899,36.27967069253535],[127.19749821697297,36.279218862761304],[127.19746586923151,36.277525997177044],[127.19736211386007,36.27695943039217],[127.19691948128096,36.27646524156389],[127.1972233296217,36.27576648134612],[127.1972106869528,36.27478176841375],[127.19749033498589,36.27430790240154],[127.19764782194984,36.2737400126677],[127.19855257378211,36.27276821207428],[127.19868384772872,36.27231392571027],[127.19874749809726,36.271297525722034],[127.19928397209783,36.27070005382908],[127.19975297158051,36.27033988554102],[127.19973968924893,36.270117749967355],[127.19970963956025,36.269680586876916],[127.19922337739371,36.26882981636813],[127.19913455855738,36.268251134959655],[127.19809542166308,36.26769618353918],[127.19778648313982,36.26724834978077],[127.1977713969647,36.26677822708438],[127.19818872810816,36.26598567128799],[127.19813272257451,36.265573919842126],[127.19884101620997,36.26516749045054],[127.19903491150107,36.264963501400985],[127.19885340184058,36.263986284617836],[127.19859181826897,36.263647239436416],[127.19866171104452,36.26334045008362],[127.19829263577644,36.262779708835865],[127.19767518472709,36.2623037283875],[127.19719491262447,36.26203830134554],[127.19637880990744,36.26132499345799],[127.19643502114239,36.26074949568348],[127.19636742297116,36.260548640599104],[127.197107987665,36.26020155652465],[127.19810552709612,36.259474375276604],[127.19916373319327,36.258498358460336],[127.20013335659381,36.25788983858767],[127.20031284039858,36.25762263750434],[127.2009712890508,36.255858898748784],[127.20127123674209,36.254114807424514],[127.20153848067262,36.25308682659556],[127.20127984580678,36.25223920661742],[127.20129898801696,36.251798972145785],[127.20158206720626,36.2510806109733],[127.20260556897482,36.25119791307173],[127.20513971154631,36.25207231128297],[127.20573943729232,36.252142563888825],[127.2061577968668,36.25197457095139],[127.20697142883931,36.25240258292009],[127.2077770264264,36.2522249895071],[127.20803697141058,36.25240245119054],[127.20942224091893,36.25292708394956],[127.20935253372078,36.2533089024911],[127.2084882638907,36.25443321007536],[127.20969882291247,36.25516589043279],[127.2097969501482,36.25551011945621],[127.21025725151864,36.25613114266635],[127.2101212611746,36.25622026520917],[127.21031691314374,36.25661555415448],[127.21051203789663,36.2566787727646],[127.21109014266747,36.25716234759278],[127.21154922127978,36.25782221423303],[127.21186310370103,36.25765484208836],[127.21288485362157,36.258030952614625],[127.21400476131633,36.25825214825982],[127.21430629049671,36.25842600828196],[127.21496378741143,36.25949257298879],[127.2158913401991,36.25947441184266],[127.2171536107058,36.26049887601599],[127.21809846262943,36.26080859881523],[127.21904536510716,36.26087297247221],[127.21938312543146,36.26163959387672],[127.21980543397741,36.26180827250229],[127.2201010772301,36.26218028496073],[127.22124523385958,36.26214745559266],[127.22211592547502,36.26129982857221],[127.22226243790489,36.26092637645937],[127.22298365352113,36.26041476477119],[127.2232268649377,36.260043520535184],[127.22360514352846,36.25983121423575],[127.22370773780297,36.25983885300004],[127.2238571395805,36.259690952191555],[127.22474451506366,36.25972112772613],[127.22491852271918,36.259497084822584],[127.22502215591436,36.259471197927894],[127.22499318616974,36.25916442508689],[127.224740396602,36.25901664179883],[127.22474789386982,36.25880056960799],[127.22559944742471,36.25869229512441],[127.22635482088761,36.25835778082397],[127.22674825930494,36.258315685210256],[127.22720281988818,36.257763140721686],[127.22775201270142,36.25747814903101],[127.22789009810569,36.25711810547477],[127.22789776110415,36.255717925078606],[127.22822938201476,36.25481121734771],[127.22844873208669,36.25481065707131],[127.22941980326956,36.255191516987146],[127.22955372551588,36.255532805163405],[127.230216954894,36.2559192009442],[127.23057727810998,36.25571387841245],[127.23061992020516,36.25485398314596],[127.2315349977537,36.25457787879533],[127.23275547315114,36.25490901858415],[127.23536469753303,36.25530171184428],[127.23593430047858,36.25529394787299],[127.23639208233111,36.25546912137614],[127.23727124516734,36.25473585346166],[127.23721238003262,36.25451540440706],[127.23729109147018,36.25416019945717],[127.23710430417553,36.253795929424896],[127.23717627458988,36.253370869963],[127.23747203105242,36.253083446061126],[127.23740944097138,36.25263780787045],[127.23756819022636,36.25230440655603],[127.23755235710757,36.25188984652509],[127.23791233464925,36.250858167499636],[127.237827370429,36.250250819121824],[127.23791297990907,36.24964634896468],[127.2377085702826,36.249275897818265],[127.23778172560539,36.24891434752261],[127.23821692390968,36.24831272896614],[127.23830434204235,36.247896649241284],[127.2385514802727,36.2475660721916],[127.2382061306683,36.247197872280914],[127.2381236582574,36.24675217428764],[127.23792184961452,36.246386024037555],[127.23775866156859,36.2463497485031],[127.23763059457222,36.24589424402346],[127.23757230283167,36.24488269458972],[127.23924701963695,36.24407420176208],[127.23947090309231,36.243714076616214],[127.23997330784731,36.243569072678554],[127.2399849626922,36.24340312175699],[127.24020200045014,36.24305110873345],[127.24012789575714,36.24277590861123],[127.24021222802921,36.24202010179871],[127.24016052163533,36.241676807141374],[127.23977613774453,36.241172159213626],[127.23961096153606,36.24040012440999],[127.23977447099531,36.23958583651238],[127.2402251486848,36.238915732241956],[127.23996070024494,36.23863846133607],[127.23994267427462,36.23825989681033],[127.23973592745763,36.237852459762045],[127.23882796900592,36.23721527567679],[127.23904871822387,36.23587341453834],[127.2410621964158,36.23612573499287],[127.24180574339456,36.23567902869796],[127.24220281941757,36.23499822011911],[127.24245516202213,36.2348589574365],[127.2429311525304,36.233679131612675],[127.24348808407846,36.23332901198697],[127.2438464166058,36.2332547954107],[127.24433350710856,36.23300116733103],[127.24552253152311,36.23210502865783],[127.24603917038151,36.23195036619422],[127.24642503300463,36.23166134127999],[127.24669143707617,36.2318883009021],[127.24748102109486,36.231943599900276],[127.24805048369163,36.232161613959256],[127.24866890046879,36.23264712445855],[127.24882945454897,36.23312248639881],[127.24940152900739,36.23339280419769],[127.24953224787045,36.233566555428226],[127.2504871915119,36.233578664315964],[127.25118413418926,36.23399728393125],[127.25195735980313,36.233836877882084],[127.25263604415194,36.23396939089824],[127.25287733914911,36.2342919507603],[127.25363284459979,36.2344887390712],[127.25416622218127,36.234450800567465],[127.25501505505068,36.234621249882515],[127.25562140784537,36.23457349750073],[127.25597959085127,36.23463008718902],[127.2562663699858,36.23451530674869],[127.25638799888772,36.23436462126238],[127.25712347052774,36.23418613151519],[127.25791622710588,36.23428353753274],[127.25832554055798,36.234580322595576],[127.2584562946862,36.23497253835349],[127.25877758037825,36.23514697417853],[127.2589879944227,36.23516180508658],[127.25976808431568,36.23557101450624],[127.26010853995518,36.23527222577614],[127.26067213925624,36.2358802029622],[127.2611405503042,36.23610187969447],[127.26183038339944,36.23627825600031],[127.26281115974618,36.23694937915904],[127.26374274274383,36.237764961643954],[127.26374785162085,36.23860135440416],[127.26364989660352,36.23917367788435],[127.26398333176323,36.23996894950945],[127.26587936860706,36.24209952965073],[127.2663044693894,36.24220655862226],[127.26647886279883,36.242536186917825],[127.26686176307224,36.24272657049374],[127.2674981143184,36.242536790878994],[127.2676464072236,36.24269970337562],[127.26810834540727,36.24285210064103],[127.26863192003937,36.242837939354374],[127.26913238093127,36.24297882938417],[127.27017874222545,36.24356525574342],[127.27082492248373,36.24343860064979],[127.27138192027348,36.243550700112365],[127.27192856296499,36.243330844331986],[127.27219190419778,36.24278527384449],[127.2727410928827,36.24264060709882],[127.27296435514737,36.242767896102],[127.27385479556537,36.24403907019773],[127.27361235232414,36.24435616473818],[127.27352676829955,36.2452844821596],[127.27462923331423,36.24561562637421],[127.27586047751633,36.24566454631397],[127.27639120172192,36.24547298890373],[127.27711957452144,36.24535377228533],[127.27726473860875,36.24542328750081],[127.27779529524948,36.24537564242236],[127.27820402089898,36.24551784229369],[127.2784005821798,36.24545410596433],[127.2785335957503,36.24529566049842],[127.27897757444674,36.245726721814655],[127.27925188315119,36.245525184324485],[127.28023511376685,36.24524000421865],[127.28083190413918,36.24533491307539],[127.28133728888636,36.24553257889615],[127.28142513706864,36.24562311494859],[127.2810970314813,36.24593389963349],[127.28110636281096,36.246289143921075],[127.28098197189146,36.246608733964926],[127.28081426776119,36.246734723887286],[127.28043899008718,36.24671597216713],[127.28014512423337,36.24680477659188],[127.2798874189947,36.247135896500396],[127.28042855049975,36.24816725835692],[127.28096138230786,36.248497255821626],[127.28115248434797,36.24880776390422],[127.28109568328681,36.24894116222717],[127.2803845652261,36.24928359828599],[127.2803149023222,36.25016298571269],[127.2801751165959,36.2504891367876],[127.27991087433152,36.25076950682261],[127.27990112273388,36.251508112666095],[127.27954839828617,36.252330869028256],[127.27909727581792,36.25259726292717],[127.27902626441586,36.25278238675153],[127.27912582917912,36.253110512785426],[127.28017932405447,36.253560078593466],[127.2808131665297,36.25397529122858],[127.28184176995742,36.255000994349835],[127.28238721988296,36.25576979626757],[127.28251297427721,36.2564595225151],[127.28274840827615,36.25620970605498],[127.28247956631492,36.25669124222248],[127.28223752205328,36.2569371387624],[127.28214075064572,36.257254725960806],[127.28215620849245,36.25773447258853],[127.28246851603338,36.25832177919436],[127.28296681442778,36.2587961369479],[127.2845504660026,36.25989566831062],[127.2847719887878,36.25998433368521],[127.28489593679426,36.25971927999774],[127.2855587556581,36.26013501152917],[127.28642848824572,36.260428416615696],[127.28663371586792,36.260784072374506],[127.28720604382333,36.26116698263122],[127.28926699759252,36.261945425197325],[127.29012313439172,36.26238463538026],[127.29187545787752,36.263546750867],[127.29191853410654,36.26423206094476],[127.29239471470763,36.264279648333456],[127.29228771688197,36.26432757934186],[127.29193521811881,36.26424187722516],[127.29175087510446,36.26468816940194],[127.29112601287682,36.26541255020969],[127.29073867320864,36.265666359806566],[127.2901363255116,36.2659118925711],[127.28977589521362,36.265903945318115],[127.2877396325594,36.2654811072699],[127.28631117386409,36.265075578785684],[127.28634787508079,36.264919055490765],[127.28584705822615,36.26481335616862],[127.28438622571625,36.26477470746264],[127.28440457127282,36.2650262394281],[127.2820724446064,36.26482811971274],[127.28163324239344,36.26485118457323],[127.28111879361444,36.26498689796349],[127.27968042831077,36.26575763038733],[127.27880658078305,36.266881504506365],[127.27837410946722,36.267228805815776],[127.27781628775861,36.26748621159325],[127.27694052800221,36.26767927348862],[127.27555171001649,36.26816198972475],[127.27501358599918,36.26849313020438],[127.2746918413452,36.26880524219819],[127.27345622298179,36.26947378342285],[127.27093654573657,36.270680456699395],[127.26989319506762,36.27110068103857],[127.26850119732921,36.27223877440627],[127.26789690994104,36.272971233163084],[127.26535232053311,36.27436098680846],[127.26217509759853,36.275541293902414],[127.26075692303718,36.27581141332268],[127.26000063484014,36.2758645175366],[127.25997377118634,36.27578451052686],[127.25877141022282,36.27605001948422],[127.25751043648874,36.27699605711088],[127.25592761534301,36.27864333555558],[127.25481805922475,36.28003958148558],[127.25423156196807,36.28046592579538],[127.25416288876895,36.2810560002871],[127.25392541948165,36.28155050581418],[127.25380534392252,36.28210771550784],[127.25363788027467,36.28236283544711],[127.25321732398109,36.28277265644971],[127.25126138954599,36.28399153558791],[127.25069401472607,36.28555203327157],[127.25016395002255,36.28621436948038],[127.24889872488693,36.286970002870675],[127.24876188757106,36.28712084743524],[127.24851245475219,36.28761150473412],[127.2482801212462,36.288934351753184],[127.2471435978834,36.29049338462128],[127.24665338708594,36.29095932717543],[127.24767127277543,36.29142308459658],[127.24797745192238,36.29294532105814],[127.249184466379,36.29283014393094],[127.24970460784319,36.29314767887274],[127.25019189578666,36.29394375104782],[127.25021026655986,36.29419335399331],[127.25076325543847,36.294985523829325],[127.25113996788122,36.29534879721436],[127.25118656181199,36.29561289066379],[127.25406454785379,36.29680270264171],[127.25434052601045,36.2966258563188],[127.25471329805173,36.296138899011076],[127.25763194612387,36.29555082670577],[127.25990694038433,36.29560034424836],[127.25948108565565,36.29613449363758],[127.25935919589645,36.29708760216611],[127.25981375214604,36.299079236625495],[127.25997962605824,36.300217033322184],[127.25994972509726,36.30056181671227],[127.26075781627836,36.301997744763916],[127.26006810812984,36.30248265679982],[127.25958621835233,36.30306776962477],[127.25848290906161,36.30351080521578],[127.25865292882155,36.30485992103389],[127.25851037948573,36.30699291784774],[127.25852991752345,36.308159569936585],[127.25841908899827,36.30830593372632],[127.25883430633283,36.30914494784563],[127.25820213198459,36.30983299605489],[127.25861134016336,36.31108168953349],[127.25895770800014,36.31141053097354],[127.25864839480316,36.312186569865105],[127.25891630877184,36.31335453346426],[127.25859946678136,36.3135803386691],[127.25844077439645,36.314165181892115],[127.25879323976271,36.3156236189187],[127.25870172078015,36.31621068938741],[127.2587614421125,36.317373450352726],[127.25914537091977,36.31879251916047],[127.25945652939922,36.31928725846466],[127.26010478750138,36.31948395458602],[127.26043065187986,36.32022315097098],[127.2605997505456,36.32149066973333],[127.26077959781578,36.32169480116578],[127.2606426888202,36.32256266655238],[127.26079161490485,36.323130949598486],[127.26072243442229,36.32380646009684],[127.26051257648285,36.324556630373955],[127.25983657376055,36.32558944302152],[127.26015364144146,36.326136582332424],[127.25997260476215,36.326728009639865],[127.25980451298878,36.32688270847099],[127.25980089007697,36.32725288363117],[127.25939719355004,36.327428242137316],[127.2588774149339,36.32744819705266],[127.25843936804934,36.327765387614555],[127.25790330559953,36.32797265492945],[127.25761295464949,36.32822924048948],[127.25725086458932,36.3283493393926],[127.25698742609147,36.32858053293265],[127.25656970531762,36.32860269208208],[127.25543867491032,36.32938485846528],[127.25511183139392,36.32975344922774],[127.2549175696406,36.3304707191554],[127.25446582559728,36.33107858168623],[127.25420692866962,36.33252193555109],[127.2539725574499,36.33285697651322],[127.25382696723614,36.33326203510531],[127.25385674888858,36.333980273475404],[127.25362149739274,36.33475575269777],[127.25379485653235,36.33683709973026],[127.25310642042069,36.33679385164479],[127.25275216147949,36.336848125920106],[127.25067889934645,36.33742341594364],[127.24940504205944,36.337435526187015],[127.24850010236042,36.33722939022534],[127.24840586070734,36.337353056379435],[127.24618900252347,36.33738401955716],[127.24532096748895,36.33766905948182],[127.24455041197089,36.3377211864738],[127.24400305830054,36.337546289299375],[127.24209298545198,36.33866553389991],[127.24168858944913,36.33906235710648],[127.24038454541771,36.3431282651572],[127.24102023529574,36.34432312803838],[127.24117649818434,36.344464668423235],[127.24076427986132,36.34514089699397],[127.240458408973,36.34679602655227],[127.23836990101559,36.347548401068934],[127.23720226954728,36.34837977075124],[127.2361797810119,36.34822757381351],[127.23504047840522,36.34834183129327],[127.2344112971055,36.34851267721373],[127.23256277000489,36.34851581555431],[127.23176461545654,36.34840911456377],[127.23146586384422,36.34829982799745],[127.229428432533,36.34903482579167],[127.22905781150577,36.3490495934901],[127.22878620110248,36.349240633663285],[127.22813914988035,36.34917643070162],[127.22714439449962,36.34923950159868],[127.22604869183904,36.3494448877213],[127.22368885482643,36.349597111929384],[127.22239253162103,36.3500893351537],[127.22134955285807,36.35016408473281],[127.22013947718456,36.350090147153026],[127.21866999816608,36.350115185247475]]]}}
