{"type":"Feature","bbox":[127.31803407859927,35.9783247876945,127.63974797759866,36.27220609323176],"properties":{"regionCode":"44710","version":"vworld-20260909-3f8952dfda77-p2","name":"충청남도 금산군","attribution":"국토교통부/K-Geo플랫폼 · VWorld 법정구역정보, CC BY 2.0 KR; 공공주택 복덕방 가공"},"geometry":{"type":"Polygon","coordinates":[[[127.37340472855688,36.27216243316306],[127.37243968310575,36.27220609323176],[127.37200451118116,36.27185077445215],[127.37191226632514,36.2711308615291],[127.37166634447154,36.270241292597085],[127.37121580784576,36.27013577018511],[127.37113810427581,36.26989442189289],[127.37018372442847,36.26978483742379],[127.3697762076669,36.26954774755773],[127.36940942046404,36.2695392066119],[127.36888521707594,36.269842534904534],[127.36853406786153,36.26924079462813],[127.36801499738591,36.26935913419078],[127.36759780339138,36.269323858705164],[127.36686858750952,36.2688211410986],[127.36656532373242,36.26876226259983],[127.36613670969041,36.268909652789226],[127.3657279309417,36.26916394192262],[127.36524880140065,36.26931183205909],[127.36464135059592,36.26924920763221],[127.3639555530056,36.26942552158611],[127.36354761357128,36.26983682135766],[127.36278153392378,36.26925850742653],[127.36304485716344,36.2689653582347],[127.36318074226693,36.268662276374286],[127.36297103267445,36.26799782060978],[127.36264474249954,36.26768352911031],[127.36214064239755,36.26745389510331],[127.36173321232836,36.267040518790374],[127.3617950621154,36.26676172178737],[127.36164348351831,36.26648069282251],[127.36165844011822,36.26630613511793],[127.3618835822782,36.266147415375265],[127.36178535555747,36.26558831167831],[127.3613645203764,36.26531445736217],[127.36142534005684,36.26510197395501],[127.36136056414946,36.264932547447394],[127.36101818829252,36.26470514610466],[127.36066041133306,36.264139280756496],[127.36026841646441,36.264061827160354],[127.35942275816286,36.26261153610376],[127.36005044839655,36.26226256657811],[127.3600802381057,36.26188707170186],[127.36043872649448,36.26087975488851],[127.36034719507072,36.26014844784253],[127.3599815011362,36.25983635658295],[127.36023729751126,36.25874605969024],[127.36074265932507,36.258373208950566],[127.36085772605709,36.25792398456466],[127.36082509350426,36.25739237549661],[127.36055113486889,36.256743346259555],[127.36083393270405,36.25641668344009],[127.3603816965702,36.25589274248551],[127.36045126910408,36.25540770411033],[127.36034299171158,36.2551589595018],[127.35970529961351,36.25486765289974],[127.35957796656672,36.25468474203243],[127.35974202833995,36.25450650231053],[127.359814740924,36.25405104249692],[127.36005410344168,36.25376524574332],[127.36086824871519,36.2537587098194],[127.36155788853203,36.25332578066367],[127.36147553572212,36.25311869180776],[127.36203080692849,36.252545688188754],[127.36270605312303,36.2523347293463],[127.36305056001308,36.252412560653006],[127.36330712763073,36.251945186557855],[127.36416824004955,36.251537010808356],[127.36367437781426,36.25086860266437],[127.36387050951097,36.25039153423527],[127.36431139310449,36.24975653105121],[127.36426512470257,36.24865260249865],[127.36446817833456,36.248223094241474],[127.36457902897405,36.247274063118894],[127.36430979371424,36.24666675995488],[127.36455006662948,36.24627778432579],[127.36444230296742,36.24577703242372],[127.3645917984323,36.244976642863946],[127.36446964372442,36.24474825832724],[127.36488629869818,36.24417742480057],[127.36516718640108,36.24359105446247],[127.36405478622568,36.24254047431417],[127.36381570968813,36.24154951733229],[127.36417152585423,36.24082446303042],[127.36377785411935,36.24054954081757],[127.36333526805372,36.24055383776625],[127.36286126659937,36.24035341109279],[127.36362305582229,36.2386685315907],[127.36315110695955,36.238587626048826],[127.36300925029904,36.23805623706518],[127.36264306747573,36.23752593386303],[127.36288390074013,36.23706279675311],[127.36255673120203,36.2365531105586],[127.36213962004244,36.23636408154566],[127.36202883623764,36.23562753419748],[127.3611884546017,36.235101301775124],[127.36092243111905,36.23459685953636],[127.36089948730704,36.23434701197519],[127.36127700472926,36.2344293649552],[127.36193459845553,36.23415779547134],[127.36225189937666,36.23391910578776],[127.36243922233095,36.233435090684154],[127.36342693112132,36.232251063088306],[127.36274741301933,36.23168643363012],[127.36247904513739,36.23122780909239],[127.36253401231481,36.23093177510846],[127.36202590828067,36.23014861555831],[127.36211688212116,36.229566895745556],[127.36197904840473,36.22897881755849],[127.36227818871996,36.22829040891659],[127.36162660644015,36.22762017371803],[127.3610775386107,36.227494490332305],[127.360647843536,36.22704474456964],[127.36010106010353,36.226642949578086],[127.36015037142003,36.22630317069738],[127.36035320982235,36.225851345817254],[127.36032527099736,36.22547876174656],[127.3621160904987,36.22427718526569],[127.36235840689444,36.22386937948849],[127.36297938096054,36.223606821338464],[127.36356372496284,36.222834761962986],[127.36402271308546,36.22175440487549],[127.36455333624545,36.22003441030021],[127.36452471728579,36.21980518319702],[127.36432558473304,36.219526326707815],[127.36419636841474,36.21890774112814],[127.36353118259903,36.218680594413925],[127.36313657529845,36.21877002484767],[127.36289344433202,36.218651126397425],[127.36225284699948,36.21862807711452],[127.36168322094626,36.21838037081985],[127.36146053753778,36.21838330295134],[127.36100241558505,36.21855526731531],[127.36066886758894,36.21851101940486],[127.36040698697583,36.21824556792087],[127.36018563682116,36.21735682860034],[127.359809032128,36.21663922428387],[127.35965079874155,36.21572665638301],[127.3596096166653,36.21481188325227],[127.35967216537739,36.21455366743635],[127.35942749045883,36.21392859380652],[127.35847846679376,36.21374521656584],[127.35722019484601,36.213136217473576],[127.35722921559426,36.21262040344958],[127.35713395942702,36.212481571011786],[127.35668383454761,36.21232548821506],[127.3563245800898,36.212310665833705],[127.35557659146936,36.21288544318056],[127.35520573152151,36.21284010901934],[127.35483102430526,36.21272280099761],[127.35418819972483,36.212301333800994],[127.35298554493869,36.21182706196614],[127.35291482809247,36.211727543651996],[127.35305399093822,36.211036010367806],[127.35273151643679,36.210535229198506],[127.35185318502545,36.20997011729006],[127.35168164400443,36.209421315240554],[127.35114593705198,36.20918438142158],[127.34947734306176,36.208008576125394],[127.3493221530459,36.20745317363323],[127.34852909629124,36.20620918145798],[127.34780285026089,36.205469523500994],[127.34725760135802,36.204556019380554],[127.34686777113825,36.20408743624765],[127.34667655900117,36.20322615036556],[127.34688186597545,36.2022137083555],[127.3474488090334,36.20206052738219],[127.3475534828737,36.20191085163244],[127.34774248479135,36.200968902900506],[127.3473984260334,36.19994736776053],[127.34761087133376,36.199592899403875],[127.3476463648115,36.19847419993006],[127.34784699895039,36.198243806334645],[127.34753706506295,36.197528727158314],[127.3454748066862,36.19676814341523],[127.34394191842827,36.19659837188173],[127.34387774323329,36.1959449573632],[127.3439961590393,36.19580543877509],[127.34380623918639,36.19541583630531],[127.34375984524324,36.19453260186275],[127.34277642732215,36.194042051605635],[127.34199474643971,36.19333855148984],[127.34205238400028,36.19296397802505],[127.34158108922747,36.192422863811814],[127.34139410707364,36.19090963236035],[127.34120472245854,36.19031889612357],[127.34123427132975,36.18997859284354],[127.34104959533921,36.18941177922927],[127.34063264432852,36.18889784860448],[127.34028184412436,36.18888170916737],[127.33943205504829,36.18903703170187],[127.3391093108247,36.18921986845524],[127.33811527595302,36.18905017280662],[127.33815083393841,36.18838371922584],[127.33788437937824,36.1875682925496],[127.33802606652542,36.18726671519184],[127.33792353650978,36.186297768929016],[127.33753648021286,36.18557545832154],[127.33702570419182,36.18518457287477],[127.33685575129091,36.18522950620319],[127.33626762970776,36.18478402236213],[127.33548765081501,36.18337446155664],[127.3339947021776,36.183137719499385],[127.33367235776521,36.18329370994717],[127.33264501584316,36.183554424613625],[127.33166768640439,36.184174620678576],[127.33060865862072,36.18366819069971],[127.33047634887384,36.18335988617662],[127.3301842070618,36.183201168033996],[127.32999905976358,36.18278029424683],[127.32941712804134,36.182328382508345],[127.32943855302274,36.18199323072945],[127.32931718135903,36.18168033703607],[127.32936020445761,36.18113134476674],[127.32898495797485,36.18025133714878],[127.32898202723668,36.17954185095426],[127.32882342729016,36.179224828374466],[127.32884249356684,36.17902797341413],[127.32837878043198,36.178126259011236],[127.32795209699596,36.178045639802235],[127.32757323110654,36.177698550674776],[127.32667267620212,36.1772850901968],[127.32629543780435,36.176583746823766],[127.32719010675913,36.17575246641177],[127.32699876253112,36.17526015824424],[127.32627086085293,36.17449081065124],[127.32581451538212,36.17427976156838],[127.32528945847547,36.17380316936149],[127.32461252459294,36.173006645953194],[127.3239772822556,36.17288160580208],[127.32353449516555,36.17242890106097],[127.3228898944348,36.17234332637691],[127.32218955160836,36.17197663976287],[127.32119929895586,36.171600075238075],[127.32093813039357,36.17134510939892],[127.32049320200058,36.171241125363196],[127.3203534205527,36.17108471738365],[127.32023498830632,36.17061989708342],[127.32088861727841,36.16946686673287],[127.32142052426158,36.16927372504646],[127.3217562240375,36.16894434348541],[127.32155147829026,36.166841239879545],[127.32075484968269,36.16597205278673],[127.32101656650444,36.165618825844426],[127.32117822409343,36.164661778680816],[127.31905641358941,36.16425680543201],[127.31928859268761,36.16333981206561],[127.31920548469529,36.16266223183444],[127.31882294741845,36.16235244989507],[127.31859945277405,36.16232496169173],[127.31845567235374,36.16210892810674],[127.31803407859927,36.16195393783237],[127.31855364436501,36.16175146219688],[127.31904840293477,36.1612674572262],[127.31898978046017,36.16094019833935],[127.31866682877981,36.16082556570135],[127.3185464811969,36.16052157634288],[127.31872520069979,36.16068827663373],[127.31932527010883,36.160196063240114],[127.31989182749611,36.15870050510134],[127.3198488331893,36.156229745615946],[127.31884449397951,36.154909171078884],[127.31866256494233,36.154791981973396],[127.31876680706964,36.154787561607336],[127.3183992018582,36.154077694710026],[127.31875061114023,36.153357851131496],[127.32047242965918,36.152148110723545],[127.32102518532938,36.15092126450103],[127.32206621649152,36.14916580098229],[127.3231374854441,36.145849754901896],[127.32312665130604,36.1451281177314],[127.32285177273583,36.144483037521695],[127.32305822081726,36.143484681084914],[127.3224997327437,36.14260213756545],[127.32228792509915,36.14157564919012],[127.3224471005766,36.14050202666405],[127.32197037943529,36.13972303340679],[127.32227126107657,36.13915001911525],[127.32185085986075,36.13876820444655],[127.32226784050789,36.13792753802753],[127.32292962504995,36.137256152593544],[127.3230860845847,36.13597836689894],[127.32300881575735,36.13571155854919],[127.32312997724594,36.13504654997749],[127.32317633958783,36.13395269864566],[127.32280573443923,36.13362854038572],[127.3224321024662,36.132399649711836],[127.32235728609008,36.13170204930748],[127.32312183388973,36.129963443419825],[127.3247267474372,36.13058851391873],[127.32684571833101,36.130874253430655],[127.32811349801898,36.13083328707814],[127.32852103288695,36.130339585317586],[127.32889491023614,36.130515786151996],[127.33011159977971,36.129792214611115],[127.3303454472804,36.12950014767081],[127.33127951106925,36.129459594265],[127.33306916245267,36.12977450053826],[127.33360405294493,36.129527232646765],[127.33439696995504,36.12941416698934],[127.33476343909443,36.12947574567372],[127.3352600491608,36.12940626740883],[127.33588039128533,36.12973752228692],[127.33614632715533,36.129972364037606],[127.33651247395,36.13003052176799],[127.3372092419651,36.130378877705745],[127.33841047084688,36.13037372074093],[127.34010037094602,36.12887695975876],[127.33996212206156,36.128238379629074],[127.34016906013512,36.12776577131789],[127.33985315164011,36.12741409431759],[127.34041254047196,36.12558463786669],[127.34084125914153,36.12500062375365],[127.34068238213405,36.1241789176479],[127.34115767130965,36.12390819827894],[127.34165180672575,36.12325894150092],[127.34205527963373,36.12291262208539],[127.34225067584454,36.12246908833075],[127.34212200694733,36.12213873143377],[127.34266831804337,36.12094493714749],[127.34306716086023,36.12053380647049],[127.34347614572393,36.12031265500202],[127.34366521395322,36.1195818956059],[127.34367605224786,36.118841065392125],[127.34441798874138,36.11783745426314],[127.3459295122735,36.117649640433356],[127.34642446876005,36.11783596447262],[127.348223137101,36.11649425243857],[127.35048024316079,36.1163582028908],[127.35226412852025,36.1139354826816],[127.35348326632125,36.11337059150209],[127.3535347572383,36.11077521191056],[127.35384082700804,36.11060647150385],[127.35404639522673,36.1101171081524],[127.35440629294989,36.109759475731984],[127.35437975987243,36.10933239350279],[127.3549387082264,36.10831054243187],[127.35394495199824,36.106430480442825],[127.35310800208008,36.10575789924443],[127.35261268998725,36.105488269252284],[127.35215406866722,36.10552012676174],[127.35089061962182,36.10529017166639],[127.35035202962185,36.10488995705701],[127.35048702859146,36.104119428098926],[127.35035593100186,36.10359204517356],[127.3504630004901,36.103308933727746],[127.35032901426784,36.10246725520221],[127.3497694015494,36.101954247570056],[127.34983685652432,36.101501619089355],[127.34955310173417,36.10081492411138],[127.34952795321608,36.10037497100746],[127.34895305703579,36.09994975575146],[127.34863167281291,36.09911935887963],[127.34774170086817,36.09836874908243],[127.34885884410095,36.096821124862785],[127.34953479263075,36.09537394231956],[127.34953509869096,36.095221546985506],[127.35017068469821,36.09471256346058],[127.35069792938894,36.094649871162396],[127.35112074904976,36.09434136109758],[127.3513166478051,36.09396832164167],[127.35252721182643,36.09413726425591],[127.35323557860461,36.093817528692455],[127.35374905124893,36.09286757977628],[127.35417587934124,36.092533924063446],[127.35494762255627,36.092724334849],[127.35552646361941,36.09245678892926],[127.3562892559691,36.092325045894505],[127.3573136859511,36.09148438933933],[127.35851930542599,36.090850435794295],[127.35923696821934,36.08992323237669],[127.35878094526483,36.0899418147693],[127.35879932216615,36.089826389100544],[127.35937435235066,36.08975458362546],[127.36005471894006,36.089301396626986],[127.35992954593907,36.08831231787962],[127.35980872646715,36.088296229452666],[127.35924617706556,36.08786824082564],[127.3572628537261,36.0869114820052],[127.35709428725441,36.08646484730947],[127.35717731599166,36.084944333167],[127.35737742798605,36.08442117317199],[127.35741122337441,36.08394600092661],[127.35727115372976,36.08334970706766],[127.35702309533303,36.08288462653867],[127.35691768751637,36.08150789809885],[127.357276841762,36.08135421363633],[127.35822793266225,36.081425269110674],[127.35858685342244,36.08109517703636],[127.35932512620072,36.080629769599334],[127.35941294241816,36.0804338003144],[127.36011678112054,36.07981998328155],[127.35997894957305,36.07943102609344],[127.36054819583478,36.078794709703025],[127.36145824498207,36.07664086176242],[127.3617377861536,36.07615483691387],[127.36105068270692,36.07486476172113],[127.36098288861808,36.07434821886904],[127.36116270391378,36.073667599105825],[127.36084045085514,36.07270615280497],[127.36003633199552,36.07234263424004],[127.35931400155513,36.07131290595999],[127.35942044730221,36.070876879318355],[127.35919815388371,36.07067283181223],[127.35937218300994,36.06957578975076],[127.35994163087655,36.06899125688996],[127.3612537108211,36.06848240374652],[127.3618694079394,36.06857545318991],[127.36398526832322,36.06830452170573],[127.36410700496484,36.067992189015925],[127.36404489278779,36.06698423662419],[127.36432814891963,36.06585104334027],[127.36424889103307,36.06552131475863],[127.36252794933543,36.06437951711188],[127.36181862346383,36.06379726104126],[127.36061423331275,36.06154735545686],[127.3612401410412,36.060464889231845],[127.36166745854418,36.059492205496305],[127.36152304780354,36.05904874761662],[127.36065879403654,36.057768299982406],[127.36040144470076,36.05678866834452],[127.36013717106773,36.05647044700216],[127.36041833167063,36.054501831553814],[127.36083258813062,36.05362470085716],[127.36266323263736,36.052839803433024],[127.3631968009801,36.05230863297692],[127.36413173106415,36.05181753851135],[127.36453532486013,36.05151837840105],[127.36513382683123,36.05148388409621],[127.36570367200649,36.05084968284556],[127.365952287819,36.050129523498974],[127.36654947315401,36.049276690533205],[127.36627682154898,36.04852286976851],[127.3667641831912,36.04790316057968],[127.36795992768728,36.04715799321809],[127.36826720685232,36.04670441121953],[127.3687482133384,36.0465878334581],[127.36984949986386,36.04567048117726],[127.37055949822218,36.045777647849135],[127.37211517260968,36.043812499851235],[127.37266549937772,36.042241664069095],[127.37260080501812,36.041158621128616],[127.37369490626104,36.041175624932464],[127.37395075855503,36.03952353281932],[127.37284008181669,36.038214067733314],[127.37343811390744,36.03663201302203],[127.37361636827964,36.036520699812705],[127.37362475178467,36.034559627687564],[127.37468041951315,36.033975494612775],[127.37550198494851,36.03331233393656],[127.37670389858492,36.031711793137816],[127.37734962786286,36.03107614442868],[127.37819959402776,36.03060303452142],[127.37731251948169,36.02934660768908],[127.37682274322097,36.028892018311524],[127.37657940481184,36.02551561953117],[127.37629323273477,36.023741431812944],[127.37649025883273,36.02292798754847],[127.3776042510242,36.02267344762576],[127.37952335157196,36.021765256921746],[127.3816285619689,36.02123850004801],[127.38350070901231,36.02129717853037],[127.3838521559495,36.02121868973059],[127.38420738307792,36.0200472627895],[127.38531927907856,36.019366793352546],[127.38615905426529,36.01944181417855],[127.38655850907439,36.01938222425664],[127.38696843859503,36.018765520941805],[127.38786953403758,36.01859478499488],[127.38964942197248,36.01630291749442],[127.39093008532332,36.016684317107],[127.3918676941404,36.01709948700538],[127.39329134271998,36.01599115006064],[127.39325977511247,36.01513304840376],[127.3940467778806,36.01342516125448],[127.39466387784508,36.01256812672666],[127.39589667749776,36.01145640033155],[127.39649755481337,36.011216698303876],[127.39676146897241,36.01063118105538],[127.3975130543284,36.010228741670765],[127.3996976318071,36.01010749576262],[127.40039883368962,36.0095321247474],[127.401206951112,36.008719489799866],[127.40255165310569,36.009750033672695],[127.40310535361567,36.00983174277537],[127.40468807659028,36.011699265702006],[127.40519394146405,36.01249918957487],[127.40581915932022,36.013193897238466],[127.40731509424803,36.01420954647993],[127.40825899060535,36.014214287860234],[127.4086747481688,36.01378975518357],[127.40924878674718,36.01373414793522],[127.41233426410345,36.014898481225174],[127.41342448630695,36.015159422047034],[127.41504699156346,36.01649550059565],[127.4160419876275,36.01787268446836],[127.41678972364917,36.019537710822554],[127.41964339101457,36.02271345349828],[127.42199057649798,36.02327608655873],[127.42309617123807,36.02345010437107],[127.42603596397863,36.02616547206406],[127.42749677871412,36.02695908550917],[127.4293621025999,36.02769502712205],[127.43078602428706,36.02803485164291],[127.43234169801474,36.028294941134554],[127.43417367015407,36.029307223618034],[127.43456015046591,36.029451276583224],[127.43494540831799,36.02863498658123],[127.43472625690019,36.02779078993227],[127.43485615191688,36.027383332829984],[127.43484848684177,36.026830581772856],[127.43501401284435,36.02606004813183],[127.43452588340718,36.02554594644935],[127.43453914045459,36.02522338086485],[127.43436834540547,36.02441040630907],[127.43563304104465,36.02369678495673],[127.43608695455833,36.023258232537295],[127.43683435657795,36.023058064244864],[127.4373444228564,36.02068483410524],[127.43727998516528,36.01978708606129],[127.43714952150755,36.019284535681756],[127.43671319392462,36.01862103068833],[127.43571712348812,36.0164313301436],[127.4354901262222,36.015288525339315],[127.43525519263396,36.01464700620895],[127.43549528384291,36.014199567236766],[127.43543679854719,36.01357356755087],[127.43644994364108,36.01333680595893],[127.43676623994789,36.01279995591495],[127.4368741771246,36.01236361862952],[127.43754211354388,36.01195096865008],[127.43713981817056,36.01127253192208],[127.4369115952913,36.01054084182426],[127.43724507841272,36.00931649692345],[127.43742279143859,36.009092241006584],[127.43785463323238,36.00892804563309],[127.43845425001417,36.00916000106168],[127.43900027564962,36.00881848431392],[127.43944227083418,36.008694477785596],[127.4395512622643,36.00839995709194],[127.44015880658397,36.00818077792494],[127.44036533443078,36.007939955282644],[127.44070324464437,36.00801114129077],[127.44201803236176,36.007997136770356],[127.44224898847771,36.008194518554305],[127.44266181446282,36.00800479061747],[127.44358157110788,36.00804973660245],[127.44395383145559,36.00788770550701],[127.44406895552856,36.00750709219942],[127.4444349773915,36.007242080317624],[127.44435911849352,36.005147306591795],[127.44422893193617,36.00495577471578],[127.44412976362192,36.00357238999569],[127.44454433692383,36.00306171588855],[127.44555547698526,36.002488063934],[127.44602866405587,36.00234327982358],[127.44601669609466,36.00144811600532],[127.44645779504386,36.00103320894954],[127.44673669213203,36.00057440003323],[127.44729690786964,36.0000515767422],[127.44807495502198,35.99891581335779],[127.4476498229178,35.997325507851365],[127.44784062097597,35.99713074732572],[127.44785101328905,35.99697116596683],[127.44852336146306,35.995911415235334],[127.44898208719142,35.995387708787455],[127.44903160316021,35.994480321276804],[127.44858359408386,35.9935436954499],[127.44860459403465,35.99312245748008],[127.44938953652455,35.9926508961632],[127.44975392661718,35.99206548110987],[127.45058861980446,35.991665984596125],[127.4507160348701,35.99114470016253],[127.45139845353758,35.990608350603495],[127.45195864518826,35.98901032266646],[127.45252850707452,35.98856167369885],[127.45324485887816,35.98842227974343],[127.45359819909721,35.98810075267952],[127.45389778125652,35.988007581823695],[127.45413377557122,35.98755853312683],[127.45484319618582,35.987285182206946],[127.45500414645778,35.9864334234962],[127.45482299795009,35.98549314540182],[127.45487772030494,35.98507035507927],[127.45532349270742,35.98477946848203],[127.45559050000877,35.98443581404957],[127.45575463455836,35.984416652648655],[127.45582248622004,35.98381339764076],[127.45653233877101,35.9837729462098],[127.45674721747876,35.98332015178279],[127.45797515405675,35.98350186683068],[127.45953080213437,35.98431283434584],[127.45998826761132,35.984206419043026],[127.46055858784464,35.984245259332276],[127.46170076467398,35.983686038901794],[127.46223381400972,35.98380324235058],[127.46276768983634,35.98373241927996],[127.46394211431843,35.98393169186874],[127.46488661774556,35.984970317492],[127.46479378026744,35.9857646455524],[127.46517649744729,35.98621933497745],[127.46561006676392,35.98736020843826],[127.46625826355157,35.98798656188583],[127.46757251945539,35.98772282153284],[127.46832053061823,35.987958177502264],[127.4693360624961,35.98657658093602],[127.47021383781157,35.98623389969988],[127.47088049468127,35.9855201305497],[127.47172210355822,35.9849084669248],[127.47171724619241,35.98408987185561],[127.47217417102273,35.98338778803027],[127.47281226224054,35.983073935159915],[127.47395148566758,35.98208704374993],[127.47451051334642,35.9814927480337],[127.47490788027092,35.98151716229376],[127.47526777103747,35.981365463949466],[127.47558584376786,35.98133368467838],[127.47565503229772,35.98083285605753],[127.47575910386688,35.980680784877705],[127.47591279222017,35.980617126995135],[127.47611142612423,35.98063988154935],[127.47662677092359,35.9810554679242],[127.47719291997076,35.98094482647066],[127.47807189313748,35.980511094823036],[127.47876760812973,35.98057885958708],[127.47898036661233,35.980724551897325],[127.4794800860256,35.98084105624938],[127.48047460210304,35.98048771131158],[127.48097001608814,35.9807519084346],[127.48238850882935,35.98047033258431],[127.48296492282431,35.9798700691479],[127.48328279537877,35.979702968507965],[127.48359276913182,35.97981257341789],[127.48519292587075,35.979998382602034],[127.48705654872349,35.97871432112607],[127.48776137098828,35.9783247876945],[127.48820460887356,35.97843617759448],[127.48933478451963,35.97939521535899],[127.49037830950991,35.982311592174234],[127.49124303070995,35.98334910804238],[127.49161388731656,35.983658468827464],[127.49205957112119,35.9837130277298],[127.49274833801742,35.98367851312752],[127.49298805884025,35.983864220266724],[127.4933407785597,35.98441022034126],[127.49360302647584,35.98509296331386],[127.49394841772049,35.985419959679184],[127.49444754233176,35.986180999832996],[127.49503839358815,35.986409941069475],[127.49601506193484,35.98647697151043],[127.49725670224996,35.98673601154064],[127.4977830713375,35.98676089025386],[127.4993533168054,35.987384725323594],[127.49973802698952,35.986929732573124],[127.5001807814151,35.986867784034665],[127.50114247033692,35.98633198160561],[127.50200127003937,35.98621303715499],[127.50225781601776,35.98578586878797],[127.50231374480977,35.98519062462665],[127.50215342273067,35.98455826752151],[127.50231509632366,35.98413926544004],[127.50233302398463,35.983800457624326],[127.50246871026913,35.98358064198408],[127.50294259609433,35.98329812311708],[127.50387060987863,35.982959339741925],[127.50439836660787,35.982537590534406],[127.50481709456743,35.98240501444131],[127.50494690171692,35.982015423643254],[127.50486348924467,35.9813873149549],[127.50549403788469,35.9808433144394],[127.5056818862979,35.98041381537363],[127.50620905250292,35.98032636135425],[127.50631094693843,35.97987824228704],[127.50666488683983,35.97964915067392],[127.50756408255543,35.979764105131125],[127.50888692431901,35.97980712342694],[127.50952500596449,35.98051230215771],[127.50972084764886,35.981225689739205],[127.50961384382926,35.98185808765087],[127.50989512014534,35.98215759698753],[127.51127568572015,35.982166608367514],[127.51187404111825,35.982647073028524],[127.51277033908086,35.982571241418746],[127.51335804679476,35.983186773427796],[127.51361822519316,35.9832795527648],[127.5141923485747,35.983421817726374],[127.5168708539666,35.983038310329704],[127.51775131511198,35.98323939990012],[127.51975259888626,35.98327990782279],[127.5199305764311,35.98383037721728],[127.52052014294546,35.98418489028522],[127.52074324726746,35.984586543929105],[127.52146875398363,35.9849353847147],[127.52209716887626,35.98487615292883],[127.52368556525167,35.985608175334505],[127.52434234580069,35.98512509103782],[127.52493574093768,35.985552971510955],[127.52487008442932,35.98581653082645],[127.52567287835396,35.98685287848531],[127.5259108719599,35.987428249542035],[127.5266486020657,35.987646440139656],[127.52758756932711,35.988617914168906],[127.528436737843,35.98917245533501],[127.5284940025813,35.98964263847837],[127.52875760698467,35.99013616868783],[127.52930535643405,35.99039127251721],[127.53000737275194,35.990360181459366],[127.53056905351211,35.99050723599481],[127.53222027535297,35.9911876259017],[127.53243220897687,35.99172426344987],[127.53251520591519,35.991759368952785],[127.53271136417841,35.991687294366855],[127.5326833969118,35.99176023746864],[127.53364006792586,35.992007347419914],[127.5340300149788,35.993669487337385],[127.53489979578316,35.99473093618604],[127.53586825430764,35.99490431760065],[127.53601430198864,35.996089882147615],[127.53665519965783,35.99645046845576],[127.53645652340091,35.996763348158126],[127.53659710923364,35.99704158259676],[127.53621201615675,35.997681810101646],[127.53606968325687,35.99817640110401],[127.53632316188207,35.99859144402359],[127.53629535586074,35.998980443604204],[127.53585599567427,35.999955949455504],[127.5361135929248,36.00050695729205],[127.53581091223866,36.000980165026746],[127.53557455269798,36.00184328275191],[127.53514070614449,36.002317171257374],[127.5341842675411,36.00388993378529],[127.53422342002249,36.004961872456335],[127.53366245305621,36.00531547571838],[127.53349757219902,36.00594183004702],[127.53283962961434,36.00662267534782],[127.53215534141734,36.0075213327336],[127.53210391497483,36.00796738089869],[127.53276927107011,36.00889335527779],[127.53306374763373,36.00963461650613],[127.53395121549248,36.00947007491512],[127.53502099986775,36.009595490867696],[127.5359870427241,36.010108270775376],[127.5365588950727,36.01057734443921],[127.53777535524372,36.01073149688986],[127.53869787080502,36.010551533402264],[127.53959008545638,36.01113471156508],[127.53987021008449,36.01171689975648],[127.5397052642556,36.012416647982334],[127.53899929653751,36.013375869194576],[127.53892823199685,36.01386342651603],[127.5380737404675,36.01444921102836],[127.53770992557185,36.015134353864795],[127.53750322637761,36.01651764829887],[127.5377550165492,36.016683267460564],[127.53785985612453,36.01733649176523],[127.53774107209638,36.01761164090249],[127.53791838521697,36.01853965455516],[127.53722601015491,36.01869273089625],[127.53665097251783,36.01925010958414],[127.53670096179638,36.019468394831314],[127.53612776700616,36.01994042934571],[127.53630369235225,36.020563283857854],[127.53610345068859,36.021068873719656],[127.53616578631888,36.021410552580576],[127.53649785042035,36.02165261755693],[127.53672068498544,36.0221898599415],[127.53665185798955,36.02267694028035],[127.53698131180217,36.02276214948046],[127.53749426733513,36.0234362810127],[127.53812118801012,36.02364712594804],[127.53848012896727,36.024857721408544],[127.5386417663847,36.024976461210564],[127.53884161185606,36.02587909433055],[127.5386571203127,36.02650273895076],[127.53768952612721,36.026736210835395],[127.5373959981215,36.027035645134795],[127.5373182080006,36.028032442263026],[127.53749867218981,36.028595740933994],[127.5375178529573,36.02910821853404],[127.53690607093678,36.03065513086022],[127.53684971229804,36.03127228093109],[127.53706854087658,36.03186718328759],[127.53760076946313,36.03248829029582],[127.53687833587075,36.032590451956494],[127.53668142056824,36.03293030337702],[127.5362154097522,36.033139290990825],[127.5357682073133,36.033506932868704],[127.53580704423581,36.03376684947302],[127.53564787816254,36.03399488898488],[127.53532915034585,36.03396386405791],[127.5329580083733,36.03421091108501],[127.53200280128387,36.03456900155358],[127.53216896904598,36.03541430506814],[127.53195792073616,36.03589307821534],[127.531935395196,36.03700793133169],[127.53149621985993,36.03738905530221],[127.53131668429111,36.03777953171347],[127.53124304034189,36.03873541156871],[127.53081733020252,36.03893848554247],[127.53117085492272,36.04024752758798],[127.53142081551407,36.040842772066455],[127.53307465936295,36.040835451761936],[127.53315651992776,36.04113448776245],[127.53325670137852,36.04112987093411],[127.53369115300576,36.04093577835759],[127.53416155212783,36.040566590936976],[127.53480321968372,36.04036833828119],[127.53531933249022,36.040007999228074],[127.53624599438088,36.039882838279205],[127.53662271348743,36.039726896883145],[127.5378846148565,36.0400492265697],[127.53833229801886,36.03988914251598],[127.53841160807731,36.03966115953296],[127.53921974658726,36.03861612820253],[127.54034836785681,36.038671513382404],[127.54098379753302,36.03812299318736],[127.54176396206391,36.03838625653451],[127.54448490511072,36.03880566344114],[127.54483330060509,36.03863077337344],[127.5449726108057,36.038192893577126],[127.54486444500444,36.03812978502912],[127.54499186056199,36.03816358112049],[127.54537874969569,36.03769132205393],[127.54590351490157,36.03788507205949],[127.5477789585613,36.03820874363164],[127.54812466138766,36.03685749903126],[127.54911121549446,36.03695034674824],[127.54930493893397,36.03671324677434],[127.54925675610824,36.03659219942989],[127.5501172282229,36.03542308254652],[127.55030195592802,36.03523842648953],[127.55058056352357,36.035197930727506],[127.551232190249,36.03481512969939],[127.55166369039958,36.03391406949479],[127.5518830899365,36.03380390695465],[127.55184802930674,36.03347224366679],[127.55220332345714,36.0327705069755],[127.55291344741292,36.03285850821231],[127.5532996197858,36.03283146261395],[127.55536575697188,36.03241657252112],[127.5556396937063,36.032479104390504],[127.55614351191218,36.03283442936443],[127.55652659264571,36.032847526201486],[127.55744340813172,36.033344856167666],[127.55903027621886,36.03344360833157],[127.55945097594297,36.03324946684578],[127.55977781681815,36.03284439339732],[127.55995353123787,36.03281738602096],[127.5601932262801,36.0326451471285],[127.56057566439196,36.032622420224605],[127.56080151478534,36.03251808039027],[127.56110957354765,36.03205831335802],[127.56168102406029,36.031668665770354],[127.56177179848562,36.03123381487643],[127.56247490926017,36.030718163328906],[127.56379638103193,36.03103374161213],[127.56463893348605,36.031377483040096],[127.56574418672677,36.0313827064511],[127.565764988088,36.031265657906545],[127.56633079400244,36.031220852829996],[127.5677619095762,36.03046674033429],[127.56787773252294,36.03011524419666],[127.56824608268477,36.02976657431649],[127.56831661802723,36.02944512101036],[127.5687230393132,36.02927606069044],[127.56877707061928,36.02897871243568],[127.5695512388615,36.028125396136495],[127.5704228954472,36.027928964715066],[127.57048079551323,36.026904113092165],[127.5716155314251,36.02598094993835],[127.57233802931533,36.02599633921621],[127.57283890733112,36.0259183874808],[127.57306290996358,36.02573352077509],[127.57318164531016,36.02514614700798],[127.57348138633371,36.024887649052104],[127.57352495450232,36.024393830259896],[127.5745327403502,36.02330239354794],[127.57684564999309,36.023875726689795],[127.57774899132627,36.02387438711907],[127.57822403288638,36.02420529372137],[127.57836282379849,36.02410077188275],[127.57828762682865,36.02424366899611],[127.57954166746931,36.02492532433582],[127.58061375177135,36.025248084674274],[127.58068663460536,36.02585183428678],[127.58106139329314,36.026203892363306],[127.58183285320467,36.02665960549744],[127.58202880250805,36.026934822651654],[127.58256031649229,36.027226430637604],[127.58297040672332,36.027113811296694],[127.58437677448049,36.026485328748855],[127.5865141612884,36.02598203308043],[127.58695726938541,36.026151611859625],[127.5876710099202,36.02611069194648],[127.58839709288138,36.02596737951863],[127.58904042304346,36.02613531522255],[127.58977013694427,36.02604624948344],[127.59123566908718,36.02515222478111],[127.59143465588048,36.023399267881196],[127.59174359386871,36.02304148276552],[127.59175923374212,36.02245349125499],[127.59130777064472,36.02156484931401],[127.5915032208397,36.021047152940184],[127.5918247481341,36.02065302916995],[127.59205836833296,36.02050751541351],[127.59250146007624,36.020432300958795],[127.59367578066707,36.0199921127021],[127.59403095752589,36.01972659388327],[127.5953641241461,36.01921497019158],[127.59629751688988,36.01900783393853],[127.59666737267412,36.01806852372808],[127.59791949144831,36.016826790218545],[127.59782831429774,36.01642415074453],[127.59871009252909,36.015403594726486],[127.59890332482478,36.01475327430071],[127.59916686783188,36.01446526858845],[127.59935886404799,36.014086911746],[127.59999006320761,36.01387768310228],[127.59992809496016,36.01368184587072],[127.60021064587694,36.01277404418456],[127.60006482871766,36.011941329209264],[127.60258075062123,36.011901757141246],[127.60320379645923,36.0121046218582],[127.60402431451067,36.012093438348124],[127.60515676194063,36.011905130660026],[127.60558626281951,36.01213391461808],[127.60659305824582,36.01190991612032],[127.60700590724383,36.011347667250625],[127.60766980325977,36.00995574668036],[127.60728703296634,36.00961130087437],[127.60713558420738,36.009143273509366],[127.60661458257604,36.008135807656366],[127.60664040820221,36.00804323079695],[127.60678395117147,36.00768841109719],[127.60697537128353,36.00747792237748],[127.60826272258022,36.006487891287],[127.60981029736338,36.00544831820908],[127.60976058635738,36.0049373046607],[127.6098616480045,36.00405171235498],[127.61029563338069,36.002011159601956],[127.6102601113237,36.00156132047708],[127.61056906776203,36.001044502247645],[127.61190774589227,36.00076616144708],[127.61201765682841,36.00066982995522],[127.61274163852202,36.00044561054884],[127.61415273525418,36.00080403179823],[127.61459340246286,36.001199061467936],[127.61563462639906,36.00253873913478],[127.61599975301777,36.002841469863085],[127.61606648518702,36.003471406301955],[127.61593893431424,36.00388706858915],[127.61646438552525,36.004544827200405],[127.61661355720422,36.004975302984896],[127.6169721319815,36.005339525631456],[127.61805434785278,36.006800147681595],[127.61866262829571,36.00798197548708],[127.61826914279358,36.01005057394597],[127.61763417239361,36.0118300938288],[127.61733152650933,36.013004989683566],[127.6166985756648,36.01687280398997],[127.6164412726716,36.019056266020776],[127.61470219636357,36.0204485952951],[127.61363426148009,36.02143621541378],[127.61265761130801,36.02196809794918],[127.6117699474945,36.02208061754211],[127.61097111802036,36.02230091829826],[127.61024678850869,36.02321755537398],[127.61027305757197,36.02440018690899],[127.6107348624329,36.025348609287725],[127.61133704184952,36.025879178432874],[127.61311669427171,36.026313337985165],[127.6142990118709,36.02624363300784],[127.61654589448788,36.02632351154022],[127.61654352299374,36.02601704360333],[127.61854970100404,36.02596639675702],[127.62104591129236,36.025004799],[127.62195968469314,36.02479649127355],[127.62209668948374,36.02481992844693],[127.62213341283214,36.02452186144053],[127.6229437477408,36.024640409390315],[127.62527723065114,36.02530909299941],[127.62589362394493,36.02579289881259],[127.62690988616178,36.026912173756656],[127.62731727106036,36.02793850463641],[127.62739469728407,36.02884012005259],[127.62717319912367,36.02964362796393],[127.62718287913316,36.030618006610375],[127.62754347290706,36.03146434197041],[127.62844943160596,36.031956037429914],[127.62934201430542,36.03226531113435],[127.63009114805085,36.03243260742068],[127.63071599768212,36.03235460225563],[127.63168300226185,36.03201636626459],[127.63263305918562,36.031485478872774],[127.63497021863088,36.02951423158096],[127.63532991896327,36.02868408639213],[127.63664482101788,36.02887284328565],[127.63582794303043,36.02939340587218],[127.63799694718867,36.03180400182115],[127.63914469809949,36.03229882162696],[127.63929369861012,36.032141186168],[127.63974797759866,36.03225242757598],[127.6394201080259,36.033107179887914],[127.63879392475242,36.03368885930997],[127.63826616294749,36.03400310099137],[127.63733805178066,36.03431765347388],[127.63692675954515,36.034347427254346],[127.63705392308432,36.035167437098515],[127.63645056888008,36.03484969680263],[127.63616929388645,36.03497666806854],[127.63559535056388,36.03498870911749],[127.6348190354581,36.03487032775035],[127.63428096847862,36.03457225689268],[127.63368784339947,36.03474660522273],[127.63268285003194,36.0354481979269],[127.63192442408399,36.03634821936644],[127.63174621232312,36.037379657210174],[127.63175615260322,36.0394459973848],[127.63141641140325,36.041066571858316],[127.63102518696705,36.041708057537235],[127.63053447167191,36.042152377514185],[127.62969649941412,36.0424143793403],[127.62879406553773,36.042548606697764],[127.62735443841412,36.042629011696114],[127.6264529406721,36.04236823863882],[127.62589816679362,36.042409175684696],[127.62513285748753,36.04231368368371],[127.62317470611416,36.04151445245651],[127.62365648718799,36.04156730890646],[127.623839868578,36.041231709248876],[127.62219165387575,36.040411054944784],[127.62121494875065,36.0409569045746],[127.62061979730112,36.040187716563885],[127.61909949193576,36.03917297549433],[127.61926880252439,36.039953457866545],[127.61960389342255,36.040598904340165],[127.6192015179071,36.04091432697701],[127.6189101238218,36.04157366422553],[127.61849071698812,36.04193587207519],[127.61868681241823,36.04235207630278],[127.61860694343835,36.04253598179902],[127.61874595834611,36.042868389303266],[127.61943431856362,36.04371752555433],[127.61966827655701,36.04429303683584],[127.61937572994526,36.044829913432594],[127.61955105778058,36.04503657723485],[127.61964427944113,36.046186150045614],[127.61955230180048,36.04670092344607],[127.61967310470254,36.04733516295673],[127.61939657214971,36.0483223081448],[127.61933090129835,36.048940602198414],[127.61863030015117,36.04959974584567],[127.61851704060389,36.050183191411676],[127.61878622187162,36.05155692608805],[127.61862583496121,36.05197213362271],[127.61863941252872,36.052656566366224],[127.61893361478477,36.0537128468805],[127.6191114674587,36.05388949470977],[127.61951441969107,36.05510288936732],[127.61941103718156,36.05554727387411],[127.61963115976552,36.05635146332249],[127.61945074414605,36.0568344367338],[127.61969080591736,36.057512519345714],[127.61970331646448,36.058195295278075],[127.61960971672184,36.05868010063708],[127.61977353286373,36.058933794550406],[127.62017795544651,36.05919034150439],[127.62059466205511,36.0596205416007],[127.62031306736294,36.06015330051697],[127.62041834606458,36.06204160522452],[127.62040401375666,36.062419679215694],[127.62028841084734,36.06270998462998],[127.62057459423161,36.06337669639904],[127.62055070710953,36.06420529252343],[127.62168457253385,36.06553908627735],[127.62355341255878,36.06716502918561],[127.62392395130425,36.0672716538448],[127.6275632721892,36.06658508310432],[127.62934241565816,36.066529402515386],[127.63039010402696,36.066740449762975],[127.63170882267875,36.06673943540482],[127.6325205178332,36.066907115290185],[127.63290773908093,36.06684410946247],[127.63360702030032,36.06708169274648],[127.63457131309826,36.06709360948711],[127.63590844134065,36.067508926393074],[127.63717267892135,36.06661620249469],[127.63799746225466,36.066672529817744],[127.63805888487886,36.06752045066468],[127.63829521273865,36.06793992121294],[127.63806309394275,36.06866709755331],[127.63780284539818,36.06905132723116],[127.63739055995566,36.07034946711003],[127.63680885001463,36.071037086394604],[127.63609868518085,36.071400192332284],[127.63471281441154,36.07289509814365],[127.63449334977075,36.07334111410175],[127.63419917608941,36.07361550690026],[127.63413435828284,36.07486178280763],[127.63466325978278,36.07673388242246],[127.6342247920611,36.077370640539314],[127.63364054199845,36.07780759777578],[127.63344402350468,36.07828519714186],[127.63219064758536,36.07964330076492],[127.63243553795355,36.08022211268983],[127.63305285797199,36.080888128672136],[127.63292703632303,36.08136834778493],[127.63214670096579,36.08236455652413],[127.63111810966919,36.08284572596577],[127.62979200121427,36.08382986403646],[127.62934033389121,36.0846679481428],[127.62826906325999,36.08544169121884],[127.62813530401966,36.08598382141141],[127.62787248951582,36.086294343267426],[127.62776818936415,36.08656286770727],[127.62671649277254,36.08720867039404],[127.62653589837412,36.08760776914026],[127.62624764941394,36.087779707028396],[127.62507745925596,36.08816441410837],[127.62439650644697,36.088284840143416],[127.62417790135802,36.08841345912787],[127.62386456865403,36.08885386282154],[127.62378132980598,36.089706153195685],[127.62352751176734,36.09001640903165],[127.62333564208929,36.09069118515738],[127.62236110529717,36.09078097899772],[127.62185589534491,36.09096836789338],[127.62000998833724,36.09109224331022],[127.61924178284536,36.090699021450675],[127.61861668372394,36.09130410799806],[127.61849129308467,36.09185525792229],[127.61815487430528,36.09246053220136],[127.61727449147617,36.09357808294849],[127.61751954167137,36.094118913312066],[127.61732376743583,36.094572661002125],[127.61740830252553,36.09501810275788],[127.6173397056166,36.09545707687235],[127.61769606115273,36.09616591155226],[127.61733267813457,36.09703678778424],[127.61736030387986,36.09754174965222],[127.61763958954795,36.098146458804095],[127.61794724220796,36.09827894454102],[127.61826506335038,36.09870966718303],[127.61773302537604,36.099268776942694],[127.61728382022835,36.10009690828272],[127.61704469997196,36.10136364012406],[127.61714972362306,36.101748370878],[127.61703497012816,36.10230145895482],[127.61703217579976,36.103133539171694],[127.61717006578388,36.104683047805835],[127.61692280208912,36.104876382121525],[127.6175199017663,36.105558645915494],[127.6177207943669,36.10603986966263],[127.61822277607146,36.10630978024196],[127.61850610809273,36.10669398900627],[127.61898710727161,36.10711001776368],[127.61906212856357,36.10771770393233],[127.61899334252038,36.10812812889715],[127.61909548913421,36.10888513790407],[127.61871630196174,36.10908286951074],[127.61815337421979,36.10975937275179],[127.6175049133523,36.11018470385645],[127.61632112339471,36.111554380973004],[127.6154543115484,36.11162752408151],[127.6147832583441,36.1114509927396],[127.61363515800245,36.111618943836724],[127.61335197018492,36.11158611880703],[127.61351768124014,36.11172265902573],[127.61307536014947,36.11180740540645],[127.61291099233205,36.112667875816236],[127.61247191274579,36.11305707039859],[127.61219004726094,36.11408380507095],[127.61155749648434,36.11522055176709],[127.61076213679776,36.115626469031525],[127.61073035061301,36.1161945276296],[127.61060019227281,36.11659202304972],[127.61002751157925,36.11736066811288],[127.60997118473948,36.11809321800824],[127.61008581559025,36.11860736270334],[127.60962565904418,36.118493463015014],[127.60892162469759,36.11855848853243],[127.60859047207141,36.118444875019584],[127.60857822495323,36.11778020814122],[127.60763537106179,36.117082537523686],[127.60668403175765,36.117035906047875],[127.60598529405266,36.11678933564297],[127.60592446973449,36.11738618967048],[127.60552906424321,36.11820261834437],[127.60389632471424,36.119774033714435],[127.60320464099222,36.12061431245122],[127.60217497789971,36.12108246014894],[127.6014871694966,36.121530882699005],[127.60109456866834,36.12169187903994],[127.60083964703075,36.12193917249758],[127.60050043432044,36.12199571587049],[127.60029962139038,36.12216621704355],[127.60009499309858,36.12256555716438],[127.59920045205526,36.122942234800064],[127.59897331098352,36.123435609685856],[127.59895625431287,36.124770191435346],[127.59886760867929,36.12508374412182],[127.59863384565796,36.125368064621625],[127.59765678703747,36.12555808229809],[127.59633841790995,36.125453573558076],[127.59602121879954,36.12556977079403],[127.59586657249255,36.12573080597337],[127.59567307736698,36.12650613487306],[127.59563110483124,36.12736336236342],[127.59546147450077,36.12786297551292],[127.59523813325532,36.1281768598264],[127.5948984590059,36.12839632565567],[127.59374625588914,36.12877971154082],[127.59370353879817,36.12934704094372],[127.59354253829126,36.12952624652981],[127.59298828789893,36.129759185119255],[127.59256074168721,36.130098847248796],[127.59150373293109,36.13221660088542],[127.59130906309952,36.13247754237423],[127.59026456684447,36.13289970811501],[127.58981956010952,36.13386125212104],[127.58943667882882,36.13445501043168],[127.58947212443704,36.135136424064605],[127.59026883236031,36.13577604456657],[127.59036203808013,36.13623931999458],[127.59023824599741,36.13652404729391],[127.59029471066329,36.136728178678],[127.59085804677564,36.13709624196911],[127.59090388236778,36.13729178009752],[127.59070230128067,36.137565194392785],[127.59094919794504,36.13807281833106],[127.59091094274527,36.13829990138177],[127.59073630478822,36.138512449865125],[127.59072951441844,36.13869657248075],[127.59111670440214,36.13948790482063],[127.59093853215292,36.140390188412375],[127.59062730780153,36.14062483145856],[127.59054347177212,36.140970101700326],[127.59060078614165,36.141449604924766],[127.59046098213848,36.14181687068123],[127.59056547337421,36.142204284040986],[127.59043938870948,36.143330753576855],[127.59052325568854,36.14355553156849],[127.5908054523586,36.143759515082266],[127.5907966543732,36.14401512653866],[127.59095118138268,36.14436362387218],[127.59094877630703,36.14483384973403],[127.59186054630725,36.14560772698886],[127.59169906634027,36.14595908519086],[127.59190944481655,36.14630133016808],[127.5920539885337,36.146907163868605],[127.59244998117002,36.147088828507606],[127.59284166721841,36.147629079136046],[127.59299523749819,36.14806118972192],[127.59301634603538,36.14869856107188],[127.59330671904914,36.14971235256172],[127.59350516139516,36.15008019401185],[127.59341258326285,36.150518792388745],[127.59364119630264,36.15077999921705],[127.59393608475902,36.150855707627066],[127.59433298037214,36.151281043677834],[127.59483020122165,36.152017954093594],[127.5948253326555,36.15228621682465],[127.59502179747933,36.1526198822082],[127.59524479474355,36.152745140636846],[127.59590766281002,36.153489471494176],[127.5964610591352,36.15391689631921],[127.59766882203547,36.15416909829934],[127.59849796849535,36.15489901423566],[127.59867841939294,36.15513284669926],[127.59869768948494,36.15543056729724],[127.59899900769388,36.15566507673139],[127.59969428842388,36.156942420122974],[127.600551609787,36.15795579315099],[127.6016641595706,36.16002406516542],[127.60120329281965,36.16117659681624],[127.60123843900655,36.162795216259845],[127.60100590955702,36.16329460980986],[127.60128397117771,36.163998812513356],[127.601273077637,36.1653802997578],[127.60147609334835,36.167014520887186],[127.60108568482944,36.16750751517859],[127.60110107727654,36.16825160287749],[127.60147816566064,36.1690464889895],[127.60080074890296,36.16974266995058],[127.60060234264303,36.170463963476614],[127.59963163176499,36.172289098341544],[127.59911629031589,36.172687479985974],[127.59862717482417,36.1737991005807],[127.59831424420604,36.173938938678496],[127.59713998215494,36.17401642404073],[127.59703916807808,36.17419559501883],[127.5963610094007,36.17433404294406],[127.59595255054604,36.174824317144896],[127.5955523754989,36.17510211987911],[127.59485287442395,36.17553823062546],[127.59449614145704,36.17552985947069],[127.59387588230076,36.17652210233224],[127.59332089298917,36.17697243638001],[127.59306048595543,36.17737748248212],[127.59398669038424,36.17816798159166],[127.59401857655078,36.17855840725981],[127.59424079531915,36.17893364508242],[127.59476873364089,36.17932630615976],[127.59491386033066,36.17962365420218],[127.5947905529312,36.18029615311964],[127.59468306062394,36.180483482795914],[127.59465985077739,36.18102450794036],[127.59418744466039,36.18165866029057],[127.59428674411934,36.18182067118677],[127.59424391150263,36.182183482693425],[127.59468661262571,36.182126588917676],[127.59493976042033,36.18224126243677],[127.59544442855105,36.18294787501732],[127.59574745578254,36.18318835849321],[127.59626650863916,36.183375489682334],[127.59742904918785,36.18432522562702],[127.59772001402074,36.18486798375517],[127.59748035054133,36.18503687840051],[127.59701858846218,36.18686846386103],[127.59656948029301,36.18747944849995],[127.59658607198034,36.18764450999975],[127.59625531220742,36.18814237937195],[127.59622656173076,36.188465642617864],[127.5960875272957,36.18847870619012],[127.59537982818621,36.18909558418179],[127.59518155861703,36.18964876767193],[127.5952607817549,36.18979626747447],[127.59489682118411,36.18999969366672],[127.59454851320885,36.190402105298475],[127.59448655034481,36.19064178667846],[127.59456065268488,36.19101701372475],[127.59399662651897,36.19136243646842],[127.5938579384471,36.19154732468146],[127.5934326192165,36.191711055276336],[127.59331183284662,36.19197183344318],[127.59297588541817,36.19223149496122],[127.59292308954593,36.19293572495315],[127.5936118959269,36.19438729008552],[127.59346050679896,36.19458024226011],[127.59279305598936,36.1949171948256],[127.59245780063897,36.195196767994375],[127.59246152856738,36.19534964342697],[127.59274215986675,36.19554314731178],[127.59299999416459,36.195969199768165],[127.59337355955603,36.19608796414159],[127.59419208825723,36.19684028599803],[127.59426284004635,36.19717442036833],[127.59533414409137,36.19896167118201],[127.59641069746354,36.19946545753244],[127.59733593435318,36.20026821489213],[127.59807252820083,36.20151872261445],[127.59825815305891,36.202379147054444],[127.5992800280498,36.20264267286091],[127.59900390150334,36.20334568467771],[127.59913278054191,36.20395505102133],[127.59952878816239,36.20456057644951],[127.59965759521566,36.2050908101656],[127.59943279207785,36.20512606974427],[127.59950696192168,36.20640389969485],[127.59925355435081,36.20727112864775],[127.59886601883578,36.20756262531514],[127.59843194309708,36.20850558487638],[127.59867960458176,36.20886221758423],[127.59894778091395,36.20958698221074],[127.59879203462539,36.210224145821314],[127.5981752974305,36.210696357925876],[127.59746893419836,36.21086060308957],[127.59721647099612,36.21110892736914],[127.59699032414504,36.21157388057346],[127.59630970277061,36.21188309083548],[127.59731963273411,36.21298024652024],[127.59756534599849,36.21372103833662],[127.59796452483029,36.21432731904417],[127.59808682693279,36.21482915430429],[127.59789814162713,36.21526209262751],[127.59798518340864,36.21545212285552],[127.59768483824698,36.21622017420509],[127.59802007252159,36.21708882491911],[127.59777865967078,36.21750023712029],[127.59714899851613,36.21764739067252],[127.59637918953234,36.2184008293153],[127.59576904246038,36.218690184738264],[127.59551144417979,36.21899717019539],[127.5948896363077,36.219233643047396],[127.59464329733784,36.21948173313159],[127.59276362518608,36.21982117311642],[127.59268404865117,36.2208144591046],[127.59244796636946,36.22132443283995],[127.5920173719541,36.22149602518804],[127.59110925979601,36.22165589237759],[127.59065991632806,36.22257150516294],[127.59064007640251,36.223211025878484],[127.59032273698352,36.22439904451383],[127.59059794068456,36.22473485697445],[127.59051002670007,36.22529364376489],[127.58873672295636,36.225495724126134],[127.58772583187339,36.22525498482719],[127.58711686877454,36.224862573079],[127.58656692160125,36.22506091874687],[127.58636220188455,36.22565058782175],[127.586307034532,36.22757782197124],[127.58597150060763,36.22799709406667],[127.58523226707767,36.22964932879417],[127.584903665937,36.22991959209292],[127.58480533431283,36.23024729753477],[127.58445079662839,36.230374523914065],[127.5835819794874,36.231296053364176],[127.58293818770112,36.23141476067455],[127.58242781977296,36.23163000720466],[127.5816795114093,36.231374297238624],[127.58021727864481,36.23184969415603],[127.57954859236963,36.23279647834547],[127.57729431126609,36.23245226563723],[127.57685253148638,36.23251600374367],[127.5748643147124,36.23199767408806],[127.5728537039035,36.233022460696745],[127.57024016773842,36.23352337090746],[127.56903927422177,36.23259795683102],[127.5677238416891,36.232294580247775],[127.5669887976887,36.231969044310745],[127.5656967789458,36.22944113527593],[127.56514490078315,36.22874081694451],[127.56431121885936,36.22805041707461],[127.56368932012055,36.22769297648509],[127.56380884740595,36.227523940641284],[127.5632757409322,36.227971025108126],[127.56267329857843,36.227954222448346],[127.56264216163298,36.22789281728138],[127.56252287804163,36.228355087767554],[127.5623148148707,36.22860431170149],[127.56204852892984,36.228670994209416],[127.56157850676856,36.2289668900172],[127.56022166262314,36.22876832958208],[127.55825314333286,36.22753856491391],[127.55688470896268,36.22723299761696],[127.55603118545777,36.22715242581792],[127.55568587330343,36.226749476070935],[127.55437103138586,36.226186418125536],[127.55282909712365,36.2258627725302],[127.55095346510898,36.225870904777295],[127.5489959910663,36.22543839636047],[127.54775090132252,36.22531875055332],[127.54644276664561,36.22527002219208],[127.54533094194657,36.225513676908015],[127.54498353873839,36.22715284445745],[127.54509389866763,36.22842582995447],[127.54608725915313,36.22929679280567],[127.54650803684628,36.23049968382507],[127.54712239211547,36.231482801437636],[127.54747266202244,36.23230167375433],[127.54818646164968,36.2343051180257],[127.54869387029541,36.23624476789941],[127.54877616984827,36.237718811503036],[127.54924539353917,36.237877380128836],[127.54986112416381,36.23842426106761],[127.54943662446014,36.23933173663701],[127.54908015901306,36.2397299610096],[127.54721712254378,36.2396004121736],[127.54614589250718,36.240075087599784],[127.54536531506521,36.24058073828164],[127.54510615841167,36.24088629855242],[127.54342323597561,36.241550469665015],[127.54252811648759,36.24165200189489],[127.54227888072893,36.24141025994181],[127.54164896000853,36.24161323856046],[127.5404115434802,36.24181571918639],[127.54004962105614,36.24213999781937],[127.53947071161498,36.24223810299801],[127.53847502829662,36.24265294378565],[127.537917668465,36.24277783241272],[127.53775377518262,36.2433169310042],[127.53739434601756,36.244015659078315],[127.53669201482045,36.24473797001095],[127.53659336616464,36.24492856963357],[127.53655343580857,36.24514685970727],[127.53664989852439,36.245322518483846],[127.53645285216797,36.245639984569635],[127.53595096587206,36.246045162857165],[127.53579256820649,36.24624705819983],[127.53585939799196,36.246374457071006],[127.53575319142172,36.24644082543765],[127.53580279394345,36.246621569212124],[127.5350886868533,36.24732396125959],[127.5356792327431,36.248636705065465],[127.53570017252835,36.24904563778582],[127.5363733760992,36.24996541774036],[127.53681077987792,36.25085727682769],[127.53624233195669,36.25123052890017],[127.53482655604104,36.250960167856725],[127.53257240058257,36.250889216569824],[127.5319788079502,36.25015913932459],[127.53137773645689,36.24968754994249],[127.5312201217574,36.24938187328876],[127.53079365174472,36.24918469074669],[127.53044457835558,36.248705961455066],[127.52960813766627,36.24861750147438],[127.52900240025052,36.24817760533651],[127.5288766624618,36.24817654757419],[127.52844875606472,36.24841024259831],[127.52773801982997,36.248496089866926],[127.52694907758989,36.24833573536169],[127.52622552355328,36.247085207573285],[127.52579586844313,36.247063587888135],[127.52453229055328,36.246750371435034],[127.52384670521617,36.24648967333364],[127.52351654898652,36.24534086798596],[127.52284495676155,36.2449517831545],[127.52189490604832,36.243849090873226],[127.52117935774089,36.243843090898764],[127.52055656008488,36.2433005627923],[127.52012974231165,36.24254686455965],[127.51864055768849,36.24136194126329],[127.51812924953585,36.240641072706936],[127.51748684820397,36.24054633523054],[127.51656370359885,36.24052390059729],[127.5162787175018,36.24063672824039],[127.51573214555556,36.240540120070456],[127.51536583598343,36.24063898566038],[127.51474279860255,36.24122052393609],[127.51367685518704,36.24033113004644],[127.51322733238258,36.240665509000806],[127.51303140132217,36.24054543664931],[127.51253736640645,36.24071409162747],[127.51195399426983,36.24069247697949],[127.51173862027359,36.240469920732515],[127.51163554836977,36.2402039810593],[127.51032882986804,36.23925237463682],[127.50949311085277,36.23892101118027],[127.508321144967,36.238734804009646],[127.50740823159492,36.238710173941],[127.50650943686789,36.23833423938292],[127.50629793407722,36.23831739877223],[127.50584433718767,36.23845892048876],[127.50555284841589,36.23841606346459],[127.50501598346976,36.238154747010846],[127.50513826054129,36.238173661928634],[127.50497677771283,36.238072760917525],[127.50393527041821,36.23806617144933],[127.50306031626886,36.23788206271492],[127.50262138385243,36.23788673148998],[127.50216721359598,36.237645810774],[127.50198795426314,36.2376433427147],[127.50139453148844,36.237856357836776],[127.50100635211969,36.23774963883613],[127.50042950201188,36.23809760422386],[127.49992948591584,36.23819879049091],[127.49960024069598,36.23818834799335],[127.49923113723487,36.23829529446793],[127.49906167947252,36.23824447060409],[127.4987530016984,36.23829676899581],[127.49808439396405,36.23812031073697],[127.49748032409559,36.23834237142741],[127.49625439762598,36.238345158502156],[127.49585008500341,36.238212427638935],[127.49451907146177,36.238224615429424],[127.49266036157326,36.23796555488205],[127.49253780695305,36.23736566104555],[127.4914682262208,36.23751528254322],[127.49055151400307,36.23742596837528],[127.48994815115711,36.237129510168806],[127.48976271548955,36.2363696968284],[127.48933476815614,36.23575102421427],[127.48997551450587,36.23460240336032],[127.4899442065094,36.23350166557044],[127.48879058635494,36.233101891931426],[127.4884540869659,36.23263163725858],[127.48769678563073,36.232784230938194],[127.48729191419898,36.23294642061043],[127.48645817129699,36.23256267329446],[127.48575814255985,36.232020401421494],[127.48530368266997,36.23203669444207],[127.48441739385278,36.23113080171563],[127.48352459392508,36.2304242416457],[127.48296295414711,36.23052649001422],[127.48258123487346,36.23047859469278],[127.4821710436724,36.2306690870179],[127.48165454545016,36.230488815120445],[127.47956369385662,36.230206933622824],[127.4778501502635,36.229738068269775],[127.47794778909217,36.22881217354867],[127.47817133155942,36.22831605635735],[127.47803887097801,36.22796784333931],[127.47797148084733,36.22684827451668],[127.47710885725543,36.22619323637681],[127.47687280942611,36.22603493650222],[127.4762768740638,36.226099384178426],[127.4747889637824,36.225426200377306],[127.47444794003668,36.224959222516105],[127.47245725240847,36.224705575807356],[127.47206453406078,36.22487106536896],[127.47104548780162,36.224664830981915],[127.47011234780905,36.22359151996997],[127.46915241493554,36.22351760172526],[127.4677057656548,36.22315345473688],[127.46706497849203,36.22246555149927],[127.46710323636232,36.22172202402815],[127.46748165398054,36.22079843132538],[127.46726218498213,36.22042284243478],[127.4672856934314,36.22005811237868],[127.46740612364445,36.219933280818026],[127.46724960955264,36.21911571314536],[127.46729772339921,36.21867303533095],[127.46763686135479,36.21811405214797],[127.46764356744933,36.217143088392646],[127.46803656461402,36.216772556597604],[127.46925983463257,36.216058466924096],[127.46926237981609,36.21586038543186],[127.46953901537601,36.21527535332831],[127.46877389750507,36.21457967139774],[127.46716872870996,36.21428994406923],[127.46653324561973,36.21425420412675],[127.4661227440151,36.214065817221815],[127.46523303572815,36.21433555285135],[127.4636656443868,36.214018281035806],[127.46352289960207,36.21370662258479],[127.46308331655105,36.21366896477649],[127.46274521995522,36.213547697264914],[127.46246022313237,36.213660867853385],[127.4608858548175,36.212859341867905],[127.46019026358849,36.21293140878198],[127.460009433537,36.21263097138702],[127.45987444383343,36.21197198240498],[127.4599428608343,36.21167690501467],[127.45989072234116,36.211300391462466],[127.4595038420095,36.210638653115765],[127.45910670655009,36.21022921225575],[127.45923043057819,36.209755598676345],[127.46031835618166,36.20989571196605],[127.4601772131208,36.20962990783524],[127.45930687293014,36.20923822143099],[127.45859155704895,36.20879877974534],[127.45816756606791,36.208813735279946],[127.45748526622378,36.20849174689342],[127.45639888735943,36.20813032337147],[127.45609487687092,36.20798229640331],[127.45555854616623,36.207470161221096],[127.45423793457248,36.2070814063234],[127.45416314729847,36.206599375002234],[127.45564193706059,36.20439689184524],[127.45619397537652,36.203921771025605],[127.45643267312323,36.20352150259704],[127.45631514226147,36.20275862506649],[127.45608595945758,36.202290589917986],[127.45588706186528,36.20107872290135],[127.45565319219351,36.200851537908626],[127.45480753752004,36.200815117567004],[127.45391690364825,36.200399849335255],[127.45339434771006,36.20001109630126],[127.45270143610296,36.199866978125705],[127.45229722450954,36.19954586626386],[127.45189015070146,36.198730453004124],[127.45154345054794,36.19871741897729],[127.45082904286737,36.19886594344657],[127.45041597835389,36.19848552385271],[127.45016545080394,36.198087784823194],[127.45013807083677,36.19786861031214],[127.44999176750545,36.19773489053849],[127.4491546786309,36.197470830261786],[127.44887667124932,36.19674765704546],[127.44819407348342,36.19671971798132],[127.44736064088029,36.19650887598216],[127.44587664109389,36.19598498027229],[127.44544537084198,36.19557717984405],[127.44518480165299,36.19552549760643],[127.44487057065986,36.19556391682804],[127.44477962408087,36.195410495290794],[127.44451637343013,36.195295205862216],[127.44436562675331,36.19497861269622],[127.44392957260727,36.1947096545361],[127.44354888202885,36.19479024861113],[127.44171164104903,36.19456241351817],[127.44095237006177,36.19489891471798],[127.44096342859974,36.19543051165588],[127.44073921825255,36.19670245457423],[127.43936855092473,36.19732998191872],[127.43821206210808,36.19716601982006],[127.43799714756034,36.19741022365458],[127.43730487300176,36.197739464204616],[127.43715520456801,36.19819467664252],[127.43676001554196,36.19850613298395],[127.43609679430678,36.198352877233056],[127.43525387722,36.198607233370836],[127.4346893945857,36.19840389621828],[127.43430161437156,36.19838875770326],[127.43391359092776,36.19841041514549],[127.43354285408523,36.19855700798968],[127.43292582203158,36.200093157262586],[127.43255846333746,36.20056951216972],[127.43228188348,36.20119741610132],[127.43119359134333,36.202117082921916],[127.43119894133294,36.202711369741095],[127.43093169570537,36.20410706338862],[127.43083929005348,36.204119582330726],[127.43084892712427,36.20418126475521],[127.43041462800377,36.204251735287436],[127.42937061664254,36.205205733279826],[127.42788975089717,36.205151287457014],[127.42643658863214,36.205967236503476],[127.42557077842692,36.20584291478983],[127.42499400125811,36.20610571558564],[127.42391807078728,36.20604741757447],[127.42360128252737,36.20622053497226],[127.42271341831658,36.20739565985917],[127.42231648303704,36.20813789757387],[127.42126012097485,36.208133687549626],[127.42030922783808,36.207947155028215],[127.4198143092998,36.207437281887856],[127.41979172809168,36.20719358873305],[127.41959425892324,36.20713661088837],[127.41805420349156,36.20805958891358],[127.41722034065698,36.20844825305882],[127.41676187430737,36.20843439631052],[127.41645272185501,36.2086989779706],[127.41566549983277,36.208877949500675],[127.41530281473513,36.20904869997563],[127.41498899000122,36.20932693589374],[127.41498813375058,36.20960843466219],[127.41455147150664,36.209976157727056],[127.41398489649998,36.2101364247179],[127.41350275441624,36.210415030550614],[127.41215803356266,36.211426009707715],[127.41133600263501,36.211619868690306],[127.41049530467886,36.21165293788868],[127.41011998568618,36.21176969740656],[127.4093491521984,36.21243329320329],[127.40813576493991,36.21297297247686],[127.40859521198095,36.21343345712994],[127.40882971811237,36.213939909867634],[127.4089977837428,36.2146917780064],[127.40892999528187,36.214793661512196],[127.40984979099947,36.21578435732536],[127.4100662470179,36.21592640253132],[127.41070960496658,36.21682071575286],[127.41070354855908,36.21746446299498],[127.40987256336291,36.218327648385554],[127.40972162467627,36.21894696569534],[127.40945865040308,36.21926334927378],[127.40927929414134,36.219268106209555],[127.40889740612421,36.219561175018896],[127.40872574607552,36.21976536316566],[127.40839356537718,36.22054581326917],[127.40798759098132,36.22068235241943],[127.40753393381893,36.221352069721675],[127.40701365605625,36.22147828806093],[127.40576562493135,36.22157074500364],[127.405353135678,36.22194774511552],[127.40474053378385,36.22229876755858],[127.40471143104314,36.22271324403294],[127.40419232455285,36.22347007535816],[127.40408419653234,36.22384151362498],[127.40324444395505,36.22496423114951],[127.40318939680442,36.22532486384841],[127.40254531768409,36.22578733806907],[127.40168822273533,36.22833508948669],[127.40144706763257,36.228650085342316],[127.40132356258272,36.22939588067167],[127.40095911936653,36.23007913196115],[127.40101485053172,36.23120851083354],[127.40075013817658,36.23207737105784],[127.40087774678996,36.232337696515636],[127.40072822501381,36.23254553876411],[127.40087961088696,36.23290980571696],[127.4006580444139,36.2332017360484],[127.40024446323609,36.232876300643646],[127.39922496695053,36.232525203310075],[127.39848347340276,36.23257812548894],[127.3978721897996,36.23278298761835],[127.39740847626734,36.23225013022285],[127.39657075881911,36.23212944757917],[127.3959869796954,36.23258170261301],[127.39506091333546,36.2324820615038],[127.39491087528192,36.23261660829254],[127.39414025602373,36.23256521088114],[127.3929135661223,36.23342030264032],[127.39258528354918,36.23351392014368],[127.39197532099446,36.23341180499931],[127.39157843011175,36.23349034862786],[127.39154873187016,36.23375724258922],[127.39026054902682,36.23348744682081],[127.38980160684926,36.233518514653305],[127.3891365977762,36.23396407449135],[127.38736783384937,36.234274237384824],[127.38731924479623,36.23470877530003],[127.3870735476023,36.23526296604061],[127.38741497855985,36.23614223686755],[127.38725187716936,36.2373055819859],[127.3890271474265,36.238149309597695],[127.38959070924179,36.239045503545555],[127.39033162621722,36.23953620871599],[127.39061367844864,36.24062087676688],[127.39020267519855,36.24099578084588],[127.39024238791819,36.24145357951698],[127.38994515881285,36.241773285443735],[127.39008724814335,36.24212005948658],[127.39084139167025,36.24280178817548],[127.39083719669341,36.24296283493593],[127.3904204645184,36.243126726712305],[127.39031610118367,36.24345705360244],[127.39038644586353,36.2435809343326],[127.38957382305753,36.24399168475626],[127.3890903723842,36.24461298735611],[127.38845644078772,36.24501883429002],[127.38788028037361,36.24589384807628],[127.38819229335186,36.24635763042448],[127.38812887483341,36.246797559660216],[127.38788633052772,36.24698722928695],[127.38747647278804,36.24786686467425],[127.38740190783419,36.248301918125826],[127.3870848806203,36.24867705625269],[127.38738552011652,36.24903533144081],[127.3875057370626,36.24959673906791],[127.38707863855537,36.2496565570285],[127.38680576229667,36.24998727304488],[127.3868050335242,36.25037140379384],[127.38641414317775,36.250740889457504],[127.38659986855264,36.25101091039887],[127.38656926027183,36.25157528607653],[127.38674581844104,36.2520821638394],[127.38651678262995,36.25262845188941],[127.38680810428987,36.252993107885885],[127.38684276088124,36.253305659548964],[127.38751326413455,36.25404295483565],[127.38792554273118,36.254283229515806],[127.38816020775992,36.25429332297985],[127.38817654082193,36.25457983636569],[127.38858523521333,36.25502888040287],[127.38871343678088,36.255380566681744],[127.38886533851408,36.25648737785425],[127.38911691479069,36.25682895995161],[127.38900423833249,36.257129848651765],[127.38880712941523,36.257309884652265],[127.38891502629548,36.25769195575037],[127.38870420853455,36.25802082736424],[127.38905573997714,36.258753090310464],[127.38894165245881,36.25896658622689],[127.38914969873944,36.25926416247522],[127.38989321987454,36.25940693062839],[127.38998355175805,36.25963829319634],[127.39006178819972,36.26041775194928],[127.39033883009046,36.26094345752203],[127.39022844050606,36.26129731378781],[127.390155261834,36.26228475343269],[127.38973294437197,36.262739786821314],[127.38954618112817,36.26310289218263],[127.3882715224473,36.264117525425775],[127.38819144257944,36.2642727144306],[127.38675504165155,36.26533661939085],[127.3862833740956,36.26604648989999],[127.3857422821201,36.26623936111387],[127.3856600815131,36.26583586971618],[127.38490741154587,36.26625920805079],[127.38439573127813,36.26666283782385],[127.38372677252504,36.26741435552649],[127.38336459914044,36.26797053005094],[127.38331062870343,36.268531166082305],[127.38292259154446,36.2685739748828],[127.38284710722759,36.26872068466899],[127.38083237328648,36.26848374585098],[127.38083679829323,36.269529687262974],[127.38015357930253,36.26966759676308],[127.37982062796296,36.269605378258234],[127.3796046883849,36.27013244162976],[127.37890986669471,36.27053915920715],[127.37761346848778,36.27146938722713],[127.37732800043554,36.27146089424298],[127.37692694465491,36.271317899827395],[127.37632227951751,36.27162842539933],[127.37504529695882,36.27199113424948],[127.37416799508802,36.271913315605026],[127.37340472855688,36.27216243316306]]]}}
