{"type":"Feature","bbox":[126.67845208290777,36.07103232355498,127.07031423610131,36.38704140415343],"properties":{"regionCode":"44760","version":"vworld-20260909-3f8952dfda77-p2","name":"충청남도 부여군","attribution":"국토교통부/K-Geo플랫폼 · VWorld 법정구역정보, CC BY 2.0 KR; 두꺼비집 가공"},"geometry":{"type":"Polygon","coordinates":[[[126.8498782097302,36.38565429994997],[126.84879659434071,36.38704140415343],[126.84782589170112,36.38639113102542],[126.84523420999766,36.385423149416596],[126.84477866942306,36.385628163011916],[126.844138695503,36.38551549490582],[126.84341189933514,36.3856788545126],[126.8420164775245,36.38574407449982],[126.84134742308947,36.38516697270407],[126.84070153941408,36.38520094329661],[126.8382455762255,36.38419102040969],[126.8373687156863,36.38438369285228],[126.83712828077182,36.38422450476197],[126.8362582870516,36.38404204389469],[126.83568425665288,36.38383681895568],[126.83188478592814,36.38494776334818],[126.83052591922223,36.38496953549362],[126.82861938841556,36.38428941083682],[126.82737573784765,36.383371901008175],[126.82625022962921,36.38289736725547],[126.82573283695278,36.38301058679202],[126.82497296939432,36.382902723347215],[126.82415593410374,36.38220023299302],[126.82396392274829,36.38184060735002],[126.8235074353602,36.38164795235816],[126.82306430428793,36.381585254819676],[126.82264231212748,36.38136911994951],[126.82168871543826,36.379919599440704],[126.82104086907607,36.37992104679198],[126.82101384225743,36.37950702060782],[126.82020932959595,36.37799967719268],[126.82004492671554,36.37784793191775],[126.82009661285592,36.37750732412796],[126.81919444096934,36.376711455090756],[126.81802231187167,36.376557100558315],[126.81754751711716,36.37675702336351],[126.81523972954172,36.376683238554286],[126.81299798314468,36.37685536073745],[126.8113789044109,36.37638670241259],[126.80890195414898,36.37602432227043],[126.80768284726783,36.37464965494777],[126.80669935319088,36.373352948303776],[126.80679064884224,36.371686339724114],[126.80645356681718,36.36991114474365],[126.80533238008144,36.369219119347086],[126.80454549586584,36.368037914895254],[126.80474959953878,36.366904651078116],[126.80463373185985,36.366561815956885],[126.8047387967171,36.36618038881529],[126.80446632501692,36.36586344962638],[126.80355589997478,36.36424887616925],[126.80359953564208,36.36376840064737],[126.80344793734918,36.36342881240028],[126.80284181399514,36.36283665513007],[126.80174529914304,36.36235654110873],[126.80102794491714,36.36226356309258],[126.79999344010129,36.361849439049294],[126.79855795373521,36.35954903237163],[126.7982070278493,36.35941971490852],[126.79736045398757,36.35878421457555],[126.79770861609487,36.35844631095387],[126.79781991617611,36.35782735036219],[126.79753909373585,36.35732874031884],[126.79743769090247,36.35651990959684],[126.79772859738239,36.356046244479984],[126.79725009914053,36.354884981009384],[126.79596074734,36.35414556534506],[126.7946179669787,36.35348682563221],[126.79381494331106,36.352470199446365],[126.79085514550665,36.351660084102896],[126.79026313670009,36.35294832908565],[126.79037138852449,36.35402219410964],[126.78893423038845,36.35456678515512],[126.78758649025029,36.35481182282421],[126.78629252277227,36.356099382798156],[126.78497938426418,36.35690343323101],[126.78148690761537,36.35647774882325],[126.77993942656934,36.355633728963284],[126.77826076976932,36.35567951140815],[126.77784509621712,36.355196904760945],[126.7760051275303,36.354315364028885],[126.77461978130171,36.354092710437214],[126.77354572573122,36.353503787567746],[126.77277797999407,36.353424742069954],[126.7718903284015,36.35390626313611],[126.77107360250234,36.35359002142563],[126.76763211074554,36.35343566966663],[126.76668841650879,36.35261727965693],[126.76647120029675,36.35261245210033],[126.76505423567718,36.35310501306367],[126.76450977608447,36.35322344915023],[126.76369598692045,36.35360216326973],[126.76273634538629,36.35457906526535],[126.76129035710933,36.35523489778737],[126.7602228890103,36.35529735338032],[126.75962646529713,36.355441207093314],[126.75842892707736,36.35530462921717],[126.75772286126495,36.355130844354164],[126.75702598381619,36.355154624260734],[126.75515306181357,36.35593596032533],[126.75361683062692,36.35556534119408],[126.7527244237818,36.356002049681365],[126.7523553102496,36.35591022711708],[126.75073127127467,36.35743863965032],[126.75073676268526,36.35769992840104],[126.75052581559235,36.35815006178948],[126.7500194400452,36.35864417204994],[126.74980404976574,36.359112228978475],[126.7491165137939,36.35985527303904],[126.74927130512391,36.36025230194237],[126.74948287331476,36.361628150274086],[126.7488295661456,36.36178023416975],[126.74812351952647,36.36250719698695],[126.74836035347424,36.36293728791864],[126.74766316850332,36.364169599771685],[126.74781585885808,36.364561941792125],[126.74841676989723,36.365001319883],[126.74831659371179,36.36601773492945],[126.7476203678538,36.366016058773454],[126.74652499729328,36.36615048800822],[126.74607272632286,36.36582824757709],[126.74579538441259,36.365740997324465],[126.74552523119858,36.36531308375066],[126.7452745347467,36.36518495995108],[126.74460864394557,36.365055105493475],[126.7440999413184,36.36351121714079],[126.74387575865296,36.36326471420555],[126.7436833074809,36.36327614074193],[126.74310785444204,36.363524115061345],[126.74284835916528,36.363807944867084],[126.74226795997689,36.3636068080268],[126.74130818851876,36.363541072802114],[126.74077593276284,36.364301176352775],[126.73908650944497,36.365597243788514],[126.73853640867142,36.36640777121366],[126.73868592650425,36.366849384742814],[126.73872058850226,36.367367533296054],[126.73920018785742,36.36783062618252],[126.73917473369482,36.36853938666069],[126.73856170417248,36.36913277433077],[126.73882578046056,36.36997201851372],[126.73884570120612,36.37059951673231],[126.73952149821585,36.37145193126995],[126.73933608767624,36.37324100885709],[126.73888568903585,36.37411235107629],[126.7385903161447,36.37507595069733],[126.7377915120419,36.37585947751221],[126.7374133733909,36.3760312150138],[126.73603240819746,36.37711487437739],[126.73522473555701,36.3785056510609],[126.7331531295332,36.37778819290375],[126.7322906298395,36.37776967118694],[126.73171036956666,36.377893353264426],[126.73058885878754,36.37759135636108],[126.72981958235356,36.37730087900332],[126.72919666843512,36.37687293551012],[126.72674019558342,36.3764873798929],[126.72537809711083,36.37572005275192],[126.72514869246078,36.37570627374068],[126.72484909820214,36.3754044994711],[126.72469432621257,36.37502213521185],[126.72481651818478,36.37489361695055],[126.72468723902348,36.37456330917691],[126.72482034177798,36.374395710794566],[126.72479362657691,36.37396566527183],[126.72494177803597,36.37324585944408],[126.72503979812453,36.37313488979492],[126.72462648341765,36.37223271200194],[126.72445332421252,36.371160876527256],[126.72158492463382,36.37096494719268],[126.71576848835457,36.36963905150207],[126.71509777204406,36.369324116853264],[126.71020553168536,36.36861316481189],[126.70835366500516,36.36802066878033],[126.7050298284444,36.36649655050832],[126.70381027284982,36.364763969745034],[126.70385006233975,36.364157978009416],[126.70262166240101,36.36155839250805],[126.70368192959543,36.35826969830827],[126.70402234629377,36.35573327492095],[126.70442484175273,36.354419289681445],[126.70422624591538,36.35403480895168],[126.70422121135918,36.35368851255395],[126.70365475784344,36.35285545483797],[126.70362979149729,36.352305265079416],[126.70412182375227,36.35056279691525],[126.70336901332952,36.34988002468987],[126.70266768891804,36.3495129648381],[126.70155929182712,36.34865732959933],[126.70112685059101,36.34861298939984],[126.70017383315118,36.34876538185199],[126.69978355633523,36.3485907236884],[126.69960760194238,36.34761488800235],[126.69961885469039,36.34697647216605],[126.69938756819354,36.34636822797057],[126.70022628858395,36.34517988941042],[126.70023461582252,36.344892150593246],[126.69979434320908,36.344235174923185],[126.69980312406247,36.343642279534464],[126.69930250247528,36.34305579308809],[126.69770097262875,36.341531187572315],[126.69770457594649,36.34130895913739],[126.69698908690431,36.339651098662685],[126.69758091062688,36.33649743735392],[126.69566375080412,36.33439397645623],[126.69320871161322,36.33421450969659],[126.68981613011452,36.335342604864536],[126.68812778417525,36.33276171078607],[126.68403950963766,36.33115143058509],[126.67845208290777,36.33163799258899],[126.67872938957517,36.32775132294606],[126.68317076052556,36.323951311469884],[126.68419069354701,36.32233191697802],[126.68313557191736,36.31994456881524],[126.6836141021372,36.318170724785304],[126.68275202159126,36.31844127008149],[126.68008359387177,36.315571398320515],[126.680294747672,36.31368066057596],[126.68232272770949,36.31064401834451],[126.68256731957257,36.30825746351392],[126.68551075400211,36.3056595166326],[126.6870814473199,36.305130647274844],[126.68969565056648,36.303808777665395],[126.69020400509886,36.30276318652887],[126.69052783126305,36.302418968076964],[126.69276384268476,36.30163653757635],[126.6933255969547,36.30091541364058],[126.69438081291491,36.29852562632381],[126.69198074667509,36.29742308442782],[126.68874068800457,36.29396149027708],[126.68857997966923,36.29340203076364],[126.68729552566589,36.29113345217713],[126.69059483210269,36.28929520509792],[126.69196752928845,36.28811906686473],[126.69357216373871,36.285732675054945],[126.69672695505119,36.28339833587371],[126.69453645805405,36.28202949074115],[126.6927369366981,36.28068895714153],[126.69233730679677,36.28049497307863],[126.69267589134185,36.2789835752859],[126.69420561279787,36.27812709427219],[126.69525425538892,36.27791481640451],[126.69600530580055,36.276755365692736],[126.6964043598398,36.2763793205288],[126.69661602294687,36.275541697868974],[126.6960367991719,36.274427638998674],[126.69573513892796,36.273370646460684],[126.69498414654181,36.27254883955431],[126.69459387002448,36.270420895547915],[126.69449104009028,36.27044295211698],[126.6942054413722,36.26887418009529],[126.69918521097055,36.267995138551036],[126.70172641393376,36.267243836520805],[126.70218758383936,36.26694738481863],[126.70387174588717,36.26641508549426],[126.70724694169769,36.26456163425096],[126.70973686733286,36.26290375178498],[126.71345554552089,36.26146395587358],[126.71818032373659,36.25872645273557],[126.7185048827032,36.258670908292636],[126.71846161216546,36.258192203426944],[126.71857839534341,36.257601798897554],[126.71843485328584,36.25690839211072],[126.7187254511221,36.256233407204675],[126.71916908633949,36.255623182251384],[126.72013754513198,36.255235041096284],[126.72202579939479,36.25568954529106],[126.72281663775253,36.25596917178336],[126.72406482386411,36.25604356488703],[126.72586159458328,36.2568167446021],[126.7267912159109,36.256987332013516],[126.72768298271788,36.2574554235799],[126.7285122121283,36.257326315237464],[126.7290320284401,36.256921208497786],[126.72959390096842,36.256930443505006],[126.73008186177958,36.25677384493308],[126.73071087634219,36.25677272814259],[126.73109781392031,36.25660245030678],[126.73164499069456,36.25660378475598],[126.73194881756486,36.2568644646797],[126.73277355882023,36.256768403911565],[126.73342494881565,36.25650645733098],[126.73358229805169,36.256173677295855],[126.73472268725169,36.255907645373455],[126.73546647600753,36.255641623174434],[126.73596083160794,36.25513516414574],[126.7371605391436,36.25468024354851],[126.73774410615309,36.2543274638547],[126.7387870683116,36.25399418482103],[126.73870931967161,36.252626769069465],[126.7382412759647,36.25047410362075],[126.7377900431643,36.24888507470255],[126.73713193437456,36.24734865796214],[126.73627591733437,36.24634324811504],[126.73560016710452,36.24311352051803],[126.73695114817208,36.2414103060499],[126.73585292112206,36.24104409814198],[126.73522003173167,36.24072932411231],[126.73523811568383,36.239644746713026],[126.73475277710402,36.23915569841975],[126.73473324839652,36.23882299042088],[126.73436538761777,36.23828281767019],[126.73402490757007,36.238023316973404],[126.73229378135065,36.23720877921548],[126.73154136718979,36.2369901047961],[126.72937868517546,36.237584759909055],[126.72857799965178,36.23761147618792],[126.72789687242825,36.237467056113424],[126.72708737445434,36.23767006896843],[126.72647926929803,36.23748127028757],[126.72544033372272,36.237783635653976],[126.72487176181717,36.237486244424474],[126.72444029054611,36.23700498446803],[126.72372929637639,36.23716899251306],[126.72260664477989,36.23699220018929],[126.72194241685065,36.23671450667685],[126.72146749131828,36.23589184923213],[126.72056621529768,36.23580276939114],[126.72037641444501,36.23549915657277],[126.71987457502952,36.23509705409993],[126.71825185417278,36.23454014892127],[126.71809018024813,36.23396665285969],[126.7181955583109,36.23351866082934],[126.71847238664138,36.23302062488724],[126.71814060998452,36.232204803107685],[126.71839483628119,36.23181024362598],[126.71807518303795,36.23152598207747],[126.71788536940427,36.23093534373634],[126.71710682928814,36.230261360564135],[126.71590360293057,36.229613226273116],[126.71569618483744,36.22923269056282],[126.71506427309978,36.22890250863],[126.71526219848263,36.22825127645915],[126.7152244402234,36.2271395505501],[126.7159003263104,36.2256593327498],[126.71583525753483,36.22463158401996],[126.71563731882372,36.22414944220346],[126.71567415620805,36.2237218079825],[126.71537928152087,36.22310738449368],[126.71540459902529,36.22270028744663],[126.7152837774806,36.22204730118845],[126.71578124126631,36.22164462104925],[126.71567438421525,36.221445384574906],[126.71614279855359,36.220244240664876],[126.71578972356298,36.22000302574556],[126.71555813313077,36.21952671586388],[126.71556829696328,36.21860722694806],[126.71491749741485,36.21858805112559],[126.71390727168648,36.218334414386916],[126.71380738900025,36.218085758349396],[126.71415850901845,36.21761659579228],[126.71413861705716,36.2173993789462],[126.71346952857837,36.216492361712085],[126.71371138029826,36.21583704693476],[126.71367574543653,36.21523357698097],[126.71376729314686,36.21443773261273],[126.71316667538926,36.21443025633545],[126.71270825132456,36.214129009463214],[126.71249985555302,36.21409886662167],[126.71181799161488,36.21370510140913],[126.71135879827503,36.21343377712307],[126.71074563122477,36.21289762814222],[126.7104819535663,36.21288089266297],[126.7101743586632,36.21248295146396],[126.70999985748375,36.212376413636534],[126.70935292505332,36.21221677581493],[126.70874646033464,36.21188218490714],[126.70869461372683,36.21164951438701],[126.70817337964438,36.211158277829895],[126.70627691688497,36.21054189618648],[126.7054776806138,36.20928365181549],[126.70474555054858,36.20896952225698],[126.70397404279261,36.208869006816535],[126.70369219092566,36.208730909568914],[126.70348989518105,36.20841015258912],[126.70326535606003,36.20720887151514],[126.70300641313946,36.20686414873096],[126.70280573585431,36.20621036465158],[126.70166483872214,36.205968758445565],[126.70111686990359,36.20596158226012],[126.70019957624189,36.205685676143524],[126.69952355205295,36.20565929596149],[126.69847441482952,36.205301394320244],[126.69801884289163,36.204808288710865],[126.69851228473962,36.203830734974915],[126.69872680538936,36.20365357155231],[126.69912048659079,36.202723328690716],[126.69874044746085,36.20203985767904],[126.69814355644435,36.20142281309388],[126.69784411346001,36.20015978859713],[126.6977856100021,36.19943546020783],[126.69736406058223,36.199093639694844],[126.69706706109096,36.198206813850675],[126.69655150082636,36.19711354302712],[126.69604873713736,36.19631940851516],[126.69564527206194,36.19585282057147],[126.69560837135558,36.195300710643444],[126.69534264180119,36.194981467788374],[126.69489486912687,36.19478409776153],[126.69454633009421,36.19332907226439],[126.69446773512868,36.1926919618892],[126.69452275410269,36.19248738547435],[126.69388562133894,36.19199553901138],[126.69367577867364,36.19192290228471],[126.69310842753276,36.191437644999795],[126.6920647104518,36.19015002720932],[126.69448174725083,36.18902757656663],[126.69515396581808,36.1884122129076],[126.69537066505927,36.18791230775579],[126.69534998112177,36.18763074792851],[126.69566800128989,36.18720699824445],[126.69685146182985,36.186436014717096],[126.69703763302822,36.18610166028012],[126.69746292700894,36.185626357513],[126.69759220583438,36.18534705636696],[126.69760440687584,36.18473222871547],[126.69816081606764,36.18466554322119],[126.69900193658938,36.18354303269924],[126.69937686890198,36.18323849264897],[126.69996963667884,36.18314020664608],[126.70032605224709,36.18265662018527],[126.7000591459227,36.18222345540516],[126.6996695920194,36.18187042119669],[126.69974651677347,36.181562875591275],[126.70000729814717,36.18120862202672],[126.70004868011853,36.180129725968605],[126.70049852619371,36.17947094633844],[126.70092121741926,36.17937964589835],[126.70180413004597,36.17936257200618],[126.70248919330646,36.178682745750976],[126.70376889725587,36.1784731434548],[126.7048165350163,36.17807627055094],[126.70575527818191,36.178109593613414],[126.70698699406961,36.178474686415356],[126.70759866158883,36.178027176337444],[126.70819702581865,36.17802491302235],[126.70888332974407,36.177765190533904],[126.70941475205763,36.17732855964147],[126.71005343005731,36.17697447603707],[126.71045757422137,36.1766013723558],[126.71085276435787,36.175985744010866],[126.71209387717445,36.17563420889255],[126.7136703404321,36.17545052226591],[126.71490286057721,36.17561802017995],[126.71533724526118,36.175320935798965],[126.71604063837421,36.175371448656705],[126.71644131139979,36.175695518395564],[126.71737411250098,36.17580099336536],[126.71787152594595,36.17568300825606],[126.71837596722682,36.17516159972327],[126.71898286247374,36.175154469728696],[126.72029368459803,36.175379122785536],[126.7209212989363,36.174948398340995],[126.72128331220904,36.17505594019071],[126.72179504845532,36.17549906540188],[126.72225237404122,36.176222838530414],[126.72261708418935,36.17621755142532],[126.72351495269275,36.176008154902426],[126.72422609705531,36.17650556283387],[126.72533772174009,36.17625439157351],[126.72583730271047,36.17638404291666],[126.72705154848839,36.176219082878404],[126.7272926414579,36.176076740387884],[126.72761272603006,36.17607357155927],[126.72799731019056,36.17662851579559],[126.72839484266719,36.17783514480071],[126.72971850707948,36.17903492944861],[126.7307041156998,36.179540164553245],[126.73291445571505,36.180869659025646],[126.73398221499717,36.181351432412555],[126.7344239630724,36.18186338815486],[126.73525255529766,36.18207087866327],[126.7355242325911,36.1818924695124],[126.73616715544064,36.18190103255304],[126.73710211608193,36.18204860708622],[126.73812974370998,36.18231020883628],[126.73870721284196,36.18208970324804],[126.73972569332587,36.18236956692648],[126.74112264439383,36.18308559546347],[126.74193828231024,36.18336769016967],[126.74340490799045,36.18264596714222],[126.74473413041004,36.1823401622613],[126.7447931280661,36.18211101604876],[126.74535637894564,36.18177892357802],[126.7457943274456,36.181386216246175],[126.7469822301799,36.18162026483244],[126.7476443596514,36.18111207011988],[126.74898305215832,36.1810910279537],[126.74967916926826,36.18136451099134],[126.75031325879766,36.181823479983464],[126.75120256771974,36.18196463089229],[126.7533241863635,36.181620869899064],[126.75460954629725,36.181817106298006],[126.75509926399191,36.181623661314504],[126.7554062258769,36.18162873540788],[126.75659290473784,36.18118419369367],[126.75691781368833,36.181187381136496],[126.75728811523706,36.181564890882086],[126.75700199690962,36.18224621695387],[126.75747517612163,36.18226239294371],[126.7579840845717,36.182119590318976],[126.75878388521541,36.18224014471527],[126.76035651715301,36.18267643724749],[126.76087118875367,36.183127559021415],[126.76177106324957,36.18319809689025],[126.7621586393587,36.1831594084427],[126.76341133497661,36.18358881482174],[126.76414459456055,36.18348431516426],[126.76497490213586,36.183667152032676],[126.76553655024375,36.18336691778074],[126.76704105907828,36.18155132859718],[126.76785095468954,36.182041155089685],[126.76861329561581,36.182102129207074],[126.76933280209433,36.18243548934247],[126.77049391672682,36.18227341933164],[126.77106237302388,36.182120355931545],[126.77226962531687,36.18220218662678],[126.77300911681907,36.18168443831473],[126.77469900139566,36.18223874233386],[126.77573488260006,36.182213717809326],[126.77750554924542,36.18290817443935],[126.77801395585132,36.18295429056257],[126.7782628329933,36.1833149001065],[126.77939714549817,36.18351008978616],[126.78015071892573,36.183467164511875],[126.78130818260921,36.18374960063796],[126.78285121724983,36.18354337626804],[126.78392230992563,36.18230451245912],[126.78499876363863,36.182174636616054],[126.78558637162195,36.18190606737397],[126.78566769635484,36.18177316179672],[126.78637344249834,36.181838831159375],[126.78721509313276,36.18158444553798],[126.78946558011597,36.18113891571078],[126.7905762508953,36.18133595076025],[126.79056624510818,36.18110007949676],[126.7909256873844,36.18060674100342],[126.7931748496657,36.180786541289095],[126.79367829420079,36.17975151561867],[126.79381670173372,36.17922459933901],[126.79405588039592,36.17895238341556],[126.79458781720027,36.17879936391821],[126.7948657498762,36.17899775481056],[126.79564405752588,36.17919033790244],[126.79581226520608,36.17846748648389],[126.79624424693955,36.17768557281866],[126.79599995244777,36.177004550461085],[126.79551627824323,36.17643838085596],[126.7959586921247,36.175531769608014],[126.79595528239751,36.17511766894681],[126.79612485066237,36.17470730263628],[126.79609560622978,36.17414085621518],[126.79659215318212,36.17373026549936],[126.79684956083355,36.17331522477992],[126.79657461186152,36.172957339701846],[126.79647458325289,36.172050290906455],[126.79678549342408,36.17152803876485],[126.79740989317676,36.17112764528343],[126.79736020594238,36.17102576006496],[126.7977035403938,36.170662782837994],[126.79785184331423,36.17012601992794],[126.79576229924629,36.16961208102629],[126.79550652120896,36.16975908826244],[126.79516924486593,36.170256185696005],[126.79508176436084,36.170593399500426],[126.79372533301715,36.17084609161051],[126.79306238135354,36.169992006839784],[126.79222333147898,36.16768741914193],[126.79233053099422,36.16724295488921],[126.79315479945838,36.165867347912425],[126.79356043900688,36.16537661836948],[126.79456059046032,36.163611231689245],[126.79508549443263,36.16327281637826],[126.79537895869254,36.162723453885356],[126.79539751413554,36.16202084706534],[126.79560422039401,36.16147033321049],[126.79471737531453,36.161219408193375],[126.79443377642171,36.16103896561395],[126.79425219210898,36.16072292664651],[126.79425126721587,36.1600608035729],[126.79535800612264,36.15947652722497],[126.79550992900651,36.15898178348395],[126.79573508633642,36.15888711998447],[126.79600994551764,36.15840688322467],[126.79589858150165,36.15760603634198],[126.79504338903318,36.15766637965763],[126.79454186330999,36.157462393042906],[126.7946317434115,36.156790025605325],[126.79414422754222,36.15655923924568],[126.7942422690269,36.15594947686795],[126.79457032164925,36.15551241095225],[126.79451171751657,36.154787653988826],[126.79552874664412,36.153872350889166],[126.79515561856843,36.15355618851664],[126.79505108895495,36.15333775503434],[126.79492906882881,36.15256922402419],[126.79444162975184,36.152289227263275],[126.79466114457247,36.15200433943774],[126.79457767367431,36.15181660111892],[126.79510147716456,36.151198504549086],[126.79505104417495,36.15093396856966],[126.79555758169676,36.15043861173869],[126.79508475456045,36.14976870702392],[126.79508532503822,36.149377027972875],[126.79394663553829,36.14904970849619],[126.79386868297786,36.14822407907927],[126.79371277440461,36.14765557375717],[126.79417832243755,36.14704126441015],[126.79406032039336,36.14703197709172],[126.79405915954563,36.14694146532127],[126.79427872590061,36.14696494478437],[126.79436791314401,36.14688219583603],[126.79409765041268,36.14681378732696],[126.79381915621914,36.14654717951548],[126.79391546963598,36.146462830292876],[126.79392386748374,36.1461474504288],[126.7936604309078,36.145362648924085],[126.79325435027545,36.14502097411422],[126.79319650862107,36.14487290452601],[126.79298596743592,36.14482441505464],[126.79195687695946,36.1440874709451],[126.79215590661622,36.14339364853322],[126.79198309296783,36.14322444254131],[126.7914362384415,36.14216766041752],[126.7921192278566,36.1416797386352],[126.79272335805845,36.14154807149048],[126.7932024934057,36.14113738882603],[126.79374384653637,36.14084731111567],[126.79393203184071,36.140542075066776],[126.79354462643332,36.13898480754811],[126.79394900083773,36.138376103581535],[126.79360527348263,36.13749085817243],[126.79373705832784,36.136867948416715],[126.79418160491515,36.13688120911646],[126.79478959130329,36.137055102823794],[126.79576269365889,36.137982630151896],[126.7960987716456,36.13815091162323],[126.79731313722569,36.13786672012463],[126.79771164702126,36.137919164020126],[126.79836248674724,36.13821965796387],[126.7984712931424,36.13873560306666],[126.7990242058667,36.13917388468809],[126.7999418717697,36.14017703109731],[126.80080908406717,36.140695093050525],[126.80212968654718,36.141286056703095],[126.80219834570018,36.140651019024425],[126.80233320978537,36.14030173720902],[126.80271650219238,36.13995415786669],[126.80429112670228,36.139669897384834],[126.80510986684796,36.13943441549207],[126.80523109843178,36.13878003231126],[126.8058731680258,36.13844319347575],[126.80716568693342,36.138140645800846],[126.80849433514877,36.137516465162705],[126.80958746988154,36.137226580496346],[126.80994193540265,36.1370354167204],[126.81084654555804,36.13682254476707],[126.81148014914942,36.13648714866653],[126.81180032199998,36.13612053272984],[126.8122622616138,36.136070894172825],[126.81279281872416,36.136186338022235],[126.8132740690807,36.13639167747086],[126.81365715464122,36.13625512416829],[126.8141198518075,36.13623691456599],[126.81427664510835,36.13604177122251],[126.81446667287169,36.13595608444403],[126.81443151977591,36.1358488741729],[126.8148585130827,36.13578108462002],[126.815201263645,36.13560235890379],[126.81563362771891,36.13555579823057],[126.81614506764531,36.135259589142386],[126.8168603823887,36.135421975078096],[126.81761950368646,36.135915496602934],[126.81891189515652,36.135605684153795],[126.81955463894056,36.135263156706074],[126.81878153991428,36.13253391419638],[126.81947281222494,36.13173214391618],[126.81946736981493,36.13160201139282],[126.81965966360958,36.131629672604085],[126.82008731211894,36.131361652394325],[126.82032152990676,36.1311143399908],[126.82033836279527,36.130910402754],[126.82151572102214,36.1302628478165],[126.82132397433071,36.12980252184487],[126.82242854756201,36.1296030204652],[126.8233482739239,36.12917152231176],[126.82361901475562,36.12804247893489],[126.82381872433533,36.12785669411733],[126.82390004774061,36.127552710370935],[126.82452590001402,36.12685179427619],[126.82478201730054,36.12636274488142],[126.8254688420606,36.1258043679772],[126.82661181109036,36.12575829751385],[126.82737132098067,36.125537613827966],[126.82764506636049,36.125235062892926],[126.82928588458147,36.124456255921615],[126.82968491683417,36.123850299350494],[126.82975380436886,36.12332756188431],[126.8298838498584,36.12302492457234],[126.83041161814354,36.12249324530755],[126.83027211475076,36.12193918169506],[126.83056116590465,36.12154982269975],[126.83101296053823,36.12134281032197],[126.83114221978153,36.12136481967955],[126.83157882909013,36.121019006756526],[126.83221890361573,36.12090677512169],[126.83233211264454,36.120788561055406],[126.83276786101808,36.120736284219696],[126.83371610274412,36.120892661292345],[126.8345902791293,36.12052388236817],[126.83496233551203,36.12020772205188],[126.83512616556915,36.11984888109967],[126.83512605776922,36.119610205725905],[126.83555349531991,36.119079697155435],[126.83572032663876,36.1189282825422],[126.83595721597919,36.11895597907891],[126.83599648621579,36.1188843425924],[126.83627890417438,36.118949132102145],[126.83623124151293,36.11816489128127],[126.8365414726554,36.11788805182648],[126.83720009699172,36.11760618318239],[126.83769242651158,36.11754449335611],[126.83821349056271,36.117578341491175],[126.83853763961004,36.117409888687725],[126.83961155608895,36.11741354339802],[126.83982480190676,36.11731266053403],[126.84008720410577,36.11692584657315],[126.84019350568931,36.115755814312294],[126.840421364765,36.115212980230204],[126.8404151924812,36.11504861914948],[126.84031878769093,36.11504579476972],[126.8404582923712,36.114012033212155],[126.84075404659701,36.11339580471211],[126.8409315342815,36.11205282717407],[126.840893223527,36.11056969207106],[126.84079155989726,36.11039855228825],[126.84101607726447,36.10991178232448],[126.840890586831,36.108471175152815],[126.84037466649775,36.1067953672076],[126.84056016142168,36.10642293874383],[126.84058361065878,36.10577767704975],[126.840558864055,36.105670029809794],[126.84042080061559,36.10564685525252],[126.83789211112307,36.10549894694374],[126.83786085708438,36.105307459592304],[126.8373618543466,36.10491482303862],[126.83720519639647,36.10405142859966],[126.83727297239902,36.10372606801518],[126.83716269161901,36.10339163186857],[126.83764360019778,36.10202369061208],[126.83740176291985,36.101760089542395],[126.83749961151464,36.1012833300406],[126.83745596473649,36.100894883923566],[126.83706118429257,36.10035505824141],[126.83700376271075,36.1000401066611],[126.83667870114559,36.099784743618216],[126.83660386959136,36.099607163627944],[126.83686671799015,36.09873572019776],[126.83707774037056,36.09832997916176],[126.83700434627158,36.0983000289307],[126.83717983112074,36.09726631962132],[126.83740579429193,36.09709046126449],[126.83821905044645,36.096791313360576],[126.83833365161,36.09668013280422],[126.83804062444435,36.096383599237896],[126.83792073678073,36.09600519529171],[126.83797156997402,36.09550272043059],[126.83773033663154,36.095204568121645],[126.83773856225817,36.09436615413541],[126.83804523699692,36.093538476827796],[126.83794399755925,36.09311211891213],[126.8381149867766,36.09271544948619],[126.83848205947388,36.09029385943064],[126.83880032079671,36.089565518119336],[126.8394218107728,36.08758627614855],[126.8393643545568,36.08688774053409],[126.83906308827164,36.08656207570487],[126.83907006000369,36.08590385604205],[126.83862332173386,36.08568980718541],[126.83841695304906,36.085426228521314],[126.83844039170285,36.08531827854318],[126.83852012633967,36.08516462894094],[126.83888247842653,36.08488359896906],[126.83915743081239,36.08442849898721],[126.84055742745895,36.08374634723543],[126.84099959724183,36.08339188120806],[126.84100421443047,36.08319024849408],[126.8407145294652,36.08280806200025],[126.8406964934663,36.082537320625036],[126.84084965062073,36.08243410283277],[126.84179383266613,36.08234753284917],[126.84190896829591,36.08221304419271],[126.84190374568207,36.08177620971425],[126.84156231930208,36.0815654474702],[126.84137747731151,36.08118823448492],[126.84159997562445,36.08050847342041],[126.84200198160535,36.079916208009436],[126.84349273419674,36.0789382002746],[126.84408598062281,36.078836252176856],[126.84465642276682,36.07845451478753],[126.84494154093713,36.07840354474788],[126.84582555629223,36.078686632080505],[126.84683713902155,36.07881162468236],[126.84710157270061,36.07869915105516],[126.84761309323598,36.078276435977685],[126.84756528120126,36.07796131870706],[126.84714899787488,36.07750049804389],[126.84618186290038,36.077041890408466],[126.84612937283552,36.07684589058918],[126.8461892272453,36.07667844855268],[126.84639634877334,36.07650417162596],[126.8473708427027,36.07632369654132],[126.8479277560826,36.07600693192071],[126.84804009384041,36.07579567710079],[126.84816272736515,36.07489982065915],[126.84835714764165,36.074532047583816],[126.84865849029491,36.07450368330525],[126.84930813410453,36.07461059267105],[126.85041451568267,36.07452266185405],[126.85092428022176,36.07436870989711],[126.85135671691539,36.07440544390217],[126.85218198889302,36.07487377355227],[126.8522627456033,36.0750356515153],[126.85200176485141,36.07573840830584],[126.85240173865283,36.07642799372849],[126.85253415962404,36.07655060617735],[126.85290038081068,36.07667400500876],[126.85320211190246,36.076644042886024],[126.8537812240762,36.076389831209596],[126.85439374927432,36.075861796587226],[126.85425030210922,36.07524427919123],[126.8543308223793,36.074993560315846],[126.85555862107589,36.07436893363748],[126.85592856297215,36.07404218792607],[126.85670179557377,36.07281356840097],[126.85707545757577,36.07204790437121],[126.85710597564652,36.0711362710283],[126.857389336054,36.07103232355498],[126.8577565886787,36.071249867262736],[126.85806239247174,36.07192402871716],[126.85827084279597,36.072722069818056],[126.85842595894424,36.07299735132938],[126.85864953862823,36.07314301122716],[126.85909675128185,36.0732137204835],[126.85945357586444,36.07310166463969],[126.86028349896274,36.07264042922508],[126.86059911792265,36.07253722156313],[126.86079116880552,36.07255402334761],[126.8609622747921,36.07272653443436],[126.86099086891272,36.07288962512316],[126.86083624450056,36.07336198578746],[126.8608463704224,36.0736288041464],[126.86113458616661,36.07437559138906],[126.86127244746548,36.07451612656563],[126.86203463286834,36.0747402636107],[126.86287006919396,36.07470609352338],[126.86375540396065,36.07422089282114],[126.86429163443007,36.07379453681387],[126.87108507623485,36.07156615660263],[126.87306303980952,36.084217575815444],[126.87358758704109,36.08683482987521],[126.87358818119931,36.089581072321145],[126.87386804438596,36.09657276274166],[126.87413896191426,36.09930466098199],[126.87411619364617,36.10322891948216],[126.87381126100482,36.11043827830317],[126.87493092489227,36.112655335320895],[126.87748081714147,36.11714160815159],[126.87914460030173,36.12378902154818],[126.88164232796646,36.128792293078156],[126.88220512346481,36.13129266074207],[126.88573956596244,36.13568422955857],[126.88775636377846,36.13795365808211],[126.88969621145533,36.13962227514012],[126.89524753935183,36.14244864955475],[126.89775628515467,36.142684217529556],[126.90080303281141,36.14240352170838],[126.90414853251883,36.14129211669396],[126.90697932370539,36.13987901240823],[126.90859108474949,36.13822623515938],[126.91108924291353,36.1365700328438],[126.91327127867221,36.136012543039435],[126.91469612774837,36.13574399601108],[126.91968874472488,36.13629940736813],[126.92246845964473,36.13850153231361],[126.92525074505885,36.13991014616807],[126.92803529099228,36.14101309568485],[126.93080656308182,36.14224658590113],[126.93439812869751,36.1468485559097],[126.93662051080325,36.14851481959815],[126.93886136027386,36.150737157479654],[126.9413484073917,36.15211427490116],[126.94445701330757,36.15350960641101],[126.95027060347785,36.15490102344568],[126.95304329074928,36.155736916589234],[126.95662626867673,36.15657051280633],[126.95969656532388,36.15654830705052],[126.96302833626733,36.1562778999438],[126.9655344738661,36.15489964712871],[126.97145880467497,36.151031586863425],[126.97719204874687,36.14852150815888],[126.98080497663734,36.14795875221304],[126.98358537732761,36.147683186805324],[126.98718680547607,36.14768814117685],[126.99386598079272,36.14684751146368],[126.99803150414043,36.14684591950768],[127.00135229758374,36.147956046327884],[127.0053403909339,36.150616863748375],[127.00450470291038,36.15071468675783],[127.0005018329822,36.150640725671856],[127.00054935589417,36.151000800053225],[126.9996355792071,36.15135637846897],[127.00049805667766,36.15240720162685],[126.99948899227354,36.153764231668895],[126.9986027075994,36.155259887783245],[126.99798407401,36.156542664884505],[126.99757752822512,36.15774656026757],[126.99758600656303,36.15800582138461],[126.99777159711752,36.158422785233995],[126.99980840941605,36.16118331645843],[127.00201092791062,36.16380367260942],[127.00235612477597,36.164831853915786],[127.00268340638758,36.168853953462445],[127.00144415018148,36.17178831065237],[127.00080062297381,36.17178830685007],[126.998296342634,36.1753930709989],[126.99791327827788,36.176109542930035],[126.99696782692102,36.17729495886316],[126.99669831326854,36.17749007707199],[126.99523839052767,36.1766968443538],[126.99543401365396,36.17788789008708],[126.9954045470491,36.178997762651136],[126.99523780555894,36.17945707904622],[126.99439138858838,36.18023039665037],[126.9928023511041,36.18142022779296],[126.99139151366815,36.18265278732965],[126.98764086309737,36.18266010976039],[126.98723495173986,36.18303912407931],[126.98924227079965,36.18358848362294],[126.98816790165313,36.184559051816976],[126.98737940961975,36.185545243297476],[126.98696046555001,36.18620663988354],[126.98496575382535,36.189811174881186],[126.98412360540773,36.192155109775264],[126.98354650949918,36.193023419835924],[126.98412344682575,36.192875521242335],[126.985582354275,36.1929636790414],[126.98692744043805,36.19292910032039],[126.98765819045303,36.19300870737605],[126.98923321566338,36.19341648231245],[126.98865578045678,36.19393842220933],[126.98776601835911,36.19425691628875],[126.98692223608377,36.19431739392283],[126.98529289652089,36.19415424960938],[126.98510058416831,36.19415744884327],[126.98495335694516,36.194262066453916],[126.9852262060009,36.19481280043777],[126.98542316007467,36.19550656900083],[126.98539517633596,36.19702082093953],[126.98511788354554,36.19780144665997],[126.98409729822271,36.19940727137902],[126.98404770583963,36.19967479366079],[126.98411879323338,36.19979884726188],[126.98491388545105,36.2003512561166],[126.98504080826716,36.200729668396235],[126.98420982413784,36.20192927029648],[126.98365930360079,36.2033799723302],[126.98374225073353,36.20393443876491],[126.98382854568094,36.20415878545209],[126.98395492417352,36.20418674122605],[126.98392963759241,36.203439032382036],[126.98420175166632,36.20284094876266],[126.98510669739692,36.20260514042718],[126.98661568108285,36.206281318290706],[126.98428470584969,36.20690012933308],[126.98418651993141,36.206324070582575],[126.98401961689937,36.20704649870051],[126.98406729924581,36.20785039098273],[126.98419226643102,36.20795362361961],[126.98446724341716,36.20801519617629],[126.98509928682799,36.20802827953441],[126.98543269985545,36.208199957179524],[126.98576162081783,36.208603106078414],[126.98605148394478,36.2096660673257],[126.98633792127615,36.21007099390214],[126.9865084125195,36.21016549593182],[126.98697014860795,36.21026505473261],[126.98790593233376,36.21016067262184],[126.98911691694023,36.210421905189165],[126.98944660818213,36.21033951470488],[126.98974783304588,36.21016038804391],[126.98989787174509,36.2099210543817],[126.99002772171998,36.20986221714017],[126.99052227494055,36.2098127078687],[126.99110444153686,36.20988558517307],[126.99149872831113,36.210304196423316],[126.99150308205478,36.210636489071476],[126.99138014074413,36.21080805484984],[126.99145176805177,36.210984713590825],[126.98957170927922,36.21154377853133],[126.98975751409417,36.21197849846355],[126.9901385134274,36.21234059684416],[126.99032153927003,36.21233176593009],[126.99098728982774,36.212115718936445],[126.99106241536961,36.21174018878685],[126.99125554193533,36.21143771172022],[126.99167564050333,36.21121236349786],[126.99200574725705,36.21119798080691],[126.99256585370948,36.211436246229056],[126.99291130495057,36.211940850267965],[126.99296755726954,36.21283521866739],[126.99335262925057,36.21322532808177],[126.9940862621498,36.213597712650255],[126.99425967651997,36.213782423440094],[126.99447442496154,36.21423689230316],[126.99446898376891,36.214394752606594],[126.994671352524,36.21466269009973],[126.99484382332444,36.21472857698084],[126.99542763888138,36.214699959876945],[126.99666163643667,36.215026977844204],[126.99687745186795,36.21524658911886],[126.99767080150073,36.21547433969071],[126.99829715884545,36.215468086974745],[126.99918694641448,36.21576057189259],[126.99989268673949,36.21584147324065],[127.0000998845279,36.21596207399554],[127.0010646979632,36.21612426142387],[127.0012279814574,36.21563861818477],[127.00176845078877,36.21532483790267],[127.00252658482172,36.21565739358686],[127.00297684064755,36.21572357214433],[127.00343893480084,36.21562039659148],[127.00373597276423,36.215633143373644],[127.00425602992868,36.21582657387759],[127.00395498278974,36.214917923665666],[127.00385077907251,36.214936939962],[127.00444260894194,36.21399040253584],[127.00436862077822,36.213990739839424],[127.00419256768008,36.21375065395821],[127.00388135228486,36.21358911332813],[127.00385402670756,36.21349388271],[127.00436682543724,36.213237103511],[127.00515808758233,36.21301853304051],[127.00620899782622,36.21250905947412],[127.00577226561875,36.21152155535882],[127.00617738181026,36.21103283911076],[127.00593810473542,36.210716257709144],[127.0059240553625,36.21023538014311],[127.00629534481075,36.210223037506914],[127.00633092234395,36.21009334628107],[127.00688932772303,36.20984210476798],[127.00714294684386,36.209781721302555],[127.00846381856836,36.210197850520395],[127.0093267700233,36.210353397085726],[127.00945048229188,36.21033141771346],[127.00955993926952,36.21019887288141],[127.00968068261056,36.209847066083626],[127.0100126479564,36.20974264650173],[127.01028428555989,36.20984525694767],[127.01037790269547,36.21009246348559],[127.01032973436519,36.21032495715806],[127.00990995428364,36.21059450882589],[127.00977193224828,36.210875565116446],[127.0098929960814,36.211440751995376],[127.00986749209473,36.211805538279606],[127.0100456356774,36.21203040268399],[127.009868345783,36.21209143305854],[127.01065321938744,36.21291640271312],[127.01231674656354,36.21184366000938],[127.01246395567223,36.21163853453014],[127.01151392713308,36.211518598249796],[127.01138185527296,36.21132459853814],[127.01154472303831,36.21119610156013],[127.01192086983076,36.2111399079881],[127.01271559820945,36.21134455157041],[127.01444642659116,36.21145607822919],[127.01460712037701,36.2115167031816],[127.01473832492037,36.211679182969135],[127.01481353228897,36.21199459316053],[127.01506511243532,36.21228645191363],[127.01518931759765,36.21272259975302],[127.0159729640426,36.212890966886135],[127.01627108363179,36.21314527773085],[127.01656559311357,36.21363988565479],[127.01691413698539,36.21399710341645],[127.01731110022423,36.21416042926682],[127.01742556424618,36.214631991662195],[127.01778634641272,36.215075374279365],[127.01837810755497,36.215254353372195],[127.01901903506943,36.2157700225162],[127.01926619516529,36.2161647469311],[127.02019222175558,36.217011825705285],[127.0206094577564,36.21767272353797],[127.02115906224039,36.21817225612638],[127.02162984728531,36.21833561959391],[127.02242628500825,36.2183264422432],[127.02351937098504,36.21876381321176],[127.02405957360004,36.219109742723504],[127.02415142247105,36.21924633789476],[127.02413725775415,36.219609161600616],[127.02439988523516,36.21979216228109],[127.02496567555129,36.22102953552811],[127.02514199987104,36.22171692378162],[127.02537262725791,36.22193797601195],[127.02591229235469,36.222787620600705],[127.02615336131345,36.224047323239056],[127.02697349320505,36.22496670282155],[127.02701518655789,36.225224570613456],[127.02668766213743,36.22585750225736],[127.0266764162383,36.22665205952418],[127.02686579307748,36.22699439168819],[127.02730340576016,36.22712038562626],[127.02736121387575,36.22726651014874],[127.02749169133179,36.22818858162253],[127.02732408238595,36.2291114590461],[127.02806027149448,36.22978182974448],[127.0286021778723,36.23060656038172],[127.02944948989712,36.231116107111674],[127.02993282535571,36.23163693570188],[127.03005568172536,36.23224393260646],[127.03056413118799,36.23285143849021],[127.03037563331205,36.23404005779739],[127.0304691911721,36.23432770566247],[127.03060768700283,36.234457289722144],[127.03226600370088,36.235227023602725],[127.03267782366689,36.2359248907182],[127.0325644216516,36.23602664018547],[127.0328539066527,36.23639609714292],[127.03335596709195,36.236822038949185],[127.03392928700053,36.23706212412767],[127.03398752185348,36.23730313322557],[127.03392981055833,36.237522877497],[127.03360785597881,36.2377503802426],[127.03356721011642,36.23794806681868],[127.03471348423369,36.23859793681187],[127.03553911117162,36.23885992379879],[127.03550866108186,36.23931614282088],[127.0355844876498,36.239469990869935],[127.03601576221584,36.239465313699036],[127.03665201050113,36.23971263128076],[127.03691200876456,36.23932519819293],[127.03700912810561,36.23933331657875],[127.03842301116617,36.24019268767718],[127.03875792380059,36.24027342926923],[127.03898181410489,36.24086605473974],[127.03939447283294,36.24106316858039],[127.04018481220464,36.24214761520199],[127.04027648787913,36.2424253597393],[127.04003860004308,36.242856287341276],[127.04058921658081,36.24317266136468],[127.04071756959475,36.24366640782152],[127.04065514997738,36.24387758678739],[127.04014007248546,36.24416714362608],[127.03998506618454,36.24435306551017],[127.03998411829264,36.24457445157891],[127.0404449012185,36.24545681196387],[127.04048492594805,36.24609874385896],[127.03990179201672,36.246323959624696],[127.03995759441725,36.246634067071774],[127.0406672750277,36.24697318702394],[127.04117808197672,36.247377052090144],[127.04246913089321,36.24763213136744],[127.04407312311969,36.24891265686459],[127.0443795761274,36.248952749681884],[127.04496767629628,36.24880130839981],[127.04530362951007,36.24881329800691],[127.04589364604259,36.24914234861567],[127.04609861722064,36.249159556330916],[127.04712788753595,36.24903903098785],[127.04962913720414,36.25034810077979],[127.05019105270952,36.25042339185127],[127.05086758788572,36.250404882661456],[127.05141922778537,36.25051860025471],[127.05211320765116,36.2510828056338],[127.05225673570672,36.25108274250135],[127.05282481410374,36.25141396856977],[127.05245952578707,36.25170333554465],[127.05263702367677,36.25230078282599],[127.05324716073905,36.25317394397411],[127.05323655196402,36.25352173595361],[127.05334670516066,36.25383880877287],[127.05397838602791,36.254237902678355],[127.05498283030072,36.25468631409244],[127.05537152087392,36.254686138510344],[127.05641842623524,36.25505312185846],[127.05719784837439,36.25500892720236],[127.05801280659524,36.25511384135258],[127.0582381142579,36.25525457222271],[127.05874252248091,36.255386067533934],[127.0594647043357,36.25546733894293],[127.06101661052944,36.25580169272347],[127.06136060085741,36.25574698834178],[127.0625023435314,36.25593507820113],[127.06385144372682,36.255885879532094],[127.06426681745333,36.25603128578901],[127.06456403049691,36.256863539292034],[127.06489071724162,36.25746417076978],[127.06489222727146,36.258067055604045],[127.06574759523858,36.25906582771602],[127.06589999375846,36.259537068003766],[127.06624503977385,36.25972103816255],[127.06716483670614,36.260573014674364],[127.06733627368453,36.26108258000112],[127.06756600945933,36.26134177980257],[127.06760797459448,36.261595998331615],[127.06785495092288,36.261998888967305],[127.06783692200568,36.262351563146396],[127.06812196738971,36.2623970137334],[127.06836140644121,36.26288107841015],[127.06911375797024,36.26376415350697],[127.06903336032165,36.26427093527663],[127.068693743998,36.26466538916213],[127.06861508008879,36.265055439141044],[127.06831166471356,36.26549386644934],[127.0681891802615,36.26589266519726],[127.0682671910578,36.26605101316659],[127.06912556149719,36.26658793583879],[127.06935794881468,36.266834954476565],[127.06938617321735,36.26703241543118],[127.06918056637389,36.26747251856115],[127.06922649082256,36.26758547463556],[127.06979615291046,36.267995227715],[127.0699317046334,36.26909769678819],[127.07031423610131,36.27047006359252],[127.07016445171301,36.270928276998994],[127.07028367396806,36.271570259854634],[127.07004493005088,36.27200073915166],[127.07011001008917,36.27236762992172],[127.06927705074312,36.2725697021249],[127.06836337832073,36.272606766664154],[127.06780195173755,36.27283333317568],[127.06776560077736,36.27307881524821],[127.06795225300606,36.27343471662024],[127.0677773790196,36.27393792780013],[127.06716381095579,36.275069120591034],[127.06653548395806,36.27562740577103],[127.06640129296159,36.27584202435248],[127.06612032503946,36.276804823558884],[127.06586427910199,36.27722166839983],[127.06534246397149,36.27713975186359],[127.0635942501997,36.27742018631934],[127.06363614472703,36.27750377354372],[127.0633624865369,36.27755511297092],[127.06289919206785,36.27761540532832],[127.0625882867771,36.277614329871895],[127.06259267534402,36.27756175341799],[127.06052106434677,36.27789062746975],[127.05959429129152,36.27786598310951],[127.05871321239565,36.277738484314106],[127.05753914830323,36.278109159853464],[127.05594024231121,36.27808719680373],[127.05481741044318,36.27861272451749],[127.05421360247828,36.27861587549659],[127.05426583912298,36.27844002207417],[127.05416725443087,36.278582460982264],[127.05327789900439,36.27866250609081],[127.05245864240659,36.27890298065547],[127.05088614944809,36.27987569335634],[127.05022144977943,36.28011511365462],[127.04964547705758,36.28020569859195],[127.04915631268003,36.280156798456396],[127.04829384333813,36.28025105117672],[127.04783441400353,36.28021217312549],[127.04645092035527,36.28062166029734],[127.04512492204033,36.28116583693803],[127.04407534048494,36.28141485088944],[127.04282605971837,36.28206972977044],[127.04252247887425,36.28240156276231],[127.04080019293681,36.28277550111197],[127.04044777776083,36.28296937103778],[127.03999885057404,36.28337333929562],[127.03921065416182,36.283556979979416],[127.03888285204184,36.28355582097831],[127.0381648444424,36.2831738522088],[127.03721867200441,36.283031262933584],[127.03671372657361,36.28283307252375],[127.03584491639069,36.28283384692768],[127.03562448741755,36.282767221790095],[127.03547969725025,36.28268825947464],[127.03547397887145,36.28135927285521],[127.03530625257126,36.28125566499442],[127.03448349466137,36.28133170343482],[127.03392820885331,36.28083600706083],[127.03357040898447,36.28137956952401],[127.03304453174721,36.28131189572511],[127.03264760743154,36.28139728814907],[127.03235437480848,36.28165602234869],[127.03207699034402,36.28163261869545],[127.0314733687809,36.281313723564686],[127.03063390337279,36.281191660583325],[127.03042936034964,36.2812234411468],[127.02959546363094,36.281818249071364],[127.02905319572763,36.28201607690536],[127.02881451338995,36.28205986762556],[127.02823699013702,36.28189768585333],[127.02833585127925,36.28186586911311],[127.02811492016639,36.281800203640856],[127.02783335109095,36.28193593197153],[127.02762333693983,36.281898361097035],[127.02733149103774,36.28250022808857],[127.02723283859116,36.28331071064164],[127.02677366507139,36.28339761160041],[127.02661338554636,36.283585866562554],[127.02642329057318,36.283611364995004],[127.02619826989283,36.28389787089726],[127.02602280256268,36.283863508343074],[127.02531641472073,36.28430439498132],[127.02517835317933,36.28461849408176],[127.0246673283224,36.28495170767879],[127.02318826677673,36.28679258264858],[127.02312165507949,36.28743241881282],[127.02277391631209,36.28757483099759],[127.02217135038855,36.28812962600041],[127.02098923287014,36.288715672844894],[127.02060056978969,36.28878980505515],[127.02067243565384,36.289022732283755],[127.02048977281454,36.28918700901854],[127.02029463245037,36.28917443235702],[127.02035057035161,36.28950424760273],[127.01989726140708,36.28981552460581],[127.01972730640955,36.28983871129797],[127.01922591003058,36.28954138755604],[127.01900466313967,36.289818848598436],[127.01916307975885,36.290217707247905],[127.01869005389564,36.290455590610875],[127.01849259134937,36.290376440882554],[127.01826734248351,36.29059831701152],[127.0181776236923,36.29109179979576],[127.0174837909464,36.29123711067722],[127.0170218233501,36.291060503525294],[127.0163331606716,36.29118449454577],[127.01615500270314,36.29158650824519],[127.01565054338208,36.292243867141806],[127.01551984300804,36.292945307752944],[127.01603376424862,36.29332740993843],[127.01631134246779,36.294354383319686],[127.0154683310073,36.29490957705409],[127.01505743887353,36.295342796187995],[127.0144549661907,36.29693617243761],[127.01387335692647,36.29706256164342],[127.01361352319854,36.29703297479541],[127.0133898785896,36.29653253600907],[127.01285729558391,36.29648492427727],[127.0125387593469,36.295949308601536],[127.01192070949254,36.29544389926775],[127.01101985593357,36.29554553821354],[127.01076754082176,36.29567405916029],[127.01029374423592,36.29572726315801],[127.00973622863256,36.29566752871584],[127.0091532236196,36.29629327738808],[127.0088385278571,36.296328486603926],[127.00810744297362,36.29733017671406],[127.00783833034512,36.29749395362914],[127.00671690375209,36.29771093241735],[127.00643353932972,36.29790983442715],[127.00621995396646,36.2979025804574],[127.0057506150955,36.29769144983605],[127.00440954498559,36.29781667410475],[127.00368964160747,36.29837798297287],[127.00317454610075,36.297967285940416],[127.00269481605046,36.297826193046376],[127.00181599346062,36.29711440064488],[127.00136969352927,36.29699573318937],[127.0011452003462,36.29717227377489],[127.00034971611421,36.29656065474001],[126.99851806077231,36.297255155597895],[126.9955820938176,36.297623234954415],[126.99571113569094,36.29790610342639],[126.99500137381084,36.298421750392954],[126.99313992381619,36.29911183407756],[126.99269422071353,36.30023627913397],[126.99229686985457,36.300668780578036],[126.99219266735503,36.30090941480554],[126.991471960428,36.300926417986986],[126.99138423648074,36.30149437815373],[126.99177472623572,36.302235840932475],[126.99164029869773,36.3024259609546],[126.99170828347806,36.30266849328694],[126.99198761642303,36.30281625439542],[126.99230309246624,36.30325042288398],[126.99217037094668,36.30331785680575],[126.99213367617814,36.303587109322415],[126.99134034371492,36.30393453224734],[126.99097635523331,36.303892480576955],[126.99038217938313,36.303976161565124],[126.99027402751997,36.30412718950499],[126.9893207668986,36.30446654600522],[126.98776247348135,36.3057696296564],[126.987128035455,36.30607636234849],[126.98716707933309,36.30694777185923],[126.98615840275717,36.30745015508524],[126.9868621167507,36.30800684043092],[126.98772355707882,36.30921197352608],[126.9875499736162,36.31020189232372],[126.98667738704391,36.31036392688059],[126.986464165177,36.31050801789783],[126.98648197695704,36.311692224821435],[126.9867940599313,36.31206556779187],[126.98693204189426,36.3126161171059],[126.98744716336361,36.31313836905838],[126.98768747254341,36.3135050767063],[126.98761726612862,36.31400430620596],[126.98734291698474,36.31438121799919],[126.9876694237583,36.31519974302553],[126.9881837024432,36.31550320149866],[126.98769125182594,36.31600213865052],[126.98788813694394,36.31683810376058],[126.98838550323471,36.31752852536208],[126.98857691673263,36.31799879930669],[126.98881903487964,36.31823961275299],[126.98923584967726,36.31843996309935],[126.98928171858635,36.31857892704406],[126.98958232836097,36.31881133588942],[126.99032331599194,36.31922402914237],[126.99059285950446,36.31946760823139],[126.99057714226477,36.31958511229422],[126.99084831296229,36.31958567623062],[126.99097365214487,36.31913936937172],[126.9909011044119,36.31896393172303],[126.99112852076637,36.31836978377929],[126.9913373947155,36.318201111949364],[126.99138400422449,36.31823726893019],[126.99140524743382,36.318018978516136],[126.99153866485938,36.318005473121424],[126.99289650380253,36.319116065911565],[126.99322173403516,36.32030547251693],[126.99294257065486,36.32086251756956],[126.99354310319144,36.32179937865918],[126.99312572183294,36.32226218680454],[126.99345739702457,36.32300837622875],[126.99405620384398,36.32338251246881],[126.9941190737657,36.32427995552244],[126.9943689932682,36.32460497054285],[126.99415019924461,36.32618684950994],[126.99462467385769,36.32646674923993],[126.99506020094752,36.32654781498475],[126.99559842351097,36.32749561334562],[126.99605362852309,36.32748917264148],[126.9977914934063,36.32843070783055],[126.99654174857184,36.32886425579345],[126.99447250414185,36.32889092679534],[126.99211236605893,36.32918686399084],[126.99054425083354,36.32959087329148],[126.99062468262707,36.32969472301741],[126.98942703701881,36.33089817668595],[126.98904417944344,36.33260808762736],[126.98890912161337,36.33274500662988],[126.98933228237973,36.33338235319827],[126.9894353766837,36.33402354041248],[126.989954537057,36.33481433902092],[126.9901512803851,36.3358180799519],[126.98841940832301,36.33625178302344],[126.98806532052986,36.336513076258306],[126.98727793027402,36.3366061504547],[126.98708194995265,36.33684865123725],[126.98623614637805,36.33689290227201],[126.98588180227887,36.33743411194221],[126.98393554871991,36.33734225436865],[126.98299997046811,36.33668616656254],[126.9827223670173,36.33673548002738],[126.98223080237041,36.33657449596852],[126.98162433023417,36.33608135393585],[126.98112757503802,36.3358592117079],[126.98009594237851,36.33600156280251],[126.97956337411505,36.33560770565504],[126.97866727674048,36.335347088742424],[126.97720308486704,36.33515868062217],[126.97688608782673,36.33485498984635],[126.97703316146398,36.33669078214825],[126.97552502699413,36.3357363148225],[126.97355523203981,36.334810354144835],[126.97295191054681,36.3343582090307],[126.97087985427147,36.333950895373384],[126.96873524718849,36.33388691096232],[126.96784541844745,36.333934029459705],[126.96326210057508,36.333250534594995],[126.96140412035537,36.33207341172547],[126.96032517911668,36.32924429585793],[126.95813951643355,36.327724577695925],[126.95278200328254,36.325202099569296],[126.94538470342448,36.32213322118396],[126.9405732692682,36.32029540783856],[126.93727253306493,36.31867280190904],[126.92681289858767,36.31402865535657],[126.9255633901877,36.31595471541611],[126.92506133727113,36.31636662291749],[126.92421516310559,36.31677052080493],[126.92403685036493,36.31708522172661],[126.92328149568351,36.31749137877129],[126.92195684275099,36.31755484025497],[126.92088531348759,36.31796687052002],[126.91958537632227,36.31831414850113],[126.91972465857172,36.3184128447341],[126.91889359290823,36.31955501208729],[126.91863258631734,36.319819914909154],[126.91778352614507,36.320223112614656],[126.91687608678338,36.320393752346696],[126.91566333987038,36.32029744418699],[126.91568234316205,36.32007985136673],[126.91488572797869,36.320140217594755],[126.91489595448326,36.32030719891366],[126.91470328821639,36.32041824937537],[126.91366315500703,36.32202854340235],[126.91340418230249,36.32263075439289],[126.91331046836625,36.32315573764328],[126.91342301564687,36.323766675442],[126.91392914688609,36.32436816082563],[126.91432222375228,36.32502920963877],[126.91430728270309,36.32538513666109],[126.91390589946243,36.32605385959812],[126.91308126342375,36.32676028081952],[126.9123575810787,36.327123604793115],[126.9114787841633,36.32743907011313],[126.91063655727204,36.327502794552025],[126.90934623377174,36.32675746024523],[126.90835906212091,36.32631794812023],[126.90708055089787,36.3259627113482],[126.90422518069083,36.32547719446029],[126.90056807030939,36.325492212261175],[126.89985862687448,36.325678063779954],[126.89921516062996,36.32627782695135],[126.89914078373918,36.32674915893619],[126.8993615652517,36.327183158166335],[126.89990907911043,36.327607573791866],[126.90056439982871,36.32834063273805],[126.90105955109317,36.32930138008981],[126.90114991149274,36.329768275410295],[126.90116057422716,36.330355581739795],[126.90100397824615,36.330879501746104],[126.90056042935737,36.331419383959805],[126.90010919677218,36.33157480649869],[126.89967440953237,36.331529045270614],[126.89950682475913,36.331405629639804],[126.89900750301402,36.33086189382342],[126.89830172817611,36.330353147265406],[126.89696572774476,36.32919642637087],[126.89589189168686,36.32817065403226],[126.89499737529417,36.3271800523648],[126.89451300373295,36.32637269742575],[126.89391424265226,36.32500767794555],[126.89360391906229,36.32342244159985],[126.89304217458438,36.322592921255286],[126.89273346655642,36.32248613204075],[126.89229626885167,36.3224189818475],[126.89177109416556,36.32248626039227],[126.88866748213691,36.32373384798703],[126.88648534292429,36.32516596629161],[126.88608469525778,36.32533558745261],[126.88469888826431,36.32546373068362],[126.88138355732785,36.32490203272158],[126.87829605119474,36.32448908968186],[126.87765685493719,36.324473576400315],[126.87552075067535,36.32370122526532],[126.87459651398487,36.32329241042002],[126.87404909078397,36.32318134514583],[126.87317721656989,36.32331056847933],[126.8722896115456,36.32377921695763],[126.87089230662352,36.32418095761388],[126.87026655926597,36.32402368491123],[126.86958843939482,36.3233968813933],[126.8686775573058,36.32301930589081],[126.86786306944089,36.32302601245871],[126.8676131739213,36.32317864473476],[126.86725360899825,36.32358957545236],[126.86647573412601,36.323660000704855],[126.86543496202317,36.3233055340475],[126.86461243231477,36.32287850786107],[126.86315299703551,36.3222650721245],[126.86229292311363,36.32158388365747],[126.86200212750772,36.32148791113358],[126.86150704035936,36.32198183515672],[126.86133305610386,36.322312922541116],[126.86148942842622,36.323785451470755],[126.8613235637505,36.32440545531039],[126.86097566081403,36.32504067539623],[126.86047682861978,36.32557702767792],[126.85935511617491,36.32579232422434],[126.85896607187205,36.32598915694713],[126.85863687739096,36.326281292761934],[126.85836310488766,36.3266619054461],[126.85765675751843,36.32847214077145],[126.85739486948367,36.32956478197493],[126.85740072458971,36.33031084735573],[126.85717074715123,36.33052205740744],[126.85569914039364,36.33109452944164],[126.85542553478834,36.33135070525519],[126.85551615065097,36.331804081536276],[126.85600445843319,36.3324111606133],[126.85783182107133,36.3337890767429],[126.85981283058706,36.335641827103935],[126.86040648981351,36.33725328072162],[126.86057790168272,36.33752404290977],[126.86029470288469,36.34057423197041],[126.86071558385977,36.34057704491962],[126.86054923160629,36.34136937887998],[126.86016769154237,36.34232857071863],[126.85994244700458,36.343349912934826],[126.85973872603049,36.34387469596594],[126.8594319375836,36.344236197192394],[126.85958902774604,36.34373776525918],[126.85914274428342,36.344090198833946],[126.85788965909444,36.344543349416725],[126.85655061008336,36.345224968059185],[126.85598378308377,36.34544602297011],[126.85505601513592,36.34563156752327],[126.8537278914074,36.3466391937626],[126.8533147074698,36.34733153283835],[126.85335945728787,36.34814943987685],[126.85283171426357,36.34884372461487],[126.85237392653485,36.349297237296426],[126.85199967921749,36.35116474973442],[126.85165757362732,36.35237126254603],[126.849460722825,36.355023849424676],[126.84889789162783,36.355410968518385],[126.84833190618376,36.35562066956933],[126.84802622003795,36.35529574640259],[126.84738535872498,36.35537242212111],[126.84572993760402,36.355201702498775],[126.84567431419678,36.35568099019043],[126.84256103484547,36.35529262300857],[126.84178352258432,36.3554083694174],[126.8408513172355,36.35621617513373],[126.84061019200199,36.35659398189264],[126.84056735828457,36.35690015142128],[126.84101280938158,36.357957915141725],[126.84178104658739,36.35875250729639],[126.8426796171929,36.35939662987749],[126.84281464215873,36.35910621695386],[126.84318483275767,36.35930447791335],[126.84465739558937,36.36122635696931],[126.84486089453142,36.36377120217224],[126.84426055500458,36.364744244167255],[126.84301754766638,36.3652867377562],[126.84328234978578,36.364966653312464],[126.84206366509827,36.36486468634167],[126.84067134872197,36.364613989506665],[126.83877001287966,36.364202923143836],[126.83663342148684,36.36363696085581],[126.83577159961439,36.36361303154761],[126.83537678800317,36.36369073236175],[126.83468455939231,36.364090681808754],[126.83443053717482,36.3643935249801],[126.83427563619516,36.364877985050725],[126.83437180353575,36.37119966990458],[126.83403356823875,36.37211628059445],[126.83300640222626,36.37352657461707],[126.83222461559821,36.37480474320298],[126.83195771086316,36.375615669610134],[126.8320639631722,36.376424782337345],[126.83257210312041,36.37713442433483],[126.83350358048014,36.37713730445911],[126.83440389708156,36.37741688370978],[126.83492046752629,36.3774520388117],[126.83599569646358,36.37728144689472],[126.83627560672907,36.37715385798174],[126.83642056684207,36.377361634127226],[126.83753052580659,36.37677771052677],[126.83843798333156,36.37607632671587],[126.83872333257057,36.3757885674785],[126.83860252349675,36.3757561219076],[126.83975604938618,36.37452097838758],[126.84006716675346,36.3739080447164],[126.84041926070543,36.373768946403665],[126.8416798576342,36.37364762968299],[126.84448016497497,36.37453109145845],[126.8459234563744,36.37661129256641],[126.84569459990912,36.376673014064856],[126.84650444100293,36.378358253302274],[126.84691007173865,36.37962629903695],[126.84756985517625,36.3811663388651],[126.84783943968884,36.38161147570779],[126.8492546120003,36.383307313665235],[126.85019952694773,36.38488053833588],[126.8498782097302,36.38565429994997]]]}}
