{"type":"Feature","bbox":[126.58532315582501,36.526663262994816,126.97230361452877,36.803650948004815],"properties":{"regionCode":"44810","version":"vworld-20260909-3f8952dfda77-p2","name":"충청남도 예산군","attribution":"국토교통부/K-Geo플랫폼 · VWorld 법정구역정보, CC BY 2.0 KR; 공공주택 복덕방 가공"},"geometry":{"type":"Polygon","coordinates":[[[126.71154748141177,36.80345485820542],[126.711114947815,36.80356458614325],[126.71004800348291,36.803650948004815],[126.70984417013067,36.803545454959526],[126.70925418558558,36.803524604372086],[126.70909723425258,36.802916307165944],[126.70893809331717,36.80280730567069],[126.70786412813422,36.802589638289206],[126.70704062105374,36.802670541513294],[126.70588233477672,36.802404879635056],[126.70484069373809,36.80175038408991],[126.70431624953169,36.80184587892996],[126.7037116291262,36.80240249153897],[126.70315628158811,36.802678783286986],[126.70252401021382,36.80243707311734],[126.70132489634095,36.801704988579665],[126.70107227934425,36.80192374998566],[126.70061766296455,36.8021081548425],[126.69960845580125,36.80217833450063],[126.69898961374037,36.80190536885741],[126.69890966548378,36.8016110196032],[126.69846463596683,36.80131266704296],[126.69799452245309,36.80108445481304],[126.69699347598538,36.800989711411475],[126.69660208654165,36.80066800779342],[126.69625287869412,36.800495451293315],[126.69550880625278,36.79957580216388],[126.69511415282675,36.798768823812836],[126.69523034100513,36.79853094264117],[126.69547506975026,36.79714145079547],[126.6966885470369,36.797056412754465],[126.69691126438715,36.79725931668278],[126.6971090766404,36.79688981971945],[126.69725995846797,36.79644484465942],[126.69732224162576,36.794920951129754],[126.69750442757513,36.79478398119557],[126.69746814446931,36.793820707560094],[126.69713577268256,36.793608504294],[126.69747063397229,36.79302053497973],[126.69703769666404,36.79286535639599],[126.69637219883508,36.79135073402504],[126.69576799335884,36.79103685984047],[126.69524786958476,36.79062259639627],[126.69517261580114,36.78974449907544],[126.69525775150656,36.78870538456204],[126.69519536137057,36.78739603745966],[126.6949164389692,36.78657959429729],[126.69398455868289,36.78485894511375],[126.69281201129219,36.78431402889119],[126.69156811371198,36.784193785227515],[126.69003092516232,36.783747896789706],[126.69010540762478,36.783635580247235],[126.68935116676799,36.78353831062572],[126.68927529109054,36.78332277420958],[126.68915872836828,36.783361434366924],[126.6890263275422,36.78323612803579],[126.68887804715091,36.78117907836432],[126.68809020909178,36.77971820357436],[126.6877387837637,36.78002437457011],[126.68742863885981,36.78108478700166],[126.6877584238099,36.78196711805984],[126.6876943620572,36.78234784621231],[126.68712160180812,36.782780666256684],[126.68538718915597,36.78385252953424],[126.68448804273683,36.782784455081384],[126.68402862932311,36.78243580939574],[126.68385348026386,36.782060653893105],[126.68303077267406,36.7813431564797],[126.68284956181587,36.781548935180915],[126.68237758697136,36.78185098241845],[126.68222974930636,36.7821936439236],[126.68084063924447,36.78269758411497],[126.68045808720942,36.78335470739399],[126.68002650824333,36.78368624840637],[126.67962742590264,36.78351440998769],[126.67909595399172,36.78370310363247],[126.67711452555393,36.7839815111063],[126.67587717956965,36.783868376624135],[126.67574112975542,36.78349346953259],[126.67539204262486,36.78316332994766],[126.67467999436471,36.78287822298074],[126.67411204260773,36.783111046601114],[126.67312710494318,36.78227966818026],[126.67289140534761,36.78196441530434],[126.67241024603898,36.78171373261329],[126.67189603878855,36.78132539196929],[126.67135422163099,36.78150141464335],[126.67092600168216,36.78149581117773],[126.67050521777776,36.78122491283756],[126.67015174780262,36.78110557815104],[126.66969726436756,36.780714339970054],[126.66898185932926,36.78065140986865],[126.66882553032214,36.77986106452515],[126.668461920115,36.77897519843749],[126.6686212231505,36.77870885546319],[126.66859314286562,36.778337602747655],[126.66812698421481,36.7772901856514],[126.66806737748749,36.77666261580464],[126.66767923983903,36.77600608999866],[126.66725504683845,36.77414575935899],[126.66669177650195,36.77382456229488],[126.66600034811404,36.77320183235051],[126.66573618340983,36.77249686336467],[126.66518300177485,36.77164167471034],[126.66502222404667,36.770916200331705],[126.66339832148832,36.77029288701558],[126.66259189814953,36.77011015577292],[126.66215710767477,36.77075115365032],[126.66216832822543,36.77084591019154],[126.66143630420287,36.770984138976274],[126.66026612333224,36.77092981344994],[126.65975482789297,36.77123288378647],[126.65945179613388,36.77199771833686],[126.65880809140741,36.77234666836052],[126.65821180425209,36.77393710408975],[126.65739317332675,36.774527934589294],[126.6567733657183,36.775591868358845],[126.65674273560403,36.77614328222376],[126.65577269169346,36.77600588831461],[126.65550152024585,36.77542354571521],[126.65465491014373,36.77480446240258],[126.65371081299593,36.77491878731717],[126.6536188738064,36.77498268598447],[126.65341117759262,36.774003920023254],[126.65339345358218,36.7732512027497],[126.65353892495571,36.77255202811453],[126.65333059635637,36.77179138090948],[126.65140442242034,36.772010962499735],[126.65036280321371,36.77180105143589],[126.64916756290656,36.77003821638227],[126.64958687732688,36.76811769943159],[126.64998874266612,36.76790777334316],[126.65051926444676,36.76722368784679],[126.65074338907893,36.76704753644549],[126.65115612534889,36.76634684251611],[126.6507428861517,36.76609544106144],[126.65058386064855,36.76549238580862],[126.6502083475608,36.764978664778546],[126.64920512417115,36.764243443751994],[126.64827007294934,36.76299526862203],[126.64757785660828,36.76187370410246],[126.64774408948375,36.7613909169553],[126.64752798933195,36.76107049681042],[126.6477554101321,36.75929161275937],[126.6482939764726,36.759063971269306],[126.64851856252278,36.759059420041105],[126.64907004342207,36.7587280418895],[126.64963040590783,36.75814539458728],[126.64982524420562,36.75804505638933],[126.65033062825242,36.75728897919149],[126.65125215754274,36.75714630135089],[126.65277614406607,36.75659335176138],[126.65292588615173,36.75551047978527],[126.65243569570491,36.7545478224472],[126.65323774198338,36.75339287727664],[126.65300569334096,36.7529517532661],[126.65316519869813,36.7523253479372],[126.65322082054284,36.750484067220484],[126.65238955709903,36.7509939021486],[126.65136315674957,36.75189065281131],[126.65036298521068,36.75194088904562],[126.64973671544125,36.7531515981993],[126.6494384545563,36.75304795395855],[126.64902489977794,36.75276000651335],[126.64776298401954,36.75304394121926],[126.64586110324974,36.753137475568856],[126.64551182509489,36.75231219644402],[126.64499579015,36.75178536792715],[126.6441059850565,36.75275801411261],[126.64287893937578,36.753016490613874],[126.64266805368888,36.75395183725289],[126.64212415116374,36.754693664249615],[126.64177044822925,36.75555682039532],[126.64099805253124,36.755675699078196],[126.64014277608838,36.75630962899869],[126.63871520742516,36.757687575670154],[126.63785304044116,36.75758032746262],[126.63728356645687,36.75838780613786],[126.63709078190652,36.75832729098207],[126.63634413958262,36.75833101243435],[126.63503385497418,36.758550621031624],[126.63404183572548,36.75815335469332],[126.63311105029217,36.75789960085838],[126.63232055318133,36.75723997352557],[126.63194868682598,36.75631991457127],[126.6316012268676,36.7558180458979],[126.63192780184096,36.75520364933716],[126.63184204635601,36.754621710624015],[126.63260593458598,36.75436281244272],[126.63326135053224,36.75385545460138],[126.63306289485362,36.75186681781812],[126.63350033597342,36.75086732902646],[126.63350552917002,36.74967454653921],[126.63387210178509,36.74891566551642],[126.63389132872412,36.746992724013786],[126.63366673423856,36.74657004971087],[126.63423315444668,36.745316239093704],[126.63406692579039,36.74429123943226],[126.63245595671665,36.74235870889467],[126.63303715490096,36.74062738685017],[126.63232591761742,36.74016836489732],[126.63108533492635,36.739717137756635],[126.63078752518423,36.739384052165555],[126.6302963566566,36.73951905652101],[126.62877454290964,36.73851139232537],[126.62856486267764,36.73749031927917],[126.62796532103206,36.736274493661064],[126.62694283969917,36.73554683141548],[126.62706561538039,36.73513556423823],[126.62592715187867,36.735099670406],[126.62528496131877,36.73454204570138],[126.62494641286918,36.73358517574031],[126.62336353068179,36.7333588364439],[126.62388341843219,36.73394689307288],[126.62394690008702,36.734124748343596],[126.62320634394199,36.73339647161919],[126.62253985618314,36.73352958092606],[126.62254286150628,36.73337828516263],[126.62266207875639,36.73329210355198],[126.62247311951413,36.73337235860822],[126.62247501226045,36.733538459893516],[126.62210393170658,36.733426979023704],[126.62155184635088,36.73359880209378],[126.62148476694654,36.73380267715337],[126.6207960457156,36.73387569293939],[126.6199507519466,36.734132343035974],[126.61924247650676,36.734196699088194],[126.6172557230049,36.73407634847339],[126.61578959480586,36.733446137629315],[126.61455941346676,36.73355102503883],[126.61317345825393,36.733375615077236],[126.611805915607,36.73336366599279],[126.61046280552729,36.73403364313911],[126.60880613053251,36.732871686175585],[126.60893943552276,36.73174295361466],[126.60943105695306,36.730111546324785],[126.60915122198952,36.729058605073334],[126.6084340724268,36.72809526813025],[126.60760763254343,36.727205077033574],[126.60700555014868,36.726297114008055],[126.60684255285017,36.72618473814574],[126.6063947570891,36.725575001795214],[126.60469937587217,36.724855784565364],[126.6042671398516,36.72371621814171],[126.60362542533387,36.722563968474354],[126.60309324066672,36.72112200578309],[126.60237194905767,36.72004694488154],[126.60264126378416,36.71884085082888],[126.60275919798485,36.717837487708366],[126.60356283668962,36.71727599997822],[126.6044811507553,36.71618483656952],[126.60522519857804,36.714547785290456],[126.60502127747209,36.71388825876086],[126.6053314503494,36.71297363416872],[126.60554341738334,36.71266947524535],[126.6055845634517,36.712177755828804],[126.60594842307438,36.7111254747972],[126.60555038409841,36.710178992572146],[126.60667740433624,36.7089606991017],[126.60759236460083,36.70823568256873],[126.60763006373796,36.70780055118854],[126.60804547897509,36.70749438405793],[126.60877984872833,36.70620799135629],[126.60946358270591,36.70538020947932],[126.60968481461039,36.704308043909975],[126.60941365689635,36.70387792294699],[126.60822228930067,36.70247403259386],[126.60697663524581,36.702289823114334],[126.60673876187586,36.70206036839187],[126.6061705292829,36.70211205495284],[126.60532138827385,36.70004989533844],[126.60533687381707,36.69976467176111],[126.60492728807131,36.69845583617591],[126.60415679170396,36.69849725011071],[126.60364855036437,36.6983191152581],[126.60296219141212,36.69733576016477],[126.60259327117734,36.69699203615919],[126.60153917575174,36.69697072987708],[126.60034415789904,36.69684338558224],[126.60036869949813,36.696252640706156],[126.60000265845675,36.694945240294295],[126.59986447319471,36.69401863513511],[126.60013503467114,36.69243470836211],[126.6001069634579,36.69142232866715],[126.60039234757303,36.690870526887174],[126.6004811766597,36.69045480741278],[126.60003817367348,36.689654817807586],[126.59978895188911,36.688881810277955],[126.59929492961226,36.688445696874844],[126.59911585792521,36.68801490723546],[126.59869923397655,36.68749756781316],[126.59777522834263,36.686640979505995],[126.59730904028407,36.686015320797715],[126.59632530323887,36.68539485613326],[126.59663397643142,36.68462904764615],[126.59646704783788,36.68456924934628],[126.59661778866914,36.68360424223781],[126.59811790128678,36.6820042527607],[126.59813421655242,36.68109706316417],[126.59873702478212,36.68044686504846],[126.5986202865963,36.68007257892298],[126.59919768521435,36.67865135149018],[126.59884952304242,36.67823867742848],[126.59881441284331,36.67760199199617],[126.5981730820326,36.676418638423876],[126.59808665732737,36.67554091745215],[126.59815060169586,36.6746898898011],[126.59781523873134,36.67406094465988],[126.59745837294878,36.67379543594617],[126.59758574578868,36.67342712168256],[126.59687453754658,36.67254335968788],[126.59670675954716,36.67199092525867],[126.59646316343603,36.671640590677136],[126.5964310221671,36.67078532774288],[126.59559633613227,36.670014185214235],[126.59529115069931,36.66942964069737],[126.59508245094628,36.66823220601512],[126.59423633436673,36.6675257243695],[126.59246462614749,36.66637403170409],[126.59087515830642,36.66574659112656],[126.58974650009904,36.66433172136396],[126.58896731186988,36.6635321729011],[126.59087997944125,36.661679981343994],[126.59145793857756,36.66015294903634],[126.59210634047729,36.6589489502457],[126.59188557847227,36.65785126418265],[126.5920935788554,36.65735169465678],[126.59260638029191,36.656668684712116],[126.59309198823208,36.656461172525844],[126.59412120467076,36.65511076230016],[126.5947655265948,36.65445154263381],[126.59584288728769,36.65274721301479],[126.59586683098101,36.65157450990966],[126.59569213805722,36.651552206668256],[126.59574971881503,36.6512713169332],[126.5956933174244,36.65047682923588],[126.59525414898702,36.64932280657878],[126.5946644662625,36.6491323594816],[126.59333823015243,36.64846775148924],[126.59322473767627,36.64832727607512],[126.5918940376039,36.64776744388987],[126.59147100415831,36.647293682808154],[126.59133590169843,36.64668846602711],[126.59098482619041,36.64636044906803],[126.59076068468698,36.64595289753878],[126.59026813194076,36.645656496349176],[126.59053569603739,36.64400223648779],[126.59015261642168,36.64361212502261],[126.59010121644994,36.643419441093556],[126.59024313313431,36.64274375439473],[126.58960070514206,36.64155249395126],[126.58973400314028,36.64058886990909],[126.58837183594349,36.639799266944664],[126.58706618339673,36.63749630060261],[126.587158197619,36.637073767978876],[126.58818738468615,36.63548371298198],[126.58754069784281,36.63463523163071],[126.5872846162996,36.632835102501524],[126.58747317531807,36.63241150776583],[126.58678156310675,36.630620280258384],[126.58644591907641,36.6295016813666],[126.58613729507508,36.62938160276849],[126.58608405116513,36.628861333329034],[126.58666736508054,36.628173374243175],[126.58548550505799,36.62624461405748],[126.58564399682135,36.6251734117826],[126.58559933711774,36.6248609975375],[126.5854349924932,36.62455980013354],[126.5855873513404,36.62410975847888],[126.58597976634105,36.62358847472924],[126.58581851860991,36.62267170245355],[126.58587341389246,36.6223792640816],[126.58669684843622,36.62165009180277],[126.58681417626612,36.62132617626882],[126.5867912376357,36.62123226229099],[126.58599016824337,36.6205836242201],[126.58538785720998,36.62046261016584],[126.58532315582501,36.619854511933134],[126.58558424990657,36.618526893055666],[126.58597952984887,36.618045592698394],[126.58643175791723,36.617735728825416],[126.58714692429388,36.618070950769585],[126.58808923607292,36.61828554548866],[126.58863732075716,36.618745831171246],[126.58924177815173,36.61897650332269],[126.58949104793504,36.61916056441913],[126.59122638165519,36.61957986275668],[126.59274558635646,36.62033907455284],[126.5933346726469,36.620494013698966],[126.59362261713538,36.62047331262527],[126.59410350573866,36.62060285264131],[126.59496715553641,36.62064908237967],[126.59554686034534,36.620780378593544],[126.5962088938019,36.62109428667565],[126.59681735482931,36.621563913833384],[126.59730088961699,36.62124447413508],[126.59769631641223,36.62123167566485],[126.59776440919289,36.62129561680109],[126.59773990026723,36.62123204899064],[126.5996920581488,36.621067631274876],[126.60052470713157,36.62081744518402],[126.60172696490453,36.6201213001919],[126.6017893879356,36.61974434216748],[126.60214831774714,36.61903398219709],[126.60327421372158,36.620096887315356],[126.60398062093452,36.62055886589572],[126.6045285777736,36.62110902834387],[126.6049151055161,36.62202614796486],[126.60591941818147,36.62296606299214],[126.60618119987244,36.62528362844557],[126.60679391492714,36.62488870552413],[126.60924822539025,36.624770075008016],[126.61047318901896,36.62447526085774],[126.6129567607338,36.62370154878382],[126.61360044754547,36.62360669283676],[126.61431054509013,36.62367789447147],[126.61536735348783,36.62344918420464],[126.61570405013427,36.62292964838682],[126.61567703812543,36.62222997100223],[126.61584894463327,36.62132748967109],[126.6164938169034,36.62039567547995],[126.61696714180646,36.61949176689116],[126.617062449909,36.61936398853244],[126.617215534536,36.61935247883173],[126.617153822208,36.61913962271005],[126.6167009171451,36.6189631892508],[126.61661967006877,36.618814412337294],[126.61594520432614,36.61826108376998],[126.6157612529904,36.617443336925064],[126.6167559055337,36.61684597752137],[126.61785789389188,36.616597269068826],[126.61835003410522,36.61553352937932],[126.61835746290878,36.61516608373927],[126.61820610150319,36.61462576540939],[126.61913954328926,36.61366362839106],[126.61953775208008,36.613477226574254],[126.62052140619288,36.612522421349624],[126.6220677176679,36.61150956565917],[126.62206526838827,36.61118803791515],[126.62281582825771,36.609866240847666],[126.62321214823768,36.60896666921883],[126.62528771809315,36.60982928300775],[126.62492181232767,36.6101134717895],[126.62503959183317,36.61052326038553],[126.6253422160829,36.61098529745761],[126.62552866761519,36.612293857108035],[126.62586271263952,36.613255927852585],[126.6265030758803,36.61394193772195],[126.62652996221827,36.6146359357915],[126.6262719778203,36.616387854115146],[126.62657617487928,36.61828635302769],[126.62635435693973,36.6190175429141],[126.62671429405692,36.620322346350285],[126.62622998343838,36.62112340278461],[126.62632038006052,36.621875010002846],[126.62608497249533,36.62261407002432],[126.62627535098392,36.62364631314153],[126.62610309064374,36.62513979624347],[126.62534998718274,36.62578767291774],[126.62388745228603,36.62672416556382],[126.62403036139187,36.62721333660589],[126.62513276898662,36.628902346523944],[126.62514696890021,36.629318305553646],[126.62454652618247,36.63035736820732],[126.62465497625884,36.63142068991967],[126.62385790901502,36.631847452621805],[126.62342851730477,36.631950045226695],[126.623077014349,36.632156847817924],[126.6222164909896,36.63322027724167],[126.62163045295642,36.63484332891755],[126.62126182184134,36.635601584227935],[126.61993271008546,36.63717126798634],[126.61894220495289,36.638010213032366],[126.61898672445173,36.63851139013516],[126.61910175856198,36.638975412734936],[126.6197421832054,36.63945509003011],[126.62022535577164,36.639378358537265],[126.62049073127659,36.63967599025862],[126.62084652747593,36.639727780819626],[126.62156718120585,36.64034273760235],[126.622280877728,36.641570125942906],[126.62259885080958,36.64190092142904],[126.6228580436145,36.642450990508486],[126.62322927725664,36.64285441279415],[126.62315286291233,36.64378419443646],[126.62409444240724,36.64414371055899],[126.62444705447581,36.644532408169226],[126.62535020614752,36.645040976088424],[126.626002327684,36.64501109767127],[126.62645961452574,36.64543829992893],[126.62674354205744,36.64623236146447],[126.62720440886031,36.64678605560015],[126.62728008000937,36.647334366182584],[126.62762092273861,36.64762878656069],[126.62762353273989,36.64851616747113],[126.62816098390111,36.64941875236525],[126.63066402524645,36.650256982694],[126.63399952008481,36.64999056450021],[126.63417304732553,36.649878279108464],[126.63457477217453,36.64985697978442],[126.63493514100573,36.65008632535732],[126.638087799749,36.64904855428797],[126.63896175446281,36.64802444981239],[126.64031896125128,36.64807877454274],[126.64164213461208,36.647939093456706],[126.64440313722189,36.648871350717165],[126.64613900033713,36.649704718976984],[126.64662899770605,36.64904099873292],[126.6470461300175,36.649233657019785],[126.64954484096768,36.64866117435871],[126.65086247460818,36.649397447940586],[126.6519281290965,36.649853547228105],[126.65222422878132,36.650794766036974],[126.65447544389836,36.65339529282607],[126.65445816307034,36.65356000342326],[126.65479196228341,36.65426945635522],[126.65533771985305,36.65474789985179],[126.65944669394096,36.656706870837034],[126.66704261143481,36.65807661937549],[126.66764206977403,36.658083518261144],[126.66903811877172,36.658404851500464],[126.67106159796558,36.65819540237305],[126.67147168203203,36.65825715769736],[126.67202015530545,36.65889841941721],[126.67327186013488,36.660022305607775],[126.67410935458895,36.65975766862435],[126.6750413092848,36.660266450496444],[126.67665958391447,36.660432746168844],[126.67728879758373,36.660651007144395],[126.67821339620178,36.660773568015266],[126.68106929987219,36.66167830781914],[126.6814334348078,36.660763160133655],[126.68186839171968,36.66084948408377],[126.68196315808825,36.66057129116852],[126.68310195177389,36.660799801326775],[126.68329935132893,36.66009646132512],[126.68472267023633,36.6603825759753],[126.68485818489066,36.66003861804143],[126.68611767534783,36.66029121031654],[126.68620864907773,36.65990027290135],[126.68687029678142,36.65998889086028],[126.68697337919932,36.65978523711716],[126.68964156065259,36.65992556122183],[126.68959307546828,36.65984602288546],[126.68995905763325,36.65956401813717],[126.69222853100347,36.6598915527918],[126.69302877463151,36.66124595328152],[126.69340466547685,36.6615605519407],[126.69422981842443,36.66192844124708],[126.69609670118825,36.66243504936408],[126.69702568118004,36.6628464218775],[126.69824414280103,36.66323263275076],[126.69984024452508,36.66313389441731],[126.70265934111758,36.66282471533245],[126.70397816635912,36.662506035495625],[126.70441458332083,36.662905799923244],[126.70483569088512,36.66281627836432],[126.70538260890265,36.66284892531297],[126.70566903236995,36.663011146040766],[126.70611594124601,36.66300145125385],[126.70644661661235,36.662879645326406],[126.70735052925545,36.66280161714764],[126.70764069919669,36.662959183070605],[126.7077901566234,36.663253354944715],[126.70758969508962,36.6637654188365],[126.70792677565899,36.664006660428015],[126.70756743954182,36.664429428080204],[126.70651935895812,36.66526099793683],[126.70619128429226,36.66540010245495],[126.70528397200354,36.66557999375304],[126.70495008567934,36.6657341646576],[126.70481820572644,36.66595610738592],[126.70480757752662,36.66671702551651],[126.70491986867933,36.666968583605026],[126.70537639754666,36.66738506386157],[126.70549840244115,36.668862957144164],[126.70720980105767,36.6705780597046],[126.70787914035682,36.67180935582023],[126.7085831434624,36.67247507213114],[126.7090577718555,36.67277510407745],[126.70948411444056,36.67286756975945],[126.7102027431769,36.672870194335964],[126.7105459908926,36.67268988160642],[126.71085806658905,36.67205189152083],[126.71108012825918,36.671811562049264],[126.7115374509163,36.67156730188353],[126.71209289398851,36.671019780767416],[126.71234222766002,36.67087359295023],[126.71283266648015,36.67080539618953],[126.71290280364195,36.67131442855303],[126.71362338560613,36.67066601384945],[126.7145010965007,36.67083763336589],[126.71570079708795,36.6705744148281],[126.71609083097967,36.67061328685053],[126.71701558385885,36.6704660938257],[126.71738191696487,36.670683687828856],[126.71794879915808,36.67081660318311],[126.71845169218246,36.671073087525976],[126.71843261679692,36.671119539420516],[126.71896893843385,36.671198579521764],[126.71929817676224,36.66998786435925],[126.71936686307272,36.66990708866607],[126.71950373385276,36.66992659750951],[126.71977404042936,36.66961887283236],[126.7202211749024,36.66934470788936],[126.72194788809165,36.6688089738625],[126.72328619484661,36.66861621166824],[126.72354229351681,36.668294351524544],[126.72373157931946,36.66822969709226],[126.72395423176874,36.668240164692506],[126.7243546263115,36.66843232333639],[126.72512474092736,36.66751758167286],[126.72546279988312,36.66746754061753],[126.72645471518587,36.667768847517706],[126.72749705186538,36.66856012813986],[126.72754181402867,36.668530249906546],[126.72824611712106,36.6696376992891],[126.72817638801901,36.67031326474727],[126.72924441781305,36.67082120424497],[126.72946745653672,36.67102316862706],[126.73036998719772,36.67060699994637],[126.73071847198477,36.6701988611787],[126.73155346840493,36.670343044172675],[126.7324827551448,36.67065197946483],[126.73306492825775,36.670930748670926],[126.73340170766807,36.671203833940716],[126.73427888061613,36.67148144167895],[126.73448731293382,36.672256341744735],[126.73517023090554,36.672530947026786],[126.73520929551563,36.67248870985204],[126.73618638469775,36.67265508367552],[126.73746908032251,36.67151086687439],[126.7389231871103,36.67196939289152],[126.73971553951772,36.672996145738416],[126.73987620655829,36.67296534770238],[126.74151322386979,36.672244221108215],[126.741786589255,36.672030945104595],[126.74262069050464,36.6709680666396],[126.74284757130636,36.67074428783048],[126.74302490905131,36.670684207168804],[126.74354169133426,36.67013527364738],[126.74540082651292,36.67065656690817],[126.74499521310936,36.66936524846631],[126.74493858917914,36.66827624466891],[126.74484997919288,36.668295123949605],[126.74472455478696,36.66794007942241],[126.7447128331528,36.66748879010196],[126.743829068186,36.666879623801705],[126.74369122656469,36.66622528847204],[126.743761713309,36.6655053363337],[126.74360212109146,36.665111991797694],[126.74283132473158,36.664538512547495],[126.74235233618357,36.66407330191441],[126.74207861163504,36.66359567901808],[126.74232024724334,36.66336864486684],[126.74251371595012,36.66341944563361],[126.7425630852618,36.6633165736108],[126.7424219875815,36.6631183350836],[126.74236107384172,36.66327133835255],[126.74205568469604,36.66333771773627],[126.74208573570388,36.662999420922894],[126.74195550778953,36.66258841362122],[126.74204016480164,36.662546199238705],[126.7422079081919,36.662613059654454],[126.74219435248055,36.66248256474399],[126.7418757757589,36.66239017196376],[126.74131702267098,36.66240049836061],[126.74060968459993,36.662308369152775],[126.73896313360461,36.66176316584027],[126.73781089280271,36.66016048523646],[126.7371766024582,36.660259464392226],[126.73720068090259,36.66020100132814],[126.73644450223833,36.660396026513226],[126.7357952066108,36.6595447944962],[126.73703446868899,36.65881330395035],[126.73720581484281,36.65843073330139],[126.73726951131341,36.65818795840432],[126.73719010723495,36.65803615947799],[126.73721800848872,36.65781809545248],[126.73698680197813,36.657131483272074],[126.73717395378927,36.65689817315213],[126.7369654997871,36.656797154931446],[126.73701990319834,36.65676654690093],[126.73678325261592,36.65631706222641],[126.73645859176247,36.65604093029553],[126.73656142148972,36.656049691881144],[126.73637198188504,36.655616524513434],[126.73665124519574,36.65491544759318],[126.73681115741681,36.65472527008421],[126.73705037730393,36.65460275105504],[126.73753289355197,36.65395518513735],[126.73759819418459,36.65335334020105],[126.73775944548996,36.653145466793966],[126.73765859722045,36.652697310555396],[126.73648383500516,36.65182353026366],[126.73611578167143,36.65168070296728],[126.73607968106283,36.650895560943525],[126.73653766483662,36.64988038104362],[126.73650727738125,36.64946285836402],[126.7361452851592,36.6484204305186],[126.73648144806974,36.64831597213354],[126.73692220873005,36.6480539941885],[126.73768419385789,36.64826489946663],[126.7389058251601,36.6484281884838],[126.73975539110475,36.64863421685084],[126.74015121973902,36.64883830837251],[126.7409755786193,36.6487881362012],[126.74216601394991,36.648566721827265],[126.74269217173496,36.648305289163936],[126.74434329213688,36.6469307814594],[126.74478646494931,36.646965221141194],[126.7453105004866,36.64669339813615],[126.7455366484389,36.64634613876642],[126.74615065166905,36.64673187609309],[126.74681115162593,36.647568994631136],[126.74793112358195,36.6480915230577],[126.75046761382903,36.646386223335114],[126.75067415212595,36.6463234351493],[126.75123858077009,36.64591880039577],[126.75182426360072,36.64565916155987],[126.75236655199048,36.64448037074444],[126.75068231366005,36.64268806292888],[126.75023453558137,36.64165409332779],[126.75013880349003,36.640474242332395],[126.75029069529484,36.640223706597766],[126.7512513006954,36.639286051352904],[126.75107610159627,36.638585345585255],[126.75051886402548,36.6377891610192],[126.75011466160191,36.63680432981834],[126.75010580364946,36.63653367628133],[126.74973602375735,36.635255382909634],[126.75147837179944,36.63480638830175],[126.75165187557815,36.63417073504779],[126.75236268156071,36.63376299428096],[126.7529652331011,36.63322394470811],[126.75337486501233,36.633221330915404],[126.75395335864482,36.632887494444844],[126.75425146485925,36.632606437852104],[126.75448573943741,36.63263011648603],[126.7554901951068,36.631921555637874],[126.75721636781027,36.63236276933675],[126.75758266083528,36.63188713636172],[126.75751875451816,36.63183696575946],[126.75765163657789,36.6307721650825],[126.75806189143157,36.630314698695486],[126.7578872905812,36.62938965657255],[126.75792222614722,36.6285664016529],[126.75815769208106,36.628022133408116],[126.75832535237042,36.62793544364321],[126.75843246892816,36.626999345355856],[126.75863416934644,36.626681457663324],[126.75833598805902,36.62608707674593],[126.75777200142659,36.62553583029841],[126.75649114748565,36.62501531612801],[126.75597888297781,36.62451479099154],[126.75606394169561,36.624118152574276],[126.75594837819081,36.62361784986945],[126.75626827546161,36.62331544143524],[126.75636959344008,36.62308308861226],[126.75674781695146,36.62301919897457],[126.7570543930111,36.622809115805644],[126.75738617079166,36.622324600421635],[126.75733571956418,36.62184238448289],[126.75779434931394,36.62118834393046],[126.7584622590834,36.6205653691698],[126.75904533790693,36.62036136798262],[126.76004610250529,36.61882496387332],[126.76051356686058,36.61828253604069],[126.76138177931955,36.61768952466618],[126.76229029086106,36.617595795483],[126.76366891260305,36.61843112724538],[126.76445766861083,36.61926925421615],[126.76484325345473,36.619275914081456],[126.7661940590257,36.61877367711484],[126.76665509599653,36.618703396536205],[126.76691107030767,36.61889503059774],[126.76762700439573,36.618306926838024],[126.76822252331604,36.61817573516183],[126.76834418743738,36.61842646077643],[126.76825771620575,36.618078481516264],[126.76858683031146,36.61804108951502],[126.76964903534898,36.617505547059665],[126.7699953842533,36.61722043277569],[126.77036934501126,36.61708491043505],[126.7708184797321,36.61651337922598],[126.7706035412202,36.61608534273534],[126.77063265692385,36.61466583397813],[126.77053968221146,36.614416393188215],[126.77092683775803,36.613301368689825],[126.77033609337494,36.61300838296776],[126.7701340964679,36.612506952223235],[126.77022336075288,36.61069144267483],[126.77069073498396,36.60998565352293],[126.77061015401304,36.60957007521161],[126.77075038591028,36.60932271607803],[126.7710638895195,36.609029912995176],[126.77148062178976,36.60795919035014],[126.77195166396831,36.60742735725231],[126.77251603239598,36.60701918386947],[126.77193242401657,36.606391323900944],[126.77203645557277,36.6053925642828],[126.7712440380184,36.60458357411848],[126.77111594648416,36.603878758672906],[126.77038491955153,36.60214604878597],[126.77010615881251,36.60209365507437],[126.76994699790755,36.601909389025046],[126.76949333379835,36.601962827263556],[126.7694441014234,36.60156388107162],[126.77000306209449,36.60053910808473],[126.77005114962365,36.60003899878969],[126.77077277640367,36.5994469740937],[126.77128773462498,36.59735438218042],[126.77069400481393,36.59656545422717],[126.7717019505871,36.59476547301644],[126.77165103727437,36.594745846705585],[126.77247088901366,36.59402941864692],[126.77158344000084,36.59297440814005],[126.77146044775994,36.59251902561037],[126.77081348162253,36.59256392237397],[126.7705024745947,36.59245297755571],[126.76960194584478,36.59182216446775],[126.76925217923123,36.59169240469617],[126.7693933676178,36.591466918538465],[126.76843056800175,36.59061808949566],[126.76663532130198,36.589681746955954],[126.76618627962773,36.58933930230193],[126.76536533786849,36.58861731136806],[126.7653688470291,36.58817015012827],[126.76525294405273,36.58800149646825],[126.76479427226913,36.587744716507785],[126.7644072996565,36.58743976928639],[126.76418827266575,36.58712206139899],[126.76336390981275,36.58658873955091],[126.76278338329179,36.5867503761462],[126.76253241711701,36.586897002349104],[126.7622678428402,36.586915900883696],[126.76188789531798,36.58662388201503],[126.76156566166803,36.58650940075913],[126.76086012834998,36.58648008903764],[126.76000977427918,36.58598541161829],[126.75976015583448,36.585953158909895],[126.75935523264357,36.58560493162662],[126.75857645926878,36.58551576515567],[126.75816959862985,36.58532874318618],[126.7572065607032,36.58508620708491],[126.75573523468601,36.584813429762434],[126.75556819398581,36.58427541056167],[126.75570203615734,36.583714495693705],[126.75566930316663,36.58321866800496],[126.75519653160522,36.58261441593453],[126.75485789642481,36.58244841149221],[126.75365137179311,36.58212403465017],[126.75337669752567,36.58190643969607],[126.7532105257632,36.58148755182144],[126.75268071535058,36.5811080239779],[126.75223458727037,36.58064142154608],[126.75208763142973,36.57998988936137],[126.75122057288183,36.58028601586194],[126.75008175003715,36.580295883928734],[126.74935263157894,36.58051472566839],[126.74838441420246,36.580428111170335],[126.74831610874647,36.57954233112391],[126.74786906731104,36.57841276775816],[126.74790838183355,36.57817796099],[126.74768794858261,36.57798394623504],[126.74712711889804,36.57713056347755],[126.74694168824425,36.576741344594396],[126.74689905067454,36.57639831639474],[126.7469389023847,36.57534321453849],[126.74729353126297,36.574903459933516],[126.7475437736024,36.57404310845623],[126.74785752415517,36.573340188506265],[126.7484880543106,36.57294570149786],[126.7488182570169,36.572616863692524],[126.74822717276808,36.5720179391982],[126.74816277863542,36.571490618539265],[126.74876615899734,36.57073489746655],[126.74832195190689,36.56993509585016],[126.74881265043436,36.568939425643464],[126.74867851679356,36.56731322297041],[126.7492473472883,36.56576917471826],[126.74974749160849,36.56529727778676],[126.74923185679195,36.564475500136076],[126.74879492814786,36.563487305911536],[126.74859227099978,36.56259473979739],[126.74862094735047,36.56231697774925],[126.74835038656535,36.56207626831629],[126.74831932436986,36.56119136412785],[126.74851426145055,36.559566887364944],[126.74846566696954,36.5582798216207],[126.74829301261441,36.55752645279666],[126.74780684852114,36.55696299141764],[126.74619530739383,36.55598663725727],[126.74598153860657,36.554955741655014],[126.74541672609035,36.554640455664334],[126.74479299626896,36.55480929478207],[126.74465857307749,36.55541950941921],[126.74283952300215,36.55550323186874],[126.74209755864698,36.55575936498766],[126.74178025544373,36.55554082296442],[126.74071504819133,36.55427057730094],[126.73903464932535,36.55342859395959],[126.73880570071654,36.552685541879924],[126.7380188384766,36.551947709317155],[126.73712294355511,36.55148044066246],[126.73697722601818,36.55095745494734],[126.73712232356128,36.5505342514084],[126.73691455291674,36.54978861749827],[126.73724785182802,36.54926065528752],[126.73738971738582,36.549145921615604],[126.73774111390279,36.54910185906337],[126.73791484817689,36.54856766052666],[126.73790711516013,36.548062038506515],[126.73800614674244,36.54786496060624],[126.73792206013297,36.54701883982343],[126.73780346407007,36.546436609172844],[126.73759768972198,36.54611333790329],[126.73787211835209,36.5456428726741],[126.73788207897552,36.545429449415096],[126.7382479757802,36.544729989281194],[126.73825216428361,36.544779525798575],[126.73895095986497,36.54401204105877],[126.73935341922814,36.544032705445034],[126.73978453950616,36.54318766020782],[126.74089471107213,36.542577198056314],[126.7406757247121,36.54112972664167],[126.74084494273094,36.54029953155723],[126.74107700859285,36.54015473117823],[126.7412154249971,36.53978267836185],[126.74160170177313,36.53928063850941],[126.741382274761,36.539016963399696],[126.74126271948964,36.538569574096385],[126.74127369431663,36.53820713141281],[126.74140488046446,36.53809238597071],[126.74132671690312,36.53799005462568],[126.74135159786421,36.53779681267101],[126.74110404939134,36.53758882885177],[126.74106086944525,36.537444824103744],[126.74116132413833,36.53725922454212],[126.74088514032145,36.53699945495322],[126.74099972582432,36.53701623983122],[126.7412016941156,36.53685277237901],[126.74138729146391,36.53647176101688],[126.74158505984013,36.536501107540325],[126.74167108777763,36.53638826517979],[126.74238477493921,36.536255699054536],[126.74241921635041,36.53588666563387],[126.74274965918164,36.535469414466014],[126.74369004903974,36.53532809651078],[126.74412217018906,36.53466774482433],[126.74476761709099,36.53415347331886],[126.7448515903436,36.53392744062073],[126.74519128880446,36.53371078849307],[126.74602549607563,36.5334898975935],[126.74627380011428,36.53350909851399],[126.74698391621679,36.53283317506348],[126.746438038715,36.53171310237858],[126.74729207267345,36.53139751424736],[126.74781824810775,36.531431724495505],[126.7480915805019,36.531347858701004],[126.74830048753934,36.53096457776399],[126.74881172255245,36.53083254457818],[126.74973380123761,36.531314642841814],[126.75016894409309,36.531464356861285],[126.7503191170096,36.531437655810635],[126.75082738882296,36.53098509890406],[126.75113873003771,36.53082748484371],[126.75165570490299,36.530197172346234],[126.75186649459638,36.53011150085814],[126.75202840602783,36.529880454403944],[126.7525427000353,36.529657817171675],[126.75282565970663,36.52940198711177],[126.75316011446428,36.528601936202264],[126.75350814752301,36.52839700088546],[126.75412066160963,36.52833628264718],[126.75462838390173,36.52866228657701],[126.7550828523705,36.52875098952598],[126.75582264611268,36.528747063568005],[126.75638765578157,36.5281366174053],[126.7569734760514,36.528154602237294],[126.75823388271793,36.52786757515756],[126.75883835018476,36.527248964255044],[126.76034462049873,36.52860013096996],[126.7612426426536,36.529817208985435],[126.7624415584303,36.531105327269216],[126.76284334949034,36.531338402301515],[126.76331567444032,36.531981519087246],[126.76347738369566,36.532051130434944],[126.76367215862237,36.53256517939414],[126.76357033192762,36.532882009280854],[126.76367713488263,36.533146481362294],[126.76404100938328,36.53355771448992],[126.76418205600295,36.53384975769875],[126.76571317323214,36.53540536873535],[126.766157734635,36.53543085700626],[126.76716340053368,36.53517727981807],[126.76766111143574,36.535861389086875],[126.76905500151655,36.53633615799557],[126.76904349043281,36.53642496191398],[126.77130437440601,36.53524460249692],[126.77517369772833,36.53340082186058],[126.77769672784073,36.532078719702675],[126.77758156745561,36.53226200246794],[126.77819772401963,36.532223714632636],[126.77813292610185,36.53234405939237],[126.7789626804497,36.532826010128346],[126.78029753473588,36.53224694867531],[126.78055943449804,36.53217420617124],[126.78069935837586,36.53221856705396],[126.78137065782258,36.532686691827216],[126.78166123087182,36.532757464301284],[126.78247016128272,36.53377859793163],[126.78287419778106,36.53452978297212],[126.78338920541299,36.53464162941274],[126.78500261184797,36.53479796278359],[126.78651682918115,36.53405579743048],[126.78756024134464,36.53388842024767],[126.78872642032763,36.53334742283451],[126.79014951221473,36.53293749697757],[126.79223523457273,36.53203538907844],[126.79272541519921,36.53195154091647],[126.793199156372,36.53197667226416],[126.79350623383905,36.531654282087125],[126.79508299580874,36.53139507696702],[126.79541395344465,36.53124275999355],[126.79537408563132,36.53101718878295],[126.79554907192647,36.53090308366957],[126.79664596382632,36.53115428267048],[126.79723318537876,36.53105171963832],[126.79743786012813,36.53108656568696],[126.79817343825425,36.53088775929856],[126.79854446910053,36.530562068621315],[126.79904352781746,36.530347733647496],[126.79908968371979,36.53022990372918],[126.79936131719555,36.530115369280274],[126.79925316435646,36.52989114339295],[126.79933343631359,36.52979260386378],[126.80073407884476,36.528980325270176],[126.80212904013379,36.5283115201351],[126.80232896948607,36.52792098304809],[126.80408402986721,36.52749595333109],[126.80456100322505,36.52693333569752],[126.8051634533,36.526663262994816],[126.80543312666101,36.527538674791586],[126.80595368817748,36.528752030991896],[126.80630083620238,36.52999524340973],[126.80713481571199,36.529950853472776],[126.80749774160897,36.530126646964234],[126.80823075272882,36.53010636041319],[126.80859307076872,36.53042083484915],[126.80883102208927,36.5308432609148],[126.809988793541,36.53076679843319],[126.81030165781117,36.53085341537571],[126.81101756473916,36.53078496492764],[126.81178192125468,36.53131991160586],[126.81240704332846,36.53146502497878],[126.81244531482903,36.531389938331735],[126.81297323829591,36.53122621669517],[126.81303286932173,36.53112335342418],[126.8135756187138,36.531014857153764],[126.81382796525702,36.531069962666216],[126.8144651998376,36.530363564503844],[126.81488374935064,36.530270274077324],[126.81515600345368,36.52994363211308],[126.81564421360385,36.52963138710316],[126.8157396216931,36.52932093119342],[126.8161995326899,36.529307506104644],[126.81649590268171,36.52940444255521],[126.81703702378776,36.529353968390275],[126.81711214645004,36.52950590029592],[126.81759643489669,36.52960072757408],[126.81783053526938,36.529523167909595],[126.81799785306484,36.52964758463918],[126.81821675963813,36.52961529878874],[126.81860882508849,36.52973158942111],[126.81941019392619,36.52964280085618],[126.8197121748374,36.529471845838216],[126.82031394606726,36.52943192929689],[126.8204223603875,36.52954531520191],[126.82197713923914,36.52917957289324],[126.82234690576254,36.52897317104569],[126.82367896205865,36.5289053725193],[126.82391161873716,36.529015864592466],[126.82427380643911,36.52877139948664],[126.8246672313665,36.528723403714004],[126.82524230611041,36.52902407482596],[126.8252694831359,36.52921648163746],[126.82564701716431,36.52990032640566],[126.8258114332959,36.53120643451514],[126.82629770712752,36.53199929297722],[126.8266375114314,36.53280288328399],[126.82647784663985,36.53316239782333],[126.8270249444632,36.534635758709854],[126.82739545126155,36.535295262571076],[126.82780549524867,36.53567515315758],[126.82828611010366,36.53573313725736],[126.82862274066268,36.535881242757206],[126.82873437199895,36.5363147817881],[126.82909411331434,36.53663324537917],[126.82946891506325,36.5367976585241],[126.82952293593578,36.53702169171458],[126.82905476881983,36.5376709297679],[126.82919571494739,36.537833878182546],[126.82919009105653,36.538063581729105],[126.82892980603984,36.5385064155044],[126.8292643120878,36.53888312813459],[126.82915085999298,36.53955370153455],[126.8298941415225,36.54002875826142],[126.83011945718648,36.541111085718306],[126.83061663885915,36.54151233094277],[126.83064898095307,36.542233518757214],[126.83095796855609,36.54230069940942],[126.83123634526288,36.54292377999442],[126.83109587043197,36.54312447969772],[126.83105693654242,36.5435784214982],[126.83050626048184,36.54386978254647],[126.83114529613106,36.545131812912594],[126.83099665336653,36.54572417292759],[126.8311919361029,36.54606855364377],[126.83113703212439,36.54670465526459],[126.83137459220706,36.54758339337527],[126.83203360314502,36.54811090510827],[126.83170770841289,36.548660021460805],[126.83189564898873,36.54890243509846],[126.83208463901396,36.54945958370785],[126.83275407016741,36.5500115820322],[126.83286248746768,36.55033049515761],[126.83276991128058,36.550673754424174],[126.83285791219107,36.55087842062489],[126.83385192362704,36.55153035587617],[126.83401226913857,36.55239899463056],[126.83447051325686,36.552719661303804],[126.83508990777503,36.55305863460216],[126.83587708117685,36.55315162937418],[126.83690828348712,36.553756307924154],[126.83729723705682,36.55359295441257],[126.83741185946604,36.55415789362028],[126.83781711425,36.55443747123409],[126.8379771432198,36.55502971400583],[126.8383091778384,36.55535633975933],[126.83831940518952,36.55567208489086],[126.8386966376708,36.556450456794586],[126.83861587998742,36.556897502619094],[126.83871677234565,36.55704934892922],[126.83899153795875,36.55701901377754],[126.83999146585626,36.55724571812505],[126.8400405317462,36.55738767912941],[126.83952085480814,36.55787101252598],[126.83970877654185,36.55840396102085],[126.83923952194499,36.558584344503636],[126.8396105836102,36.558926886811925],[126.8396434855083,36.56025261794171],[126.84025871594905,36.56075272808151],[126.83997209475336,36.5612191765923],[126.84050198255208,36.56207955580448],[126.84046055120197,36.56253139418238],[126.84096159851946,36.56320762801619],[126.84184156498229,36.563551909720694],[126.84275884412574,36.56360312091967],[126.84427553683729,36.564567468454094],[126.84485357150804,36.565230431891436],[126.84472218976339,36.565982296741694],[126.84476326270904,36.56623839465495],[126.84466895875951,36.566357958602865],[126.84502806826461,36.56679622149307],[126.8454664759186,36.56703554481814],[126.84572665142771,36.567366765585234],[126.84582883583869,36.56786267965518],[126.8461380486893,36.56820954620713],[126.84598718365785,36.56920919911472],[126.84569959081132,36.56960429699422],[126.84617673609489,36.56957670582969],[126.84685352335319,36.569278145662324],[126.84734650120666,36.56926348279434],[126.84791278278591,36.56936604312396],[126.84895699760911,36.56989676612367],[126.8490709196882,36.57052011310481],[126.84950050556195,36.571207095393525],[126.84970202563284,36.57188081895266],[126.84980164145777,36.57234098928924],[126.84972362899488,36.5729158592055],[126.85005101476006,36.572918583940414],[126.84994039394496,36.57181202266378],[126.84973918497329,36.57181176730608],[126.84974616437688,36.57152238347915],[126.84997959959803,36.57153051327657],[126.8498457723089,36.5710888281373],[126.85041279446284,36.571431900309875],[126.85131279925874,36.57099440681619],[126.85163605156107,36.57073230242995],[126.85261599741915,36.570533234658],[126.85307945591715,36.571394247931075],[126.85300670894739,36.57160809614036],[126.85322193982016,36.571536454206694],[126.85358078834636,36.571634366108924],[126.85428808908874,36.57115820562654],[126.85457902379243,36.571036846522354],[126.85478070845201,36.57104471207532],[126.85531820736574,36.57079818809898],[126.85595017587629,36.570157520707916],[126.85645226404439,36.57018463552489],[126.85646441234806,36.56999687892843],[126.85715043462424,36.56975941311763],[126.85704811169933,36.569711276975255],[126.8575174536914,36.5694615086083],[126.85772836542448,36.56945540970322],[126.85790470061401,36.569200887610634],[126.85825329643114,36.569186620714845],[126.85841755963413,36.569104459408244],[126.85846787870373,36.56898768950639],[126.85988093667933,36.569000223513534],[126.86106432371342,36.5685205070179],[126.86216905810703,36.568595891637784],[126.86235494170424,36.56852130489939],[126.86259550834515,36.56824221465829],[126.86309039953001,36.56850928350137],[126.86301666015058,36.56859508841129],[126.86355977815232,36.568733184071014],[126.86373772419013,36.56869939941085],[126.8637223939704,36.56860608706996],[126.86409201622935,36.56847413533755],[126.86525369238844,36.56887565571079],[126.86573417550379,36.569186431386775],[126.86653238675639,36.56920196212028],[126.86675970736607,36.56929917331444],[126.8667979865732,36.5694249797509],[126.8668167339579,36.569282513730315],[126.8669370607984,36.56924049233407],[126.8678932647742,36.56995566981723],[126.86876828910177,36.5701549690163],[126.86922093356345,36.570045828633084],[126.86941781526625,36.56991356291689],[126.86993979186609,36.56986331498675],[126.87030349984211,36.569909772175016],[126.87079418196012,36.56966038861187],[126.87222827975788,36.56977896597578],[126.87272947838298,36.569469318133514],[126.87329157829174,36.56873579275],[126.87385163812633,36.56841372943584],[126.87390469540715,36.568153887753745],[126.87377071211802,36.5678772839625],[126.87403185157403,36.5674665162828],[126.87490220515788,36.56781569127727],[126.8752160432381,36.56774240973254],[126.87628537507157,36.56783960605675],[126.87662250717598,36.5677362498657],[126.87699477199283,36.567411199040734],[126.87682890495854,36.56690569253377],[126.877189768492,36.566372325684945],[126.87752240047386,36.566570354044586],[126.87767679010302,36.56638033737179],[126.87817030685413,36.56623027705202],[126.87851879823734,36.565677886735266],[126.87900860281549,36.56547648333028],[126.87943696372527,36.56565320144938],[126.87981976659201,36.56558828634013],[126.88019475981713,36.5651165430545],[126.88159382893625,36.56463180187887],[126.88213801394286,36.564734337551734],[126.88263047963774,36.56426541647404],[126.88329519577823,36.56413437546594],[126.88395300147683,36.563667486728995],[126.88460248966717,36.5636226633301],[126.88507691385699,36.56322263198695],[126.88591547954688,36.56304622978315],[126.8863334839347,36.56257580796043],[126.88649425630565,36.56222777690902],[126.88724217065732,36.56185229775953],[126.8877463600099,36.561493114626956],[126.88850172873728,36.561827681047724],[126.88928624587913,36.561747163634806],[126.88964480310152,36.56153648141347],[126.88985444595883,36.56122943261033],[126.89041793463066,36.56114287405794],[126.89099563171061,36.560914266570656],[126.89125075672536,36.560597976457075],[126.89217990663137,36.56052443286774],[126.89260881186175,36.559883113540536],[126.89279272114894,36.55983509731742],[126.89309423736982,36.55935758885349],[126.89351387463444,36.559252018950296],[126.89523894419345,36.5594696722947],[126.89590495222666,36.55917160663757],[126.89657561384425,36.55920476654158],[126.89710362310693,36.559021026452335],[126.89779966873942,36.55902387874803],[126.89877873390836,36.55944954224429],[126.89898977252047,36.55962690627142],[126.89915070238692,36.560086266571204],[126.89994356154098,36.5602152302314],[126.89983870111385,36.560440436851806],[126.90022579003664,36.561014017439845],[126.9005486464615,36.56123177280609],[126.90182480810877,36.561044535714174],[126.9020745236564,36.561115401768156],[126.90297113705321,36.56076425863709],[126.90356242437248,36.56124148751967],[126.90414692152544,36.561562825418264],[126.90395243325516,36.56217368546326],[126.90357709126931,36.562639307562186],[126.90383380234903,36.56319361904033],[126.9044253139004,36.56334977542078],[126.90467404095058,36.56394367489291],[126.90456368100405,36.56420393527145],[126.90463958362064,36.564645230064315],[126.90515200172894,36.56494010293545],[126.90565832595868,36.56547834862226],[126.90663490222394,36.56545434717823],[126.90669842355207,36.566423514138386],[126.90965608447101,36.5669929869991],[126.91036278585061,36.566964099004814],[126.91062354813964,36.56761180339542],[126.91135872223488,36.56850453647832],[126.91113529537905,36.56899907478943],[126.91120718956284,36.5693110891474],[126.91153503732109,36.56993488868834],[126.91116623913372,36.57041041974782],[126.9115177397393,36.570757049059516],[126.9113147570728,36.57146902062824],[126.91164705711145,36.57190292030043],[126.9114749668248,36.572216899631286],[126.91328773799397,36.57296772318835],[126.91381879295776,36.573487904972545],[126.91457797326737,36.5736775362383],[126.9149761297373,36.57387972526778],[126.91551164670852,36.57387839994466],[126.91587880228936,36.57424322934916],[126.91637682197948,36.575162056935],[126.91652420885569,36.57562242666542],[126.91669646625282,36.5757764100167],[126.91681758799372,36.57646295819168],[126.91735322521507,36.57694308596354],[126.91825217297739,36.577374272264414],[126.91877598700282,36.57737681659062],[126.91972793882535,36.57717415941928],[126.92011997149582,36.57749246613586],[126.92048143190947,36.57754140087623],[126.92103064542006,36.57830547111051],[126.92160909554205,36.579725713620626],[126.9219786783313,36.58022109916428],[126.92239992586951,36.582954400244816],[126.92257154867309,36.58323454309955],[126.92247895021067,36.58392798976693],[126.92333817952978,36.58415232485808],[126.92351639334589,36.584938623269096],[126.9244890052325,36.58549188693118],[126.92427042350442,36.58573435877926],[126.92410156798974,36.58627761726938],[126.92443623247947,36.58706394327453],[126.92485669824674,36.58765292734642],[126.92569361826995,36.58819530695394],[126.92710558180423,36.58866409500123],[126.92743326710219,36.58893971419545],[126.92733240817883,36.58905446560753],[126.92745657219814,36.58913171598307],[126.92768895153279,36.58958589854799],[126.92850303790959,36.58995993033662],[126.92908785231964,36.5906333096974],[126.93004277637053,36.591037785382646],[126.93064179325803,36.59118354203948],[126.93096613676634,36.59176917667164],[126.93088922212385,36.59208565502323],[126.93045078526016,36.59276376160524],[126.93036026926379,36.59357813695921],[126.92741832151468,36.595657701473755],[126.9272664014537,36.596172446006356],[126.92747460888178,36.596644482699105],[126.92808794761163,36.5967184487242],[126.9280298577824,36.597388911776775],[126.9274767294534,36.59793542441935],[126.92824722611198,36.60008478672679],[126.92716412561683,36.60142399828529],[126.92810311723537,36.60220124204751],[126.92840967410369,36.60221570502407],[126.92846958783599,36.602539131564875],[126.92873683918027,36.60309999856937],[126.92943386898132,36.60318056299216],[126.92970644630047,36.60263518594822],[126.93082567678954,36.6024708490402],[126.93104562393496,36.602896351606525],[126.9320405742057,36.603215603994606],[126.93204544697588,36.60430178955602],[126.93174362600786,36.60471631633739],[126.93121211906058,36.6048947260317],[126.93078879374553,36.60516765567814],[126.93075970073481,36.605754610237895],[126.93035759072104,36.606176336766225],[126.93013839744647,36.60677148005201],[126.93046715911265,36.607310921925055],[126.93056734558711,36.607915139101934],[126.93050851176692,36.60847151872241],[126.93031025174596,36.60866229807005],[126.93093421839879,36.60916496952915],[126.93107097487983,36.61017391668482],[126.93196754418256,36.61074208610006],[126.93189638590655,36.61227477415108],[126.93218561449693,36.61308545894874],[126.93294863973992,36.6135625561048],[126.93365089236957,36.61358831584498],[126.9355319482465,36.61510152857667],[126.93651756381419,36.61555168209802],[126.93705811445767,36.61539230261142],[126.93752485868592,36.615821713211226],[126.93755270493791,36.61672901446036],[126.93728438556022,36.616688437333806],[126.93678019603672,36.61713555906932],[126.93728160675195,36.61827448312785],[126.93707820370544,36.6197196753189],[126.93630078512032,36.62018383083282],[126.93625284314898,36.62069539855455],[126.93580399412386,36.62132197890786],[126.93567198102171,36.622202601257925],[126.93579957608338,36.62239229614833],[126.935690299429,36.62260220930127],[126.93569433084686,36.623092158033444],[126.93661767196653,36.62392640982496],[126.93717735512855,36.62403395739264],[126.93863200580321,36.62379063359708],[126.93891304763608,36.623875804741324],[126.93961010463845,36.62460378022132],[126.94190125951205,36.6252088217876],[126.9420851081604,36.62586818332402],[126.94267753196783,36.62620309452912],[126.94316703453049,36.626246804775555],[126.94352420545272,36.62702846016207],[126.94347990953428,36.62735746739664],[126.94395074584698,36.62761515260715],[126.94406146808882,36.62790946757908],[126.94538837145268,36.628160064658694],[126.94535830137042,36.62913983396319],[126.94525197244042,36.629575849752015],[126.94532948868502,36.63011288926777],[126.94487577841778,36.630458780704934],[126.94455920137672,36.630840136016566],[126.94460697490538,36.63181299073955],[126.94403109056955,36.63203972766826],[126.94382964733813,36.63272994271968],[126.9435953669826,36.63293259194549],[126.94416507714682,36.63326664668469],[126.94479771395098,36.63313242999482],[126.9451073779794,36.634225830472175],[126.94564348844273,36.63475176343808],[126.94602556649185,36.63542740341063],[126.9466691742587,36.6357860739775],[126.94693738924302,36.636136978831274],[126.94680374162878,36.63679822032791],[126.94700993049145,36.63768189274724],[126.94779116489521,36.63893932457818],[126.94828731329885,36.63956871660243],[126.94822937128664,36.639889880143166],[126.94846819275733,36.64020235374638],[126.94842367061445,36.641059128531815],[126.94977474542463,36.6418904754149],[126.95108154553418,36.642517796976776],[126.95146280909049,36.64297637182215],[126.95161704036511,36.64342239035904],[126.9521206414011,36.643628037560624],[126.95320623683514,36.64376413027589],[126.95367327008147,36.64394948192098],[126.95477559613238,36.644759655899506],[126.95479791233028,36.64517482520648],[126.95516254465352,36.64550978152867],[126.9552576747355,36.64656021215823],[126.95522611358959,36.646978232379354],[126.95489696344858,36.64759654966813],[126.9548787886812,36.64806350946889],[126.95505534380824,36.64829138143858],[126.95503280036418,36.6485883841797],[126.95404669349948,36.64927970288622],[126.9541829832247,36.65024901204278],[126.9546732507695,36.65161886672621],[126.95442328364089,36.652322116441354],[126.95464765952724,36.65247207990114],[126.95520937382899,36.65248807883532],[126.95603277905496,36.65291914358444],[126.95667993157123,36.65345403766028],[126.9570731609323,36.653930827939256],[126.95710055097051,36.654221362185915],[126.95722603918931,36.65437127749042],[126.95792965680168,36.65444889737164],[126.95818469383288,36.654696783049744],[126.9585566621848,36.65469906946152],[126.9587895411922,36.6549496495214],[126.95972478569126,36.65509767661454],[126.9600200198922,36.65556088879532],[126.9590955503911,36.65682549264896],[126.95865590580154,36.65793336196774],[126.95862544158415,36.65847653303722],[126.95892509855169,36.65957329406677],[126.95968252726158,36.66110681236967],[126.95966892806678,36.66232473503276],[126.95790619678952,36.662362013676656],[126.95769323841897,36.662547512269],[126.95774955821493,36.66272228850677],[126.95762456566767,36.66291593115751],[126.95796554913888,36.66324823920331],[126.95798473286334,36.66386230995879],[126.95766901386119,36.66408077131688],[126.95756739458382,36.66453303655429],[126.95729324515189,36.66489705561106],[126.95749313172105,36.665383502771164],[126.95680938194725,36.665634312111905],[126.95677636353042,36.66586152610279],[126.95716959535876,36.66646544411288],[126.95689332008344,36.66702531917833],[126.95717992478048,36.66733434123582],[126.95722616372915,36.667555092288254],[126.95704504442902,36.66852293043585],[126.95707646604093,36.668817800476624],[126.95741736884351,36.66937246170946],[126.95735005800181,36.66969434631551],[126.9571497665952,36.67002917404924],[126.95708981011197,36.670413283385244],[126.95734845873098,36.67163122574568],[126.9573187510632,36.67195636641122],[126.95834396586963,36.67267301096085],[126.95979740577975,36.673140996230664],[126.96002224055474,36.673422423381844],[126.96012989095476,36.67425786852911],[126.96048431328822,36.6746167099804],[126.96124306719634,36.67500002908709],[126.96165345169445,36.67536484281088],[126.96198999173888,36.67538282475554],[126.96264042617045,36.67607780669667],[126.96346721507553,36.67629725175955],[126.96365097726814,36.676725309292785],[126.96401554851056,36.677020326810634],[126.96388415581431,36.677591643665515],[126.96441088977892,36.67849922291006],[126.96520872745415,36.678872850125224],[126.96618221199583,36.67879961858543],[126.96764640249873,36.679329303263316],[126.96777551264185,36.680032893572125],[126.96773139684765,36.680423875750144],[126.96807953737923,36.681073235094885],[126.96757640253897,36.681877075667806],[126.96780961278226,36.68278114873534],[126.96745206611487,36.683310997856],[126.96769112815521,36.68662531086912],[126.97230361452877,36.690916325335316],[126.97070100225719,36.692814315853894],[126.96951161881263,36.694010240735956],[126.96776300462116,36.69476796499063],[126.96670547779385,36.69546413568317],[126.96488210446589,36.69611627266488],[126.96186620219859,36.69670770441239],[126.9612893494292,36.69670976357188],[126.96034795957351,36.6975879872851],[126.95897255909009,36.697300184896335],[126.95698243579727,36.69798504949383],[126.95615832057523,36.698738454750284],[126.95468151394206,36.69890224650905],[126.95292592038108,36.70124253923388],[126.95236116478819,36.70251051786377],[126.95123671363642,36.703193954354155],[126.95024229118086,36.703341234533546],[126.94988457446608,36.70373281499912],[126.94835173181384,36.70335067745351],[126.94638174898235,36.7027188987206],[126.9448160509044,36.70311583751718],[126.94376612830342,36.70293840863824],[126.94238221004107,36.7016289125188],[126.9418693377684,36.701494309592086],[126.9411261922648,36.70146284695752],[126.94056256798224,36.701801678886824],[126.93988785434055,36.70272219463706],[126.93925612317067,36.70298695909709],[126.93861326625645,36.70339732453431],[126.93704765166947,36.703096412948746],[126.93620846093923,36.70261764179621],[126.93356333848894,36.70208715045021],[126.93328636735886,36.702753173010606],[126.93103117718292,36.703496473486084],[126.93056531501317,36.70382331161329],[126.92819036212728,36.70407384457898],[126.92749702162848,36.70375089802437],[126.92657485767353,36.70273987460314],[126.92617542633367,36.702707669484326],[126.92510021779327,36.70198580944634],[126.92487752790494,36.701571710392976],[126.924025528495,36.70130237930192],[126.92334549672913,36.70096112253827],[126.9230849919232,36.70105532669145],[126.92204987710345,36.700702886670314],[126.92059599581513,36.701394383809856],[126.9202095488408,36.702018371296774],[126.91970268291765,36.70240643511913],[126.91898998944527,36.702572542741706],[126.91739031148688,36.703207748788394],[126.91574396677089,36.70335395351717],[126.91470577672045,36.70312077549612],[126.91385187578587,36.70359647431631],[126.91341419695469,36.7036217684889],[126.913289825299,36.70384987589801],[126.91246684756615,36.70387376472047],[126.91195858760771,36.703682176460475],[126.91163252825062,36.703649733243886],[126.91103879826879,36.70384645777933],[126.91067849174478,36.703578189933076],[126.91022554646456,36.70274212823635],[126.90974297045418,36.702438979510816],[126.90916582384615,36.7022491814943],[126.9085730341488,36.702311510268984],[126.9078883679146,36.7021499613729],[126.9075041859387,36.70171705691015],[126.90684998399031,36.70157631545807],[126.90436623169258,36.701832840923046],[126.90362456574024,36.70226775105935],[126.9022684418192,36.70231039948104],[126.90205351047045,36.70272510163127],[126.90217022216213,36.70295118427622],[126.90194015106944,36.703398686894154],[126.90205633761312,36.70366749865437],[126.9020346858087,36.704559695713],[126.90255264908681,36.70483139335148],[126.90260774773884,36.70548344252492],[126.90289787322055,36.70619248809162],[126.90289090599013,36.706573816100324],[126.90317869803444,36.70678307772532],[126.90320093141486,36.707877316430405],[126.90447184917521,36.70934076827398],[126.90543856245048,36.709547449289936],[126.90488153694179,36.71026378541042],[126.90440407539514,36.71044912566167],[126.90325250915136,36.711530460841],[126.90261533895867,36.71166588628511],[126.90266198328526,36.71256943198203],[126.90298428097853,36.71339342073252],[126.90278248202169,36.714197060919545],[126.90287096731474,36.71476889401191],[126.90230073233997,36.71509953539702],[126.90100049632538,36.71691721828893],[126.89947008033667,36.71680024877255],[126.89905172999632,36.71714576478426],[126.89888235841907,36.71868561285135],[126.89954180057481,36.719412489259],[126.89938172719815,36.720248805943896],[126.89875227239727,36.720860573865096],[126.89836615741676,36.72158292601969],[126.89844171053427,36.72184604881194],[126.89826635466527,36.72220115151649],[126.89826019101562,36.72260023216211],[126.89873827691376,36.723057198595455],[126.89796274255721,36.72357907568982],[126.89714451932178,36.723627984024624],[126.89616734459433,36.72397532360796],[126.89544151824524,36.7244495158862],[126.89444190805503,36.72448792675029],[126.89309488351114,36.72397148637105],[126.89208079960018,36.72447895761741],[126.89161566408465,36.7251602001331],[126.8907554853133,36.72573911630419],[126.8900549794376,36.72650578232712],[126.88870019147534,36.72771920186226],[126.88857081959618,36.72949007089042],[126.88777634291232,36.73035507167171],[126.88705216292095,36.73088252956481],[126.88667404941701,36.731454204401544],[126.88566402715009,36.73129472679656],[126.8848149359087,36.73140487798159],[126.88289129549038,36.73086688754588],[126.88222519432733,36.73050941427635],[126.8797929719903,36.72968390841726],[126.87895858359816,36.729543226538446],[126.8780285519979,36.729575607850876],[126.87766492904862,36.72933179249312],[126.87646179674141,36.729105273758016],[126.87543345132941,36.72832602133314],[126.8748984033108,36.72825572485871],[126.87389926864175,36.728783434097636],[126.87358166507124,36.72856595130649],[126.87251325540446,36.72828816449245],[126.87205984763494,36.72824254598272],[126.87160946488852,36.728022289365605],[126.87013458927156,36.72872135470307],[126.8697566044753,36.728731341488405],[126.86680663136293,36.72944289663358],[126.86573161741802,36.73124595207051],[126.86508585773832,36.731791867032435],[126.86496922095209,36.731712452855604],[126.8649337709772,36.73176073021739],[126.86504692752759,36.73193364954263],[126.86509612352913,36.73189411940286],[126.86504484521082,36.732054052897816],[126.86502298344125,36.73199586190261],[126.86472910106876,36.732063351443664],[126.86371667386764,36.73207459138114],[126.8629056824657,36.734029839579655],[126.86286255370099,36.7343237034132],[126.86297264534419,36.73432089601304],[126.86316433424399,36.73465231328246],[126.86317160883765,36.73516633459659],[126.86302131960655,36.7353461140227],[126.8632181295958,36.73560810953918],[126.86303894391244,36.736043210136124],[126.86271465002247,36.73619055143825],[126.86275393084472,36.736522326763186],[126.86219346843893,36.73647056405784],[126.86154537859379,36.736641122603366],[126.8599841420975,36.73793979143482],[126.85977643333851,36.73840005384281],[126.85983955289244,36.73879847020531],[126.8596050738862,36.73893645639639],[126.85934634766632,36.739385950341266],[126.85927249862443,36.740083006468005],[126.85939736670578,36.74025690986855],[126.85946986391619,36.74066923772658],[126.85936570529115,36.740722837148525],[126.85944216718968,36.740880496899145],[126.85937065234614,36.74118501664496],[126.8591972764392,36.74133607038047],[126.85876482819165,36.74212990135943],[126.8574300219707,36.74295839269283],[126.85733999695913,36.743259715486445],[126.8567940212733,36.74408504858685],[126.85680042009415,36.744262150843035],[126.85703730075072,36.744221240562396],[126.8573618351681,36.74449589606629],[126.85776261751958,36.744486694067966],[126.8583123741098,36.744677132198746],[126.85857997169589,36.744557363812774],[126.85872697866921,36.74460480153913],[126.85879829143049,36.74494382316063],[126.85857764543744,36.74523797038609],[126.85826319174826,36.74596874633082],[126.8584518393093,36.746315253730145],[126.85875905083596,36.7463738064786],[126.85903268681005,36.74659425925292],[126.85898492497415,36.74703921585093],[126.85862257793853,36.747014829535836],[126.85851091701188,36.74718405107246],[126.8581435515987,36.74741298762132],[126.85702400403436,36.74800570210611],[126.85637805502968,36.74804533974972],[126.8562574345038,36.74811727323607],[126.85608365361335,36.74844046191148],[126.85578822435654,36.74863174933024],[126.85552188437238,36.74858124760708],[126.85539889242654,36.74843830862911],[126.85495398849325,36.74821394987644],[126.85442191543885,36.74804930919537],[126.85418059905922,36.74804825396726],[126.8532666972839,36.748177439258114],[126.8527674049085,36.74876556619764],[126.85231898168897,36.74875484184078],[126.85198215156475,36.74856659955053],[126.85125126514613,36.74876578916714],[126.85091641576292,36.74916964200607],[126.85004463519826,36.74905872700724],[126.84976782202949,36.74947067678975],[126.84909498447159,36.7498605577235],[126.84817806749328,36.75021341806859],[126.84799859647732,36.75042260579184],[126.84801702882025,36.75202984593756],[126.84794836489448,36.752495468834695],[126.84778379527371,36.75290010843281],[126.84723469795634,36.75325325491344],[126.84662486310592,36.753430207789556],[126.84592127975691,36.753470867382056],[126.8440206811237,36.75296370003734],[126.84186030768808,36.751663768298144],[126.84104796575107,36.752072124760986],[126.84118375822472,36.75228067124735],[126.84005422334711,36.75260604955335],[126.83898932593537,36.7530326282799],[126.83794638729519,36.75395020954081],[126.83738210127046,36.755568308209945],[126.83729796565548,36.75615241664134],[126.8372272145399,36.75691749782284],[126.83772944796637,36.75847261646626],[126.83798204820343,36.76063361396022],[126.83625428550678,36.760023343757474],[126.83430965890693,36.76022092643793],[126.83280301948417,36.76067987187001],[126.83087452826823,36.76208150434562],[126.83217574609623,36.76214503575233],[126.83155512136868,36.76350024050806],[126.83127051320207,36.76457438914983],[126.83111329059824,36.76445226241166],[126.83093687821416,36.76640057903548],[126.83093772713922,36.766461495522506],[126.83108369074911,36.7662433207755],[126.83115884145441,36.766249051082454],[126.83136675692425,36.76780803422159],[126.83120305165833,36.76792479975848],[126.83143571198292,36.768693273879755],[126.83210245787366,36.77016492650293],[126.83174068440461,36.77052131376248],[126.83092109712078,36.771082559206086],[126.83060925148561,36.770982926213115],[126.83031547218471,36.77104995149395],[126.82976439739174,36.77126601833227],[126.82938785389229,36.771598597672735],[126.82909359500545,36.77239308458339],[126.82910551416089,36.7730174271794],[126.82924302784512,36.773700477837025],[126.8296855936129,36.774607415849],[126.83002181187776,36.77493572476246],[126.8305547983681,36.77512828238481],[126.83056097037448,36.775309748474335],[126.83083367057289,36.77580521945485],[126.83138798266334,36.776057465357],[126.8322239840384,36.7760309309368],[126.83276099079217,36.78057931606827],[126.83331421212378,36.78373397687537],[126.83437533829893,36.785177242501454],[126.83611238826471,36.78616826672407],[126.83477924783243,36.78617631829396],[126.83372723084402,36.786310680898325],[126.8331019119784,36.78624731440714],[126.83286520087728,36.78593528508611],[126.8324619062142,36.78628569631632],[126.83072987622343,36.785087544458364],[126.8303144485834,36.785047116130976],[126.83013196001721,36.784741738306344],[126.82963704072226,36.784329579987485],[126.82922851374047,36.784757303145454],[126.82929711259968,36.78477127132715],[126.82930126022653,36.7849949212146],[126.82907260950569,36.7849447601072],[126.82888839863152,36.78510993717764],[126.82866077095908,36.78491371420561],[126.82845515018208,36.784884804852894],[126.82842159974999,36.784664976992914],[126.82776229944422,36.78470463822165],[126.82638446566115,36.78440557527592],[126.82631182510328,36.78462245492183],[126.82560663897189,36.78416671854552],[126.82485027690481,36.78487674857401],[126.82336634249118,36.78385916889555],[126.8210172927078,36.78608127221188],[126.81923978227398,36.784863779809896],[126.81689788809564,36.78707626097848],[126.81498373253923,36.78577117694011],[126.81476040637466,36.78597645951784],[126.81443971382056,36.78581709102775],[126.81432229213159,36.7857307595599],[126.8145951220496,36.78543859935974],[126.81429829055914,36.78523466290912],[126.82053513876974,36.779398829507926],[126.82182199631094,36.780280082731366],[126.82332883376468,36.7788169660396],[126.82324560269234,36.77872024202179],[126.82484659069992,36.77730509564393],[126.82436283811832,36.77698980249394],[126.82408556221469,36.777247194889675],[126.8239380449834,36.777154753973385],[126.82409600899226,36.77707382797162],[126.82383170658954,36.776722641025],[126.82314616672087,36.77621837321798],[126.82328767023095,36.7761236830877],[126.82236967393504,36.775864458802815],[126.82140063049081,36.775866267431056],[126.81995767379337,36.77548754592167],[126.81862876599585,36.774978718034944],[126.81728738435109,36.77470560738621],[126.81482548851156,36.773745997892824],[126.81372466244477,36.77341893872222],[126.81264642571428,36.77281841973778],[126.81130294666633,36.77100125746732],[126.81072873101698,36.770301688152216],[126.81039356542935,36.770045956186515],[126.80933419716695,36.77022618385371],[126.80802618850504,36.77066551743627],[126.80606360138967,36.77186603056032],[126.80520410633677,36.772532797175195],[126.80458612117778,36.77371931886284],[126.80384126298941,36.77444654086855],[126.80286040005652,36.77495525005762],[126.80265703759514,36.77497277060922],[126.80211582560662,36.775428256896625],[126.80101912601629,36.77469503379489],[126.80066368269652,36.775042032614465],[126.79890634848701,36.773855403395906],[126.79917251625606,36.773598345195644],[126.79917304389161,36.77339807675952],[126.8002262005368,36.77239293570477],[126.7993673185872,36.771810184528455],[126.80019212104483,36.771010586679374],[126.80031376631162,36.771078258917214],[126.80053131399193,36.77083153431738],[126.80135037424077,36.769810930664846],[126.8017448712803,36.769220447370905],[126.80183136378379,36.76889181429389],[126.80202214828815,36.76811963154448],[126.8016544721808,36.767174365525584],[126.80081909139332,36.7663382595262],[126.80067063137778,36.766231137360975],[126.79895452712361,36.76606503827742],[126.7974765503051,36.76643027602995],[126.7971357054986,36.76672563979455],[126.79467351818536,36.76736437161725],[126.7946192209984,36.76732612532929],[126.79419441418548,36.767730183616536],[126.79144479713288,36.765852386716055],[126.79180970171213,36.765513454549605],[126.78804619722338,36.76298234977392],[126.78696227727669,36.76400860248887],[126.7832421579986,36.76149706871007],[126.78360246513897,36.761150044158164],[126.78271751271318,36.760541217937494],[126.78292838669527,36.76033923342659],[126.78273754320358,36.7602473476142],[126.78284640545182,36.760012356985946],[126.78240179966127,36.759766475202895],[126.78249996659218,36.758247203127304],[126.78154640324387,36.75769497345852],[126.78046287981883,36.75757105405218],[126.77971954593812,36.75734699882781],[126.778896782186,36.75643034765553],[126.77873087467212,36.75667718753581],[126.77604961699063,36.75487824961216],[126.77641532384833,36.754529880242124],[126.77557088787107,36.75395436143814],[126.77598491131154,36.75355001475481],[126.77462720245472,36.75213940584426],[126.77396769358268,36.75122704004195],[126.7736973203651,36.75059388839069],[126.77304924346637,36.74997388923678],[126.77199747658067,36.74927096210478],[126.77148827804054,36.74967816514383],[126.77139823426181,36.75009508901787],[126.77125818941367,36.7502874395515],[126.77202395803567,36.75079798300419],[126.76847782404172,36.75420008853625],[126.76826536339249,36.75397884411363],[126.76809672000805,36.75398495545881],[126.76752311360963,36.75424748603907],[126.76755135124236,36.75435990956767],[126.76719246092972,36.75444874717104],[126.76697390418322,36.75425674051331],[126.76605253701418,36.755141334560406],[126.76780968409794,36.756355440455124],[126.76523423483663,36.75882630792348],[126.76429545503149,36.75819142945453],[126.76228401969479,36.76013662313286],[126.76228795847655,36.75997546505125],[126.76221242900311,36.76003013710632],[126.76223586371266,36.760511466290545],[126.7619729361175,36.76102664327371],[126.76128447760013,36.761302525808865],[126.76102502314008,36.7612580917612],[126.76102765298496,36.76139877697806],[126.7608895801457,36.76151174098917],[126.76060056569408,36.76137901029255],[126.76033836964905,36.76137017791214],[126.76030414076136,36.761811535158714],[126.75956851540954,36.76277632016984],[126.7590367376228,36.76333348347282],[126.75725908021772,36.76379568585593],[126.75549641570417,36.7650837602539],[126.75386961986925,36.765698408411126],[126.75243854588453,36.76599120371212],[126.75012434534597,36.766271041157864],[126.74824852319473,36.76665700133422],[126.74822615218075,36.76672655516271],[126.74771504100218,36.7667739645748],[126.74659831968026,36.767082250794665],[126.74675298286192,36.76750914828425],[126.74654674959723,36.769140526833574],[126.74565115597322,36.76986663333592],[126.74557380477667,36.77037882045801],[126.7449514066537,36.771378873280895],[126.74471117540033,36.771934921876785],[126.7448647712338,36.77246983607384],[126.7446258777003,36.77329524764114],[126.74404264602511,36.77411465238996],[126.74403078522145,36.77549120304209],[126.74348296335788,36.77607639557954],[126.7433646550767,36.77674707710988],[126.74352274624763,36.77725829132236],[126.74347387691897,36.77787192864069],[126.74231966408246,36.77816663292546],[126.74135413514364,36.7786349217033],[126.74048731885773,36.77863066146699],[126.7406018988339,36.77917065716859],[126.73904545826767,36.77973439066079],[126.73811846938499,36.77984287141502],[126.7372228866534,36.780447645067134],[126.73729562774872,36.780929260491845],[126.73750396641134,36.78139026887809],[126.73752094055497,36.781729365622695],[126.73744083813324,36.78206722887862],[126.73748963953622,36.782199997658616],[126.73701248718632,36.78283735384566],[126.73695045061946,36.783100012556815],[126.73713975947554,36.78365276644117],[126.73718595759371,36.7842273243401],[126.737016864947,36.784240196137446],[126.7367776287274,36.784696325390634],[126.73654196338052,36.78487604111898],[126.7365526667494,36.78557076211965],[126.73645563385898,36.78599503000363],[126.73626993764339,36.78630865935523],[126.73567603871417,36.78688643832467],[126.73567234464397,36.787118662997436],[126.73508426461818,36.787462650350186],[126.73459744476985,36.7879384603179],[126.73396273959361,36.789389904001396],[126.73375068182101,36.78960448631465],[126.73290609887805,36.79038214622796],[126.73227648115164,36.79077052195926],[126.73209637509161,36.79097439448866],[126.73137542877296,36.79140991116221],[126.73126486375631,36.79135393582998],[126.73064527911521,36.79186739172846],[126.73052083197997,36.792263223500846],[126.73066224624401,36.79265826544464],[126.7305678146133,36.79314368286683],[126.72938890591607,36.79421235063867],[126.72867128735777,36.794597352899295],[126.72867056663817,36.79529034398167],[126.72814951044398,36.79576839244591],[126.72810251293447,36.795719821965235],[126.72790703010489,36.796106856592495],[126.72696533635879,36.796254287335145],[126.72699588000584,36.79621038508959],[126.72658998542197,36.79633836831622],[126.72654317228782,36.796526589643605],[126.72624662601608,36.796894716996356],[126.72553405628534,36.797328849211695],[126.72527738858705,36.79765711018082],[126.725059841529,36.798532468570926],[126.72374264080243,36.79896397553321],[126.72320745330664,36.79927542435872],[126.72243362871079,36.7989168749005],[126.72173190720399,36.7988618092405],[126.72091378461337,36.79919861606519],[126.72058935298426,36.79954346736561],[126.72009815555995,36.799495304623804],[126.71939760719029,36.79969099631646],[126.7192812210936,36.80004521417766],[126.71746413659798,36.800861505655405],[126.71586114436795,36.80168484193951],[126.71489103953914,36.802648175407],[126.71487027621622,36.803135107364305],[126.7145807532946,36.80321453516046],[126.71389253856493,36.803230905238784],[126.71364764250438,36.80351517705764],[126.71309610478507,36.80338585798808],[126.71246137953703,36.80340288919449],[126.71194652890992,36.80324239406351],[126.71154748141177,36.80345485820542]]]}}
