{"type":"Feature","bbox":[127.87408239754885,36.512985832335616,128.37204836854804,36.872328743436384],"properties":{"regionCode":"47280","version":"vworld-20260909-3f8952dfda77-p2","name":"경상북도 문경시","attribution":"국토교통부/K-Geo플랫폼 · VWorld 법정구역정보, CC BY 2.0 KR; 두꺼비집 가공"},"geometry":{"type":"Polygon","coordinates":[[[128.2540615316128,36.86644729331921],[128.2531314458909,36.866826416227234],[128.2519631336823,36.867016932629944],[128.25178157531818,36.867132544415746],[128.25161794095982,36.86750362639784],[128.25115983276015,36.86761538789538],[128.25114565115564,36.867690062771075],[128.25007822588478,36.86817605549088],[128.24927774263128,36.86873743644586],[128.2487734113053,36.868809030710935],[128.24685102553605,36.86932598696946],[128.24451808083623,36.87055622979784],[128.24338370647334,36.87130778592346],[128.24277972451978,36.871809137990034],[128.241840851291,36.872328743436384],[128.2402351511809,36.871973429439066],[128.2404563548138,36.871072709656914],[128.2408754151813,36.87012733366953],[128.24091852527386,36.86950959463864],[128.23963674099838,36.86898145072832],[128.23949298613013,36.868380862801054],[128.2390517674816,36.86762798809809],[128.23921279839672,36.866989180405135],[128.23918620088682,36.86523344384398],[128.23700360291403,36.8646028706713],[128.2357765397769,36.863481404686176],[128.23443485630975,36.86300105416358],[128.23458568354764,36.862223293726196],[128.23512466631152,36.86113375315359],[128.23503536234915,36.85949083202393],[128.23521889861973,36.85904268913996],[128.2349781074938,36.85838031389196],[128.23427814307018,36.85781600945067],[128.2344123850742,36.85643258803936],[128.23398934510706,36.85614616573479],[128.23419326662378,36.854815491877524],[128.2343422064222,36.854611041073944],[128.2349523647616,36.85307778690863],[128.23614915469906,36.85197726092234],[128.2373388701278,36.851155444691344],[128.23692808811327,36.85061224038863],[128.23676414902644,36.850242671826756],[128.236513999332,36.84848195424472],[128.23508520067938,36.84806538019474],[128.2324484499041,36.847905886834546],[128.23207932424012,36.84779105661092],[128.23074931089062,36.847857454458705],[128.22937810022214,36.847588953540374],[128.22731013074454,36.84788520440759],[128.22504137678058,36.84874098873558],[128.2245311277727,36.848635613542584],[128.22304195114447,36.84764717067919],[128.2213836511487,36.847684654067635],[128.2205406475878,36.84775149514227],[128.21907978402027,36.84814851178442],[128.2185624577819,36.84810625763382],[128.21654722492138,36.84910305994439],[128.2141225160578,36.84936799345041],[128.21433100265654,36.84893983576106],[128.21438234300595,36.848595763460935],[128.21395053351824,36.847890705281166],[128.2141530838024,36.84660934552611],[128.21408532804827,36.84594254782276],[128.21428723764046,36.8449377795007],[128.21408068819812,36.84387756139368],[128.21353658752582,36.843066873235486],[128.213443883955,36.842625495202796],[128.21295902524295,36.84145396976743],[128.21299741319382,36.84112231071543],[128.21271926874647,36.838948282698375],[128.2132912062643,36.83796803295419],[128.21405870968212,36.83716901840679],[128.21431839389348,36.83658517534234],[128.21468003671197,36.836153170790006],[128.21499243424913,36.83520717705557],[128.21556757447664,36.83439727678202],[128.21526525790708,36.8329011583667],[128.2152956972888,36.831163447534735],[128.21560166003795,36.830630862227046],[128.21560866563814,36.829557068283556],[128.2161720658942,36.82797566872926],[128.21632639285727,36.8264094202229],[128.21619575269457,36.82467010499715],[128.21625592538246,36.824205749270554],[128.21608337123183,36.82338060538216],[128.21627771342384,36.82310571227786],[128.21419928985407,36.81576809626526],[128.21093376036455,36.81619594258516],[128.20404214617267,36.8178283642471],[128.19938618298335,36.81840523063108],[128.19365041327566,36.81952306907722],[128.1930449408596,36.81976077686284],[128.19126211117492,36.81954346949558],[128.1865814871772,36.82275486697098],[128.1758535500758,36.82449217735409],[128.16915318083454,36.820895578248845],[128.16554264980235,36.81982540821755],[128.16415208936894,36.81959172176034],[128.16350118939343,36.819661772785466],[128.1605188255822,36.82061092208178],[128.15920230627333,36.82209424482645],[128.1584569067243,36.82231284503151],[128.15678194777107,36.822599497424555],[128.15518096159437,36.824603167895674],[128.15293964090293,36.825706660656124],[128.15191142334263,36.82629637824677],[128.15125880844303,36.82651561279262],[128.1508807163895,36.82710996014927],[128.15049680862447,36.828226693831176],[128.1481699019348,36.82865780098154],[128.14705206194296,36.828948296128665],[128.14676593494283,36.82961793568111],[128.1464665369724,36.831481570773626],[128.14577353525857,36.83210769227336],[128.1420032414895,36.83189717319909],[128.14079160119596,36.832261568242025],[128.14023013107922,36.83263066476337],[128.1404953981856,36.833826682957394],[128.14048787245594,36.83449831080347],[128.1393699086944,36.8347887327839],[128.13732390416712,36.83499776813437],[128.1354687298255,36.8347603823443],[128.1349173123421,36.834233944127696],[128.13520857899132,36.83311659920414],[128.1349400355762,36.83221906354079],[128.1340908167332,36.83169151762939],[128.1342554614424,36.829517007151516],[128.13361852156058,36.828087869415235],[128.13196051092413,36.82620142317217],[128.1304797981647,36.82514096272894],[128.12870906668667,36.824978033991314],[128.12572389469756,36.82495608477922],[128.12406614612297,36.82306953039378],[128.11977595322927,36.8229628327994],[128.11997885346307,36.821539836140595],[128.1170102418534,36.82009329346135],[128.113845647267,36.81946993889809],[128.11075198649255,36.81735323952676],[128.1095623291906,36.81529714695959],[128.1099420154421,36.81454874172363],[128.1056039924253,36.80593642337964],[128.1041474378434,36.805988968552356],[128.10176663669893,36.806240008646576],[128.10095484992257,36.805962009360364],[128.10060547182184,36.805610072691],[128.09922986944824,36.80499118867071],[128.0975469551683,36.804773398324286],[128.09683949711098,36.804274370426626],[128.09618082875198,36.80363187889397],[128.0952718734508,36.803895877234694],[128.09512068222017,36.80367470100865],[128.0940840389627,36.80353138561066],[128.09290633509866,36.802743046572004],[128.0929070229659,36.80152472809631],[128.0933823029615,36.800462373931474],[128.09344390478248,36.796706498423845],[128.090093369184,36.79653755913254],[128.08805083365215,36.79712568362098],[128.08631406060454,36.79784491426007],[128.08401905363544,36.79924812886743],[128.08428751632442,36.799846747315904],[128.08420858355927,36.80066038269032],[128.0843116038493,36.8010243287249],[128.08413776233408,36.801257423979436],[128.08398630284933,36.80201868794328],[128.08438379973921,36.802631717552586],[128.08517992390586,36.802950419151934],[128.0854479139281,36.80400148113078],[128.0844741200006,36.804710337630716],[128.08428500389232,36.80515550152639],[128.0838095829324,36.805461459496286],[128.08277876324271,36.806595946309535],[128.0813581169404,36.80732118934785],[128.07922016835076,36.80822747611811],[128.07830028994746,36.80878758785085],[128.07788690184807,36.80927032559448],[128.07777676906554,36.80992417681651],[128.07694440417598,36.81077733802939],[128.07547180738726,36.811591086798295],[128.07514900198174,36.81202168870763],[128.07430523107124,36.8127781194434],[128.07170443729004,36.81449136374083],[128.07087230431475,36.81445414673332],[128.06969209850368,36.815061345331976],[128.069673642528,36.81519549774183],[128.06731906270636,36.81673716735921],[128.06637602305867,36.81674892307048],[128.06572361209817,36.81714399355739],[128.0641891809637,36.81743473369699],[128.0634901790512,36.81693905483376],[128.06212936582767,36.81722067378902],[128.06107658056627,36.81716980774829],[128.05965970617825,36.81677368050903],[128.05930000989733,36.81639825844551],[128.05939495533104,36.813626020489764],[128.05863510174623,36.8131328136431],[128.05824221524753,36.81206089080468],[128.0577046790989,36.81174937512963],[128.05751104081557,36.811354673086285],[128.0573982083307,36.810471228929806],[128.057850057107,36.810235330161795],[128.0578210821144,36.8099149755207],[128.0575935646818,36.809721793258284],[128.0569011907377,36.8095299968527],[128.05683717045542,36.80910052294691],[128.05773351308403,36.80830678794447],[128.05795568690675,36.80699944542193],[128.05505151570895,36.80612588654315],[128.0540769009272,36.80561598578173],[128.053833080165,36.80518511543511],[128.0539835037131,36.80517506668737],[128.0549357110499,36.803989197358845],[128.05510230086136,36.80293038528046],[128.05514522463412,36.80104820383678],[128.055515546672,36.80031282049155],[128.05549130899493,36.799451638780404],[128.05597068038037,36.79885085824485],[128.05608756979356,36.798332872879655],[128.05563510850786,36.79767670238606],[128.05569432235538,36.79729268161746],[128.05521542167514,36.79676928120767],[128.0553235441452,36.796240079874835],[128.05568837345112,36.795877941711964],[128.0555161382675,36.79551971110829],[128.05550219431024,36.79437766345208],[128.05492677728648,36.79260960887075],[128.05416240994992,36.79226387116749],[128.05320715563985,36.791631020793474],[128.0511812150056,36.78883137109539],[128.05049406794927,36.78729819739513],[128.05005390844454,36.785574657432164],[128.04876717738048,36.78362921513469],[128.04832500534255,36.783208198869104],[128.04667252072818,36.782940320725736],[128.04557234578343,36.78242986745548],[128.04562123741326,36.78128403241418],[128.0465688104417,36.77937105092522],[128.04684559757933,36.778589293314],[128.04569432561806,36.777968607222164],[128.04576477601293,36.77690302268955],[128.04457625874653,36.77458028251128],[128.04475886099775,36.773972582516805],[128.04458580091537,36.7724882117331],[128.04480457947167,36.77237585556974],[128.04467532529068,36.771894522800764],[128.04472226405207,36.77106063387126],[128.04375301135607,36.76984965061211],[128.042519151524,36.76896377647713],[128.04206846539032,36.76844518874925],[128.0415712960243,36.76843304750571],[128.04117610236784,36.7683310509279],[128.04110648832415,36.767283693694],[128.04072821446388,36.76673387713895],[128.040540075566,36.766064414716425],[128.04012660352123,36.76570210702615],[128.0389633014727,36.76402517329051],[128.03870465864807,36.763259894439244],[128.0381652824093,36.76230409148008],[128.03758509337902,36.7615423192332],[128.03743698095067,36.76109452609515],[128.03631280597327,36.7599568562697],[128.0358422504965,36.75907191177379],[128.034527383051,36.75813869331036],[128.03427499447145,36.757419112662674],[128.03350598083262,36.75680224098253],[128.03290435809055,36.755702050233396],[128.03226524188165,36.75519179653339],[128.0322049679685,36.75442558481633],[128.03267208966642,36.75267820049493],[128.03234877661987,36.75055149314711],[128.03262782011686,36.749371906204146],[128.0323424686149,36.74760068022828],[128.0336567457329,36.746721070536225],[128.03440365860249,36.745610251515316],[128.03503061066132,36.745425196710364],[128.03638979078733,36.744448544144554],[128.03698947033774,36.7443264128172],[128.0385110471469,36.74367194950466],[128.04011292235091,36.742274835047844],[128.04250753838016,36.740734269594654],[128.04464074938812,36.739741349412945],[128.04642280283008,36.73926753830782],[128.04749135265033,36.73852764546498],[128.0489644897391,36.737717165507334],[128.05086107248857,36.73687534716811],[128.052160901118,36.7353372518642],[128.05287181111837,36.73355039050824],[128.05399316923405,36.73205024965737],[128.05561396346744,36.730566651583175],[128.05620869401503,36.730441549403714],[128.05733700057797,36.73122518322347],[128.05856344680998,36.73030824061153],[128.0607459450134,36.72705052311127],[128.06209365082694,36.72621844652366],[128.06269872167923,36.726293321448104],[128.06402842055186,36.72500078923621],[128.0652411511985,36.72422645183704],[128.065923292256,36.723951068606844],[128.0684575407729,36.72212915856822],[128.0685080026964,36.72178220764036],[128.06828060905488,36.721256649635684],[128.06825351805728,36.72063392628504],[128.0683741307202,36.72033015629801],[128.06894137801055,36.71989895289544],[128.06975185339527,36.71872178413313],[128.06986219920393,36.71831995080994],[128.07028768767682,36.71806368505615],[128.07067547635327,36.717515061518085],[128.07090123311704,36.71653828758468],[128.07154559082232,36.71585954849791],[128.07203319358382,36.714871984315614],[128.07205381994493,36.71415568798817],[128.0723080656535,36.71348196484855],[128.07289319833524,36.71287458598933],[128.0728925078324,36.71258462489929],[128.07308524783159,36.71237149025349],[128.0731949211067,36.71174485082922],[128.072952911883,36.71126930569626],[128.0728184177804,36.71062731201076],[128.07219050887198,36.70975017035466],[128.0713912940164,36.70888399636036],[128.07145798208785,36.70823816472078],[128.07079269132444,36.70741311777663],[128.06885172818005,36.70795844134042],[128.06745612757268,36.70810811548427],[128.06665924094582,36.7081295387856],[128.06610270900606,36.70789883265764],[128.06378912399987,36.7078664186621],[128.06303234286858,36.708089444509575],[128.06175939318243,36.70821198282694],[128.06140679821098,36.708404032231556],[128.06016709090804,36.70845649640939],[128.05893769875692,36.70864695292218],[128.05662020930984,36.708527732161876],[128.0553984958772,36.70865273947908],[128.05412669243017,36.70820788537782],[128.05312842025415,36.707633656369964],[128.0516586310751,36.707395231847684],[128.05106912827367,36.70722330666907],[128.05056350884024,36.707161893767875],[128.04968126526856,36.707198652760006],[128.049168519329,36.70743583372846],[128.04652636839427,36.70909096075223],[128.0455447504907,36.711015830961905],[128.04560548724706,36.71152284869598],[128.04530453975153,36.712154890562104],[128.04367031616644,36.71327150415635],[128.04169519519547,36.714381173192905],[128.04005034486673,36.71468226986309],[128.03898644582534,36.715325536098106],[128.0379552692136,36.715172458818046],[128.0373061780639,36.71526182925104],[128.036602833397,36.71518355906236],[128.03611027579316,36.715343233634016],[128.03539620186885,36.71578963958175],[128.03466321876184,36.71612846484164],[128.0339841898777,36.71659871838743],[128.03297606821448,36.71695657312839],[128.03142965764104,36.7185282308508],[128.03076060267492,36.718772486664875],[128.02917591926186,36.718974559936974],[128.02721484985872,36.71881818933899],[128.02685434483033,36.718649242725995],[128.0258037438981,36.718499790063234],[128.02550826437914,36.719032523330775],[128.02451592741602,36.72005705046883],[128.02372520125303,36.72044921382267],[128.02238848659542,36.72143899499489],[128.02094196773044,36.7218268638535],[128.01939132920566,36.72356953753295],[128.01955338065497,36.72488173917307],[128.01729919491584,36.72749767022725],[128.01586410995145,36.72862252862681],[128.0148888865638,36.73008827464881],[128.0141406777499,36.73008017218832],[128.01130701428875,36.72952352958068],[128.00940555846051,36.728308983237206],[128.0087058544038,36.7264919301141],[128.00655410144788,36.72537877867524],[128.0069850343124,36.72477056159399],[128.0059970244549,36.72398420676138],[128.0061175665618,36.72295360233568],[128.0041952729193,36.72114857664812],[128.00373923221065,36.71989356587351],[128.00279629180062,36.71884000270468],[128.00257838797285,36.71839551276881],[128.0018572159021,36.71775512346733],[128.00100388799035,36.71742351506654],[128.00032777887932,36.71739437984814],[127.99962173600886,36.71716244416332],[127.99793031211512,36.717912149481656],[127.9972214705816,36.7183485169569],[127.9958905376751,36.71832341161525],[127.99516578318688,36.7183980978603],[127.99486950314268,36.71835478083314],[127.9947013255652,36.71818827410029],[127.99341941236197,36.71777933039832],[127.99203744524469,36.717852250523165],[127.99161887673012,36.71798416216229],[127.99127180924897,36.71739067656408],[127.99074283682158,36.71711500004324],[127.99026460284239,36.71726734596881],[127.98928415009877,36.71738867117812],[127.98870051013186,36.71743588114819],[127.9884744181407,36.71736411048677],[127.98774923597162,36.71750231824558],[127.98685890255457,36.717442527979564],[127.98598135434757,36.71777322013858],[127.98482857761198,36.71877024288972],[127.9842169573999,36.71843718309343],[127.98376224617533,36.7184369621506],[127.98337914288095,36.7190634454388],[127.9825741627524,36.71951321653293],[127.98153325529364,36.71998129746794],[127.98045207576733,36.72030224685197],[127.98020611711243,36.72025699904043],[127.97988486651617,36.72069140172852],[127.9793809443809,36.72087532675621],[127.97913171640295,36.72109429998945],[127.97899679532816,36.72149975189638],[127.97854771505409,36.721977269029956],[127.97701952097681,36.722805318689346],[127.97646278991506,36.723464722816466],[127.97611494711252,36.72372757701439],[127.97635841346677,36.72433650006121],[127.97573030527596,36.72474164916764],[127.97486724368721,36.725025926943],[127.9740043719418,36.725673045340145],[127.97363950517601,36.72599256552712],[127.97388426932687,36.72622415579295],[127.97382914845224,36.72625329457988],[127.97356215908312,36.72601147073324],[127.97294025828941,36.72633665735891],[127.97301608657467,36.727003262342734],[127.97245776498123,36.727739648828106],[127.97191989465921,36.72927412147765],[127.97171999499788,36.72962359735923],[127.9708102380818,36.73080292521726],[127.97020311867863,36.731134158180126],[127.96937507699438,36.73132623878506],[127.96577668529352,36.731117103452114],[127.96516020462659,36.731441104930475],[127.96419079522092,36.73209885594138],[127.96293410974602,36.73265804067972],[127.96233265061996,36.73386254254308],[127.9616010503063,36.734325195852264],[127.96137735678995,36.73527901776393],[127.9605611161116,36.736317063294976],[127.95991414260047,36.736963573330605],[127.95849829992876,36.73681537639449],[127.95783334342272,36.73609781482339],[127.95703978633207,36.73554818509907],[127.95693172023442,36.73485993445223],[127.95717082142986,36.73414766583845],[127.95698096133985,36.733521433414616],[127.95684965835768,36.73336534764227],[127.95682420392026,36.73257867553496],[127.95606491079083,36.731870491039516],[127.95550922441002,36.73178004294843],[127.95468536140991,36.72987755102862],[127.95380848540493,36.72912237415423],[127.95353197374712,36.7281467130175],[127.95358794186923,36.72730688099069],[127.95496995751658,36.72674564595696],[127.95617118203829,36.725931206920336],[127.95612493526416,36.725617973246955],[127.95530462481169,36.72445908181293],[127.95512979438985,36.72351886113267],[127.95450853571265,36.72201984318278],[127.95431267120374,36.72062680622465],[127.95318329693686,36.71965536126863],[127.95253521569433,36.71943230606121],[127.95211951635966,36.71908593701632],[127.95042123522234,36.718258560797345],[127.95004585732057,36.71836649021974],[127.94948037713753,36.7182765264653],[127.94894698585296,36.71783010462556],[127.94881531077141,36.71753986913082],[127.94925104008766,36.715851392310455],[127.94873146443571,36.71402530002127],[127.94962739777338,36.713511632034],[127.95009401027613,36.71254485387789],[127.94909341505792,36.71044232215503],[127.94925132217774,36.70847893578014],[127.94961007987955,36.70803572128768],[127.94974500445824,36.706695236348104],[127.9490166813247,36.705685719499336],[127.94775963562334,36.705509752397276],[127.94647231996751,36.704442307435066],[127.94595174874055,36.70448175112174],[127.9449170660486,36.70484135905952],[127.94317707357345,36.70442175906252],[127.94272513946119,36.70409192122616],[127.9415608080194,36.70462739212056],[127.94092109728379,36.70474529317943],[127.93975237996476,36.70523489713248],[127.93914410402516,36.705379212109506],[127.9386215592936,36.705352932975536],[127.93733958808484,36.70480888581182],[127.93620211804321,36.70470001509568],[127.93567077951127,36.70458178978925],[127.93541389032711,36.70471654534833],[127.9351245579462,36.7051139858977],[127.93486392571458,36.705324487305695],[127.93446650696885,36.7054767667906],[127.93363325035314,36.70613182382257],[127.93290979492876,36.70385975669878],[127.93210965407903,36.70051595376455],[127.93161762463663,36.699966702776635],[127.93137739618302,36.69885666361079],[127.93145646790177,36.69814152034424],[127.9316341601445,36.69759600101386],[127.93183249347082,36.69559908220322],[127.93156757386188,36.69446882714728],[127.93058458250383,36.6925907854003],[127.92976969808177,36.692263657143776],[127.92877850823047,36.69091003608783],[127.92888230805299,36.69076375367062],[127.92799149455743,36.69047342002682],[127.92838801364874,36.69075771722929],[127.92847761878204,36.69091013302339],[127.9284024900574,36.690943078498194],[127.92799842675197,36.69058591097398],[127.92749883131991,36.69056960397385],[127.92720000349833,36.69045974363203],[127.9269046384072,36.69049015346574],[127.92657581861884,36.690308814132365],[127.92620879577025,36.69040236818434],[127.92517257751268,36.69122534761688],[127.92455050973153,36.69126283330307],[127.92392061334787,36.691642660050555],[127.92261553821254,36.692126204898976],[127.92194248538596,36.69219207975061],[127.92152585029642,36.69233206828936],[127.91990947798104,36.6923469802189],[127.91896069397652,36.69223345787209],[127.91854264330667,36.692267801607485],[127.918139603938,36.692402725488556],[127.91731123280944,36.693333169103575],[127.91584275387324,36.693986417065275],[127.9153763311282,36.693971652610465],[127.91497335201535,36.69377136906661],[127.914739006405,36.693344886382924],[127.91436712268114,36.693016526947844],[127.91270315916672,36.69264305771483],[127.91175046686358,36.692651000530894],[127.91104992333231,36.69298314567083],[127.91015670773943,36.69322214945791],[127.90927742368983,36.693271574493764],[127.9089052890206,36.69320171166232],[127.90782609349944,36.69264619965745],[127.90738534128062,36.69259449756425],[127.90662932389968,36.69269744759935],[127.90439750398107,36.69350952502749],[127.90373231209601,36.693602251687594],[127.90308526914573,36.69358868062211],[127.9024865435015,36.693318436505635],[127.90131691863508,36.693124957906505],[127.90011569662657,36.69321018099415],[127.89822952604477,36.69311324314842],[127.89779273332626,36.69328577594097],[127.89610897856191,36.69436266164604],[127.89537562725815,36.69471157519327],[127.89480365828237,36.694927362663876],[127.8941883302099,36.69491508228391],[127.89380398175992,36.6946534672084],[127.89447859375703,36.69329338558045],[127.89447163223974,36.692572248904355],[127.89437346648494,36.692315579157835],[127.89418241205254,36.692160673441926],[127.89351063169556,36.69213061881763],[127.89241587432373,36.69235975426322],[127.89082464413289,36.69231350240992],[127.8893756136148,36.691969979663675],[127.88859559241857,36.69186578865495],[127.88749385623373,36.6913394311218],[127.88683862220209,36.69062314024809],[127.88647149885277,36.69011209471636],[127.88636995704088,36.68926504711471],[127.88616688973995,36.68868545105399],[127.88582028997793,36.688243687949644],[127.88411193882568,36.687575066565806],[127.88262752634876,36.68784742989616],[127.88141006108094,36.68768792014544],[127.8808886804419,36.68728994827776],[127.88069156038762,36.68704595535541],[127.88068012666142,36.68663106729217],[127.88143354082908,36.68642561300349],[127.8816733764854,36.68624322593894],[127.8818529625979,36.68593346248372],[127.88186253174393,36.684688046467635],[127.88209324110092,36.6838227586693],[127.88198251958391,36.68344822944641],[127.88181977556378,36.683402438485615],[127.88077225616712,36.683713613894426],[127.8803473894817,36.68327532273384],[127.88016900327668,36.683193008014435],[127.87961825984037,36.68306580755526],[127.87907289357068,36.68303545203608],[127.87888499009901,36.68292464087836],[127.8786118377568,36.68246809593379],[127.87840737180119,36.68236467836427],[127.87808414015024,36.682366849970826],[127.87759110065194,36.6824941806359],[127.87748176207873,36.6822356332476],[127.87648672917076,36.682835662371],[127.87582461303752,36.68301316497978],[127.87474227880554,36.6825126653979],[127.87418626983778,36.682021129896164],[127.87408239754885,36.68186315535071],[127.87626287396978,36.680870685731065],[127.87658810255014,36.6808358483302],[127.87695666311946,36.68064461472984],[127.87700973140467,36.68032332483137],[127.87690318510946,36.68011118908254],[127.87697620447446,36.67971330526945],[127.87721118250822,36.67974291781375],[127.87757623500146,36.67956945627085],[127.87807282864644,36.679465042764306],[127.87831936179677,36.67957754233145],[127.87843133352615,36.679193029101185],[127.8786992365264,36.67895573567405],[127.87925682770093,36.6789174041003],[127.87985823892615,36.67865176827671],[127.88064211862694,36.678819849844864],[127.88069730640922,36.67894976867972],[127.88082444820466,36.678993893758566],[127.88096950308848,36.679489477850474],[127.88136783365691,36.67969833920809],[127.88157913738166,36.68003611976341],[127.88287924706087,36.679313206437776],[127.88402526599498,36.6792027514319],[127.88441138202046,36.67924480761066],[127.88481418813616,36.679540337067],[127.88513248044698,36.67932837122217],[127.88590611472834,36.6793659521237],[127.88671200268183,36.678884250373386],[127.88749392648828,36.678655828686324],[127.88812688388671,36.67919395389858],[127.8881972227232,36.67936793674153],[127.88941162858772,36.68066464413928],[127.88932324270736,36.681259744057336],[127.89004381677886,36.681538836964535],[127.89119309356194,36.68253895733736],[127.89163193373615,36.68255676337955],[127.89447888329187,36.68127245883265],[127.89534821043009,36.68117031148972],[127.8968943996106,36.68143404145053],[127.89869482960849,36.682399357272296],[127.90009664702399,36.682355543695955],[127.90054174807841,36.681283885537404],[127.90112536892794,36.68075488941412],[127.90181815529941,36.6806507219852],[127.90350489564653,36.68074523291774],[127.90461895903036,36.68024940775441],[127.90629932912756,36.680145415402855],[127.90833974728717,36.67970101037531],[127.90886068167633,36.67944580826522],[127.90939127362263,36.678654129331896],[127.90986271134186,36.678168143283294],[127.9104798909272,36.67809229221663],[127.91251691152996,36.67819674170868],[127.91292804288412,36.67769773666693],[127.91336577514483,36.676441667844024],[127.91429945316348,36.675081408204484],[127.91490719723139,36.67269677382117],[127.91551164491447,36.672328852458314],[127.91599528019458,36.671883631180684],[127.91745499808225,36.668776626684014],[127.917771106137,36.66758786030269],[127.91853144699591,36.668258702102605],[127.92019889447599,36.66894313477117],[127.92182459045728,36.66896785262705],[127.92338830187974,36.66840407293035],[127.92772167816378,36.6693522359552],[127.92949848698412,36.66919770021797],[127.92979249346183,36.667020387277205],[127.93220986541334,36.66495048978515],[127.93229048344938,36.66186715957513],[127.93150992329454,36.660350264980316],[127.931934847675,36.65878750563492],[127.93169231325388,36.65744005708842],[127.93173263328995,36.65686851201073],[127.93166198029874,36.656497308259326],[127.93176887095437,36.65518886015395],[127.93416309511014,36.653791707135454],[127.93661865710148,36.65346486676506],[127.93909781967812,36.65323709937395],[127.93912820354565,36.65252953740818],[127.9388271360697,36.64897598270435],[127.93931332723746,36.648076612585406],[127.93947459177157,36.64728441499773],[127.93942730127321,36.64666663682705],[127.93892329291079,36.6463580690414],[127.9381547063538,36.64614399483242],[127.9359476289301,36.64506894041741],[127.9357663083227,36.64307823879299],[127.93547871072302,36.642852426995596],[127.93502009202895,36.642704637435656],[127.93467452799231,36.642033569556716],[127.93445196494359,36.6410801868113],[127.93456379488988,36.64024978966135],[127.93451247910679,36.63923407312211],[127.93391678933475,36.636823455553916],[127.93457049475124,36.636080301691216],[127.93519968263477,36.63584163768064],[127.93626878175607,36.63458444071923],[127.9366315594571,36.633770075052205],[127.93531935894556,36.63251695779454],[127.93467146349346,36.63131228770738],[127.93442541779379,36.63041517154029],[127.93325618921003,36.62955963500946],[127.93335498033177,36.62844847730047],[127.9330098038705,36.62726869297365],[127.93284574304855,36.626099907655004],[127.93227314483651,36.625577698310686],[127.93172271623258,36.624770178994375],[127.93205742365542,36.62431348483585],[127.93273281705928,36.62286671093921],[127.93312564398474,36.62134372048551],[127.93357417034463,36.620546227735716],[127.93367000177774,36.61959693661478],[127.93215722704142,36.618788202158164],[127.93063771539242,36.61828181195051],[127.92952217302795,36.617579528855835],[127.92877660851006,36.617376197440684],[127.92752617810416,36.617333901045775],[127.9264811931838,36.6170690023582],[127.92528418098917,36.616986726317045],[127.92491197874594,36.61661637718627],[127.92467745959033,36.615827533266305],[127.92548841185703,36.61451133458197],[127.92458234326911,36.61318753954516],[127.92511200758172,36.611983295360915],[127.92490481480492,36.61086429485555],[127.92489469853378,36.6102465130181],[127.92562614244535,36.60875858512282],[127.92550747028396,36.607753605521694],[127.92599148897263,36.60574072108743],[127.92558417797908,36.60446890198953],[127.92670252155249,36.60349987517175],[127.92747956814586,36.60312752582545],[127.92592207861297,36.6029389488771],[127.92386319858848,36.60254275794678],[127.92431132318899,36.599720961764866],[127.92490044496297,36.59824368260453],[127.92758438868454,36.59523565639561],[127.92833319486455,36.594559387030856],[127.92927030429799,36.593737129738265],[127.93093831323546,36.59277195885808],[127.9313002450265,36.592171801203385],[127.93226899956322,36.59197345830993],[127.93230159942965,36.591790379358414],[127.93264621317255,36.59124196142606],[127.93283470794752,36.591137089193154],[127.93280912159507,36.590995100676636],[127.93256817182879,36.59083921034399],[127.93273309714287,36.59065896123775],[127.93273748562558,36.59052751956711],[127.93236411757705,36.588882561033934],[127.93320584863103,36.58515715567215],[127.9332580735952,36.584326929122575],[127.9331887995107,36.58301978783105],[127.93308991966971,36.582666752379865],[127.93250547282273,36.582142081697825],[127.9322214003676,36.58154394698359],[127.93130117415654,36.580634281427244],[127.93128263850951,36.57990388166453],[127.9310407511918,36.579221865371004],[127.9310062529323,36.57869745804902],[127.93056228989238,36.57792467968426],[127.93054511182235,36.577584744732626],[127.93073757942159,36.577331232863045],[127.9314606668351,36.57686871603843],[127.93237754598594,36.57537280593345],[127.93307848174616,36.57508122086381],[127.93359903406632,36.575040324336165],[127.93395570127714,36.57494253898213],[127.93406053530674,36.57484640900492],[127.93416012668175,36.574545760295955],[127.93412790182605,36.5734332642402],[127.934621615527,36.57271413976968],[127.93482554680526,36.57211004538958],[127.93514697224636,36.57181335355048],[127.93603189049868,36.57122947102924],[127.93648246872269,36.570783402289],[127.93715366378862,36.57079174296258],[127.93652556884602,36.57067211110251],[127.93651157798884,36.57044486339149],[127.93693307296932,36.56963772397999],[127.9360485529031,36.56689975781913],[127.9365026813318,36.56444142025362],[127.93497189106526,36.562773389728356],[127.93352562721263,36.56094091311423],[127.93367390590016,36.56004042950108],[127.93359651561825,36.55908887778549],[127.9328311419048,36.557975160472175],[127.93407463308337,36.5571317899818],[127.93486611936831,36.55576788741644],[127.9349260323352,36.55466746211273],[127.9356880477529,36.55410229373863],[127.93741695469261,36.553700312220826],[127.93940075742724,36.55189461870722],[127.94003282105422,36.55114469824177],[127.93986579011955,36.550324868875954],[127.93991427785784,36.548801134508864],[127.93745086470624,36.54730455030784],[127.93615396653145,36.5455772030161],[127.93570006995249,36.544417039445015],[127.9364079650697,36.54263135771352],[127.93719554652465,36.54098084478456],[127.93736201644055,36.538845196157006],[127.93777145229873,36.5376199129649],[127.93277846972347,36.536801472606825],[127.9302766892947,36.53602152526482],[127.9306427603473,36.53513398207258],[127.9310481759762,36.53454782944086],[127.93107490724674,36.534317333085504],[127.93089158736501,36.534258234708815],[127.93086025397223,36.5340136484682],[127.93116906789575,36.533714296115754],[127.93120160956205,36.53354575004268],[127.93163697349365,36.533022361669815],[127.93182125931544,36.532255374437646],[127.93193553573911,36.53214467572918],[127.93243652212034,36.53211897396891],[127.93257027010101,36.532001803354575],[127.93268573163763,36.532019086506125],[127.93316809988343,36.53152948709026],[127.93343481464827,36.531434243951644],[127.9334797643213,36.531155774691484],[127.93378660638322,36.530883610286175],[127.93392706861462,36.530354170947085],[127.93400874054122,36.53035928281472],[127.9340917991055,36.53017955546328],[127.93431897590611,36.53010433787295],[127.93451913268616,36.52952061702599],[127.93487845703841,36.529390198998584],[127.93499372400855,36.52948904176558],[127.9351153733782,36.52948166543909],[127.9353481534932,36.52918259212477],[127.9355066597667,36.529149243676294],[127.93588029373089,36.52922096573788],[127.93619327395557,36.52917745790123],[127.93647469435433,36.52874928720939],[127.93645684114571,36.52862866060798],[127.93627492389086,36.52851093488728],[127.9366510987002,36.528103465487376],[127.93728591386632,36.52804070630618],[127.93763757604538,36.52761063993611],[127.93806936429114,36.527329562396524],[127.93898709037632,36.527066682162314],[127.93917211395896,36.52691731727701],[127.93930434193545,36.526637824712545],[127.93965397411777,36.52634163904116],[127.9406525027909,36.526174588447546],[127.94128313215684,36.52616211496583],[127.94172021296767,36.525920577179576],[127.94234140399963,36.52598074044125],[127.94250798957215,36.52587868313959],[127.94254228538888,36.52569312490452],[127.94402190614491,36.52546602099281],[127.94441772974872,36.525526925673674],[127.95159537803539,36.523587337360794],[127.95277241588916,36.52314249071192],[127.95398584150657,36.523520440100434],[127.9555464736148,36.52374416495099],[127.95667406855935,36.5241823270007],[127.95800044064441,36.524436181056124],[127.95844073136098,36.52387456554159],[127.95839113539508,36.522698715191005],[127.95821348773029,36.52261729212481],[127.95866089381614,36.52240326583413],[127.96001780053258,36.521420071104856],[127.96011187031196,36.52127784891598],[127.96002867433887,36.521269794810806],[127.96008180380517,36.52075737335748],[127.96065669559798,36.52081150411532],[127.9609644912729,36.520523817831275],[127.96169896613003,36.52024663948239],[127.96190931759746,36.5200176914701],[127.96183452154683,36.51991598275935],[127.96209215264294,36.519749437589034],[127.96295098608003,36.51963930401063],[127.96338185507955,36.51944377623463],[127.96356442829125,36.51945063048062],[127.96392977998158,36.51918627102469],[127.9644668115452,36.51895529740978],[127.96527961578708,36.51879497532615],[127.96627435207603,36.51798857642251],[127.96672946440232,36.51783547129989],[127.96683337246886,36.51758236494643],[127.96726593298605,36.51714116655829],[127.96739133181708,36.51716597698004],[127.96752782753666,36.51697610746878],[127.96800490475803,36.51704411427767],[127.96890909570472,36.51631459735191],[127.97001764514073,36.51601207349309],[127.97079767188312,36.515964152820914],[127.97130631696815,36.51547746310147],[127.97193604718888,36.515306395022456],[127.97293872549629,36.51543219948125],[127.97375367285292,36.51482988863633],[127.97407024059689,36.514693999807065],[127.97463814724517,36.51471216422644],[127.97503507429444,36.51455709713425],[127.97558761906282,36.514285741360716],[127.97687246890715,36.512985832335616],[127.97784523214007,36.513300132160595],[127.97838364459687,36.513318853089324],[127.97887089136178,36.51366125774833],[127.97957897515006,36.51378460071802],[127.97982599684838,36.51530387874261],[127.97899588904338,36.51678938652643],[127.97850595548313,36.51735914547454],[127.9784748797676,36.51791715149078],[127.97809844834642,36.518574728899885],[127.97849009745035,36.519198766311696],[127.97823760394749,36.51973276049107],[127.97842374715611,36.52059275088618],[127.97878456118784,36.52079137446713],[127.97923322630015,36.522042060727046],[127.97900304255342,36.522900640493035],[127.9797797831855,36.52334316916289],[127.98014208713815,36.5242437040556],[127.97985087308281,36.525141677783374],[127.98039072791785,36.52607113146592],[127.98076935602757,36.5263536576613],[127.98109661067247,36.52701122322359],[127.98121218457248,36.52751717224095],[127.9812116543225,36.5279530882736],[127.98090776333531,36.52910226550275],[127.97860172291857,36.53142644963809],[127.97817854978636,36.53227885028181],[127.97762250747402,36.533014328079496],[127.97827518023274,36.53376875278857],[127.97862580769547,36.533887702426064],[127.97873187268952,36.53405088175421],[127.97909296893619,36.53416214502784],[127.98063414237696,36.53495708561966],[127.98091517470334,36.53622151671179],[127.98054750113586,36.53674274472651],[127.98049684254683,36.538325075558504],[127.98003796060833,36.53933306120217],[127.979687553477,36.539834665050066],[127.9794849842502,36.54067085792857],[127.97956136168324,36.54094345573729],[127.97933262850432,36.54179500325892],[127.97874689907317,36.54248050089977],[127.97884114582311,36.542850732263915],[127.97852718304024,36.5433503200298],[127.98046956469275,36.5442091120213],[127.98128972425842,36.54481250706682],[127.98144327213829,36.54511273674142],[127.98199261044128,36.545428203560604],[127.98302237477776,36.54572967690162],[127.98342874611757,36.545459207510625],[127.98518516815734,36.544720288371984],[127.9861025443693,36.5448802940514],[127.98646885895214,36.54477046127923],[127.98799991334185,36.5446479153763],[127.98877840333414,36.545022324952704],[127.98937906912097,36.54505990074397],[127.99033000230334,36.54465056718148],[127.9913418899082,36.54456437989172],[127.99292699569887,36.54492568364105],[127.9929794701193,36.5453513093441],[127.99410991111853,36.546253237084706],[127.99491056148834,36.54644527231345],[127.9952217138896,36.54641582842367],[127.9966104513381,36.54766577475295],[127.99725930075977,36.5485872523947],[127.99753316155056,36.549769565125274],[127.99896522807725,36.54961137361183],[128.00050354861548,36.55004338801586],[128.001720629281,36.55015095188851],[128.0020383791754,36.55009002708109],[128.00237649256056,36.54983358280525],[128.00302737919958,36.55010567583816],[128.00365030628635,36.55023425623973],[128.00471401066153,36.55067561038446],[128.005524533189,36.55060056528898],[128.00580592030187,36.55035258252385],[128.00642393389833,36.55036585105321],[128.0075422342601,36.54920439305615],[128.00856118469136,36.549047588013124],[128.0095196112695,36.549095547423036],[128.01046251702272,36.548191632773396],[128.01100684540856,36.54809660721643],[128.01159778914678,36.54817491994951],[128.01195424261442,36.54762238904584],[128.01222604787282,36.5469598913621],[128.01252088150665,36.54677721723894],[128.01286680424826,36.546813616445306],[128.0131795233032,36.54661873317111],[128.01397303955986,36.54665817657986],[128.01437788336216,36.545768414363074],[128.0151089523477,36.54519638064521],[128.0156608559419,36.544971845572775],[128.015811613316,36.544443238283435],[128.01646053291188,36.54394445236191],[128.01667989426593,36.544039966385306],[128.0169630389707,36.54435346421408],[128.01704902924507,36.54464634799668],[128.01731876264736,36.54482049672596],[128.01755115729839,36.545169126590665],[128.01810162122524,36.54509292492002],[128.0188165056195,36.5452970448694],[128.01934804385928,36.54526377354638],[128.01998918908632,36.544978164166636],[128.02046324677082,36.544650682983324],[128.02188697235795,36.54473449351411],[128.0223333239385,36.544619267419954],[128.02322448364916,36.5446544208637],[128.02407442667194,36.54503225066762],[128.0252301828896,36.54593752655204],[128.02619466819147,36.54572084486717],[128.02689616948484,36.54623308481916],[128.0270503523447,36.54693720386998],[128.0274481771067,36.547464468823],[128.028929274306,36.54740822849608],[128.03043528758948,36.54748090151425],[128.03112825003186,36.547606165408226],[128.03210147887478,36.547602713648466],[128.03276122122983,36.547778483085544],[128.03377788983153,36.54783017745996],[128.0343388593902,36.54775437489186],[128.0361128270568,36.54783036016459],[128.03640339535957,36.54774634441399],[128.03739540650096,36.54815789667957],[128.037619131722,36.54835732770534],[128.0385494804964,36.54794675500045],[128.04026189902774,36.5481279830071],[128.04072398334267,36.54832592052144],[128.0414875288346,36.548175186688525],[128.04257154046024,36.547738848339705],[128.04279511430354,36.54757231007764],[128.0430249513515,36.547634588601454],[128.04384472761225,36.547348236044606],[128.04457508369137,36.54680327995168],[128.0455616174835,36.546800205715456],[128.04571219406063,36.546693053193486],[128.04632010678233,36.546692106865606],[128.04685003232194,36.54649375309855],[128.0472003889026,36.54644291317538],[128.04760061133774,36.54655805095028],[128.0480688325316,36.54659178856866],[128.04895635554558,36.546285543221714],[128.04912171069145,36.54643561180288],[128.04924441730645,36.54639866756229],[128.04943213540582,36.546489497928334],[128.04972148477765,36.54635318644104],[128.05041046440437,36.54626397454879],[128.05086193971957,36.54602884311431],[128.0513463084209,36.546131838434135],[128.05195644681726,36.545935115887595],[128.05245609540196,36.54610770746656],[128.0528612074152,36.54611757106486],[128.05341284603597,36.54625221505015],[128.0538532988978,36.54616348012653],[128.05405993165493,36.5462034230529],[128.05489344663312,36.54704237536959],[128.05532703407482,36.54706810147413],[128.05594737400907,36.54742199368646],[128.0553495941873,36.54895286715219],[128.05525970290265,36.54954131374288],[128.05514474664116,36.54965549195035],[128.05540778982925,36.54988313416898],[128.05573681025865,36.55002204209565],[128.05606456851768,36.550022964366555],[128.0563025406496,36.55024378175711],[128.05668783459032,36.55248949901769],[128.056671137676,36.55326735914215],[128.05685899937296,36.55350736049071],[128.05719182272844,36.55369471824709],[128.05747253455067,36.55404474164536],[128.05833390725903,36.55406445135722],[128.05843685669694,36.55424114427734],[128.0582708071329,36.55483416822624],[128.05851184987594,36.55489676809565],[128.05885935177903,36.55526061433997],[128.058769695058,36.55595894896465],[128.0586010859791,36.556260788796465],[128.05835004854583,36.55634471671698],[128.0580374478428,36.55678801685231],[128.05844593186188,36.5570536616624],[128.05918599316655,36.55731830396862],[128.05923397384467,36.55751556280372],[128.05905475196053,36.557824839852984],[128.05945875076767,36.55840391495135],[128.06050872078683,36.55916721261494],[128.06072704436815,36.55963208704592],[128.06092954482736,36.55965762592435],[128.06163183322943,36.56063464384274],[128.06289834023903,36.5614280554896],[128.0632895817723,36.56125678940409],[128.06424315240088,36.56143376436381],[128.06474010951175,36.56130598442289],[128.0664235026937,36.56141488690889],[128.0663440165384,36.561840381479676],[128.06589111681782,36.562105978125466],[128.0658394476756,36.56246697884696],[128.06537228443196,36.56304346278096],[128.06480368363327,36.56341893738161],[128.06469815827117,36.563957897447416],[128.0642986090053,36.56457708885214],[128.06434926558327,36.56528141166767],[128.0641896285556,36.56549020549334],[128.06410241731737,36.56599162284449],[128.06388249992193,36.56644747337393],[128.06375336411708,36.56698008211914],[128.06221131706596,36.568237847048906],[128.06186050227456,36.56837090654995],[128.0613166158181,36.56913676327812],[128.06120322380076,36.56942754628713],[128.06159150357934,36.569641988479816],[128.06158871545028,36.56980087579906],[128.06108403981082,36.570781052069755],[128.06126703794598,36.571521712133254],[128.060878726502,36.57220945866572],[128.06083929027884,36.57261582191534],[128.06051177045558,36.57335300762357],[128.06058787073266,36.5741970279565],[128.05992127742854,36.57461103692825],[128.05927484818835,36.574303915631255],[128.05870588609585,36.57454325485021],[128.05810198653484,36.575493372784614],[128.05837600869648,36.57579704547744],[128.05857620422677,36.57619076220426],[128.05849040045078,36.57688891757133],[128.0578578490162,36.577690884967524],[128.05710278320666,36.5782126384769],[128.05665985027957,36.57871245167256],[128.0569965215222,36.57925575129925],[128.0575425914923,36.57965841659629],[128.0577158355807,36.58088052278271],[128.0579676804008,36.58182903755967],[128.05730415085054,36.58214005410236],[128.05637285254173,36.582393271021225],[128.0564333456062,36.582776105554295],[128.0570699060434,36.58372443191702],[128.05764583792757,36.58419664942885],[128.05744816109544,36.58469620099977],[128.0575385500849,36.58501592024793],[128.0573303622169,36.58551259087665],[128.05850099444046,36.585859121325186],[128.05957415886667,36.586873530951635],[128.0607838043279,36.587218880207764],[128.0613593211026,36.587147893865534],[128.0625309949918,36.587303679548626],[128.06237883334245,36.5877105327625],[128.0619414492475,36.587793225142235],[128.0617872229973,36.587932419653356],[128.0614417498802,36.58859522756247],[128.0621411770971,36.58865848096038],[128.0624263622389,36.58887762993206],[128.0629751448108,36.58893278338067],[128.0632838954043,36.58905858299172],[128.06467473079252,36.58895484996213],[128.0648675765812,36.58929574252539],[128.06532731768087,36.58963492923453],[128.06553580615096,36.59013987037313],[128.06547029686968,36.59023215143781],[128.06577383881603,36.590509338827815],[128.06580891832155,36.59075855573509],[128.0659890524267,36.590876955292494],[128.06653203132942,36.59099568045093],[128.06691013299795,36.59164098997258],[128.06713675544606,36.59173812761478],[128.06736739912515,36.5920179889388],[128.06815073450548,36.592556800606914],[128.0684450935782,36.593167358609364],[128.0684613572243,36.593254493162725],[128.0683411262526,36.59335488692677],[128.06839720455574,36.59349320944387],[128.06854799008812,36.59356510722337],[128.06877853835624,36.594036774729716],[128.0689505135237,36.59409899522065],[128.06899064630693,36.59422020210648],[128.06884271952242,36.59445088233423],[128.06885969355264,36.59495392016252],[128.06873774945748,36.59561086907006],[128.06854024877964,36.59601543611876],[128.06857879405385,36.596194192870136],[128.06892034747392,36.59648058403067],[128.06906108010332,36.59645573055828],[128.06925017511256,36.59653528022947],[128.0696579702862,36.5972013151471],[128.07038209718155,36.59763140233051],[128.07053180045878,36.59802264687156],[128.07125246702464,36.59822703713858],[128.07166626275855,36.59859174166598],[128.07211442983126,36.59882396431677],[128.07145911532425,36.6000508819835],[128.071772135647,36.60056315276139],[128.07175873595418,36.60138996857682],[128.07192049670377,36.60229363425349],[128.07164477634157,36.60302273379353],[128.07144691285947,36.605417580472874],[128.07237089662505,36.60548492648026],[128.07294266440738,36.60561557240468],[128.07350588523374,36.60592146483471],[128.07521663262787,36.60623006801874],[128.07577715110628,36.60608875535986],[128.07664861116265,36.60650419947645],[128.07708206635132,36.60703842614729],[128.07852771276723,36.60723476574887],[128.07885705532553,36.607511989850934],[128.08001129356907,36.60713592327254],[128.08056051525884,36.60722123242893],[128.08146881828503,36.60696419590096],[128.082176104374,36.60765556903031],[128.08272613154074,36.60777491167392],[128.08367893290693,36.609419724449936],[128.08415241097907,36.60914715072987],[128.0854464153879,36.60921521483253],[128.08610922302225,36.60930675366988],[128.08671956124655,36.60983183138372],[128.08815643506293,36.60948020655359],[128.08855405595497,36.609135562393035],[128.08957680433966,36.608736002778706],[128.09019996179612,36.6086751921911],[128.09065268185827,36.60883203481955],[128.09202599374427,36.60841082210309],[128.09531413720555,36.60891730264068],[128.0979127213298,36.60843379350966],[128.09804824710272,36.60875948820714],[128.0987462104365,36.60874408916432],[128.09986272957343,36.60829730927198],[128.10153674543906,36.60868129946138],[128.10219004317634,36.60839929051953],[128.10278624377645,36.60795191841247],[128.10313949210243,36.60757767408133],[128.1039812304582,36.607278117671115],[128.10429911731484,36.60692894280404],[128.10519003295332,36.606678823918735],[128.10666733691028,36.60756054375792],[128.10811571675032,36.6078564075763],[128.10820686480267,36.60810844371729],[128.1093804938339,36.609583563188124],[128.10995732635277,36.60970873143299],[128.11122531884317,36.610622479809685],[128.11151362518856,36.61061427016648],[128.1122915411305,36.61091300582101],[128.11242002196136,36.612451986168224],[128.11195052690962,36.61320008280218],[128.1120851210473,36.613491319972574],[128.11195951875416,36.61395109765291],[128.11216793782467,36.61472198991152],[128.11203127480798,36.61501711741473],[128.11193946960069,36.616306838861306],[128.11238899560763,36.61658398659078],[128.11278579960035,36.61780988791966],[128.1126193233518,36.61837292683782],[128.1123407281019,36.61867517751574],[128.1124094197896,36.618958812378146],[128.11317975290658,36.61916788619314],[128.11562655368772,36.62105298862766],[128.11961061958993,36.62194748005428],[128.11969819133205,36.6219269810106],[128.1210637474973,36.62008730674689],[128.12210799680756,36.62002552179417],[128.12304474210174,36.61971540603301],[128.12536808020695,36.61918870315175],[128.1270887796659,36.616265548973146],[128.12704325492692,36.6156980311139],[128.1304552029544,36.61440914939901],[128.13101130249584,36.61403991782551],[128.1324362316271,36.61368551702567],[128.13267242944622,36.61340158793295],[128.1333583388874,36.61333950990223],[128.1337058757853,36.613214867221075],[128.13541007714898,36.61313137978708],[128.13613025529006,36.61297502584649],[128.13646689465338,36.61216613178133],[128.13693488327428,36.61168870515237],[128.1371988246566,36.611185245836936],[128.13806487225452,36.610909287937886],[128.13899373811395,36.61072704975573],[128.14083682734454,36.60929830924991],[128.14200963781823,36.60887425875136],[128.14256702954515,36.608365712022156],[128.1443489218137,36.60824247081068],[128.14530094834456,36.60770417516402],[128.14536716621947,36.60638068933794],[128.1459219203697,36.6059862206305],[128.14616113299508,36.60542364771604],[128.14704487783678,36.60488611036753],[128.14731141905267,36.604047349791436],[128.14712812682174,36.60320407976653],[128.1484344093101,36.6023511560267],[128.14961846695758,36.60116258468567],[128.14964551093217,36.60072365124034],[128.1503459644786,36.600434256166864],[128.15087181894435,36.59969988481711],[128.15121338628632,36.59978564162392],[128.15174022937302,36.599403967744614],[128.1534589213182,36.60029302857545],[128.1543603474216,36.60054965429195],[128.15519573250637,36.600293834683086],[128.15615803067473,36.60051409411583],[128.1580323156291,36.600440104278036],[128.1595374393123,36.59979789516356],[128.16077822911103,36.59889820984043],[128.16161717601324,36.59861121347363],[128.1613922494204,36.598167737024156],[128.1615402912394,36.59769843445931],[128.16202882510407,36.59739249230085],[128.16222328795484,36.59689468740614],[128.16214787932373,36.596644595863076],[128.16283408758815,36.596571536464914],[128.16306828886576,36.59693879750171],[128.16377833802878,36.59720912949403],[128.16427756032513,36.59750244846709],[128.1647231243596,36.59697696501851],[128.16556097856005,36.59694332064244],[128.16584069622257,36.59682754712392],[128.16682025859467,36.59693660974485],[128.1673260292129,36.59712003677428],[128.16803796613183,36.59698704202387],[128.16917528203845,36.59704345920398],[128.16952818033357,36.59712141382001],[128.17112565222683,36.59704577122795],[128.17158139871538,36.596858366869135],[128.1722705484397,36.59608988785458],[128.17285513979755,36.59587309173991],[128.17328102150427,36.59602434133872],[128.17360846256588,36.59625225829869],[128.17481462668212,36.59681903796347],[128.17501764469037,36.597009032152954],[128.17559115697642,36.59705691659317],[128.17593330045227,36.5969726925939],[128.1767912013691,36.59653259736567],[128.17749917766446,36.595488252904374],[128.17719868491847,36.59505292744991],[128.17740328003796,36.59459457787611],[128.1771724030394,36.593700530137],[128.1775762666766,36.59302861797981],[128.17746598053287,36.59231412094897],[128.17802030964847,36.59211184667297],[128.17943953502828,36.591206565629115],[128.17982276339984,36.59036350073168],[128.18007656853396,36.59014934704444],[128.18008611952348,36.589870158006306],[128.1793671909369,36.5871954353698],[128.17960408151603,36.58613359156838],[128.17989421487152,36.58572547797676],[128.18108125303092,36.5849963050635],[128.1801191515929,36.58466456836279],[128.17986368638142,36.584415002932374],[128.1791610705824,36.58423385905924],[128.17886490974306,36.58398027731072],[128.17844121686971,36.58400187868988],[128.17798670259631,36.58420438413319],[128.17799486276914,36.58414917929215],[128.17783831796473,36.58413241488514],[128.17821453751645,36.58377942663826],[128.17866497820046,36.58349985730205],[128.17935952829376,36.58320422081548],[128.18032274342335,36.58262064993492],[128.1806713189636,36.5820576694788],[128.18124995206898,36.581666208440204],[128.18163607383718,36.58155865137922],[128.1820796759421,36.581278767496215],[128.1826361521709,36.581172978224345],[128.18314195335446,36.58116951800534],[128.18339945679674,36.58129427189932],[128.18399723588757,36.58179837360839],[128.18427223669252,36.58191154022856],[128.18632560437854,36.58238474256711],[128.18738423533358,36.58289954712793],[128.18800202348524,36.58293986731211],[128.1887206859767,36.583245830508325],[128.1890859347184,36.58357279663864],[128.18985616647348,36.58377512812319],[128.19028177695048,36.58378713660596],[128.19065616917075,36.583698232200476],[128.19095805332336,36.583421509241305],[128.19145897383902,36.58321891787835],[128.1927477405232,36.583258914373296],[128.19274778656154,36.583077671940806],[128.19298641810505,36.58296389103831],[128.19389724100276,36.58278745217461],[128.19419423674503,36.58210678232722],[128.19470197259488,36.581730464381785],[128.1960984175141,36.581373555724994],[128.19656283912414,36.581295092555756],[128.1972335569219,36.58141535828638],[128.19803163715747,36.58116547934621],[128.19830724700938,36.5809851055975],[128.19883804850113,36.580431692884396],[128.1990368583979,36.58019616575351],[128.19906364949208,36.57999366263841],[128.19948563370008,36.58000359972201],[128.1994539164857,36.57993869666303],[128.20048136169896,36.57953394283637],[128.20071638839246,36.57960764815648],[128.20114526395952,36.57931389095836],[128.20135985395876,36.57893336930164],[128.20159654928113,36.578740710580135],[128.2020538811516,36.5787990621792],[128.20277365688096,36.5785636903583],[128.20674320024816,36.578504455888755],[128.2072890149276,36.57828912573714],[128.20784455888594,36.5771747129742],[128.20771766751201,36.57684728541954],[128.2077164709942,36.57629708785528],[128.20757924261997,36.57595565826376],[128.20691054427311,36.57555147000167],[128.20664496774697,36.57524264085113],[128.20601773691988,36.574825625907685],[128.20561145007576,36.5737921644924],[128.20566144652594,36.57343482711905],[128.2060420837914,36.57287230588668],[128.20609154233557,36.57222266222386],[128.20615469183733,36.57220920758119],[128.20654610393518,36.5722033401302],[128.2067035473928,36.57228711789697],[128.20679693958363,36.57245092708766],[128.2082269845173,36.572456670715866],[128.20947193966063,36.57286549746215],[128.21006023553022,36.57290012773531],[128.2108588256327,36.57312773398813],[128.21195406187567,36.57320013942855],[128.21316440228932,36.57314823069331],[128.2142160415009,36.57297844276489],[128.21536151327362,36.57275889558881],[128.21572819215234,36.57257459421212],[128.21579337077097,36.572687664060496],[128.21763605737192,36.57263341327758],[128.21882279691235,36.573998295913036],[128.21928972187501,36.57504009534656],[128.21938039199964,36.57316782346919],[128.21962852162292,36.57093084862714],[128.21977841570452,36.570452797252784],[128.22006307909655,36.57010725990727],[128.2203248156291,36.569925873429355],[128.22036817875795,36.569595895974075],[128.2186418530408,36.56730263697791],[128.21797971424195,36.56563967225978],[128.2166602423107,36.56289791449511],[128.21650309102014,36.56212823398999],[128.21682925168372,36.55944407856215],[128.21717425783206,36.55853026819546],[128.2163814841529,36.558466585920975],[128.21711266075667,36.55622104062102],[128.21743444728088,36.55492541472723],[128.2176268134296,36.552452490442185],[128.2175855107892,36.55132193303226],[128.2168448120436,36.549569350821336],[128.21636042164644,36.54770939416898],[128.2163730602164,36.545574080569466],[128.21705697711133,36.54410949437949],[128.21685607486057,36.54383547692572],[128.21681078045154,36.54174733010796],[128.21689176787785,36.54058051643841],[128.21705666348706,36.54049740451753],[128.21698939286566,36.53988248656914],[128.21704745208118,36.53945682430204],[128.21723533389678,36.53911604644253],[128.21755439209917,36.53880270296818],[128.21892648098924,36.53765354115338],[128.21995538509023,36.53691955017016],[128.2204863231784,36.53618072044344],[128.22111280050012,36.53553072248528],[128.22231169474085,36.53470881172986],[128.2236205686093,36.53428647356443],[128.22454449611556,36.53413992816194],[128.22780908038266,36.533366270523686],[128.22928684036071,36.53217552520006],[128.23015217285803,36.53167269136682],[128.23195914763727,36.53102006231859],[128.23575119646262,36.53004761770865],[128.23811299171163,36.530873541261656],[128.239443546797,36.531651510134935],[128.24028117712496,36.53203465842546],[128.24131186455708,36.532317568414946],[128.24206079810313,36.53277112459062],[128.2427443551848,36.533013910557656],[128.24346864480628,36.533091638783894],[128.24535584702286,36.53305501926072],[128.24688544373083,36.533293395861165],[128.24836588682953,36.5345160442216],[128.25244955497809,36.53526460100672],[128.25824054898303,36.534771414603604],[128.25961969736773,36.534465247108],[128.26169835859505,36.53358128617383],[128.2636480401828,36.53190222521428],[128.2646007387464,36.531843885139246],[128.26516622799738,36.5318816692145],[128.2657594586569,36.53203161080535],[128.26618800867166,36.532216312454224],[128.26673868768282,36.53270251693218],[128.2669674759887,36.53313591563611],[128.2671256973698,36.53404397859199],[128.2674781615599,36.53501416422008],[128.26760692236067,36.535345909514525],[128.26792938167043,36.53579143939839],[128.2674645350104,36.53722141771815],[128.26699181136,36.53785195699332],[128.2654115070902,36.54081326369991],[128.26475218340155,36.541393741843585],[128.26399500422673,36.542274314348106],[128.26383836240782,36.54272761284299],[128.26380795197315,36.543152587384384],[128.26384584429186,36.54494458172938],[128.26424783562948,36.547044590638556],[128.2645740006469,36.5480170787154],[128.26666991884204,36.5504518149226],[128.2678582239169,36.55129697377221],[128.26794001531874,36.55164232788396],[128.26903979323467,36.55218232702212],[128.27202490406307,36.55234316968338],[128.27410782773694,36.55241030652607],[128.28579070467893,36.55246196131543],[128.29037137364142,36.55169552659548],[128.29138271100294,36.55164234689233],[128.29234083677935,36.55168765518338],[128.29401072157432,36.551972417989724],[128.2951865989634,36.552385927091215],[128.29615735091093,36.552934481025034],[128.29695007927563,36.553525843947504],[128.29792793033332,36.55401825798168],[128.29786466215597,36.55495707497412],[128.29764651247126,36.55542586255456],[128.29756684006554,36.55664270225686],[128.29694221442458,36.55770864220192],[128.2969019307614,36.55903214825724],[128.29623303172204,36.559669608960846],[128.2958962172692,36.56040147959739],[128.29504757713323,36.56109500491195],[128.29339868224127,36.562088278919276],[128.29306777716675,36.562607737740606],[128.2938927330223,36.562791530043626],[128.2952787576505,36.5632899631373],[128.2955994491531,36.564758505855046],[128.2956908235844,36.56574355110334],[128.29563047709772,36.56622742663769],[128.2952721587816,36.56733622237542],[128.29509715147864,36.56982875360226],[128.29516382839006,36.571668339766944],[128.2957223286395,36.574296124965755],[128.29583943087593,36.57525801976513],[128.29588119553347,36.575726881182895],[128.2957822318844,36.57704178347152],[128.29586559257112,36.57832854639503],[128.29392580258408,36.57909536029857],[128.29064100795972,36.579260885648736],[128.289956166348,36.57910695102994],[128.28930266142422,36.57885853158886],[128.28836926257912,36.5782505396236],[128.28799787210443,36.578098104461134],[128.28619908912088,36.5776483256153],[128.28585319289942,36.57761488432043],[128.28555758349938,36.57772845792584],[128.28554788255772,36.57877865673378],[128.28518896624595,36.57925865016962],[128.28503620946435,36.57965829889673],[128.28490706023302,36.58018558424994],[128.28494078578439,36.580581585134375],[128.2848366765748,36.58075813716551],[128.2843662362076,36.58051928859072],[128.28430678599082,36.58066635269743],[128.28419279394126,36.581878596991814],[128.28373236622033,36.58296620692981],[128.28352090916684,36.584177524227165],[128.28239517361808,36.58648494048756],[128.28216668386483,36.5879791396169],[128.28115398668217,36.5890902358373],[128.28062166356779,36.590210452712064],[128.28020204380329,36.590856852142615],[128.27980870729914,36.591336495293206],[128.2784585974952,36.59246957749826],[128.27761252148423,36.593726572019726],[128.2759692365426,36.59546739454705],[128.27523684983814,36.59661503578612],[128.27493590852546,36.59686782260803],[128.27420163910242,36.59726635228574],[128.27153664902696,36.59919760500713],[128.27055352653218,36.60054272285117],[128.27027745908228,36.60077872280152],[128.26857369165046,36.60151718465284],[128.266528962505,36.603128697581546],[128.26555963359385,36.60409119295079],[128.26457558400543,36.60446140538739],[128.26359215727723,36.60494045579528],[128.2629443887443,36.60567859841816],[128.26276314090399,36.60754940361195],[128.2612024124812,36.6081186395116],[128.261774510788,36.60927580224573],[128.261220107058,36.610081994999916],[128.26108475730268,36.61090331178584],[128.26064424767188,36.61144680809846],[128.26155998021372,36.61148262372463],[128.26197912009437,36.611306310437335],[128.26200202831842,36.611175458536096],[128.2623514150792,36.61095693920586],[128.26284200099357,36.61090189788147],[128.26290866565816,36.610782025151934],[128.26349428683957,36.61050344777718],[128.26419065961932,36.61031071192305],[128.2647713858175,36.61025315000004],[128.26566472140334,36.60983646523402],[128.266468699973,36.6096305517929],[128.26703744438288,36.60969658915852],[128.26728412946636,36.609573018336725],[128.26758988279576,36.60952800542042],[128.26795291667986,36.60964641405602],[128.2681618518899,36.60984588076885],[128.26834174512297,36.60989662812735],[128.27024896069827,36.609445073692285],[128.2710310001026,36.60960019089321],[128.2712744918896,36.609834395055],[128.27147411496918,36.60984504563004],[128.27197580255057,36.60979165276623],[128.2722354620061,36.609508380927004],[128.27228563530653,36.61030061572554],[128.272402802708,36.61058129422922],[128.2723163204358,36.610637450738366],[128.2725451084232,36.611133744131266],[128.27252600522496,36.61127321126227],[128.27272757032233,36.61140392220834],[128.27268324472132,36.61149739362957],[128.27275243402428,36.61156299265638],[128.27233523042568,36.61202485271081],[128.27230786314513,36.61293914860258],[128.27165171503023,36.61337994378251],[128.27102125369746,36.61352888155543],[128.27068030743382,36.61345145962814],[128.26996515124566,36.61376465518174],[128.27010980381556,36.61437632149617],[128.27000403413126,36.614935326299346],[128.27035974534616,36.615115969412486],[128.27072748542713,36.615134969012004],[128.27154770573904,36.61452046566934],[128.27188101507252,36.614446845074454],[128.27210335840795,36.614195615905885],[128.27211168637703,36.61407710956892],[128.27258034295264,36.61410504485072],[128.27269308290383,36.61426876680241],[128.2729166969238,36.61421910911886],[128.27343080861988,36.61435023402645],[128.2734746812311,36.61444689956262],[128.27322550516598,36.614514391329465],[128.27318002573725,36.614624122219595],[128.27327333415147,36.615142549654145],[128.27319011292659,36.61547377869045],[128.273265459605,36.61558535602247],[128.27331987528984,36.615527674320326],[128.2745832988774,36.615769058280165],[128.27481795996778,36.615720742333174],[128.2749220400261,36.615835252669605],[128.2751419448187,36.61588594935362],[128.27550557422416,36.61587634802838],[128.27578210993047,36.61582002116505],[128.27595633041335,36.61569069307336],[128.2765338799923,36.615670548962974],[128.2771168696031,36.61541272816047],[128.27742891753252,36.615415126092955],[128.27781089498782,36.61586040782049],[128.27874411175085,36.616319009416905],[128.27961105071802,36.61640492138341],[128.28108314358983,36.61628255094812],[128.28184597131406,36.616308685041986],[128.28301741299146,36.61691236886437],[128.28354018751904,36.617323029208805],[128.28373742988256,36.61761789048505],[128.28412282108343,36.61873062548427],[128.28436918079697,36.61915394366119],[128.2858718816059,36.62023736657103],[128.28676918196828,36.620650874609964],[128.28733580748934,36.62114336710127],[128.28756134416437,36.62251341044049],[128.2873070826565,36.62271843667281],[128.28646760438235,36.62294063970835],[128.28640643521706,36.62310633080379],[128.28691721462877,36.62404030894134],[128.28715410643872,36.6247895233815],[128.2869282919891,36.62535969446718],[128.28647571739032,36.62593856495871],[128.28643199677265,36.626148634020815],[128.28678996142762,36.62674369436194],[128.2867637204851,36.627844179046356],[128.28768705761985,36.628451075455956],[128.28793759180823,36.62890740035143],[128.28861750083053,36.62972650688046],[128.28889636499008,36.629668040852074],[128.2892434414634,36.629706730353],[128.2901330474302,36.62935156292422],[128.2911203867365,36.62911169117238],[128.29211914908848,36.629220077597715],[128.29327048100126,36.629581614106755],[128.29372900320084,36.62982949813468],[128.29439430697735,36.62992353185579],[128.2947233672271,36.63021979006562],[128.29455796583147,36.630755205889166],[128.29486863019318,36.63168711450872],[128.29526168432915,36.63160238158908],[128.2955897912862,36.63166257472248],[128.29596553325072,36.632071414547354],[128.2962183180364,36.632223542006784],[128.29659863765704,36.63213333129838],[128.29747045774394,36.632168504898615],[128.2980889844423,36.63319383654897],[128.29807330718157,36.6334686511273],[128.2985308652601,36.633786082234344],[128.2986034611027,36.6340257390463],[128.29877140017496,36.63500474693904],[128.29857142833845,36.635310935080405],[128.2984366841748,36.635363662110976],[128.29846504654105,36.63567112309096],[128.29834045298426,36.63588792216231],[128.29918160254095,36.63598978294951],[128.30037037544278,36.6363031826059],[128.30054508401113,36.63595705296468],[128.3013458816845,36.63611247548172],[128.30210628054408,36.6359036541592],[128.3024810790923,36.63602378801415],[128.30310089629253,36.63601735211935],[128.30338504441613,36.63608490731174],[128.30359197848935,36.63606388656168],[128.30372888430966,36.63593714086082],[128.30414249974723,36.63600370531734],[128.3045473261518,36.63591836106844],[128.30474903868802,36.63627769758369],[128.30485728780747,36.63631419529438],[128.30480779957605,36.63665523029855],[128.3050044113565,36.63752128046556],[128.30560327661547,36.63770593191159],[128.3060346151182,36.63763617004799],[128.30652041549743,36.63772148776831],[128.30698837588253,36.638085462977756],[128.3074094004788,36.638785615810015],[128.3081171722212,36.639255551490336],[128.30827311437423,36.6395071652267],[128.30854591701882,36.639716867702845],[128.30833674102243,36.64051636007998],[128.3085545930423,36.6407591587595],[128.30921794497706,36.640816340306564],[128.30957128642896,36.64093104966311],[128.30977916984068,36.641550669322356],[128.3096257335785,36.64234508267954],[128.30916475056085,36.64327469646824],[128.30963605694618,36.64442205226297],[128.30926864462964,36.64476181443135],[128.3091709016542,36.6450809969278],[128.3089285799208,36.64521657248162],[128.30899606232396,36.64593029357821],[128.3086035799679,36.6461475211478],[128.30854719176915,36.64634347256853],[128.30877265410334,36.64689794559126],[128.30882071837564,36.647265302025446],[128.309170526074,36.64790539882835],[128.3094549818907,36.64815351778415],[128.30849784712123,36.649086991139576],[128.3090377132306,36.64920954757838],[128.30902730388516,36.649336550692496],[128.30864828887175,36.649618515236796],[128.30866121707805,36.65044299857146],[128.30812400497518,36.65121264885031],[128.30787028190116,36.65201625273163],[128.308259984865,36.65306012516799],[128.30814678657407,36.653395410628605],[128.30837943888875,36.654340266725356],[128.30823938316752,36.65458051407351],[128.30891956119783,36.6556437537089],[128.3089884724571,36.656095417558866],[128.30951061270088,36.65622101259414],[128.30994973104734,36.65607100306652],[128.31059617200617,36.65629668728266],[128.31091821566753,36.65655919345293],[128.31127622460497,36.65671194331095],[128.31280393810593,36.65657778652066],[128.31296932537973,36.6567351197529],[128.3133165644349,36.65684999413535],[128.31397515531506,36.65684895489254],[128.3142551523605,36.65694762510263],[128.31537561052264,36.65678272926602],[128.31557536795987,36.656793041008335],[128.31590826315426,36.65696328949346],[128.31626450041807,36.65693885817569],[128.316845255036,36.65647966384447],[128.31707523475603,36.65602437720578],[128.31748462058425,36.65593087491428],[128.3194388283779,36.65636160863956],[128.31970481484666,36.65618326362278],[128.32002199270667,36.65608645677881],[128.32009968244483,36.65588575980855],[128.31912529081472,36.65504461211858],[128.31890335670158,36.65499130727702],[128.31879917873718,36.65472512384407],[128.31885257757946,36.65422091321515],[128.31864406889275,36.653908417190664],[128.31870862598933,36.65311919354888],[128.3190945542507,36.652327390601364],[128.31926445337342,36.651399293675176],[128.31963731387984,36.650924796732895],[128.3198783190888,36.650174240640666],[128.32013498637244,36.64975681334638],[128.32055402302242,36.64971469724756],[128.32062316155705,36.64959846866543],[128.32054736995957,36.648957510551234],[128.32081457449226,36.64884679366382],[128.3212979198557,36.649006728886526],[128.32128714552047,36.64879868633093],[128.3215875464721,36.648294151830584],[128.32183146778826,36.64827726496105],[128.3218012042563,36.64743731673278],[128.32161954255787,36.64675810091399],[128.32130872058363,36.64648128100256],[128.31966214186292,36.645661932579756],[128.319299097964,36.64525948078288],[128.31923793292188,36.6450888294719],[128.31930408650626,36.644720762154456],[128.32000992277625,36.6440962491074],[128.32033128707386,36.644279479675184],[128.32269600301493,36.64443567842415],[128.32340716758333,36.64478031864771],[128.3235698396054,36.64498772930046],[128.3238139043983,36.6450073938368],[128.3245764948091,36.644633039408355],[128.3253324223365,36.64402996747549],[128.3256040120328,36.64411810982236],[128.3259381476774,36.64437516981431],[128.32695476844998,36.644601166295715],[128.32743061573336,36.64406691064542],[128.32795335324536,36.64404124112661],[128.32826565341645,36.643779717201305],[128.32887331959284,36.64344497916748],[128.3290349531003,36.642957965753716],[128.32942191630073,36.64241442256261],[128.329588861983,36.64235819104323],[128.3297472937102,36.64213960256735],[128.33017142276572,36.6419930451834],[128.3303468179693,36.6418370439372],[128.33085150692654,36.64179991992451],[128.33098338130657,36.641939294010825],[128.33164460032427,36.64211160024955],[128.3320239692791,36.6419014363654],[128.33305715235156,36.64194994615899],[128.33373641894354,36.64209166830765],[128.33390308041626,36.64231452594177],[128.33394110958676,36.642677479836514],[128.3341167263256,36.64299492333364],[128.3344440317464,36.64318183501928],[128.33499823179534,36.64334280505409],[128.33515708776798,36.643656715288124],[128.3351355651862,36.64382151414285],[128.3352166925557,36.643863938214366],[128.3353648586761,36.64377182380423],[128.33595606164437,36.64387484301178],[128.33654911570804,36.64438431510827],[128.3370397872997,36.64516653633612],[128.33734089833536,36.64546094023377],[128.33688619702426,36.645956142998685],[128.33686638564575,36.6462043646105],[128.3374282717731,36.6465549002691],[128.33801773179232,36.64658218712334],[128.33843331293323,36.64669112771768],[128.3386049831868,36.647219824124754],[128.3387777296974,36.64734949564301],[128.33898553049372,36.647394369471876],[128.3395171101378,36.64721425902462],[128.3396354653124,36.64735086449663],[128.3398020727646,36.64733759227084],[128.34005468834354,36.647241412812186],[128.34017331365777,36.64702339256932],[128.34015617538543,36.646867297975064],[128.3398868366648,36.64646095472784],[128.34144557144046,36.646526463377135],[128.34201643929404,36.64618480238243],[128.3423857582734,36.645709021161146],[128.34271279549824,36.645829621367795],[128.34525343472123,36.64599236274069],[128.34595026972795,36.646211926631985],[128.34598106711266,36.6463888337909],[128.3467647181459,36.646432527249964],[128.34745021471676,36.646375936858256],[128.34781869874772,36.64675264886787],[128.34781170703,36.64727725202854],[128.3482110147477,36.64764122555625],[128.34838592791766,36.64810884230248],[128.34843279937456,36.64885402766281],[128.34831222152047,36.64924566547498],[128.34840341405294,36.64953848694312],[128.34881890673495,36.64977849752474],[128.3495238954651,36.65004558669803],[128.34952911736585,36.65027653064137],[128.3499996606428,36.651060493591025],[128.3498955353225,36.651222637100524],[128.34990822823332,36.651427186796056],[128.35044398752606,36.65215599401089],[128.3500146977814,36.652893678266125],[128.34967736203362,36.654092854587304],[128.34869557537345,36.654746642361964],[128.34802901895276,36.65475773098725],[128.3476355200705,36.654592842965805],[128.34706340924674,36.65483027582187],[128.34676354688932,36.654749422580906],[128.34651550866502,36.6548236708556],[128.34628400745498,36.65499085233264],[128.34568062693586,36.655803784443144],[128.34533554538436,36.65573561321289],[128.3449109317253,36.655851215713085],[128.34433065980005,36.6556558234069],[128.3438476325177,36.65536092772244],[128.3436115846395,36.6554469807763],[128.34313612651786,36.655464377881785],[128.34258448352602,36.65590428518213],[128.34164841992578,36.65591613021109],[128.3409725580578,36.65620672880081],[128.34074355751196,36.65650185777337],[128.340499202354,36.65658723133012],[128.3397104591458,36.65764296236834],[128.33864617164724,36.65774432010099],[128.33787793060785,36.65798658575234],[128.33732998044798,36.658439225625706],[128.33611135016233,36.65815744048988],[128.33588252408643,36.65820684965365],[128.33542855193076,36.65848850706313],[128.3352085985627,36.65900494425864],[128.33526136881082,36.65934682515572],[128.33491045145377,36.659820772703675],[128.33476597218677,36.660370971697624],[128.33507150574104,36.66093036792358],[128.33504244822242,36.6612913242242],[128.33462216747833,36.66142470885466],[128.33400812009896,36.661504261260205],[128.33366962591194,36.66178482559279],[128.33387276958882,36.6620109787075],[128.33440135565687,36.66235400769486],[128.33441160646822,36.66328499935144],[128.3345508856006,36.66386862261086],[128.33446849999643,36.66466121376754],[128.33421474438651,36.665466138401975],[128.3336935312396,36.665821455567894],[128.33311016031794,36.666529965205534],[128.33309360674832,36.66681034319159],[128.3322821324386,36.66716321125361],[128.3319144032166,36.66715139861289],[128.33183649587355,36.66744293063698],[128.33154399069144,36.667564136384016],[128.33109506856275,36.66755896941064],[128.33041067977345,36.66738987419521],[128.3301180090559,36.66755420374469],[128.32936410896096,36.667766710669326],[128.32900420654568,36.66782068665024],[128.3285930950969,36.66776442958913],[128.32835677463305,36.667947311567275],[128.32796968499133,36.66808691629855],[128.32741136489565,36.66874779063192],[128.32663455800218,36.66905329771216],[128.32669452899384,36.66915224101316],[128.32656247929734,36.66949947382927],[128.3263172452938,36.6696471554906],[128.32614936428075,36.67035183693798],[128.32564110812166,36.67037857454598],[128.32550420754808,36.67058283483574],[128.32528085031564,36.670647121349525],[128.3250048416998,36.67107373062294],[128.32481603927317,36.67163351099691],[128.32481762160126,36.67230198740986],[128.32463764205067,36.673035393494374],[128.32465887066283,36.673338389546664],[128.3244035009126,36.67390636824775],[128.3230916940593,36.67530733597798],[128.32183089592274,36.6761578828576],[128.32153017047054,36.677015244794205],[128.32079830524702,36.67751412519065],[128.32032501344466,36.678270840244906],[128.3209502561452,36.67885705945007],[128.32150850348265,36.6790141371549],[128.32305355660466,36.680269225352966],[128.32357377085924,36.68054184805223],[128.3245588940144,36.68161842485401],[128.32548920674625,36.68243733444151],[128.32463411677847,36.68345504838806],[128.32619572096127,36.6846655409172],[128.32817578867162,36.684162205713186],[128.32912398978294,36.68466981436728],[128.33060239841743,36.685878591983176],[128.33246375351578,36.68720707280298],[128.33351180461057,36.68784625363152],[128.3334592588721,36.68894989292458],[128.33433979835482,36.69086480553672],[128.33498933708213,36.69176510741348],[128.33591950579543,36.692062881542796],[128.3361954679996,36.69261677256606],[128.33687990994855,36.69357675851439],[128.3350103682677,36.69461669340927],[128.3343102307277,36.69475152765795],[128.3339530173696,36.69599142718421],[128.33312907298352,36.696481888327305],[128.3326852091057,36.69664350119212],[128.3308995014262,36.696598921941856],[128.3306671102724,36.697399487466676],[128.33134256217784,36.697702005297806],[128.33118790027095,36.69929269524732],[128.3322576599841,36.70075184124796],[128.332545717643,36.70085741650942],[128.3328120494191,36.7016283761363],[128.33364284606506,36.702000424874214],[128.33387451560154,36.7025969594046],[128.33489276723978,36.70362932742551],[128.33535383526848,36.70500111922612],[128.335482500902,36.70609511170994],[128.33507912429369,36.706328921348614],[128.33439640741372,36.70691924114222],[128.33437941530437,36.70739195061769],[128.33454237982633,36.70751987749025],[128.3360143909373,36.709752151393666],[128.33627112198397,36.71062841097553],[128.33618249484817,36.711248018769986],[128.33561028756532,36.71243806147982],[128.3358144366442,36.71316772228545],[128.3356005816318,36.71338546206622],[128.33554296515203,36.71364620243735],[128.3347453034566,36.71404606271516],[128.33448394817339,36.71439238594074],[128.33449419534023,36.71525946878485],[128.3343119253298,36.71576741314692],[128.33373115877913,36.71659299790847],[128.3333404191795,36.717349573448494],[128.3329675631158,36.7177361126426],[128.3321283311576,36.71817092182825],[128.3319715282708,36.71873755869154],[128.33203434480797,36.71936073585749],[128.33153751703426,36.72032902953378],[128.33172843737898,36.72186174279152],[128.33310721047613,36.72225585942921],[128.33468009650957,36.72330211775734],[128.33470616339554,36.72449080405992],[128.33430786371116,36.725610817802156],[128.33324714246555,36.72636939680422],[128.33292215083608,36.72754102554046],[128.33356152381026,36.730582582424795],[128.33351275225002,36.7315617542629],[128.33329938331246,36.73201768518767],[128.3334258284683,36.732396384985115],[128.33334596268315,36.733121956631834],[128.3328136318926,36.73383265536179],[128.332400688101,36.73500599667545],[128.33278659327826,36.735697529631466],[128.33410199894007,36.73622241731088],[128.33488699929563,36.7367206064525],[128.33710230678219,36.73643169600815],[128.33761075299188,36.73702278510572],[128.33790233821958,36.73763815896622],[128.3383725180647,36.73805931571311],[128.33849315162985,36.739296960385005],[128.33882106461672,36.7399266918902],[128.33876296250418,36.740462349195155],[128.33899171861597,36.74062742640915],[128.33910193070653,36.74089139213528],[128.34212357943173,36.74058369681691],[128.34301265686312,36.74021767465215],[128.34586912767344,36.74058075200753],[128.3487744317742,36.74067760778719],[128.34998852704243,36.740871394174064],[128.35086027696724,36.74089266045452],[128.35139589610927,36.74107926526091],[128.35254442030862,36.7408452121402],[128.35544150564868,36.74096338242116],[128.35754371205505,36.74116520839396],[128.3581575805761,36.74099976372862],[128.35893305096883,36.74097268193936],[128.3594151942477,36.74067922501467],[128.35992032927223,36.74019585309534],[128.361737000254,36.74071901502744],[128.36187404780776,36.741422044748376],[128.3617037459447,36.74231569125304],[128.36176268346816,36.74321915840975],[128.3622829957594,36.74384135257195],[128.36393702072607,36.744933779016776],[128.36429473505606,36.74546659716371],[128.36531380755545,36.74660145877522],[128.36610391644425,36.746980686378706],[128.36727298982947,36.74788984025941],[128.36737038643273,36.74836154328825],[128.36768087162267,36.74872846912755],[128.3681004658643,36.749606435055426],[128.36838729606177,36.7504748880452],[128.3690680166769,36.7510930372276],[128.36910980404315,36.75187709356464],[128.369222362809,36.75203062499657],[128.3682073203899,36.752836571666315],[128.36830716888113,36.75363445095927],[128.36822225481833,36.75452984515935],[128.3680257253191,36.75479686265291],[128.3681133028084,36.755019071310876],[128.36690968767587,36.75546322775266],[128.36568925795368,36.75621636743247],[128.36532092333883,36.75662032751482],[128.36494492765163,36.756628870394586],[128.36475727030043,36.756979344597674],[128.36447269162102,36.75725560498698],[128.36456661522422,36.75749569093535],[128.36432613762636,36.75824893044638],[128.36396321513257,36.759000869883565],[128.3638578925277,36.75972753824303],[128.36342234150194,36.760210002698344],[128.36333411032012,36.761324202400324],[128.36417256975014,36.76157722799676],[128.36420715508166,36.761687613525666],[128.36575994575716,36.762762985781],[128.36559799223696,36.76300333138407],[128.3657227045058,36.763699565343885],[128.3665654775468,36.764432335181226],[128.3670024192397,36.765426401567105],[128.36682427378304,36.76635933644812],[128.36739973668577,36.7672046008748],[128.36777206383195,36.76760491617362],[128.36764384983903,36.768969470866075],[128.36668664754905,36.769317617526816],[128.36661435833378,36.769619871587906],[128.36589764150574,36.77027168862015],[128.3657593261283,36.770766077843184],[128.36537359408962,36.771199556757466],[128.36522411701452,36.771537718974876],[128.3652269574298,36.77196118249427],[128.36503064632535,36.772016450023344],[128.36487300576664,36.77272740914192],[128.3650400834042,36.773312546669224],[128.36482853178254,36.773590879843134],[128.36449948477272,36.774376381034585],[128.364596800473,36.77525597729556],[128.3647705167207,36.776314433087116],[128.3658004847514,36.776730951450006],[128.36618160408548,36.77724074717156],[128.36586709075414,36.777547690057474],[128.36588815075677,36.77773432206456],[128.36646443010406,36.779771963190676],[128.3665323610738,36.78109924916792],[128.36692209657207,36.78198893720046],[128.3666677334951,36.78365307801066],[128.36710624313923,36.784518636654624],[128.36906521487722,36.78651030062599],[128.36996186939916,36.78975493898966],[128.36904824003187,36.79196821698358],[128.3702597974138,36.79336446019646],[128.37148978712185,36.79547299757773],[128.37204836854804,36.796251758896446],[128.37190730728784,36.79751090258412],[128.37098940678115,36.798780012279735],[128.37004045088054,36.80088761431859],[128.36783355054354,36.802544835139756],[128.36694622892978,36.80283713840838],[128.36667004705302,36.802862520436456],[128.36632589990612,36.80310818331174],[128.3661860788248,36.803002943215745],[128.36555343800765,36.80303360828796],[128.36476705495733,36.8027526646034],[128.36453551518306,36.802420341479156],[128.36408400820338,36.802215683221874],[128.36350312900038,36.80280713708737],[128.362723635856,36.80304139149089],[128.36250487038518,36.80300499685851],[128.36187453139138,36.80346425680516],[128.36154140715556,36.80348031302332],[128.36109309632363,36.803964022285506],[128.36019072804152,36.80422517447339],[128.3597818964309,36.8044719804738],[128.35931988683478,36.80509000527619],[128.35871959162637,36.80564429962464],[128.35807316802578,36.80563833939279],[128.3577805807223,36.805972978347405],[128.35708176305073,36.806324528229545],[128.35686763392292,36.8067746296733],[128.3572913570742,36.80863519844989],[128.3568365246517,36.809285992259014],[128.35676216003586,36.81061623247155],[128.35593436628722,36.8107178944674],[128.3551540520329,36.81110814164038],[128.3541841094403,36.81120821206814],[128.35318071634686,36.812449956151234],[128.35122543847353,36.812935583999625],[128.34824192533944,36.813015158554165],[128.34591651908232,36.81360295207142],[128.34100256103693,36.8145725087888],[128.34021394040624,36.814854657408695],[128.3372620419166,36.815623812063556],[128.33573714925933,36.81651358203719],[128.33532118753794,36.8166199509042],[128.33523152339436,36.81674261277642],[128.3348945663854,36.816879267182735],[128.33445949920207,36.81696068001401],[128.33372451880822,36.81688846466804],[128.33336360254143,36.81701760784608],[128.33278785746992,36.81697624481965],[128.33082809252082,36.81640545243498],[128.3296546491093,36.81616778212333],[128.3289411618373,36.8161932641626],[128.32842971873012,36.81637734260782],[128.32822059708246,36.81661144764842],[128.32724818483842,36.81679674407207],[128.32596945366717,36.816344077641105],[128.32418138205094,36.815964174089224],[128.3208486806854,36.8156400551929],[128.32009121876294,36.81616265136164],[128.31963801538228,36.81626033046117],[128.3190762960159,36.81663571162624],[128.3182559598057,36.81693239990069],[128.31754260890608,36.81676242450681],[128.31697696668277,36.8168537865463],[128.31667700932925,36.81664497387686],[128.31645005567407,36.81666163880404],[128.3161207755272,36.81686387034754],[128.31579017662148,36.817420352585756],[128.31591837193645,36.819123471965234],[128.31535551950344,36.8197483072943],[128.31536747914197,36.81992339216075],[128.31609596582211,36.820806463157886],[128.31631116375792,36.821262142557885],[128.31574635944747,36.82225839334605],[128.3158293762036,36.82257703410635],[128.31574898124697,36.8227557452802],[128.31504294820343,36.8233340893034],[128.31429205550776,36.82328429293048],[128.31403482777293,36.823344601250405],[128.3137687293784,36.82355306435215],[128.3135670522668,36.823831692578516],[128.3132130524899,36.82485638948351],[128.31302167325893,36.82505708141006],[128.31184759907262,36.82490282949296],[128.3115968057466,36.82503861339838],[128.31151156954516,36.825196459278246],[128.31151656919485,36.82584932107773],[128.31126931947006,36.82599057170004],[128.31091644662732,36.825999990336264],[128.31041682942308,36.82671686970748],[128.310305397785,36.8270108958609],[128.31034796382343,36.82721741315751],[128.31062861207351,36.82756569826749],[128.31081870339273,36.82827720951841],[128.31070744657447,36.828473083822246],[128.31051881932913,36.828626993245855],[128.30975258028406,36.82858062649207],[128.3094740248038,36.82865087255557],[128.30892778686035,36.82899902279697],[128.30860087537425,36.82893090332537],[128.30799772600457,36.828627892801165],[128.30761529749026,36.82862089435776],[128.30670790903494,36.828840936409854],[128.3058406895883,36.828916462912225],[128.30562330109578,36.829183220172645],[128.30500095497786,36.829321831766464],[128.30462517813478,36.82958495397085],[128.3043121035937,36.830513911379335],[128.30336053685684,36.83120048948529],[128.3032206358854,36.83138814169436],[128.30232291270195,36.831986954591784],[128.30187387787834,36.832351596230296],[128.3016429867473,36.83266306771686],[128.29883083213585,36.83351584923561],[128.29786435483112,36.83473740372991],[128.29682673960315,36.83484866330081],[128.29562399867666,36.83534120274529],[128.29522030239377,36.83577386873357],[128.29462806677452,36.83662665469222],[128.29332308878196,36.8389903378253],[128.2929434915545,36.839466712001446],[128.29134256604752,36.84046307835547],[128.2906781992484,36.84123346209646],[128.29015686709087,36.84275147467797],[128.28944961816947,36.8435556827294],[128.28898314367262,36.843910832569804],[128.2880369952957,36.84438342456252],[128.287248095182,36.844545666648834],[128.28655534078442,36.845033733804634],[128.28593370765898,36.846166386284324],[128.28582755129514,36.84668189817633],[128.28550894955663,36.84731045216313],[128.28565371100015,36.84978001086102],[128.28495210378574,36.85091141571049],[128.28401509608463,36.85337524294593],[128.28348351515908,36.854221615442995],[128.2832119259487,36.85450522466881],[128.28269060212264,36.85568499247408],[128.28247552825871,36.85596269298506],[128.28243385527054,36.85639893665553],[128.28210262083076,36.85648871864795],[128.28149536143684,36.85650771819766],[128.28020288133177,36.856991791268456],[128.2794940813394,36.856908057191596],[128.27902012686982,36.8567338653821],[128.2782170641503,36.85682385059223],[128.2776254894739,36.85703788971848],[128.27617625451032,36.857141941399405],[128.27494375358185,36.85806483628475],[128.27443999266583,36.85823426606518],[128.27375718314232,36.85834767379556],[128.27199843479391,36.85913264569985],[128.27132507941843,36.85917841506976],[128.2709745593062,36.859299555070336],[128.27067884562484,36.8595650849159],[128.27065917389373,36.85985580647065],[128.27041665821883,36.85992086716259],[128.2701999178871,36.86010182810747],[128.26906642113752,36.86013190571215],[128.2687965585229,36.86021495974162],[128.2683126208356,36.86054030193229],[128.2680422474762,36.86095120632297],[128.2678836533106,36.86130157735755],[128.26773906156166,36.86207234212822],[128.2672680925649,36.862619897040354],[128.266287263301,36.86290177542173],[128.26573513527714,36.863210406734474],[128.26551077297995,36.86344715334776],[128.26542230406716,36.86380766128637],[128.2650248189216,36.864142396016014],[128.26397740662952,36.86428514090253],[128.26313582290436,36.864119124114985],[128.26256642425614,36.864496481951555],[128.2612087880444,36.864993888500564],[128.26044411245388,36.86517815406671],[128.25981525313478,36.86501561672519],[128.25942361003666,36.865087447860326],[128.25864767911864,36.86550844897075],[128.2573458358089,36.86576276398926],[128.25712077880297,36.8658756340366],[128.2566315750163,36.866543659575704],[128.2563830365963,36.86663959360342],[128.25617591544366,36.866642535970946],[128.25529493987045,36.8662803823039],[128.25477418504286,36.86642879914058],[128.2540615316128,36.86644729331921]]]}}
