{"type":"Feature","bbox":[128.16030300745658,35.61237883859801,128.48040162216228,35.85240617274878],"properties":{"regionCode":"47830","version":"vworld-20260909-3f8952dfda77-p2","name":"경상북도 고령군","attribution":"국토교통부/K-Geo플랫폼 · VWorld 법정구역정보, CC BY 2.0 KR; 공공주택 복덕방 가공"},"geometry":{"type":"Polygon","coordinates":[[[128.38759162599945,35.85240617274878],[128.38721778441322,35.851897431883714],[128.3863564866036,35.85150445260446],[128.38711355850032,35.850627781463146],[128.3873160705886,35.84983539251373],[128.387145222883,35.84951107809661],[128.3873218050126,35.84940165818835],[128.3878107380284,35.849399153652485],[128.38825268693117,35.84967966950707],[128.38863672946775,35.84964069438754],[128.388697096725,35.84859782529867],[128.3890728509135,35.84798697300084],[128.3892645414008,35.847421197825554],[128.38935544336377,35.84629858248247],[128.38982101986866,35.844719683886],[128.39050353172854,35.84394745972018],[128.39078331409178,35.84325713883383],[128.39100878153803,35.84219710011499],[128.39115060576145,35.84189141774219],[128.39092176030107,35.8413312206525],[128.39210744872145,35.84092189002767],[128.3936067925924,35.84009027065103],[128.39348770551126,35.839504313494615],[128.39356468055962,35.839003454072376],[128.3940354770606,35.83751668809176],[128.39328674763482,35.837495783766826],[128.3926588749464,35.838012340008504],[128.39176469158392,35.837966420177935],[128.39100592152005,35.838209403153435],[128.390289975256,35.837856877852374],[128.38999348830936,35.83805385770719],[128.3885177791528,35.838277609513504],[128.38690775418297,35.837575599502394],[128.38581651897357,35.83771636875297],[128.38543678518386,35.83783076543955],[128.3851496534424,35.83760236355053],[128.38392597766295,35.83796102863262],[128.38279922973157,35.8379021810463],[128.38162810862133,35.83854948302774],[128.38136115962078,35.83817740067851],[128.3809461335571,35.837886997795984],[128.38078797045364,35.83741391439826],[128.38019701202924,35.836901947980515],[128.37998791865962,35.83679816151958],[128.37950175986987,35.83697523062579],[128.3778146667168,35.83555297228926],[128.37730979722997,35.835520525314344],[128.3766247389572,35.835619529242464],[128.37574312985845,35.83530736726936],[128.37455209794857,35.83438256389783],[128.37656769913067,35.83273561699052],[128.37703443409572,35.8322414820507],[128.37680689775084,35.83139525460157],[128.37698881651738,35.83094325127997],[128.3777728321269,35.83044807798001],[128.37734853081562,35.829354452200604],[128.37732725562992,35.82898746703644],[128.37756393714662,35.82795569433249],[128.37898193891792,35.826945257773],[128.37925952059337,35.82621728048343],[128.3791018411865,35.82550564832904],[128.37967856214482,35.82445460492868],[128.37976170280047,35.821761283395965],[128.37950768765958,35.82156696598737],[128.37873317896128,35.820511218827136],[128.37875072139394,35.820139896077755],[128.37857633535248,35.81976298004625],[128.378318749334,35.819621497512195],[128.37818067322394,35.81894930871922],[128.3773285718904,35.81885223275768],[128.37664843083633,35.81797663208488],[128.37647381003197,35.81740742011445],[128.37572830098813,35.817059481766755],[128.3754039184745,35.81653568660898],[128.37451476514698,35.816374641942545],[128.373941858248,35.816752793133155],[128.37350493829396,35.816713469979376],[128.3730192550142,35.816928049600264],[128.37202263983596,35.816315643602266],[128.37141731512403,35.81660156548958],[128.3707879541011,35.81627421197285],[128.3697461548719,35.8161698368647],[128.37031642449205,35.81389121065599],[128.37093179021971,35.813180618035815],[128.37070493391923,35.81296965407345],[128.37002753187622,35.81193176959385],[128.3697588233482,35.809791240987444],[128.37057654647361,35.807531369911814],[128.37136434821534,35.80584379404388],[128.3706125531204,35.805540877193025],[128.37099157551012,35.804521620744545],[128.3694853919041,35.80336523055826],[128.36991205042105,35.802536546298846],[128.36943557484534,35.80135603985528],[128.36952984854574,35.80071488922157],[128.36946140285738,35.79825592372064],[128.3693612474829,35.797524128127485],[128.36899154858426,35.79658912723674],[128.3687531655021,35.79518841807491],[128.36881656765306,35.79427361373608],[128.36745634198576,35.793178519270676],[128.36594392353436,35.7926217607416],[128.3652991381298,35.79266538414415],[128.3642332783247,35.79302149604352],[128.36407143940912,35.793264241038045],[128.36316688795236,35.79370248592585],[128.36249445939936,35.79361562133124],[128.36195197364978,35.7940111239639],[128.35969045886205,35.795067128302094],[128.35837688367607,35.795930522342225],[128.3573478712914,35.796064112840625],[128.35577468242477,35.79606515633656],[128.35425781085922,35.7966608089328],[128.3530919456049,35.79675493680882],[128.35162473582466,35.79795501605125],[128.35024514210406,35.798726210159124],[128.3497519402665,35.798318480483125],[128.34802366825886,35.79786097311852],[128.34726649963233,35.797444356701],[128.3465021639261,35.79727859480671],[128.3451929155027,35.79659796587748],[128.34288412533547,35.796141980639234],[128.3404723246583,35.79621425687671],[128.33843528478525,35.796709685845386],[128.337393525641,35.7983224763413],[128.33541687601993,35.799774526429474],[128.33415863740095,35.80152958033492],[128.33313861788957,35.8015473463109],[128.3318315041221,35.802470350515655],[128.3307051436909,35.80376056768475],[128.3293405036002,35.804999081835525],[128.32854844667926,35.806193512805685],[128.32490774316196,35.80818485019882],[128.32326660734293,35.80819159800913],[128.32232472594387,35.80900301818653],[128.32167958385043,35.81002789832879],[128.32177087475398,35.811162970039376],[128.32212871011163,35.811810700038826],[128.3212234014037,35.81182745851802],[128.31987401401878,35.81208639467299],[128.31987170381097,35.812732304644925],[128.3195683526717,35.8132690234615],[128.31904273199098,35.813717904688836],[128.3186670060877,35.81372367926553],[128.31768895093413,35.813401227810225],[128.31735559840362,35.81340353461835],[128.31696285412988,35.81353983865872],[128.31636336826688,35.81350989978838],[128.3161019512354,35.813703945085685],[128.31513495433757,35.81385743543185],[128.31457055973442,35.81386561246649],[128.31427844395688,35.81453678492318],[128.31386118191512,35.81450912430333],[128.3136778017318,35.814088012512734],[128.31351164670855,35.81396658170857],[128.31271751187123,35.813851334754666],[128.31231210191532,35.81328637221253],[128.3123309233199,35.812758857769744],[128.31216699972208,35.812563468459416],[128.31094475117166,35.8123179269685],[128.31036174490941,35.812278856212224],[128.3099123507541,35.81235876201683],[128.30945930897911,35.812308828710655],[128.30895391804674,35.81242229747969],[128.3076429916001,35.81242580022268],[128.30625001869174,35.81201505693993],[128.30587396322258,35.81252584517631],[128.30562468903528,35.81306270781077],[128.30582393362374,35.813472295481226],[128.3056468554167,35.813915353699365],[128.30487032884224,35.81444557915217],[128.303737067893,35.81492261116364],[128.30366319728222,35.8148598798871],[128.3010660702705,35.81500149151345],[128.30061957991825,35.81516274647735],[128.29994751586423,35.814974440200466],[128.29961645305306,35.81619981421736],[128.2997761737879,35.81676492205137],[128.2991831633043,35.81702795554887],[128.29862324205382,35.81743706254799],[128.29840314465287,35.81787917877335],[128.29788168074245,35.818420820841155],[128.29777064732517,35.81887601345942],[128.29590437440086,35.821238389975136],[128.29501099853482,35.82119305397829],[128.29453327344828,35.82146239398431],[128.2943092982315,35.82207331922041],[128.29379023892974,35.82222734151917],[128.29350404543024,35.82266345500415],[128.29293058404258,35.82284003179152],[128.29230303774406,35.82340098177052],[128.2919661964069,35.823841852268316],[128.29159682670203,35.8248321795902],[128.2905317577473,35.826312346350846],[128.28946190321616,35.82604568358159],[128.2876194973233,35.826010976810664],[128.2869021952384,35.82585735543961],[128.28614453522695,35.82669212772932],[128.28461717808563,35.82642630548222],[128.28374368048185,35.82718795133338],[128.28291803280257,35.82737180302317],[128.28232623802097,35.82718654011381],[128.28131030022715,35.82726230102222],[128.28051389277752,35.827566844461614],[128.27942298466823,35.82709308057359],[128.2793568789753,35.826663820383146],[128.2783221785293,35.8264013635085],[128.27738438524014,35.82694260650804],[128.2763182912556,35.826958048074395],[128.27602933976158,35.82653383331614],[128.27578967832406,35.82649589609606],[128.27528008427427,35.82693750520656],[128.27480818863452,35.826967116453226],[128.27458395779726,35.82655533766148],[128.2742752804816,35.82650091204786],[128.2737179828483,35.825698675655346],[128.2731946744558,35.825117400667246],[128.27283905474866,35.823829422800856],[128.2726454572381,35.822602065814394],[128.27258358539112,35.82120267571863],[128.2728817073028,35.82028718338902],[128.27282979167916,35.81931099013709],[128.2730289728856,35.818801876598265],[128.27290378827985,35.818237878833216],[128.27285421765285,35.81716860745639],[128.27230295342986,35.8168522445674],[128.27181859665902,35.8153299091343],[128.2720142552525,35.81407006574651],[128.27198020525765,35.81368777313872],[128.27234602011117,35.81220094101274],[128.27324351256155,35.811606075209816],[128.27384800709044,35.8100188894795],[128.27350710961625,35.80824122283137],[128.2727602623631,35.806298370275314],[128.27218099931468,35.80561268044722],[128.27172749519715,35.805303426974874],[128.27153334068078,35.80468831030762],[128.27154698599486,35.804262688402055],[128.2724383730484,35.80343621456391],[128.27177585729459,35.80203568959561],[128.27292217455764,35.80063532722241],[128.27265915047246,35.80014601647651],[128.27253437835995,35.79901410046773],[128.27301856278456,35.79739455717012],[128.27347886567537,35.797058735498936],[128.27349434497972,35.795921020110974],[128.27234132000763,35.795892543415846],[128.27167047239493,35.795701569995416],[128.2717869525623,35.795456458330044],[128.27156878355828,35.79478768549238],[128.27116077813142,35.794019846804055],[128.27070063379432,35.79355013191146],[128.27072243596137,35.79290880342439],[128.270957329247,35.79243039819534],[128.27120108472187,35.79218229616278],[128.26962356561964,35.791238221184784],[128.26823931694517,35.79236603482691],[128.2647698523216,35.7945434236331],[128.26409662388008,35.7947637254778],[128.2631536508423,35.79524098252376],[128.26216303762746,35.79556083359443],[128.2611843253629,35.79579078381708],[128.26064158331883,35.79584508875906],[128.26071852877138,35.79507972247783],[128.26032796218908,35.795033643634035],[128.25982372611227,35.79508759496312],[128.25960291830552,35.795020396456785],[128.25965311499178,35.79497332774715],[128.2593251093844,35.79480848829384],[128.25876898938682,35.79483188665988],[128.2584111440322,35.79475690976031],[128.25816265785022,35.79453839992726],[128.25842837142298,35.794361828095354],[128.25846550029658,35.79306941315217],[128.25796351790672,35.792908326943845],[128.25720844537796,35.79190839679549],[128.2563344613058,35.79191082500939],[128.25514716286128,35.79226734964348],[128.25452420562846,35.79178005399682],[128.25415121533072,35.79130712956941],[128.25321640633462,35.79067922861673],[128.25211582282793,35.79018766420693],[128.2496016150214,35.790186371323564],[128.24909380608273,35.78957866681011],[128.24952617875178,35.78846837016785],[128.24956707798106,35.78784659789713],[128.25001787272257,35.787313099595885],[128.24987178024512,35.78642785424678],[128.25029777347268,35.78502347176847],[128.24986026693688,35.78403230976565],[128.2503684071823,35.78267154771345],[128.25137450225156,35.781553147761755],[128.25117862074276,35.78018347929689],[128.25010958554577,35.78014753186524],[128.24973829488331,35.78027362295825],[128.24916619486132,35.78026279707173],[128.24848748020977,35.780935407849235],[128.24800641457819,35.78164880649946],[128.24618124899442,35.781702232680274],[128.24596801093628,35.78152045816104],[128.244630552718,35.78160837078979],[128.24411026618924,35.78143229775258],[128.2434643862624,35.78146355536694],[128.24316836542468,35.781688247031035],[128.2428122313887,35.78161414028401],[128.2422353979975,35.78184947991619],[128.24191253497978,35.78211313016067],[128.23996757201311,35.7822979363198],[128.23933177712138,35.78215444032345],[128.2385123523173,35.78210700406216],[128.23819665694845,35.782197607044814],[128.2376689282171,35.782419716941085],[128.23680074612363,35.783684617263866],[128.23605870629217,35.784070935646064],[128.2346355496853,35.784615004296754],[128.23459540152908,35.785166289574725],[128.2338282377701,35.78562311874095],[128.2328834067529,35.786792419660586],[128.2322025817624,35.78707220810479],[128.2311259078023,35.787151370091976],[128.23012188250934,35.78710648057805],[128.22987937168983,35.78738848486184],[128.22896141918704,35.78761748321737],[128.22786467401667,35.78771681913631],[128.22762462290544,35.78758579583189],[128.2270957157392,35.787593960360134],[128.2266955624047,35.78745337157134],[128.22611121044218,35.787641486044905],[128.22557397706004,35.787335805468125],[128.22461288417628,35.78737030269811],[128.22394658544837,35.78781584843398],[128.22326351139168,35.788077078338205],[128.22250598640068,35.78861138489769],[128.22192767290477,35.78863550157229],[128.2209850839003,35.78926341136231],[128.2194300652699,35.79053303082119],[128.21831497934187,35.791107301924335],[128.21785867522203,35.79119475612801],[128.21644288632348,35.79191273793151],[128.2161000558718,35.79373931392863],[128.21633208772974,35.794092084109636],[128.21596858543876,35.795007164540074],[128.21546723440534,35.7957866101923],[128.21566641815627,35.79615024384962],[128.21506526110767,35.797006497858455],[128.21498172279496,35.79730288260224],[128.2138112729079,35.79755963082727],[128.213304643207,35.79783958472634],[128.2129430382191,35.79811385212975],[128.21282737026965,35.798855011490325],[128.21227706770745,35.7988431972629],[128.21213619752362,35.79918709600001],[128.21295252512343,35.80075894573212],[128.21282716985104,35.800889263697734],[128.21287616605508,35.80100829571956],[128.21277608527214,35.801642380886015],[128.21296439505252,35.80203750846367],[128.21294850180007,35.802347727640445],[128.2126902598012,35.80274983511597],[128.21277285450614,35.80323116779643],[128.2126046732841,35.80381501337806],[128.212728782652,35.80421169467378],[128.21267176853425,35.80485675897498],[128.21258064947077,35.80514270197778],[128.21235140405958,35.8052602526721],[128.2123885840263,35.80531335397454],[128.21217402526545,35.805508786898514],[128.21211874001352,35.805772189990485],[128.21185039128662,35.805957130747004],[128.2116263323964,35.80624591305352],[128.21150865722376,35.80672077798155],[128.21125206456833,35.80702782201551],[128.21180238768684,35.8084080862912],[128.21275980392386,35.808840644814474],[128.21249960948197,35.80976322038322],[128.21160309212436,35.81048455053613],[128.21148021755826,35.81137720261161],[128.2109659965485,35.812008648935084],[128.2110119025542,35.81243923611387],[128.21014552715596,35.813550383248185],[128.20993455961494,35.814536398804044],[128.2096559767942,35.81473346024225],[128.20922614120136,35.814825172564184],[128.2087616989245,35.815402520726686],[128.20809237388883,35.81554062531127],[128.20722468306639,35.81506579539092],[128.20614587820228,35.81419175989561],[128.20567689867667,35.81441635009192],[128.20512482756908,35.81485667492921],[128.20264638991347,35.81452586483103],[128.20135961256904,35.81445322726998],[128.20104939152225,35.814286383430485],[128.20072211159246,35.81443621013948],[128.20000021102723,35.814540357720986],[128.19902357832277,35.814884344216374],[128.19834621181639,35.81490427033179],[128.1976421281042,35.81483259265952],[128.19690871157317,35.81506536857147],[128.19619154751746,35.81568870690978],[128.19505383555068,35.81625608033956],[128.19493637368956,35.8162535272399],[128.19443670056845,35.81686805654895],[128.19356885241444,35.81771533459019],[128.19274827080804,35.81764090059308],[128.19080908854815,35.81831359160366],[128.19012974050614,35.81822064128258],[128.188024767649,35.818132376450784],[128.18658320890646,35.81893099068807],[128.18637922118415,35.818700822873964],[128.18592859125712,35.818498806612205],[128.18486084667845,35.81846851715069],[128.18411258782038,35.817979974543256],[128.18356512069195,35.817935079755685],[128.18275103359787,35.81737234224793],[128.18247885448963,35.81764207831031],[128.18080663735677,35.81784515931004],[128.17944430406988,35.81825469616047],[128.17903069546313,35.81814831104777],[128.17862403209617,35.81829166772645],[128.17816573321025,35.81829367274465],[128.17776566822474,35.81809956846591],[128.17671498658737,35.81798226448427],[128.17560422817127,35.81763868125551],[128.17522422613402,35.8176614081615],[128.17484234756427,35.81741416599757],[128.17532051996665,35.8166830067849],[128.17496549157036,35.81657463934578],[128.174520941998,35.8167094854296],[128.17309061838867,35.81622327183757],[128.1726874538868,35.81566245458632],[128.17110626522694,35.815392665127504],[128.16965674011192,35.81539358402219],[128.16797641851952,35.8147290581821],[128.16738227574535,35.81410684425085],[128.167005455637,35.813564665952455],[128.16619230756947,35.813173237949044],[128.1659142881329,35.812809419935775],[128.1648400127,35.81218949302107],[128.16463133170066,35.81181728489369],[128.16437464786452,35.811592536564504],[128.1641122710744,35.811497326354335],[128.16369380892056,35.811089952383426],[128.16409843186102,35.81096294394215],[128.1631513996435,35.80949209697343],[128.16229994632837,35.80864715540909],[128.16222731847066,35.80802188825605],[128.1614729450152,35.80703985500749],[128.16137189705654,35.80661394037569],[128.16094634295663,35.806494360421055],[128.1611609677713,35.80619960521456],[128.16146196877986,35.805472788028055],[128.16148078774177,35.8043371143338],[128.16221561229997,35.80393458309347],[128.1622124432642,35.80371066807278],[128.1635546834857,35.803159194708925],[128.163564804454,35.80234581283874],[128.1641367751487,35.801793360761096],[128.16400181624832,35.80165525454276],[128.16416062749272,35.80076157826183],[128.16440140416958,35.80048013903378],[128.1644387372451,35.799940640288725],[128.16630068356875,35.7993247943152],[128.16787831118128,35.798570540451436],[128.16864762370406,35.79802231517857],[128.1692091582051,35.79748628633523],[128.16905785713988,35.797076332655955],[128.16953108240298,35.7968156850299],[128.16979324401302,35.79680642776512],[128.1712751189164,35.7971518477173],[128.171488198172,35.79710635298094],[128.1717989222775,35.796741159386315],[128.17200012722355,35.79662241065352],[128.1721863863428,35.79667635296182],[128.1728052034944,35.79631716246289],[128.17403528708738,35.79530608826229],[128.1745286620052,35.794640192427536],[128.17502618160532,35.79431089828567],[128.1751763775242,35.794100382106116],[128.1751193913229,35.79404313188382],[128.175390712475,35.79340667588799],[128.1757703821882,35.79309001661197],[128.17614239692134,35.792555510862705],[128.1764032871633,35.7917300813999],[128.17647723869808,35.790834399666686],[128.17672522225993,35.789857752450004],[128.17751575533245,35.78894488393446],[128.17809093618388,35.787378720004405],[128.17806755493405,35.78671460151387],[128.17771079230928,35.78647679539574],[128.17611690143784,35.78584358979538],[128.17492008569067,35.785874561053866],[128.174493876801,35.78574880626221],[128.17274326493757,35.78375464107442],[128.1719748644088,35.78255248329124],[128.1713587709148,35.78206888969962],[128.17013407199988,35.782041320049636],[128.17008678831064,35.78161368149228],[128.1689158361961,35.78082976484258],[128.1685188473785,35.78012553384846],[128.16854562907693,35.77940808189651],[128.16707132135835,35.778418559401885],[128.16686564097483,35.77845061629256],[128.16626036858554,35.778223563406044],[128.16511419479173,35.77797540476699],[128.1641353078574,35.77764549302999],[128.16314913032596,35.77699585434899],[128.16261258650403,35.77579688164719],[128.1629427659501,35.77475623264238],[128.1620119607903,35.772939930948645],[128.16178387448022,35.7717086933468],[128.16155871203225,35.77163440339169],[128.1611615288375,35.77032941759001],[128.16082930204766,35.77004988804961],[128.16137819835924,35.76940998082944],[128.16129213377192,35.76816155381005],[128.1621683463358,35.767059977371275],[128.16194465865942,35.76682420510739],[128.16167284407612,35.766315787852896],[128.16227859664266,35.76618676936816],[128.16306684941452,35.765480180071584],[128.1634118430136,35.76499674015359],[128.16311030243702,35.76433201635836],[128.1632972825222,35.763762544214224],[128.1624197768282,35.762780638469565],[128.16277773867546,35.76233466554066],[128.16345646947886,35.76269680177755],[128.16459890436454,35.7628339797286],[128.16535699280237,35.762484172299175],[128.16571607705063,35.76211636315325],[128.16784430594163,35.761409186183116],[128.16806347312982,35.76103749993518],[128.16851237288833,35.76105714126934],[128.16851638477516,35.76068332557531],[128.16874072436497,35.7597852416884],[128.16951651172516,35.75938022127905],[128.1696567174147,35.75922572514273],[128.16983785877568,35.75920181291233],[128.17022904793052,35.75883647304275],[128.1705078384019,35.75871512404035],[128.17048764852757,35.75862661814351],[128.1706234738818,35.75852101080681],[128.1712019482378,35.75828361874202],[128.1716015608295,35.75797498381865],[128.1723350631111,35.75781166344432],[128.1725516219122,35.75767715682328],[128.17263107970382,35.75777722682316],[128.17319790598683,35.75759917304808],[128.17346917508453,35.75767816569533],[128.17355534557987,35.75750991955192],[128.17385346511534,35.75764728905134],[128.1738615908683,35.75759285565367],[128.1749515444403,35.75733439904618],[128.17568987542512,35.75749487987017],[128.17681441130497,35.75731228465834],[128.17733500503826,35.75688520592895],[128.1776666170433,35.75673602036373],[128.17805240739204,35.756805925573026],[128.17857950517313,35.75660461143593],[128.18046841043434,35.75552201020611],[128.18097382988392,35.75479459116337],[128.1820965297476,35.75433484703001],[128.18296504390023,35.75349106744645],[128.1840878274277,35.7536170845537],[128.1847437530466,35.753170505625015],[128.18571585653942,35.75331089745923],[128.18717704367157,35.75272562651227],[128.18916715310067,35.751362275074015],[128.18915406151638,35.75076080604625],[128.1884455070458,35.749374900620076],[128.19061690557996,35.74707064134041],[128.19079101692245,35.74553611306791],[128.19145243904757,35.744259091416396],[128.19222125093034,35.7414761589236],[128.19339374128197,35.73896167778456],[128.19325319776542,35.738076253916205],[128.19339722545982,35.73764625358776],[128.1939064569987,35.73755721726654],[128.19431901322474,35.73765083454764],[128.19477852173185,35.73751898619685],[128.19513596087754,35.73755908546105],[128.19548643401245,35.73717197495277],[128.19637226100326,35.736733995868306],[128.1969078276394,35.73622194261262],[128.19766836448505,35.73577057213715],[128.19783453171274,35.73551533024394],[128.19799100451536,35.73517965918651],[128.1978746470033,35.73349932193401],[128.19761243419057,35.73284490998024],[128.19690412005065,35.73155676570451],[128.19682615509424,35.7301384589757],[128.1976282586276,35.72914385105362],[128.19848997053174,35.72839766679962],[128.1990498466685,35.727120777702474],[128.19927389106795,35.72610302153795],[128.20057091051564,35.72303358987255],[128.20040327447492,35.7220943494826],[128.19960128568758,35.72120981528941],[128.19894342633248,35.71987607978109],[128.19935022721694,35.71997754540091],[128.20008459734268,35.71987039565001],[128.20101195341442,35.71961568969891],[128.20160144820574,35.719031637677794],[128.20254342110113,35.71772225082496],[128.20174972277945,35.716953432979146],[128.20203388047787,35.71633743932238],[128.2021203808333,35.71537707492874],[128.20183634784362,35.71428102197926],[128.2020276467663,35.7140872958546],[128.20210725251948,35.71366980714926],[128.20241992771827,35.71340432580014],[128.20236511819118,35.71306366001578],[128.20257399582064,35.713016250115054],[128.2028138296819,35.71225273282587],[128.20268501488195,35.71213273520099],[128.2026907289923,35.711842038892605],[128.20249508366106,35.711767209097005],[128.2025778806375,35.711561308796746],[128.2024708424307,35.71105368273401],[128.20226528641086,35.71089581925249],[128.20208899134786,35.710598427314046],[128.2017811042282,35.710703806114985],[128.2016955186218,35.710611878666754],[128.20194114127733,35.71042063989414],[128.20190976648252,35.7101859897213],[128.2016834878204,35.71007751127643],[128.20139286292562,35.71016419350569],[128.20107887819324,35.709937265768204],[128.20099024775246,35.70975534627154],[128.20074434020387,35.70978587887929],[128.2002133946729,35.70903292674111],[128.20020471163463,35.70890771296865],[128.20049896468927,35.70835898629215],[128.20070443276316,35.708222496343275],[128.2007120342521,35.70799455766417],[128.20053986868868,35.70747953942032],[128.20015291679658,35.70700229865851],[128.200353828233,35.70665015462419],[128.20062246954302,35.70657402648434],[128.20058075257663,35.70648922971935],[128.20163126099334,35.705930154948746],[128.2017016407165,35.70566713249034],[128.20141908846495,35.70520418796652],[128.20146711593313,35.704983068694126],[128.2017803935863,35.704737051204816],[128.20213366803563,35.70417383248181],[128.20282415686955,35.703637098202016],[128.20294652323804,35.70332352604902],[128.2034055380301,35.702995607615954],[128.20381553740236,35.701431721455],[128.2036460909587,35.70075360845864],[128.20396213712823,35.70006552940255],[128.2042278643182,35.699925375629654],[128.2042535083134,35.699837529752166],[128.2038668470453,35.69911010503699],[128.2039103457851,35.698343176178675],[128.20422541172994,35.697812547892205],[128.20456846205855,35.6975787055411],[128.20484587517683,35.6970751885549],[128.20490610234972,35.69597645677024],[128.2045444997808,35.69493411306509],[128.20406668374662,35.694449712969465],[128.20360773840096,35.69339131226164],[128.20293653012268,35.69272718922441],[128.2030802358585,35.69174383789419],[128.20278758496997,35.69069761037308],[128.20306361932404,35.690331267461666],[128.20362101883222,35.68993724269696],[128.20398456988696,35.68956377993378],[128.2041739083512,35.689272774015606],[128.20429702471952,35.68864167496336],[128.2046551046798,35.688282998957476],[128.2047790306304,35.68747967537422],[128.20430513783637,35.686318514802664],[128.2044627093398,35.685483247506575],[128.2047655160952,35.68481312068164],[128.20497456307825,35.68461195439232],[128.20476895517874,35.68448327628745],[128.20542140672936,35.68315017775529],[128.20419327257113,35.68304982250497],[128.20358877001718,35.68286658357977],[128.20309448734653,35.68285047955519],[128.20327116171757,35.682696398489185],[128.20319387628956,35.682582400967306],[128.20308724429654,35.68257800894186],[128.20300999953844,35.68278416469197],[128.2027668519511,35.682872156968614],[128.20260390463295,35.68312968392376],[128.20232364271558,35.68318287568163],[128.20199187851838,35.68339394958727],[128.20134554852606,35.683467504735866],[128.20109401477433,35.683407839972425],[128.20082625032052,35.68348271427363],[128.20049238214423,35.683342695457675],[128.1998365157676,35.68358133418788],[128.19951733545292,35.68357129052159],[128.19919214849978,35.68338071157966],[128.1983966720253,35.68242992222864],[128.19880984890798,35.68191992216754],[128.1988250446825,35.681302710681976],[128.19647410896988,35.68082159020631],[128.19606388984664,35.68067238842943],[128.19575438332404,35.68038422787876],[128.19544383283736,35.680309286087216],[128.1952622582738,35.68054116422056],[128.194908250213,35.68063783590939],[128.19462328507373,35.68085714253331],[128.1943859856879,35.68071139031893],[128.19405534495002,35.68077553669678],[128.19357896854217,35.681156109049866],[128.19349367347147,35.68131376196937],[128.19326823098248,35.68093280549456],[128.19323718134342,35.679883646893245],[128.19291901121917,35.678502399425994],[128.19263556951088,35.678064030968834],[128.19215012115214,35.67784870064611],[128.19100420163505,35.67834249948717],[128.1904731370842,35.67885748346959],[128.19010579245108,35.678929627612156],[128.18946563511392,35.67927251869936],[128.18918754882924,35.67920500791009],[128.18910957454185,35.67905765050444],[128.1889324111874,35.6789929452065],[128.18885531086977,35.679137996564876],[128.18845656812297,35.678908247723875],[128.18802271647814,35.67878270656287],[128.1878925231907,35.67865242683083],[128.18732315498914,35.67862359350808],[128.18693982890355,35.67883903645233],[128.18607389521316,35.67893008799045],[128.18549292906198,35.67846620470088],[128.18508911707042,35.677668377648736],[128.18485273032127,35.676507991337424],[128.18483941532,35.67570474050711],[128.18416567103475,35.67543337048351],[128.1839825839518,35.67557525767741],[128.18318624775344,35.67538434325766],[128.18303692003445,35.675226521150435],[128.18305005226182,35.67505319085365],[128.18288064362864,35.67494638807269],[128.1829684239688,35.67479769947978],[128.18159133687672,35.67392153131704],[128.18103990402696,35.67324446372855],[128.1806247899757,35.67246341688661],[128.18036664039226,35.672186137275766],[128.17991526806466,35.67191027293473],[128.1795339118297,35.671855762387814],[128.17777267693546,35.672633254875755],[128.17755606149893,35.67253514310103],[128.17722179935907,35.67265183364783],[128.1762697009728,35.67277544644424],[128.17561737961427,35.672778308803714],[128.1757479884113,35.672654775651836],[128.17557302672608,35.672676875288616],[128.17497655681015,35.67212856850963],[128.17477095797094,35.67211314454695],[128.17405635837224,35.67178702038509],[128.1735326895813,35.67206272536401],[128.17295449754275,35.67198423063535],[128.16937292599354,35.672480553549114],[128.1682299994215,35.67245222289911],[128.16686432239104,35.67203126881828],[128.16629204129512,35.67175037044914],[128.16597939624037,35.67149407874893],[128.1639764665077,35.670521426874096],[128.16327807238144,35.669392101738474],[128.16265856359024,35.66733235263221],[128.16158530339618,35.665920498348825],[128.16162487222522,35.66470701153493],[128.16143954404637,35.663696128171864],[128.16113389520984,35.66305207322052],[128.1614200099442,35.66255849389048],[128.16158857462406,35.66165906263461],[128.1611141142585,35.660601833207274],[128.16228832992894,35.65919654424282],[128.16119091255567,35.658154994865924],[128.16046678297198,35.65715907461041],[128.16030300745658,35.65662823839602],[128.16055796184986,35.65563672601721],[128.1604875485476,35.65496613412485],[128.16149917528418,35.65380418291106],[128.16445731913802,35.65250727958751],[128.16504515267687,35.65232410354144],[128.16601426865847,35.65223388784968],[128.16701800219062,35.65251346426945],[128.16813410789842,35.65312337986419],[128.16891221057156,35.65300932720567],[128.16983642541433,35.653486427127724],[128.1702753805912,35.65338965579949],[128.17121682028045,35.65376970899086],[128.1736079597901,35.65427490977468],[128.17529135738712,35.65449811886388],[128.1757783458433,35.655243050635406],[128.17710964916122,35.656184432056655],[128.1787614704949,35.65679051800942],[128.17977829955996,35.65676056039049],[128.1805419856901,35.65648256685545],[128.1815918385007,35.65644623839952],[128.183561510126,35.65694985552613],[128.18528892035897,35.65778863675905],[128.18727842842742,35.65693737932244],[128.1878649533081,35.656810780237606],[128.18956079369897,35.65600426083814],[128.19211028581003,35.65465436511487],[128.1927541466755,35.65415746699266],[128.1932545884007,35.6533665515586],[128.19390481227566,35.65292363873369],[128.1939098801642,35.652521532462586],[128.19438246511018,35.65210422145173],[128.19529397782415,35.651898926097346],[128.19611541212495,35.650645968139145],[128.1967040440267,35.65041541521524],[128.1972567187502,35.650609852168586],[128.19775523127913,35.6502978598921],[128.19860858339592,35.64923428837527],[128.19894238975422,35.649146996552965],[128.20004159093065,35.64843233157348],[128.2001902802598,35.64815975156569],[128.2002159561574,35.64751139391458],[128.20063623619532,35.64699587967329],[128.20050347916822,35.64669262640612],[128.20065249059815,35.64538846674239],[128.20037585042644,35.64520220573683],[128.2007530581027,35.64469759864195],[128.20125655658336,35.64445857200436],[128.2013105690787,35.643970547254945],[128.20220522923674,35.64308818676442],[128.20399122801754,35.64329550462869],[128.20490031588838,35.643048300353485],[128.20586954400122,35.64342094904073],[128.20639956744185,35.643479491235496],[128.20786488615946,35.64325273639617],[128.20969414685266,35.64263651212941],[128.21054200866303,35.64326485218436],[128.21153876009947,35.64350134650746],[128.21155565691578,35.64246700010232],[128.21188377929516,35.64209758565082],[128.2126095936589,35.64075327222165],[128.2126600356784,35.64027530321422],[128.21333324441636,35.63997415670941],[128.21398480411094,35.64029916878639],[128.21591202885435,35.640439754313824],[128.21696185364974,35.640943565805294],[128.21759150665116,35.64093479683869],[128.21846402223176,35.64042383141355],[128.21924510616861,35.640221968089826],[128.2204048638877,35.63964776961094],[128.22132179002276,35.63981801875845],[128.22217798831588,35.64028532105882],[128.2224798235784,35.64032925041592],[128.2236630147253,35.640788855804246],[128.22494700625458,35.64079733234307],[128.22541688861264,35.64127686097318],[128.2260169674032,35.641284989969435],[128.2265857421548,35.641498502911396],[128.22757970380394,35.64111110203275],[128.22914427773247,35.63955882463369],[128.23075139818326,35.639083400470035],[128.23141863476664,35.63934721435695],[128.23210652487282,35.63974803069205],[128.2342287275823,35.6394706863616],[128.23617503080465,35.64014098372785],[128.23667854735442,35.64011010814604],[128.23722727890427,35.64063995699336],[128.23730204787205,35.6415531025088],[128.23748925848568,35.64192828435452],[128.23850119530425,35.6426168421128],[128.23876731722493,35.64388565302659],[128.23830973852174,35.644101874944774],[128.2381005688736,35.64469897150852],[128.2381574430311,35.64570834754754],[128.23767494526726,35.64661936291326],[128.23741778711064,35.64675646610697],[128.23716833411285,35.64704462374707],[128.23733760927536,35.64730412332612],[128.23751172990828,35.647918344742266],[128.23712368859785,35.648963638603405],[128.23688681855344,35.650766560483774],[128.23871963618544,35.65173952549095],[128.24007816643208,35.65175830828146],[128.24104035387444,35.65197474794765],[128.2414587008568,35.65256355432715],[128.24146288662152,35.65325131480839],[128.24163512882453,35.65415060409467],[128.24231080716092,35.65463079428788],[128.2424265293015,35.65494595422582],[128.24305734372808,35.655235034842015],[128.243375247523,35.655139768585016],[128.2447486959244,35.65546867947963],[128.24514072770694,35.655053034045494],[128.24524038164108,35.65463358980327],[128.24724429564287,35.653105075785675],[128.24835461730342,35.65267358336561],[128.24942640722392,35.65213877287711],[128.24997297040608,35.65116070378071],[128.2511918549505,35.650726283105655],[128.25204098296592,35.651337757079176],[128.25243927956336,35.651060108750706],[128.25301216027376,35.65084298087091],[128.25427288327094,35.64961756145957],[128.25609179812642,35.64906144761992],[128.25739899704885,35.64820465466211],[128.258735672411,35.64798734811284],[128.25984826566867,35.64751432253944],[128.26064885658187,35.646226054651656],[128.2609424492777,35.646135135173495],[128.26101152634158,35.64591793980556],[128.2612016200164,35.64589597959392],[128.26175624370916,35.644493067370824],[128.26200936965347,35.64406888041257],[128.2631537509066,35.642748326596454],[128.26425144290275,35.643066260613864],[128.2648959191203,35.64395027079823],[128.26602852132305,35.644593279958904],[128.26815917595718,35.64522154722795],[128.26975314996358,35.64536674514174],[128.2706320178219,35.64560566002048],[128.27138730684715,35.64593782215068],[128.27249450835134,35.646847292967514],[128.2745317690089,35.64693980299905],[128.27552612446007,35.646675688603565],[128.27590660643128,35.64678954439704],[128.27780803470858,35.647015912613234],[128.27882280621844,35.64851986564855],[128.27838743572377,35.650181071787514],[128.27873970255433,35.65154671158509],[128.27932405564843,35.65217165814209],[128.28161673139513,35.65272623061656],[128.28220708394016,35.652299063883426],[128.2842354736178,35.65289664185539],[128.28594510698608,35.65267154335072],[128.2894525053611,35.65257466348429],[128.2908710380698,35.652204917916244],[128.29192151156408,35.651765639936514],[128.2929118566592,35.651516030989974],[128.2935058109441,35.65099430484702],[128.29377120522713,35.65089197312701],[128.29519867372784,35.651146083192884],[128.29703212930394,35.65090265112333],[128.29762654971518,35.65217076426842],[128.29777763797367,35.65293326747335],[128.29827863986827,35.654370630667124],[128.29841453442714,35.65539560066213],[128.2979997637136,35.65629926896163],[128.29937648863216,35.65633344109752],[128.30051628440157,35.655706874994316],[128.3007557477199,35.655636118958576],[128.3015130712975,35.65561417012439],[128.30270495555337,35.65526533075582],[128.30329268554934,35.6549005925432],[128.30368434619444,35.65480314183536],[128.30403080865904,35.65486469977271],[128.30449314049935,35.65532779077053],[128.30518737180606,35.65508649179152],[128.30616135468256,35.65558855100587],[128.3071354842475,35.65555206165769],[128.30743756988537,35.655442465547274],[128.30785350645613,35.6549987220851],[128.31017589394565,35.65431399976371],[128.31093337030146,35.65447820263689],[128.3121535872694,35.65386928999165],[128.3139025669308,35.65322064049496],[128.31447218095545,35.65311907584456],[128.31547418716966,35.65246336425949],[128.31600589519437,35.65229332419374],[128.3164504812385,35.65183618536566],[128.31740075082337,35.651531449261405],[128.31779406779987,35.65169887093969],[128.31931476599493,35.65158657922284],[128.31945552430454,35.65130906405163],[128.320467290578,35.650550936431365],[128.32125240338706,35.64955988871113],[128.3216992710317,35.64885371361011],[128.3234882322928,35.648124169004795],[128.32387945962435,35.6474475416874],[128.32468875658412,35.647058940783104],[128.32529912955638,35.64692769393475],[128.32716535834794,35.646930680284555],[128.32846588612978,35.64736952841958],[128.32954130715578,35.64853125064589],[128.3301909896136,35.6488065248791],[128.33294482188464,35.64769830731991],[128.33606500007585,35.64718337724526],[128.33661114418877,35.646489003359356],[128.3376577451264,35.646301937389815],[128.33766701635432,35.64541811565724],[128.33797436821408,35.64517041603826],[128.33855129213825,35.64503016639396],[128.33908106855674,35.64479978148277],[128.34168041662878,35.64486939149597],[128.3431165684023,35.64514107821478],[128.34373454828386,35.645895753529246],[128.3431222384513,35.6462073275774],[128.34327253329116,35.64702941824873],[128.34506682270126,35.64705511349988],[128.34603298507068,35.64685705623736],[128.3482679494546,35.646742226447],[128.3490273524427,35.64690953568298],[128.3491673748711,35.64720873776058],[128.3500786869918,35.64737930320961],[128.35050525227226,35.64736024287639],[128.3534807080278,35.6455170855099],[128.35443119671055,35.64468334497579],[128.35606907765182,35.64280133124327],[128.35832932146982,35.63988941623741],[128.35934499397365,35.63833854828091],[128.36170967638313,35.63394233003885],[128.3634458619393,35.629929859159205],[128.36382407128127,35.62886015434015],[128.3643083299376,35.62702848086282],[128.36481901779868,35.62318613251117],[128.3651883097903,35.6212619421349],[128.36529579190133,35.61957909883272],[128.3658880137703,35.61599030102154],[128.36538214367454,35.61481074843228],[128.365467313325,35.61388521262793],[128.36643394367204,35.613922514839295],[128.3683872711434,35.61304812910824],[128.37022234709485,35.61237883859801],[128.37393924059873,35.61315705750531],[128.37898816996724,35.615280686886415],[128.38403462841066,35.61722926776324],[128.3853584094424,35.61849451446304],[128.3880487353177,35.621744962935594],[128.38913083324724,35.62244990188805],[128.3911679411674,35.62499113208316],[128.39321195484482,35.62824807568539],[128.3968875415746,35.631462173547604],[128.39657287326833,35.63319576441496],[128.39933085644512,35.633269886743626],[128.3978054431683,35.63338791962178],[128.39817668638514,35.63475289252444],[128.397776762945,35.63803450565642],[128.3968866740143,35.641320964294415],[128.39656855820957,35.64460175752797],[128.39453419525026,35.64789977283496],[128.38957971136637,35.652188598262924],[128.3890471882273,35.65264495397467],[128.38571014204962,35.65454364383912],[128.38461079055847,35.65555911654862],[128.3806228721751,35.657871984572054],[128.3796418230067,35.658946853911274],[128.3718915305191,35.66451385767294],[128.36971015003797,35.66623505764445],[128.36800868846538,35.66782969862581],[128.36477082849868,35.67113914308741],[128.36034737519384,35.674930145400836],[128.3580359552699,35.67776018610245],[128.35487623352114,35.68213679526777],[128.35372065581913,35.68435725016996],[128.3524338269325,35.68764728796841],[128.3512738383822,35.69093606420491],[128.35037069973464,35.694222242095826],[128.350060127231,35.69578857293627],[128.35018114119433,35.70407493102406],[128.35085975478918,35.705316639425966],[128.35224312724182,35.70660762105131],[128.35383897050446,35.707298333154526],[128.36348634251013,35.70720392838666],[128.36528404225166,35.70641977478531],[128.37028290619583,35.70479680893139],[128.37321450171004,35.70349615217897],[128.3731322832344,35.70253932126948],[128.3743407845913,35.701692194025306],[128.37670242563175,35.70051841213407],[128.38742887625722,35.70041132914684],[128.39030382817182,35.70013704977548],[128.39531385647035,35.69931451927879],[128.3952850063848,35.6974132214593],[128.3960021385706,35.69720374217174],[128.39594836057927,35.6970972951403],[128.3960418568501,35.69704714254881],[128.40030122196598,35.69700404940715],[128.40216192569957,35.697237445517736],[128.4053129465657,35.69630456805919],[128.40528390689246,35.69440570011935],[128.40596310593537,35.6942846888247],[128.40601444333674,35.694072353329446],[128.40615555662453,35.69392976990635],[128.40625870767767,35.694208303070354],[128.40689310367867,35.6940542933583],[128.4068757128804,35.693994269360395],[128.40706758085207,35.693925619898216],[128.40780757911114,35.6938789551561],[128.4078829748472,35.693817793314224],[128.40782473401063,35.693773776286385],[128.4087947752328,35.69364012905379],[128.42000110294492,35.69352522523364],[128.42066381144994,35.69388243677719],[128.42209571991705,35.69498539372387],[128.42329897738546,35.69574874600554],[128.42518359844843,35.697204088481016],[128.42562950916295,35.69745086195476],[128.42609935352823,35.69787115042842],[128.42501821353684,35.699012041957126],[128.4260561626635,35.700017810698945],[128.4305329999814,35.703248854597085],[128.43158014045278,35.70424817379357],[128.43243458176235,35.70538774551977],[128.43270751857386,35.70650380424258],[128.4351324798897,35.70647855293626],[128.43515338758812,35.706661397233894],[128.43546628986766,35.70670058337105],[128.43560904787677,35.70660586415119],[128.4355649551905,35.706897218108125],[128.4352073210292,35.706887420370556],[128.43533688728542,35.70724362734129],[128.43546289330757,35.708183193217785],[128.4356362107802,35.70837625423785],[128.4356400593356,35.70862137285519],[128.43544406284084,35.70860376631044],[128.43532228562987,35.7089213058835],[128.43534223640086,35.71024360610541],[128.43550945359476,35.71042094745571],[128.4353142326491,35.71092556627288],[128.43528828812856,35.71142028968044],[128.43543011205554,35.71157771376002],[128.43526889368246,35.71195317191167],[128.43522370039773,35.71278591725468],[128.4352500141631,35.71459972428087],[128.43534603146603,35.71521846828593],[128.43521265622084,35.71639111418358],[128.43550621519407,35.71682194587549],[128.43561203209512,35.71740337000558],[128.43552257303497,35.71737221024147],[128.43569576306754,35.71802124782729],[128.435603203108,35.71844853705151],[128.4357158212865,35.719039883316576],[128.43574399527108,35.72025970839735],[128.43587828398262,35.72074546556818],[128.43597914990633,35.72073576604485],[128.43599476435452,35.720794273690046],[128.43586490879224,35.72081545784661],[128.43580426717327,35.72138977298602],[128.4357756690885,35.72089056253193],[128.43515882484346,35.71976971834287],[128.43273653094147,35.71975274858524],[128.43257046677522,35.72059730222801],[128.43217058515754,35.721657609084275],[128.43153395559116,35.722903532844974],[128.43085622684683,35.72395384488067],[128.43089111146483,35.72618774279724],[128.4275340957798,35.726222560911275],[128.42588712230324,35.72748539008765],[128.42591870666791,35.72951670761167],[128.42310442717405,35.729545777308196],[128.4209279574094,35.731695655362536],[128.42094577678324,35.732845547832085],[128.41873174282443,35.73286832419804],[128.41594770728182,35.734563794112944],[128.41597255292058,35.736174173252905],[128.41291663779575,35.73620547680644],[128.41096545174074,35.737332866681705],[128.41099878868104,35.7395025081416],[128.40596785341958,35.73955378838377],[128.4009871377294,35.74233529341477],[128.3959979517062,35.74439941761536],[128.39602542406857,35.74620949076893],[128.39298913765288,35.74624008320505],[128.39102023862796,35.74754630586303],[128.39105033287336,35.749536973944295],[128.3897169037316,35.74955036897231],[128.38767727984361,35.752848298740915],[128.38610162634654,35.75465170478946],[128.3862227146432,35.76269521843328],[128.38804803559682,35.76595433660154],[128.39129802434806,35.76592174293491],[128.39137268196725,35.77085929425827],[128.3925607904987,35.7723126799669],[128.39585566603947,35.77001005375611],[128.39584391448093,35.76982594207007],[128.39591790045202,35.76976751581833],[128.39607263538977,35.76997289471147],[128.3959969355811,35.770099656602596],[128.39624063642577,35.77037435772155],[128.39632061478088,35.77030197497738],[128.39625135718626,35.77038803073738],[128.3963946164513,35.77052944007724],[128.39647316509954,35.77570201481995],[128.40149975200876,35.7756512207716],[128.40164966382684,35.78548206364476],[128.40354401536726,35.78874034389447],[128.40672703610534,35.78870802300586],[128.4068051644505,35.793809750619175],[128.40757612322736,35.79525426601566],[128.40992238636017,35.798507858253515],[128.41190981139616,35.79848758514565],[128.41262716666142,35.798133081077935],[128.41072915138213,35.79954809692426],[128.41073575015326,35.80108955536893],[128.4124402920325,35.80282443779649],[128.41577173093035,35.802814902299815],[128.41578594687516,35.80609200208876],[128.42029224713343,35.80607894731181],[128.42081581485502,35.80630408704815],[128.42082924438571,35.80935462035998],[128.44094533534943,35.8092942074774],[128.44093031758152,35.80604083053927],[128.4410286629734,35.80601669165196],[128.4574687131688,35.80596479329673],[128.4580352671785,35.80608287500958],[128.45921727894876,35.80616678468066],[128.45955597659145,35.80613062927317],[128.45962701063107,35.80606397258245],[128.45995768110248,35.80612851305214],[128.46000762638437,35.80595657715867],[128.45998061888955,35.806135382065065],[128.46040935611254,35.80627341054506],[128.46167416865237,35.805850932856835],[128.46336039626408,35.80605856651495],[128.46381675761032,35.80594414718629],[128.4664674491199,35.80593542667165],[128.4660956414406,35.8092157148647],[128.46859727982533,35.81015810174234],[128.47337870875884,35.81246691852525],[128.47721755335922,35.81573118929075],[128.47992206263152,35.81899916188429],[128.4802326739153,35.82227527427966],[128.48040162216228,35.825551922948705],[128.47903967858682,35.82872523556077],[128.4788284123846,35.82895782090321],[128.4784770551869,35.82992389590644],[128.47777297767777,35.830694599237894],[128.47635965628564,35.831794123381705],[128.46827444829304,35.8370136281894],[128.46874797531734,35.83870019469092],[128.46623706230292,35.83870848806441],[128.46625161788756,35.84164060138262],[128.46497590261367,35.84198979372033],[128.45619114381475,35.8420183101678],[128.4562046496944,35.84480937512914],[128.45642180719892,35.84519360333238],[128.45620701043816,35.84529549257556],[128.45117565910326,35.845311535988024],[128.4511894495035,35.848199845050786],[128.45082815049145,35.84838727570866],[128.45064501945228,35.848401821974214],[128.4504269123386,35.84859104585904],[128.4501908441087,35.8485917949806],[128.45025338008935,35.848472454423245],[128.44987549509034,35.84859279175232],[128.43609683730548,35.848635484370625],[128.43380709746958,35.849457773272135],[128.43107163110693,35.85005608444709],[128.4260411007203,35.850321735331725],[128.42604777794497,35.85181802458912],[128.42564210165042,35.85194404129831],[128.4194546194423,35.85196215719054],[128.41598187225634,35.85175697796427],[128.41095593588045,35.85188766006658],[128.40088865376237,35.851926824846004],[128.3966972207627,35.852078312935845],[128.3951403074469,35.85227070561954],[128.38953346225705,35.852011283066716],[128.38759162599945,35.85240617274878]]]}}
