{"type":"Feature","bbox":[128.47365967159726,35.177050473203586,128.62711443531506,35.27707710920109],"properties":{"regionCode":"48127","version":"vworld-20260909-3f8952dfda77-p2","name":"경상남도 창원시 마산회원구","attribution":"국토교통부/K-Geo플랫폼 · VWorld 법정구역정보, CC BY 2.0 KR; 두꺼비집 가공"},"geometry":{"type":"Polygon","coordinates":[[[128.55698210756105,35.27707710920109],[128.55547718700615,35.276514279975416],[128.55532528956496,35.275998053603026],[128.55428020336547,35.275454634204195],[128.55195871669773,35.274791146837295],[128.54966365327593,35.27331863718137],[128.54807797106562,35.273321149198175],[128.54779865425405,35.27269068969665],[128.5470921424383,35.27209801478384],[128.54584508610645,35.27153476748033],[128.54513253759205,35.270752350278244],[128.54462677801465,35.27058310969802],[128.5438403353326,35.27076929193403],[128.54313987543287,35.271177826546726],[128.54153147669211,35.27125020738247],[128.53915494992174,35.271638706030075],[128.5387059817133,35.27193832135675],[128.5382967971161,35.27176887964027],[128.5376883778026,35.271758249848816],[128.5366432917108,35.270652586750366],[128.5365791384239,35.26976156266615],[128.53550847911313,35.26903133353085],[128.53555524516727,35.268327006069235],[128.53535236650822,35.26802269202686],[128.53495145996845,35.26787998212271],[128.5352363707428,35.26680734960635],[128.53505149626093,35.266689035661734],[128.53423907515392,35.26663515696431],[128.53346071344828,35.26643267582364],[128.53334710074935,35.2661781397426],[128.5327247895695,35.26647293346957],[128.53236332233314,35.26734820483403],[128.53210902971415,35.26737684619842],[128.5308127751327,35.267984069493416],[128.53036890057234,35.268265915752835],[128.5296235295702,35.26895745648663],[128.52949814763204,35.26893645821142],[128.52939275221033,35.268787281760645],[128.5294766067165,35.268460689302444],[128.52919562682936,35.26830714590691],[128.52876170653474,35.26767372327178],[128.52860576262788,35.26762152787512],[128.5281859351974,35.2681205589645],[128.52748539284258,35.26857829866563],[128.52615088023342,35.2685654032926],[128.52543173861173,35.26887925308994],[128.52441002519268,35.2691623449258],[128.5243257768371,35.26965931778785],[128.52514785400666,35.270220409982606],[128.52447446766692,35.2703583592027],[128.52360726599002,35.27016988821422],[128.52309177763505,35.269929831541425],[128.5218261724665,35.2700583635363],[128.52140573887047,35.26983903096153],[128.52061320828352,35.269672355543236],[128.5193136871759,35.26903731125955],[128.51851862085044,35.268850669867824],[128.51804400354217,35.269144195535496],[128.5172429536717,35.26913062303684],[128.51687782770048,35.2686395019843],[128.5156411944046,35.2685104289736],[128.51472031415992,35.268873098876135],[128.51224111891094,35.26869792154013],[128.51128788505085,35.26899921781479],[128.51067270262794,35.26856654380422],[128.5101886574117,35.26855217653253],[128.50942647738867,35.26873704121253],[128.50885226887772,35.26924008480101],[128.50859003731992,35.26993133560769],[128.50863027677136,35.27059617768222],[128.5077459190412,35.271994866389456],[128.50710909039296,35.27335761920206],[128.50572880538806,35.27376560221192],[128.50555063258378,35.27365826330752],[128.5050329455111,35.273745287819054],[128.50373516167005,35.27374790366413],[128.50319378091615,35.27338862541196],[128.5024261175017,35.2737220371024],[128.50135575449696,35.27377704319726],[128.50088944628396,35.27400050708089],[128.50061663471885,35.27444880918752],[128.5000729458677,35.27449834465758],[128.4994025917348,35.27485844685851],[128.49876331555464,35.274818647292705],[128.498243506714,35.275006913763036],[128.49717767797972,35.27556390279728],[128.496240616192,35.27530701866089],[128.49596257554583,35.27483652315917],[128.49514522434768,35.27423737368748],[128.49445435901308,35.27427737202167],[128.49378915481674,35.274609682215534],[128.4930703922939,35.274379372064814],[128.49249919761834,35.27408205662605],[128.49174130741127,35.27387676672871],[128.49112229343447,35.27394966617416],[128.49074340677637,35.27356889426582],[128.49070315959142,35.27255299200294],[128.4905556840915,35.2719234824447],[128.49063436562116,35.27108869234546],[128.49046248014687,35.270116580799176],[128.49021565698425,35.269545719847656],[128.49022125214566,35.269216069090184],[128.49087781880314,35.268544262885214],[128.4909176081261,35.26812094899389],[128.49075898203395,35.26751880389266],[128.4909793127748,35.266373603721746],[128.49089345816802,35.26585128510561],[128.48989421991286,35.2650255418874],[128.48964404483823,35.26477025312484],[128.48970476469776,35.26469861730484],[128.4895282213853,35.26482644515785],[128.48940658456118,35.26445909220103],[128.48914337780255,35.26408884814038],[128.48892379160196,35.263363591706415],[128.488678600019,35.26316220638326],[128.48870964879174,35.26277297661627],[128.48852408098628,35.2623009447424],[128.48831969846498,35.26213792804729],[128.48840929972286,35.26212300036392],[128.4884863391668,35.26155602210549],[128.48832648087296,35.25992158303287],[128.48821346913525,35.259677368110786],[128.48793507037084,35.25921770475307],[128.48752332923027,35.258909746044104],[128.48660431845394,35.25799638801715],[128.48608341907453,35.25799346970962],[128.48531686905162,35.25763857580373],[128.48469041806916,35.25714204910337],[128.48430901945966,35.25645259908434],[128.4830202555555,35.25623433549316],[128.48205951101312,35.255813447437454],[128.4814530601062,35.25563072502313],[128.4804585363305,35.25447767463127],[128.47975627365625,35.2538158499853],[128.47895445523253,35.25337064480824],[128.4782276894017,35.25189294893196],[128.47759968458445,35.25152701352845],[128.47761721392445,35.250907907636886],[128.47744708816953,35.250386270757],[128.47701773868545,35.25002053064252],[128.4768356099255,35.24952551841649],[128.47590937743405,35.24918783882595],[128.4754556548487,35.24871542985047],[128.47536556045316,35.24833578045822],[128.47609269142708,35.2475950692584],[128.4763309339082,35.247187822686826],[128.47624387215674,35.24641089819092],[128.4759576170629,35.24563297432548],[128.47533479957235,35.24526684382511],[128.4752087809034,35.24414630520664],[128.47496478309415,35.243565524062895],[128.47480648518163,35.242841414231414],[128.474472485924,35.242466469189004],[128.47445447673363,35.242038563592125],[128.47462216575371,35.24145644594689],[128.47456371541645,35.24126718485829],[128.4743530662984,35.2409321706956],[128.47365967159726,35.24043560533106],[128.47379742448715,35.240061166432895],[128.47419283449736,35.239692173487704],[128.47435529712823,35.2391819859994],[128.4746330136038,35.238949545840455],[128.47534339923286,35.2388707971005],[128.47544745060455,35.2383014229384],[128.47584361264546,35.23786809200634],[128.47568331985738,35.23716625540924],[128.4757963640481,35.23685917655466],[128.47536526807178,35.236487735680484],[128.475381028339,35.234504648958044],[128.4750877988549,35.2340449533738],[128.47548239758837,35.232897857972155],[128.47539807034357,35.231210991252574],[128.475152993302,35.23078336379174],[128.47410623033733,35.229524007137684],[128.47491091016147,35.22723615643516],[128.47533506904588,35.22467982248589],[128.47506070386635,35.22435699469041],[128.47499213492455,35.22391827303498],[128.47416289135032,35.2223633904087],[128.4749407393516,35.22135855529355],[128.47531286369187,35.22000261509401],[128.47576460953772,35.219601406048895],[128.47611790454772,35.21950006504605],[128.47680194307938,35.21884694290492],[128.47800896374494,35.218497423881054],[128.47822938628408,35.218013485338425],[128.47857432738238,35.21780613619501],[128.47870172684475,35.21707127531284],[128.47853204891106,35.216740119245145],[128.47854788734458,35.2154522368684],[128.47874287803967,35.214319253364394],[128.47912084290698,35.21291082690515],[128.47978557662455,35.212691475936914],[128.48056928426473,35.21264981783488],[128.48136545235027,35.21271188250555],[128.48173067369302,35.21251644058737],[128.4827790949892,35.21221827346688],[128.48333072791021,35.212108951848585],[128.4840387451098,35.21214335387375],[128.48459268042396,35.211767768811455],[128.48542025069173,35.21096357730246],[128.48569938802353,35.21042629322158],[128.48632996778625,35.2101105781242],[128.488874828391,35.20804557940569],[128.48939896161465,35.20744161429128],[128.48975508239408,35.20731598295051],[128.48953160152837,35.20701097213092],[128.48979586060213,35.20500223113334],[128.49044444391666,35.2047207805249],[128.48994336631606,35.20323786887183],[128.49006962625722,35.20257178392429],[128.48994821544164,35.202174475420165],[128.48939794892215,35.201435926099975],[128.48868797494094,35.1999599842618],[128.48838185794278,35.19912695364061],[128.48768924057592,35.19877875429414],[128.4869558933755,35.19789627593323],[128.4852909779735,35.197629771036716],[128.4848683121615,35.19683998730966],[128.4847080814451,35.19612393637299],[128.48444053426317,35.195595224787475],[128.483919526335,35.195189699053344],[128.4837673359363,35.19452330475819],[128.48325738174498,35.19323029291834],[128.4829295592226,35.19277532412317],[128.4821029695511,35.192139851983605],[128.48214608525936,35.192029202727255],[128.48176580483747,35.19108273691032],[128.4813279214039,35.19040950279092],[128.48015188363158,35.18929056775305],[128.47988106786906,35.18882698302872],[128.47904516662663,35.188015498630904],[128.47956835237594,35.18734678633777],[128.47957097139994,35.186989571545084],[128.4797678653819,35.18674969037644],[128.47989636411742,35.186087893054086],[128.48012935753985,35.1858102475141],[128.48207164032115,35.18452233308022],[128.4823385910778,35.18427273126073],[128.48308863984263,35.183982376760305],[128.4836853598561,35.1835717466451],[128.4844153468989,35.18215715855841],[128.48490173013295,35.181650224467326],[128.48706356422377,35.180431868147515],[128.48856004003883,35.18005613738172],[128.49000158198803,35.18019372256402],[128.49093918467779,35.17992910537147],[128.4914794181204,35.1804003644235],[128.49171890842445,35.180805133173706],[128.49215853080517,35.18093296555899],[128.49371420313418,35.18051820114527],[128.49454558908457,35.18001986679792],[128.49477651649252,35.1800470203011],[128.49616981760983,35.18057515880378],[128.49767255121142,35.18074430451397],[128.4993305970072,35.17942736513267],[128.5011309267202,35.178380512922],[128.5015256413748,35.178181484201566],[128.5020708094354,35.178031144024125],[128.50314765121732,35.17742457709825],[128.5049775782601,35.1781055948481],[128.5067471626863,35.17854079676404],[128.50807534064143,35.177567679566884],[128.5086352254192,35.177272431500434],[128.50965703468535,35.177064392516925],[128.51276675643817,35.17824540811779],[128.5154073416708,35.17729249148119],[128.51792982270277,35.177050473203586],[128.51961547160673,35.17762227477517],[128.52118491935002,35.178362645498574],[128.5219083918493,35.17900211931569],[128.5224596152846,35.1791922094659],[128.52280811044196,35.179558621062114],[128.5237966425534,35.18022082522995],[128.52398159061997,35.180674934238155],[128.52491810117616,35.181497636513654],[128.52559754850236,35.182330044614574],[128.52723822858061,35.18338330660328],[128.5288649482813,35.18519289824134],[128.52873806822595,35.18637095481197],[128.52983441972356,35.186502202834355],[128.53075827865163,35.18700447179312],[128.5332159262197,35.18740555348285],[128.53391173425223,35.18806328290362],[128.53677563787687,35.18980803604642],[128.53756588893134,35.18964751653417],[128.53913402116325,35.18973607505078],[128.54020144667598,35.18996734977027],[128.54049122089063,35.190417890391146],[128.5411383609609,35.19105072351116],[128.54016802510935,35.1929422415408],[128.53967059354858,35.19332270252577],[128.53905283633006,35.193654111043834],[128.5391746019506,35.19390568834805],[128.53902416564017,35.195956854058736],[128.5385518896228,35.196994914025524],[128.5384532087254,35.19770425146699],[128.53794470829553,35.19909856876796],[128.53807691957138,35.200304785526356],[128.53856268156753,35.20300356151917],[128.53848896467713,35.203971579828135],[128.53920028908635,35.20442817243511],[128.53911849043686,35.20473655995903],[128.5362166804851,35.20676998665156],[128.536207877239,35.209738270760816],[128.53997497914253,35.211426346333596],[128.5410938568955,35.212828275626826],[128.54198074196754,35.21318260416118],[128.54263066129275,35.21368291390512],[128.54412915356073,35.214279805356036],[128.54839785048827,35.213287139426335],[128.5488606426158,35.21259809531201],[128.55082708421347,35.21211262943868],[128.5514692879311,35.2121653250648],[128.55233825421126,35.21247596099094],[128.55269375498793,35.21251085183897],[128.5539325634541,35.213234472664276],[128.55515975919744,35.21324147873852],[128.55551011204477,35.213473384728545],[128.5570662470892,35.21376173886049],[128.55750971677296,35.21391416862049],[128.55808943574007,35.215010471225334],[128.55860041308287,35.21552319175782],[128.55917043390107,35.21594198238914],[128.55945149440305,35.21605692990438],[128.56008024685246,35.215652502456855],[128.5601709437958,35.215494289208856],[128.5612843483449,35.215830213495366],[128.56088211396528,35.21693451234456],[128.56268411545867,35.21699838114717],[128.5629749123673,35.21641338489057],[128.56274557941117,35.21627104271902],[128.56443107327914,35.21677954551314],[128.564407483483,35.21583242362479],[128.56494424968534,35.2158279589309],[128.56490865173623,35.21562548167123],[128.56512367498078,35.21554756927269],[128.56525221102996,35.21556621167096],[128.5652685324452,35.21567479284094],[128.56561589099445,35.21587216463771],[128.5656087480851,35.21607448051229],[128.56589538294307,35.216379192023396],[128.5658925545198,35.216653801001996],[128.56599696987604,35.216804169167354],[128.5663379413936,35.2166009166718],[128.5672584140691,35.21632757302957],[128.56845647342433,35.21579033851512],[128.56997068039345,35.21615725361477],[128.5709984356777,35.216525583427114],[128.57132117058018,35.216399696392266],[128.57162419926922,35.216128118021565],[128.57217646740824,35.21586451682672],[128.57381909190795,35.21561421866179],[128.57439196484637,35.21566707990344],[128.57586090136041,35.21531604201116],[128.57631553953524,35.21512344230573],[128.57680611462072,35.214699323431404],[128.57737369741784,35.216501805994554],[128.57735839276577,35.21741706193562],[128.57714455885593,35.21815174939759],[128.57921441416056,35.22017078931921],[128.5787641004635,35.220154887412015],[128.57945751017277,35.220269243118565],[128.58000775202748,35.220497766957365],[128.58130990788794,35.22058040132513],[128.5818628540903,35.22076576804355],[128.58186689262428,35.220847523057074],[128.58291242778915,35.22084280686907],[128.58461450725196,35.22250908718323],[128.58534598400553,35.2219244373093],[128.58546983133974,35.22200938990315],[128.58574737971145,35.22184431403418],[128.58767669333142,35.220439221761794],[128.58754300334542,35.220161132144774],[128.58943988565164,35.218578218112086],[128.5894950733093,35.21504625009789],[128.58813652203324,35.2142467378288],[128.58732246647162,35.21287854580813],[128.5873232726329,35.212724130609026],[128.58724141971192,35.21272859140137],[128.5864928148613,35.21080370064844],[128.58646792114442,35.210673426197104],[128.58775550194275,35.21071219563678],[128.58761500056096,35.21037388999255],[128.58765508256138,35.209729751540074],[128.58876624012913,35.20974294901094],[128.5888957309409,35.209850022118275],[128.59357077021312,35.20989505094736],[128.59355656419885,35.21063655887742],[128.5937180908664,35.21070963160789],[128.59486876024096,35.21070043805766],[128.5948840326058,35.20982158632913],[128.59504978289374,35.209823311537015],[128.59505051009387,35.20993727082474],[128.5954035460152,35.20991641538902],[128.59538849160896,35.2107245454787],[128.59678277446156,35.2107340450002],[128.59678114256633,35.21081185564432],[128.59700438314388,35.210828798432665],[128.60263213606515,35.21087298826679],[128.60440875364432,35.21161936059628],[128.60608248867732,35.21215360056537],[128.60844637294,35.213125842106045],[128.60950676870988,35.213330690680124],[128.61323532183897,35.213278239655786],[128.61641085184232,35.212656346230126],[128.6171881242921,35.2126065906362],[128.61789087352773,35.21281584945751],[128.61844363370707,35.2132621183921],[128.61852086714498,35.21321926871367],[128.6196223286246,35.21429628965756],[128.62007113881305,35.214583281106506],[128.6201811396222,35.21478705955189],[128.62086499253132,35.21517788116709],[128.62084742719716,35.215287240389564],[128.62101958040452,35.215281424776734],[128.62203546855935,35.215661281292654],[128.62203137478375,35.21583611199956],[128.62211529200877,35.21565236430636],[128.6226518920727,35.21585215286623],[128.62258973071323,35.21593461299039],[128.6227072332864,35.21588143927519],[128.623110668808,35.215949783303536],[128.62338293979377,35.21609062706465],[128.623523813055,35.216068594283605],[128.6233002223523,35.21586535824831],[128.62250273667004,35.21548785148596],[128.62189288612822,35.215393650307746],[128.62074201204064,35.21481002696684],[128.62042871817943,35.2146149400555],[128.6202387654445,35.21435126909214],[128.6223728950154,35.21430650502215],[128.62275865662124,35.21441192968412],[128.62399001561596,35.215368625593065],[128.62418501956515,35.21563096413455],[128.62427676007138,35.21592670921974],[128.62473468019155,35.2164521082724],[128.6257590981041,35.21682072029258],[128.62635275100567,35.216812251471445],[128.62711443531506,35.216974569900046],[128.62601076258258,35.21803155727778],[128.62483669655703,35.219473884392215],[128.6234921224154,35.21952262481022],[128.62276847335244,35.21995195815904],[128.62219576171998,35.220098949209955],[128.62064048277006,35.219678180072236],[128.6200263691733,35.22007937215869],[128.61928484273534,35.21990541162143],[128.6191077515427,35.21910222596304],[128.61845152249344,35.21882291945632],[128.6173771513494,35.219181456686314],[128.61578916346855,35.22062752829359],[128.61468516374353,35.22135028725998],[128.6135512666757,35.221318629016],[128.61185268394138,35.22229006437632],[128.6116534708466,35.22427919987847],[128.6118765217339,35.224751967272354],[128.61177178243096,35.22523525076135],[128.6120378556866,35.22543500592902],[128.61233009630547,35.22553885281957],[128.61302530324076,35.22607507332037],[128.61368738059116,35.22705418886978],[128.61443154540416,35.22770640974305],[128.61410193086928,35.22880112006081],[128.61457988615004,35.2304853829464],[128.6150102179586,35.23135104840127],[128.61447275156132,35.23221732158708],[128.61592455700173,35.2344099318443],[128.61581234178638,35.23459000109557],[128.6157675957759,35.235411915500045],[128.61348177164314,35.23668847479642],[128.61310818645282,35.236305156056886],[128.61293520809645,35.23725829578301],[128.61234457124456,35.23855765693017],[128.61260372913281,35.239021325580644],[128.61083213963101,35.23952921242686],[128.6104216734254,35.239871277131854],[128.60949804775504,35.239927443904214],[128.60889360636733,35.24008804265118],[128.6082897073,35.239953867318285],[128.60720249605865,35.241509579750854],[128.60686977976215,35.24230106610463],[128.60621206474437,35.242699129805615],[128.60598190114735,35.24300060521541],[128.60525027066018,35.24353878954069],[128.604773373998,35.243182766739515],[128.60461801868536,35.24328499855763],[128.60393679313776,35.243757579615526],[128.60382156434616,35.244297747933544],[128.60339566338135,35.24503116535337],[128.60249387078227,35.24557178083313],[128.60202962508484,35.24561574889401],[128.60209117974995,35.245978204861345],[128.60237562662076,35.24641337016091],[128.60215198731953,35.246698457207934],[128.602111811354,35.247305354839035],[128.60251060571562,35.24840722736684],[128.60310817335457,35.24890518207308],[128.60292828825268,35.249087141123624],[128.60442266254955,35.24938884732509],[128.60466619720924,35.249518797293625],[128.60362523929945,35.25052073892075],[128.60355947183876,35.250357067029334],[128.60332088473606,35.25062588781341],[128.6028101861773,35.25159352766883],[128.60261741274587,35.252695131980694],[128.60184453576562,35.25389274560292],[128.60110841277836,35.254086777101044],[128.60088465418576,35.254939588617596],[128.6003607805941,35.25526314672343],[128.60017570138086,35.25563819220959],[128.5985047733855,35.25675769325568],[128.59648557636092,35.25895344856233],[128.59615731996,35.25919931481801],[128.59582520771954,35.259315285543074],[128.59512507714268,35.25941277783797],[128.59423749734034,35.25989569479528],[128.5936764015343,35.259956210494735],[128.59293968149376,35.2603272209504],[128.5895992490011,35.26094912114728],[128.58881327073203,35.26165146497982],[128.5882344408025,35.261736728410234],[128.58799936535434,35.2618848450332],[128.58765098137803,35.26230420811572],[128.58702460094267,35.26272703118202],[128.5867144267411,35.26315791580176],[128.585991512272,35.26366094584607],[128.58543236281903,35.26394484587793],[128.5850575196729,35.26447304271935],[128.58499078667458,35.26474672224107],[128.5850207198521,35.26506136778899],[128.58519511152488,35.26537135086993],[128.58509632005726,35.26596364556204],[128.58524151410845,35.26638290528906],[128.58550758452475,35.26646143053411],[128.585426063781,35.26725683838341],[128.58555614403377,35.26772923940121],[128.586003891823,35.26910725154242],[128.58619929775375,35.26923409411231],[128.58627511028538,35.269641242109124],[128.58688153173105,35.27093247536442],[128.5860896484628,35.272094420605924],[128.58590388587024,35.272095689701295],[128.58382849550864,35.271146039034534],[128.5830089083854,35.27063631905281],[128.5821439126111,35.27062512142389],[128.58139006327093,35.27046029464125],[128.58018848995556,35.2697150535735],[128.5785106980784,35.269173412393705],[128.57768838121666,35.26906162709233],[128.57524618814386,35.269704417535735],[128.56820239061582,35.27405902281],[128.56718698297618,35.27370681331421],[128.56492354441357,35.27449958199129],[128.56422313444207,35.27533864135088],[128.56252063486355,35.27597314412623],[128.5619007273649,35.27583630605724],[128.55829763676005,35.27705902334245],[128.55698210756105,35.27707710920109]]]}}
