{"type":"Feature","bbox":[128.57116682722514,35.34550701009965,129.0246315278615,35.639134804937505],"properties":{"regionCode":"48270","version":"vworld-20260909-3f8952dfda77-p2","name":"경상남도 밀양시","attribution":"국토교통부/K-Geo플랫폼 · VWorld 법정구역정보, CC BY 2.0 KR; 공공주택 복덕방 가공"},"geometry":{"type":"Polygon","coordinates":[[[128.91801832586134,35.63878120178306],[128.91753456325432,35.639134804937505],[128.9171056433062,35.638728049235105],[128.91661181044725,35.63879629743215],[128.9160191951297,35.63866584197849],[128.9154421991036,35.638636138630844],[128.91496286875727,35.63823497122447],[128.91471602395893,35.63790359618032],[128.91366726406937,35.637065036839076],[128.9132826442841,35.63699251256035],[128.91270296089488,35.637138179122005],[128.91150571057705,35.63677688285234],[128.91027751966521,35.636598497453875],[128.9093964222005,35.63627776756794],[128.90902369991517,35.63598294036237],[128.90794823442806,35.63547149076224],[128.90770735808792,35.6351174685419],[128.9064028875015,35.63430441872404],[128.90533655888444,35.63446272941104],[128.9045898702566,35.63404187629559],[128.90241984232773,35.63347845296487],[128.9022342964007,35.633127666206185],[128.89917645063994,35.631899419623764],[128.898913279755,35.631650242763214],[128.89698762239934,35.63157394601485],[128.89579989249563,35.631309787762994],[128.89545477649924,35.63113824516818],[128.89501499267158,35.63115053952672],[128.89475876329286,35.630979795544675],[128.89430901538182,35.631008140537396],[128.89381598443416,35.630907094696006],[128.8932035854604,35.631006602839214],[128.89254338901117,35.630302613611974],[128.88831023683753,35.630045353172044],[128.88547465133271,35.63002215189326],[128.88481648935738,35.630839764005124],[128.88313072572842,35.63212881677025],[128.8817595388989,35.633013079329714],[128.88209074018633,35.634253220047185],[128.88184862236884,35.63480138874453],[128.8803220222862,35.63505569742345],[128.87873185118968,35.63602725471055],[128.87795356800962,35.63558510886944],[128.87703308830376,35.63551517379421],[128.87607587691397,35.63571143990936],[128.87492290641677,35.63509970944774],[128.8740901232675,35.63461442905582],[128.87295322974384,35.63333687537978],[128.8726791898413,35.63284600040406],[128.87320463218725,35.631839188071865],[128.8738715618573,35.630846336885625],[128.87337316761642,35.62988805740122],[128.87301542452315,35.628945370630355],[128.87335945271283,35.62737144643035],[128.87336168540457,35.62581040714414],[128.8730681427868,35.624837403712675],[128.87283475421668,35.6230615625037],[128.87221992124051,35.621088908354736],[128.87166159670065,35.62020776587872],[128.8716278052194,35.619213191296474],[128.8709949027118,35.61833940371869],[128.86919816016768,35.61804516106499],[128.86764620021995,35.61537691487976],[128.86685963514293,35.61449924987849],[128.86669853654806,35.61387425085854],[128.86629987389705,35.613102438819986],[128.8659154177083,35.61206091476281],[128.86602815670935,35.61150536233229],[128.8655052523676,35.611036676993685],[128.86465647352915,35.60973844104378],[128.86352481495712,35.60906614025775],[128.8620058684851,35.608391997465645],[128.86171929552748,35.60760886891725],[128.86080662050733,35.60716237130703],[128.86008645749297,35.60709002369739],[128.85926116468647,35.60675985455422],[128.85870067534202,35.60645652306584],[128.85788994399866,35.605741119011604],[128.85759119951058,35.603769308206815],[128.85706936563227,35.603232676953],[128.8562347568283,35.601241763759305],[128.85528666372025,35.60021434700279],[128.85470778573517,35.60003679005947],[128.85400697488416,35.59882995323715],[128.85399986607194,35.59736370044447],[128.85391645164748,35.59686809456198],[128.85273961278276,35.59577864467972],[128.8516739162998,35.59462210137059],[128.84928553940472,35.59263158433249],[128.8487176705335,35.592481684344456],[128.8484148971798,35.59188491449721],[128.8471933044625,35.59135434417105],[128.8468965636986,35.59098508912952],[128.84661803151116,35.590291495610806],[128.84620195746794,35.58960620695067],[128.8452946851551,35.589830336861205],[128.84472254947752,35.589427658193074],[128.84324497788046,35.5888268088019],[128.84230980558021,35.589559234439285],[128.84131105618738,35.5907263880833],[128.83860812761986,35.593138888103816],[128.83698582890273,35.594192910267346],[128.83685541499688,35.594683512408345],[128.8365975992937,35.59508362644389],[128.83605872697206,35.59546147903754],[128.8357366415821,35.59600439935544],[128.83543935263526,35.596177870498266],[128.83507538678845,35.5967404513588],[128.8339146749442,35.59719272703115],[128.8319138759509,35.59727722008867],[128.83054003560972,35.59711119777413],[128.82921665220977,35.59673243342157],[128.82652151073685,35.59675874594416],[128.82531643834903,35.59615443184619],[128.8237466843402,35.59624776929703],[128.8226884830546,35.595687048904985],[128.82205178728464,35.59462501627782],[128.82173856231353,35.59438961196528],[128.8215279792164,35.59340543905933],[128.8209214510683,35.59330230963108],[128.81976696905346,35.59293803866371],[128.819343913333,35.59299030171623],[128.81834361418106,35.59289447577269],[128.81808485474747,35.59262648504282],[128.81650551027698,35.5920291910452],[128.8163236493023,35.592040842680674],[128.81514830236992,35.59161017691064],[128.81421687909844,35.59080942456321],[128.8135064470764,35.590500402496694],[128.81379603010404,35.590852143162465],[128.8126452051085,35.590428291455304],[128.81050228227485,35.58939883723667],[128.81030794942762,35.58920120552373],[128.80959681264162,35.588987132850846],[128.8089149670403,35.58892457641554],[128.80756610128034,35.5892574107904],[128.80711052818066,35.58911152065526],[128.80544977973503,35.58906024914281],[128.80428680507393,35.58941153678973],[128.80359035447873,35.58936966250886],[128.8026454698753,35.589162352272155],[128.80166575162022,35.58862151770902],[128.80071524042867,35.58763172957519],[128.80054883080626,35.58558046716332],[128.80017110879504,35.58579954112644],[128.80038843148088,35.584644660048234],[128.79990371145894,35.58131449039079],[128.79969179685955,35.58040435885411],[128.79879578473032,35.578333696696],[128.79740624310574,35.57681779372022],[128.79492035662187,35.573201143397384],[128.79235347354893,35.570472713577054],[128.78773684908782,35.5674957145608],[128.7855282037764,35.56689129582496],[128.78270815666755,35.56705733868352],[128.77876107364386,35.56786282993233],[128.77597831293212,35.56798002578467],[128.7710752802806,35.56866555525342],[128.77062120061674,35.56884408932042],[128.7700626379512,35.56961382388545],[128.76903454124584,35.5705822800759],[128.76844425890715,35.57094854927653],[128.76832811804158,35.57085170222342],[128.7680489986804,35.57020207933439],[128.76781862018504,35.57030599979136],[128.76738945174048,35.56969876284725],[128.76743364061724,35.569594437174516],[128.76736168386904,35.56966571051381],[128.766138679321,35.56809003137422],[128.7653667342282,35.56809246645912],[128.76471138554447,35.568541573025065],[128.7635749506636,35.56886794719029],[128.76162114758256,35.56859254770606],[128.7601136789987,35.56789011123438],[128.75829667330586,35.56790360728019],[128.75782630067954,35.567598662225336],[128.75690351739715,35.5678101265754],[128.7553713888063,35.56840307001352],[128.75479187502503,35.569187252671256],[128.75420250043155,35.56970256242953],[128.75366934818965,35.570375394382474],[128.7532181022914,35.57046157966819],[128.75220212895226,35.570419595780656],[128.75074528569132,35.57061603296995],[128.7502023965406,35.5703609363844],[128.74859487823005,35.57077148521085],[128.74768434372737,35.57118929041409],[128.74705821963119,35.571599690938456],[128.74650380642035,35.57224154734075],[128.7459406320865,35.57274478770423],[128.74561125556355,35.57277891456798],[128.74480509229264,35.57311637352508],[128.74363194026856,35.573695731190114],[128.74320760831424,35.57398442124531],[128.74260416117409,35.57412527649263],[128.74111906601505,35.57419928758559],[128.74082632902,35.57436784783877],[128.7403222478522,35.57540429941116],[128.7400498863942,35.575740581764826],[128.7402137478105,35.576080648604965],[128.73796165948158,35.57628585381169],[128.73716589249332,35.57691032062277],[128.73500228603814,35.57636729787326],[128.73464804546458,35.57630260645557],[128.73423071087376,35.57647278955343],[128.73167007489485,35.57587150418744],[128.73139437984148,35.57616595137074],[128.73139305900187,35.57647748231742],[128.73071139413287,35.57674171534215],[128.7273758252477,35.577405598139464],[128.72715638494452,35.57798368025298],[128.72677807272512,35.578336466875],[128.72648161299023,35.57877325725604],[128.72553249337898,35.57937744055958],[128.72493885114352,35.58103909835458],[128.72414412790795,35.58126040457503],[128.72241798214296,35.581143277748986],[128.72185816894878,35.58093895783338],[128.7210118586257,35.58091430582039],[128.7203572209226,35.58046513519617],[128.72008189585313,35.57981410881708],[128.71661434682343,35.57863227116695],[128.71573207494157,35.57821971944639],[128.71493445057058,35.577678696603925],[128.71385932871004,35.578638278044295],[128.7122685722182,35.579173856361685],[128.7107471028902,35.5789624935201],[128.7101163210674,35.57874441858563],[128.7091367283435,35.57868806601248],[128.70806223778752,35.57842792848646],[128.7072207232472,35.57805537974078],[128.70686302930292,35.57821830765149],[128.70532060399262,35.578017032142334],[128.704262747696,35.57830974927887],[128.703128462691,35.578096306696565],[128.70219767909126,35.578872451695204],[128.69912690055685,35.58079897145532],[128.69880684908307,35.58121072218552],[128.69816232789128,35.58155330120625],[128.69756453486724,35.581649731986026],[128.69680514597437,35.58227641556306],[128.69540318070744,35.583052449738396],[128.6948991721327,35.58350140133637],[128.69445421285695,35.58469499902198],[128.6941947562437,35.58627346274218],[128.69399869129356,35.586930910265984],[128.69421409636357,35.588125870975745],[128.6935227836046,35.59000095806672],[128.69315804860065,35.59038317012376],[128.69319079953596,35.59094766999002],[128.69189511753268,35.59250271071078],[128.6916189946375,35.593367881069376],[128.69047423124522,35.59382232826893],[128.68886987578213,35.59489703861738],[128.68761161439926,35.595141800730005],[128.6864676436493,35.59487209927606],[128.68494648880193,35.59473562284196],[128.67933193034003,35.59474363517781],[128.6786728078201,35.594491799204256],[128.6784773226146,35.59426756267605],[128.67765931180494,35.59417574250252],[128.67717942763858,35.594246067363294],[128.67671788976673,35.59441120666868],[128.67564272097337,35.59535031161341],[128.67398918067656,35.59603231530553],[128.67259174884063,35.59638024169767],[128.6724710929557,35.59583645102397],[128.67164280328748,35.595138355593896],[128.6711829229105,35.59503987850819],[128.6703750665279,35.594599689285054],[128.66958218949685,35.59476817230255],[128.66934011543043,35.59463755627029],[128.6685493093303,35.59482885881543],[128.6680465937814,35.59470543224024],[128.6676869688649,35.59451759202018],[128.66665135293115,35.59440304221387],[128.66620870931015,35.5945333120551],[128.66518375742496,35.59443287537662],[128.66443927663062,35.59423619042128],[128.66263753142434,35.595602158736945],[128.66066319550495,35.59659835089711],[128.65997439877256,35.59672182290224],[128.659044535426,35.597303676352944],[128.65826399980767,35.59753486362449],[128.6577802900929,35.59754731816825],[128.65732992033327,35.59740203025808],[128.65676884206582,35.597389760938455],[128.65581951294985,35.59792205180452],[128.65553318192954,35.59789317177501],[128.65537334321226,35.59735939668312],[128.65481005263766,35.596841025257234],[128.65382019601304,35.596378356234354],[128.65350074866194,35.596292097096075],[128.65264961093482,35.59626595031309],[128.65221476258094,35.59607416522393],[128.65150393319325,35.595406423719204],[128.6505256518569,35.59484913109357],[128.64894165957946,35.59447353728988],[128.64804759212421,35.594028315545515],[128.64731547201148,35.593869520658515],[128.64645581388373,35.59385858664416],[128.64575547855407,35.593967066552025],[128.64516382099188,35.59389439587744],[128.64414029757506,35.59329438788182],[128.64397613712669,35.59281811975744],[128.6433569575003,35.59171557057331],[128.64275801986838,35.590907118172154],[128.64221418676817,35.5904708679978],[128.64112338487254,35.589272409785025],[128.64041571859042,35.58908244480723],[128.63877842375612,35.58894795208097],[128.638049750776,35.588742442333874],[128.63721487920455,35.58824001153713],[128.6370110629365,35.58725811390214],[128.6372861788146,35.58670471152011],[128.6370054460387,35.5856835120398],[128.6357883955642,35.58393498900647],[128.63525014059041,35.58405970259915],[128.63482724146004,35.58430539697945],[128.63400103567554,35.584522710936824],[128.63335716462765,35.585018034938116],[128.6326528460478,35.58507734218387],[128.63173505042704,35.58546230636064],[128.6313962464203,35.58615020354249],[128.6309006985821,35.58658204148145],[128.63062036716332,35.58663509097775],[128.62990530576542,35.58643781934502],[128.6290304268846,35.586564232767245],[128.62864566632555,35.58636884646013],[128.62836440818074,35.58599453754318],[128.6275954222912,35.5856040283877],[128.6275363174975,35.585318397349134],[128.62608800141803,35.584919952601986],[128.62535511523973,35.58494435419955],[128.6244887417828,35.58484299208952],[128.6232591525378,35.58497665409877],[128.62237190629693,35.585200222352846],[128.62210228231007,35.58519079944558],[128.6211950736728,35.58457541086229],[128.62056006692745,35.58434293346253],[128.61883352201625,35.58393452741882],[128.617859688302,35.58412645011871],[128.61699190639942,35.5840018812435],[128.61620555381526,35.58318291943785],[128.61587414347332,35.582644003276016],[128.61511899760572,35.58201010171717],[128.6147182527956,35.58182356191321],[128.61372156829137,35.58193689489825],[128.61268045015046,35.581715710036356],[128.61109671961685,35.58182562909683],[128.61041892064074,35.58150406586991],[128.60754199613314,35.58069175681181],[128.60660453740155,35.58056108638981],[128.60564031546696,35.580332437158454],[128.60486012812214,35.58026110895127],[128.6043545424666,35.58040511959254],[128.60291673173606,35.5801231600957],[128.6025405066599,35.58019227686956],[128.60185814610753,35.58065137964437],[128.6010615703001,35.58071846816953],[128.60037368189444,35.58057502659239],[128.60006365751124,35.58043796028171],[128.59980818484692,35.58124020863356],[128.5994436280912,35.581519378443446],[128.59868770994794,35.581915012383966],[128.59740707213936,35.58202525032201],[128.59678265575343,35.58226902244648],[128.5959652751434,35.583196787693545],[128.59515743252288,35.58357864092505],[128.59379937283506,35.58446706720454],[128.5919335079304,35.58448174173975],[128.59046774918744,35.58379756288133],[128.58978209636763,35.58309756359438],[128.58777869902082,35.581894814166276],[128.58694546223833,35.581294320224124],[128.58641457970722,35.58045217730136],[128.58595946892896,35.58062071705897],[128.58656608585966,35.57923258305965],[128.58628097901325,35.5775621762805],[128.5862953347244,35.575341930531486],[128.58697366744343,35.57334677432414],[128.58697282683426,35.57183708997828],[128.58641091265955,35.56993659162443],[128.58556403794222,35.56899039219579],[128.58540602321796,35.568293836479086],[128.58491393813813,35.56754137300862],[128.58678047221687,35.56661235907859],[128.58747379354233,35.56586516251741],[128.58780275556663,35.56565434705973],[128.58879601214093,35.5653964914252],[128.5894820125872,35.56480805935541],[128.59003377967704,35.56419163602317],[128.5903802316101,35.563457824542354],[128.5900998662547,35.562842328509966],[128.5907761281262,35.5620386265611],[128.59093327243576,35.56158434186322],[128.59068761939284,35.56049746660129],[128.5903977374399,35.558125069476155],[128.58932448310472,35.55768546653619],[128.5884298790298,35.557664453486545],[128.58798977654567,35.55712117532618],[128.5876345863377,35.55687962613614],[128.58748715523626,35.556548553077455],[128.58725560572915,35.55630930627367],[128.58693352236344,35.55618226714076],[128.58725908296023,35.554636586166154],[128.58756403230504,35.554127153450125],[128.58786714342452,35.55335048357875],[128.5879510292369,35.55290097807734],[128.5892035922044,35.55074110497065],[128.5893130480276,35.55039109797055],[128.589232258439,35.54961797163424],[128.5888869601167,35.54807271059073],[128.58997930205393,35.547847146960976],[128.59048077738103,35.54698863192046],[128.59110548210018,35.545237057535],[128.5928383792661,35.543916360294475],[128.5940265196461,35.54340491328908],[128.5950893854303,35.543225483040366],[128.59530833513773,35.54214846958773],[128.59471901001243,35.541878035283425],[128.59389656559384,35.54135609574847],[128.59334962924635,35.540608827047606],[128.59278692622448,35.53959887387245],[128.59251503047363,35.53796151263684],[128.59149990149504,35.53814540868058],[128.5907164565794,35.53796921823136],[128.58965348483545,35.5384434317084],[128.58850027249156,35.53867893948689],[128.58757176838776,35.53935131742519],[128.586447118451,35.53965818103872],[128.58304175399735,35.53927905073354],[128.58110263975962,35.53938370217555],[128.58082997803604,35.53923382102002],[128.57986830101814,35.53894949981543],[128.57884692629452,35.53877662662757],[128.57883645040513,35.53826865688917],[128.57902280032962,35.53788060033297],[128.58089802803528,35.537491074468925],[128.58161609025478,35.53661178590498],[128.58257491928993,35.53612858086785],[128.58327749655805,35.53543461068659],[128.58402433767637,35.533620251239086],[128.58407556052097,35.53310793680752],[128.58381409285707,35.532120308192276],[128.58410989101807,35.531517190317786],[128.5849459329404,35.53052303055836],[128.58517988363405,35.52995422096964],[128.5841180874828,35.528426402723696],[128.5841761741099,35.52649766674398],[128.58321930675848,35.526069271146284],[128.58345848520716,35.52569489724435],[128.5837231812449,35.52498132678997],[128.58411423374167,35.524801473013454],[128.5854635104226,35.52339993159655],[128.58602071658214,35.52248089806875],[128.5863590436536,35.521588251118],[128.5884254159326,35.52065106862004],[128.58904023316506,35.51989994787304],[128.58995826160924,35.51959540683477],[128.59088683966291,35.518868080009774],[128.59298649273933,35.518613995745135],[128.59357403070015,35.51845247110439],[128.59170613016576,35.51746392056434],[128.5919259374726,35.51573480756013],[128.5917549288928,35.5148449753043],[128.59153243283177,35.51460911262805],[128.59088211651033,35.51420659725079],[128.59062462290342,35.513861429330966],[128.59046918854966,35.51321167462756],[128.59047021864887,35.511669367869196],[128.5898766748041,35.511236172574996],[128.5898798970018,35.51048211434744],[128.5893173556573,35.50973530690246],[128.588945728492,35.50940673286704],[128.58815612025577,35.50916376124175],[128.58726342576557,35.50852707853801],[128.58671478528842,35.50823379875929],[128.5861526644904,35.506927781296355],[128.58590066558162,35.50653192732771],[128.5859171487088,35.50631954409353],[128.5832322202607,35.50648101239397],[128.5818291370654,35.506474602804566],[128.58076202007422,35.506578913429706],[128.5790987360179,35.506303908842504],[128.5775195179948,35.50634904621212],[128.5772090923999,35.50461435336059],[128.57672287664664,35.503259301383125],[128.57550353505323,35.50092285798506],[128.57535623835835,35.50036038976977],[128.57361192559785,35.49815209819834],[128.57350551506022,35.49702724894651],[128.57371216005637,35.49592953300145],[128.57291555197153,35.49551093526317],[128.57213406179412,35.49468037098997],[128.5721396044403,35.49448118307171],[128.57183434284505,35.494123451726765],[128.57118761500095,35.492483027170294],[128.5712805089574,35.4911163290472],[128.57116682722514,35.49036807846993],[128.57206421036926,35.49034953404564],[128.57285785001363,35.48985527539298],[128.57315367050862,35.48937507864523],[128.57306694188503,35.488551921551824],[128.57261419242343,35.48786770332278],[128.57212851607926,35.48677019212367],[128.57190584181217,35.48655611718785],[128.57139570147552,35.485678963082485],[128.57194622547905,35.48312726770007],[128.57158481012388,35.48203291928917],[128.57228945811366,35.48062857282349],[128.5733709134403,35.47981833525996],[128.57326863256012,35.478797252711914],[128.57312145351727,35.47856487780606],[128.57250877943426,35.47819422801205],[128.57237643725873,35.47784479087605],[128.57284973239294,35.47704615319184],[128.57302970912122,35.47632109593742],[128.57297623472778,35.47599522607447],[128.5730472755771,35.475650683665506],[128.5731976586988,35.47536375067493],[128.5731617731555,35.47445232340573],[128.57349425608277,35.47377642137741],[128.57376288913466,35.47292717638902],[128.57383947255693,35.47242447573941],[128.57367619706275,35.47208501276048],[128.57352183437135,35.472010321590986],[128.57376931682296,35.471677441128],[128.57500392827095,35.47147368316499],[128.57658098424065,35.4704510513106],[128.57739569730646,35.47031225583251],[128.57766586217716,35.46931323814107],[128.57773055374736,35.468039635604285],[128.57809681408068,35.46757738479714],[128.5790079822197,35.46676233195948],[128.57921298554257,35.46569256394564],[128.57871663762742,35.46506675664586],[128.5783360940598,35.46393088550108],[128.5781069097379,35.46356131667517],[128.57805429848665,35.46198717149794],[128.5772618481366,35.459819942158724],[128.57803420570417,35.459133810400814],[128.57855423203728,35.45805650193792],[128.57901435780263,35.45794374212509],[128.58009114642687,35.45716246449815],[128.5805014115439,35.45662692334423],[128.58095725843324,35.456636155245754],[128.5812597393958,35.45628359281257],[128.58150799000182,35.45500438362824],[128.58207970928993,35.45474610378236],[128.58329655881863,35.45355584071373],[128.58421909736543,35.45328000114702],[128.58642343532517,35.4532903135725],[128.58778040764636,35.452298221424755],[128.58839082079265,35.45241069827963],[128.58945103637691,35.452329000625944],[128.58992901416642,35.452156989304285],[128.59085575349854,35.45233748442232],[128.59154307565942,35.45212839338569],[128.59231317292998,35.45274564029611],[128.5930660957887,35.452892919115016],[128.59415168846792,35.453396822704605],[128.59454908766523,35.45322494647917],[128.59548690186043,35.45316632501936],[128.59551047702465,35.45303031053587],[128.59706326229596,35.452663374404914],[128.59728018618674,35.45242154778649],[128.59933076042887,35.45276745725186],[128.59993884430924,35.45225062782689],[128.6013216672811,35.451278616119026],[128.6039138171087,35.45147283691058],[128.60428190287342,35.45110844465878],[128.6050260677552,35.45105770041432],[128.60530343182324,35.45085611364863],[128.60588506482856,35.45062954840006],[128.6059857442291,35.44994242711015],[128.60755338997703,35.44857349024185],[128.6082924984314,35.44806198613038],[128.60898749036474,35.44816688510361],[128.6112855732549,35.447402633026535],[128.6121444056398,35.447184775810655],[128.61292202350484,35.44674150761277],[128.61425489698922,35.44648981186527],[128.6149676278684,35.446163939943276],[128.61548036145726,35.446172496668325],[128.61594824498806,35.44723649586221],[128.61602816635408,35.44821783671877],[128.61644295958217,35.4485855608758],[128.61700205754693,35.44927092726988],[128.6188438051742,35.449573926250494],[128.61914149377037,35.45005955456429],[128.61944015694448,35.45019109959385],[128.6202312320185,35.45022563387708],[128.62042561184063,35.45048530144776],[128.62134242747214,35.450525728138956],[128.62213590616847,35.4507689723924],[128.62321131648756,35.45157257404812],[128.6260493640186,35.451965069851376],[128.62765818564574,35.45047339897107],[128.62900470371568,35.4496835158292],[128.62951434981863,35.44923090480886],[128.6308909505397,35.448920090433234],[128.63183683275864,35.447448481622885],[128.63296897549694,35.44506905116103],[128.6338425581594,35.44233116517946],[128.63458651797347,35.43958675458569],[128.6346121859119,35.43813553048783],[128.63430398788583,35.437519447897344],[128.63452825952118,35.4368736466485],[128.63623632865307,35.43476691848806],[128.63773723533558,35.434660043283785],[128.6389149719868,35.43471432461866],[128.63992182316974,35.43464950088325],[128.64007121489382,35.43439197602672],[128.6407037287952,35.434216102126626],[128.6412634367764,35.433590914481606],[128.64206902078786,35.43318307489448],[128.6429800554346,35.43320518097185],[128.6446758846865,35.4329632555649],[128.64529201099293,35.43267347083153],[128.64546891191455,35.43176991650439],[128.64723561735718,35.43068200877802],[128.6471423248383,35.429505124939645],[128.64689374391227,35.42837865407204],[128.64768510279518,35.42764963449603],[128.64807093988398,35.42688765129541],[128.64813421057062,35.426893853313935],[128.6481714581786,35.42677649763127],[128.6483471402388,35.426734484819704],[128.64839741570404,35.42657610044326],[128.6488340463476,35.426702548430406],[128.64889934061733,35.426629261963186],[128.64906689927923,35.426707920752364],[128.64966371674322,35.42670230639411],[128.64994288503453,35.42639243345453],[128.65021773068977,35.42644370905177],[128.65027182986915,35.42636238325756],[128.6502234551985,35.42619090867551],[128.65000815121658,35.426097357044895],[128.65006161455534,35.42600648382579],[128.65028858069155,35.426077982429405],[128.65031986269233,35.42615207531615],[128.6505739463821,35.42609170369383],[128.6507461953815,35.426210904606485],[128.65115609262526,35.42611639181929],[128.65081676402087,35.42404787370951],[128.65080705002302,35.42204652311431],[128.6490067026283,35.41868243951417],[128.64746981527696,35.416705437146675],[128.64676461959456,35.41545953377122],[128.64626453383102,35.414220652076686],[128.64597965291705,35.413203202181656],[128.64591598231047,35.41267076876375],[128.64602146061745,35.41203897626784],[128.64695032671585,35.40886891626911],[128.647101602972,35.405847024644856],[128.64770745435004,35.404293281876626],[128.64787900517865,35.403409647003926],[128.64794996604718,35.401498497843946],[128.648084941586,35.400906934136025],[128.64830430502968,35.40029869398276],[128.64903575829095,35.39900574727565],[128.64951436774749,35.39796019387376],[128.64925302833294,35.39772679950272],[128.6483852431762,35.39732331895044],[128.64767309956517,35.39685626742934],[128.64687115755905,35.39621113494804],[128.64622846345216,35.395566584873706],[128.6457627270721,35.39483723377344],[128.64456041891953,35.39369091790522],[128.64418522082332,35.393187322394795],[128.64367157381514,35.39149819193642],[128.64387707772138,35.390557622612114],[128.64459306136493,35.38935813152287],[128.64461369799804,35.3889790329231],[128.6444468380363,35.38847445340035],[128.6441240520055,35.38807842043948],[128.64366131644942,35.3878076131144],[128.6424145006883,35.38745448979584],[128.6399090244161,35.38726175112731],[128.63945364059933,35.387041228400214],[128.63873504735682,35.38657356979818],[128.6387719503993,35.38607005976514],[128.63858132802017,35.38460204858654],[128.63960385211084,35.384095166744686],[128.6406830139869,35.38371447071717],[128.6415941942699,35.384212637899324],[128.64243651478742,35.38449230336468],[128.6440356601095,35.38472432948402],[128.64621792409616,35.38462690082716],[128.64728079339977,35.38483431819173],[128.64805335531605,35.38510390797685],[128.6487015130748,35.38518944560471],[128.6488194390079,35.385428728494404],[128.64898764261048,35.385510830397536],[128.6496033296951,35.38553304419649],[128.64998991854873,35.384834775214685],[128.65029191587317,35.38398374544642],[128.65130401036356,35.38294439098843],[128.65162245265242,35.38241231922775],[128.65162716606278,35.381789014071394],[128.65131270492208,35.38149140712049],[128.6503768101633,35.381116716307424],[128.64753122390275,35.38073314166139],[128.6473960793288,35.380263233026106],[128.64758896439693,35.379430069884805],[128.6484686714804,35.37817456139627],[128.6494498656737,35.37648055357444],[128.65073294795846,35.374900735566115],[128.65949126542012,35.37401905386494],[128.66498497638096,35.37607841269575],[128.67048184735185,35.377429881346096],[128.68936961723927,35.377552815032736],[128.6980070598151,35.37402231171635],[128.7035200122437,35.37111227991943],[128.71453326725717,35.36853334209618],[128.72628949932746,35.361346707370586],[128.7324916411581,35.35675909232806],[128.73659324162688,35.352486545366254],[128.74329067735624,35.34824626216804],[128.75358021619903,35.3482159769449],[128.75861588638608,35.34599852572385],[128.7641166254969,35.34550701009965],[128.77511576466887,35.346442676496544],[128.786103650429,35.351310712638615],[128.79505852359972,35.36048741750641],[128.7960787724703,35.36229313246727],[128.7968463265082,35.3620730613454],[128.7969332755028,35.36283150643242],[128.7970939072165,35.36334914381463],[128.7984284448677,35.36597619324482],[128.7988836199767,35.36670074516734],[128.799104668659,35.36797132256666],[128.79988135928923,35.36888856044265],[128.80081242057668,35.37044377767652],[128.80149768268794,35.37131410769345],[128.80373488025748,35.37384549561366],[128.80476783687928,35.37492475599937],[128.80556340475673,35.37561290794405],[128.80654921748936,35.37628328209207],[128.81354169102377,35.37961385314397],[128.81547866858952,35.380293471035195],[128.81904142239583,35.38094099955346],[128.82698813967207,35.38159809394966],[128.8410395665142,35.38742897059579],[128.84653896446065,35.38941143409172],[128.8520366130391,35.39249003315832],[128.8575367705508,35.39439266855703],[128.85950552226518,35.39555025389634],[128.86523585009715,35.39547248452801],[128.86770627246483,35.393032605813595],[128.86945918004017,35.39175004623642],[128.87072830363672,35.38889970138314],[128.8714182217436,35.385830707409966],[128.87236133358638,35.382226433397804],[128.87446538985193,35.38223835357524],[128.87476676803374,35.38234292695198],[128.8752522349799,35.382826403333155],[128.8754012786785,35.38373063300974],[128.87576249933508,35.38474052001065],[128.8757799916155,35.38515507048911],[128.876102628941,35.38558282747922],[128.87656088825867,35.38568986444814],[128.87685456048578,35.38588295634754],[128.87733863858324,35.38603226057885],[128.87755737445826,35.38620209995706],[128.8778532932053,35.38614239840101],[128.87889700900132,35.38647312654755],[128.87952910705005,35.386538169059506],[128.8806103687828,35.386512554245165],[128.88065186471385,35.386752500499846],[128.88034079274146,35.38728661800075],[128.880305310841,35.38810812807584],[128.87956759027367,35.38936724715088],[128.87885057662368,35.39017371278415],[128.87853977319983,35.39073318997145],[128.87888655450507,35.39100122168813],[128.87908299811443,35.39126972921231],[128.87937588036175,35.39224626794179],[128.87966769586876,35.39279973729284],[128.87929883659768,35.39663909236329],[128.87943659972194,35.39809509765231],[128.8810608839866,35.39925058806973],[128.88144219543477,35.3996875187292],[128.88202454053686,35.399860520519276],[128.883253137113,35.40048581887665],[128.88382914511658,35.400933564991334],[128.88437299590547,35.40121034998947],[128.88477291015658,35.40226539681397],[128.88515449996396,35.402511257307616],[128.8862084169471,35.40281162252813],[128.88773293346838,35.40414857193301],[128.8879423317319,35.404254656486344],[128.8891683926672,35.404235984229004],[128.8902880757779,35.403967332361034],[128.8905824442416,35.40516598679599],[128.8903335821245,35.40593580159038],[128.8904262178628,35.40646321072119],[128.8909321077666,35.40706098887869],[128.89085544603657,35.4086967227523],[128.89136026093487,35.40905168180702],[128.89184459175704,35.40926918409691],[128.89190386724175,35.41054063858549],[128.89226007628545,35.41173849139954],[128.8920681097316,35.41206338876377],[128.89129812952234,35.414144015568645],[128.89081478797863,35.41441506784761],[128.89089647076557,35.41452646026864],[128.8927944963531,35.41521027712113],[128.89574668636055,35.41602863678522],[128.89840192074843,35.41627115687983],[128.89849861238827,35.41699866761179],[128.89839893668457,35.417650569239264],[128.89847975359902,35.41773757555047],[128.89935230962598,35.41769530788387],[128.8995637748744,35.41784703393202],[128.90023080712845,35.41795315750932],[128.90081192886308,35.418434424132045],[128.90160505181288,35.418775572972116],[128.90226801026628,35.41924622544162],[128.90317385877364,35.4195856903608],[128.90359234701313,35.41982260820647],[128.90404250762916,35.419586281252705],[128.906051180336,35.418186906553515],[128.90653927500995,35.41776460272446],[128.90758500718894,35.41745445726258],[128.90815590546177,35.41711158477475],[128.90865082674037,35.41669472779729],[128.91108230324113,35.41560178870756],[128.9115589035484,35.41519749940495],[128.91198745682686,35.41466258940336],[128.9126519227608,35.41443320311434],[128.91325978131906,35.41445347094731],[128.91331280470854,35.41489832308842],[128.91453798331705,35.41506121837607],[128.91579147800533,35.41549164718699],[128.91687139286478,35.415688038840806],[128.9176924739055,35.41595450216913],[128.91926163020554,35.4168098744506],[128.9193157333185,35.41697886373606],[128.91955016796564,35.41722309137942],[128.91967715482238,35.417164841532745],[128.92086339151078,35.418207247726784],[128.9214729522335,35.41895302173128],[128.92192681692336,35.41936070150251],[128.922545187227,35.41948037707019],[128.92331176388836,35.41940839534188],[128.9244183397374,35.41951563106151],[128.92416176745485,35.42007408340607],[128.92373055212113,35.420717034996976],[128.9236129117762,35.42109790277087],[128.92366927149914,35.42170275725004],[128.92359727261794,35.42290880168412],[128.92343455121878,35.423386241574185],[128.92267583221889,35.424043693171186],[128.9222641780465,35.42594472581829],[128.92099388490902,35.42658364913274],[128.92021535286665,35.42686968469527],[128.91958624277095,35.42765357846242],[128.91893677342944,35.428032115928],[128.91832204729025,35.42854020223007],[128.91794235586715,35.42926305706339],[128.91747616461126,35.42965924747076],[128.91609269461594,35.42995520939477],[128.9155885157915,35.430251871800266],[128.91466130729242,35.43052837865064],[128.91432153246348,35.43048815816788],[128.91381511950127,35.43065052789135],[128.9132871235676,35.4314706725973],[128.9127270874967,35.431908297690796],[128.9125404056848,35.43244265308934],[128.91227490791286,35.432518990736014],[128.91159580338382,35.43334120585591],[128.91004139159938,35.434375456309446],[128.9079680153533,35.4353179389726],[128.90640058862746,35.43736230385939],[128.9064673594123,35.43990574862885],[128.90701590839208,35.4397926830326],[128.9072058114846,35.43981930499478],[128.90869509047792,35.440852874532055],[128.90914625768306,35.44094567185514],[128.9093231280706,35.441764120848326],[128.90871947085662,35.442894235581704],[128.9100166730455,35.44464679195447],[128.91101899387928,35.44547904491473],[128.91267469508313,35.445999977163304],[128.91360997429453,35.446560428361394],[128.91492291754523,35.447536288483064],[128.9155685621272,35.44831375056325],[128.9169102145699,35.449075965972746],[128.9178490982954,35.45092152183899],[128.91852463805213,35.45180135875944],[128.92202087205166,35.4525849237726],[128.92386495388325,35.4522941082384],[128.92638650699254,35.4521401459516],[128.92709420686606,35.45257247944065],[128.9278519789555,35.45365984468616],[128.92985454703984,35.454319290149215],[128.93171353782694,35.453713560453565],[128.93356335679997,35.45263465303009],[128.93534732949493,35.453681078910385],[128.93615079953562,35.4537644969699],[128.93801215100112,35.45431626598812],[128.93836580180368,35.455297494296794],[128.9405071800997,35.45585747097412],[128.9411925997998,35.456130350246646],[128.94243315860285,35.45636330850473],[128.9434210395589,35.456046138592136],[128.94420117650918,35.45552112390277],[128.9469489941367,35.454826414091755],[128.94795953850195,35.45438266288013],[128.9501080662242,35.45425023464668],[128.95205765148876,35.45595215040784],[128.9539441745358,35.4569197355545],[128.95468208355243,35.45681402948177],[128.95559908254933,35.45721503342312],[128.95705999866334,35.4576839020512],[128.95847731509102,35.45840683352628],[128.9589749122966,35.458766307779214],[128.95874204569242,35.45960689081145],[128.96129615972262,35.46090073972326],[128.961678852704,35.46224153371315],[128.9635687448734,35.463408200162874],[128.96407205650496,35.463550530988556],[128.96286435683456,35.46400990413261],[128.9620725308289,35.4641037307012],[128.96207416233233,35.4645326105729],[128.96095556722815,35.46471910092665],[128.96191518885337,35.466654940522304],[128.96416717946124,35.466596783577884],[128.96463052731826,35.46690268927617],[128.9656028627649,35.46671659587947],[128.96705514799993,35.46673272241854],[128.96760559592715,35.46727988980879],[128.96834179357697,35.469775871320614],[128.96754065894422,35.470927140793066],[128.96835818046915,35.47187853387336],[128.96769278233222,35.47279573871234],[128.96654337494496,35.475146597164525],[128.96507574202377,35.475889380339986],[128.96449791951818,35.47685586828325],[128.9643895233544,35.47771919417865],[128.96474246619334,35.478477695647115],[128.96482247711714,35.478940429974294],[128.96465395328784,35.47955464474442],[128.9652101042009,35.480787326997365],[128.96600189439894,35.48127028662071],[128.9649444362461,35.48342460590956],[128.96365672195915,35.4840396843575],[128.96316587907552,35.48449679962648],[128.96439239425337,35.48668524450934],[128.9662995429151,35.48850767119107],[128.96666095050213,35.48939320839817],[128.96774397540045,35.48934022739281],[128.96763797462472,35.489974331606646],[128.96593455109473,35.491584217353484],[128.96566632607758,35.4921046370653],[128.96530714650766,35.492551065280836],[128.96458705994064,35.492497176176904],[128.96345043676365,35.492859116912506],[128.9626851362802,35.49382539911627],[128.96243147858493,35.49392172593943],[128.96165405196973,35.49396354224588],[128.96132844479558,35.49454039299122],[128.96063706035767,35.49537823217275],[128.95975398946362,35.49594929975694],[128.95940286993763,35.49749978243495],[128.9583247814019,35.49849288603401],[128.95790508206565,35.49898165525893],[128.95795003201874,35.49960956480197],[128.9586523522871,35.50086927100396],[128.95873751155813,35.5012810933114],[128.95812769592368,35.50185472465094],[128.958541699739,35.505473923284384],[128.95954678323488,35.5054958893426],[128.96120306261372,35.50725526268076],[128.96207313386668,35.509495828119306],[128.96258874271064,35.509250989485906],[128.96373472809682,35.509206747210094],[128.9644036642723,35.50887186999307],[128.96810112884822,35.508474484652915],[128.96911459064577,35.508251056485626],[128.96951694564066,35.50802211113229],[128.97076528884125,35.50817947080392],[128.97202597255264,35.50847550785419],[128.9724440793199,35.50866628329933],[128.9734816947587,35.50807047440031],[128.97465209259005,35.50798226918781],[128.97569713026107,35.50763666988828],[128.97735362933335,35.5075948905097],[128.9790492864717,35.50916330034467],[128.9795710761079,35.51007920719476],[128.98021071534126,35.51087603393347],[128.9826123926709,35.51204905707832],[128.98327876586444,35.51286043833595],[128.98405418002912,35.513479301831275],[128.98410162017106,35.51419063514514],[128.98487470704453,35.51489690341791],[128.98603951689006,35.514890770288375],[128.9863246779675,35.51511233007374],[128.98877168995304,35.51591634753576],[128.98965556086787,35.51664671027972],[128.98935877456583,35.517350136930446],[128.98924809830473,35.518377826785866],[128.98859025697277,35.51975841177191],[128.98859118056353,35.520692671464424],[128.98884220053932,35.521149792780896],[128.98881205735466,35.5217126991691],[128.98960597949366,35.52290398721355],[128.9909049917357,35.52325456551156],[128.99164513537255,35.52561249993638],[128.99108342430384,35.5264612907789],[128.99158938060395,35.52714745390674],[128.99233182385302,35.52722171256894],[128.99370441251793,35.52760080845808],[128.99460940828865,35.52817671483696],[128.9947069360234,35.530446277833406],[128.99624024632558,35.532240092858174],[128.99597068236721,35.534293833681154],[128.995958431789,35.535224792530435],[128.9964662473238,35.536171137311456],[128.99809435005932,35.53768626036622],[128.998873563686,35.53857980710726],[128.99861735834625,35.53910844785526],[128.99901632853178,35.54002509088097],[128.99863833503778,35.54082885190777],[128.9984067583871,35.54173215484132],[128.9974041956259,35.542205716391976],[128.9967415082196,35.54302980131721],[128.99664980085547,35.54401425226165],[128.99704348757962,35.54495953899704],[128.99444661761768,35.54574710359877],[128.9940480042451,35.547238898843695],[128.9929720752275,35.547372175008555],[128.99237811650755,35.54734414980066],[128.99177070544914,35.54812483460158],[128.9910077484021,35.54892428320077],[128.98939398185388,35.55159602705747],[128.9873863738698,35.55067510314031],[128.9855240968565,35.549548417213],[128.98099424890646,35.546417433146594],[128.9804519590345,35.547089830066774],[128.97974649769347,35.548675423786634],[128.9794051941266,35.548990190463456],[128.978870373699,35.54972685495415],[128.97710421332727,35.55163070265673],[128.97621993699545,35.55224627794667],[128.9761085759735,35.55251318458001],[128.97522676535988,35.55323054513906],[128.97297114687197,35.556059017303376],[128.97203573023907,35.556425362123605],[128.97241237682178,35.557142658783015],[128.97228887748275,35.557927544917355],[128.97174068989983,35.55902898066691],[128.97128185137774,35.5602630144382],[128.97191778855952,35.56021692716835],[128.975678441168,35.56187377829134],[128.97698980789517,35.5626895743278],[128.97793421397571,35.563460904386126],[128.97961085637434,35.56344093013532],[128.98074553107475,35.56380360052943],[128.98172329750187,35.56387380573982],[128.98321286695128,35.5651020005858],[128.9850094899599,35.564609758540456],[128.98695762789504,35.56538212804228],[128.98843416299746,35.56615766116568],[128.98936937213938,35.566334688248915],[128.98970344815646,35.566065403707746],[128.99053613971458,35.56659354990718],[128.99325750755784,35.56736525995215],[128.99412867903592,35.5670280705418],[128.995029618865,35.567568592016535],[128.99585028171344,35.567936199332166],[128.99714617701085,35.5697303080943],[128.99797296382735,35.5705050168812],[128.99950930868673,35.57166054913162],[129.00111248862416,35.57256832082263],[129.00215141535335,35.57366612617366],[129.00325416296397,35.575405461128454],[129.0041649626015,35.57664927172485],[129.0053843861126,35.57780955685296],[129.00661704708583,35.578336674610334],[129.00799091574754,35.58027867068275],[129.00924684893297,35.580395277899804],[129.01014762933661,35.58100412392274],[129.0104061985433,35.58100807698591],[129.01229058458333,35.582790454907986],[129.01307750165225,35.5830439312037],[129.01449564639054,35.58262776057251],[129.0172384787008,35.583283779897826],[129.01888852149378,35.58386572959264],[129.0191843459462,35.58427792791935],[129.01889070749374,35.58503436898635],[129.01911556765143,35.586207246900535],[129.0190053467314,35.58676043390526],[129.01949978937014,35.587680034048475],[129.02008097968542,35.58799927443576],[129.02055713763343,35.58862888429254],[129.0216275513996,35.589352444834],[129.022100219223,35.58990343092785],[129.02279565533843,35.59127626430069],[129.02281397367327,35.592475464981895],[129.0224963171691,35.59457727511381],[129.02266617776195,35.59596902406754],[129.0230383764414,35.59624195990798],[129.023727044968,35.598003573237364],[129.0246315278615,35.59993290181699],[129.0243363544708,35.60155797460383],[129.02296794795697,35.60247802428079],[129.0226043768117,35.60298056040906],[129.02284771036358,35.604041422750626],[129.0235785325602,35.60921572119727],[129.0234322699164,35.61006971283236],[129.02293927747343,35.61160479821249],[129.02298686785414,35.61350622474932],[129.02243184572882,35.61425946251097],[129.0194131098669,35.61559888831912],[129.01848485507074,35.61568035400433],[129.0167012783612,35.616281156947565],[129.01327704769812,35.615341964260544],[129.01154987602948,35.61587010479532],[129.00854527800743,35.61594023908491],[129.00794759646797,35.61615966793938],[129.00650107191524,35.61847360301261],[129.00574289586214,35.619053371188976],[129.00427402915847,35.61950401965369],[129.0026813727649,35.62026039870218],[129.0026580058534,35.61958054844303],[129.00235680902904,35.61932523297093],[129.00169819681284,35.61902481201958],[129.0015562974835,35.61863663748115],[129.00100280969863,35.61803168965969],[129.00037223764122,35.61779131215391],[129.00035838879037,35.61749786191928],[129.0000613506299,35.617242352509756],[128.9994911375556,35.61721959698148],[128.99793202215113,35.6160989425205],[128.99800361854338,35.61594612625039],[128.9979392299407,35.6158263930187],[128.996793029729,35.6148156691541],[128.99418313999354,35.61398922305919],[128.99359779020494,35.61343123528195],[128.9935755780806,35.61321861612822],[128.99238429467104,35.61276218326908],[128.99093503413522,35.61240216474595],[128.99067334998688,35.6121499947874],[128.99016337126537,35.611266135249934],[128.98913987198534,35.61106332884736],[128.98862810024937,35.610803161661316],[128.98771836960861,35.610086769595505],[128.98756415346762,35.609666086558406],[128.98704870144783,35.60911053469148],[128.98563772818542,35.60912795355708],[128.98499646657461,35.60894424327166],[128.98438081276223,35.60911027336303],[128.98268332365942,35.60873697352177],[128.9822239321381,35.608786916256406],[128.98150212854281,35.609117559788565],[128.98076124728829,35.60926568646689],[128.9797332316025,35.60931760028669],[128.9796960958506,35.60948858382476],[128.9787619205054,35.61076715616915],[128.97834971597499,35.61129129478146],[128.978102674486,35.61132607889153],[128.97799889916934,35.61159676392092],[128.97765176821275,35.611749474178346],[128.97737251339203,35.61159621601696],[128.97641357360564,35.61191499508392],[128.9756833963598,35.61202559200005],[128.97397642991226,35.61285854776432],[128.97318637978108,35.61357300844872],[128.97037568998002,35.614305408003794],[128.97010532542132,35.61429682339363],[128.9696302607122,35.61442851681572],[128.9686343659326,35.61439317002518],[128.96783699255238,35.614850366866655],[128.9619092783293,35.61498018625385],[128.9607533517093,35.61542919720557],[128.9603099514644,35.615872782123915],[128.96033679567793,35.61674490427282],[128.9606225974959,35.616923175079414],[128.96085775223236,35.61760379020087],[128.96083460335106,35.6181742839398],[128.96040790376017,35.61915648381517],[128.96030604433415,35.619995401788685],[128.9594025354,35.620610170926234],[128.95897183808,35.62149659670387],[128.95794617046928,35.6222162864339],[128.9562694293113,35.62245040610142],[128.95492473070433,35.623150845366034],[128.95414897071947,35.62363860074125],[128.954085277402,35.623784651925355],[128.9535951161956,35.62382444135882],[128.95337854069845,35.625517605316965],[128.95135038636772,35.62652999714554],[128.95078237563402,35.627268530918094],[128.95030687422084,35.62877877154603],[128.94846833202405,35.6295686884506],[128.94805807797272,35.62961716845437],[128.94770897931758,35.630008857726],[128.94730739851073,35.630680684491516],[128.94678879575162,35.63078629376528],[128.94591241185063,35.630810865936446],[128.94538337621003,35.630979342790894],[128.94554599606494,35.631343643221854],[128.94542253172523,35.63167822858645],[128.94482997747764,35.63198251314124],[128.9431625372141,35.63235715708047],[128.94159644024472,35.6333034108921],[128.9403503778185,35.63329700448228],[128.9385954824059,35.633637030783525],[128.93824093215858,35.63399069083414],[128.93677980125375,35.63463235611125],[128.9355662169615,35.634372308671935],[128.93522733025955,35.63410726321236],[128.93432789402593,35.63384193189275],[128.93392975856963,35.634046676102805],[128.93297090160593,35.63389338625046],[128.93232783651501,35.634357224055],[128.93120783071294,35.634334166144654],[128.9293007774913,35.635585092663455],[128.92776983683922,35.63583442015647],[128.92710898231704,35.63603585521426],[128.92587254934566,35.636566871268194],[128.92454961822017,35.63698892038098],[128.92359709818385,35.63784484476108],[128.9226670950622,35.63841333303906],[128.92237051885235,35.638470491469775],[128.92185947501412,35.63819016749888],[128.92069903098928,35.63821863343968],[128.9198576996872,35.63864263417849],[128.91859145870876,35.63867122543071],[128.91801832586134,35.63878120178306]]]}}
