{"type":"Feature","bbox":[128.27404180914874,35.1640128434158,128.5916519750005,35.40151195789975],"properties":{"regionCode":"48730","version":"vworld-20260909-3f8952dfda77-p2","name":"경상남도 함안군","attribution":"국토교통부/K-Geo플랫폼 · VWorld 법정구역정보, CC BY 2.0 KR; 두꺼비집 가공"},"geometry":{"type":"Polygon","coordinates":[[[128.5439121466596,35.37970015500837],[128.53979369560153,35.37974190962834],[128.5312814006946,35.38498592232203],[128.52459306088795,35.38802199924972],[128.5218492982669,35.38855409865768],[128.51500042402282,35.39573719394547],[128.51273525677996,35.39933327886327],[128.5119857248324,35.40151195789975],[128.50167554874093,35.400553058263746],[128.49428884624768,35.395652018355555],[128.49082550010468,35.3920322039586],[128.48772909230186,35.388413842895595],[128.48443506720105,35.38479551724801],[128.48335370278977,35.3843586925479],[128.48192730390664,35.38270340551647],[128.48011751504598,35.381170764099444],[128.47061218170495,35.38025961740662],[128.46930294691828,35.38016796300568],[128.46687258771058,35.380172610395675],[128.46136385587235,35.381089286666125],[128.45585350829677,35.38222847682947],[128.45034005777845,35.38380047620301],[128.44897746380573,35.3846376300917],[128.44481817721626,35.38656828103182],[128.44175330289295,35.38820961135951],[128.437962491714,35.391797216127664],[128.43732256946288,35.392750229181964],[128.43377557863462,35.391777613532916],[128.43137149235466,35.391030563403916],[128.42829276112616,35.38886894696148],[128.42455360162614,35.38452348796866],[128.42283618440348,35.382338750650874],[128.42190253403407,35.38090557642035],[128.42048400114373,35.379533630952956],[128.41978070354259,35.37838333275939],[128.4197539551973,35.37729003250444],[128.42071596000028,35.37538369138654],[128.42184832428478,35.373694862279876],[128.42499857219204,35.37010470115018],[128.42845080904837,35.36651497997785],[128.42876442049715,35.36578988477718],[128.42846063896633,35.365122536565835],[128.4270466423373,35.364167535553605],[128.42457908703284,35.36289222521515],[128.42371213471375,35.362802566076475],[128.42297762985797,35.36251913960513],[128.421219967037,35.362068475091014],[128.42024465242585,35.36196520498007],[128.41747068418678,35.36285706897031],[128.41582772629172,35.362666881646796],[128.41427435504676,35.35923736621299],[128.41483980352243,35.35881991928722],[128.41463315879048,35.35833605540958],[128.4120027866423,35.358669386562596],[128.41027046579154,35.3592178522057],[128.4064858884313,35.360817290702165],[128.4009850382989,35.360756683581094],[128.39548588351667,35.360472729829375],[128.38998776865694,35.36005521185414],[128.38729626657064,35.359709229256154],[128.38449687536098,35.358695712928906],[128.38307974821882,35.357010162404116],[128.38246550128991,35.35547342437551],[128.38158851866118,35.35408242258183],[128.3815276286456,35.351863377511535],[128.38266460326935,35.35026218117805],[128.38457613631476,35.34827261777864],[128.38949488999756,35.344693505871525],[128.3901109503401,35.34370877266579],[128.3930616567821,35.341106260876025],[128.3956573201372,35.3375134922468],[128.39643365871592,35.33570750880136],[128.39647436243862,35.335152568702505],[128.39568420333674,35.33391022718058],[128.3901935172154,35.33274474110259],[128.3846904433319,35.333231258167025],[128.37918356457473,35.334152229911766],[128.37368209415246,35.33446196255124],[128.36817212394527,35.3358058178465],[128.36266340448876,35.33696730399863],[128.35539544462893,35.33934133311652],[128.35464375636965,35.33967744386947],[128.35161905738988,35.342591931706295],[128.35030002721174,35.34448873426174],[128.3480684025127,35.34808192173493],[128.34568139482866,35.35167422686668],[128.3426465361934,35.355262942136584],[128.34050229322668,35.356919348497634],[128.3392783563794,35.35811156803656],[128.33833252535214,35.358844579249904],[128.3349726872891,35.36040035065656],[128.3329445069728,35.36114731406682],[128.32945823446576,35.36199641883764],[128.3274920167882,35.36238982675413],[128.32394966897004,35.3628608011869],[128.32210671645842,35.36278280271314],[128.3205290685195,35.362613314012805],[128.3184555582906,35.3619950106164],[128.31760227001703,35.361880674747006],[128.31648194586873,35.36136122547511],[128.31386648863443,35.358707869187974],[128.3125270725858,35.357048656589626],[128.31202124603539,35.35509213949384],[128.31178354787366,35.35148557271589],[128.31201344207452,35.347881660435455],[128.31288143251425,35.3442813872081],[128.3136468138115,35.34052033607758],[128.31398059395906,35.3370771922349],[128.31491804490238,35.33347729910662],[128.3168429747016,35.327977852235286],[128.3172312254298,35.327137852417515],[128.31789172799841,35.32628361371272],[128.317470300979,35.32532042198297],[128.31328155772667,35.323399649607396],[128.30719069052554,35.32214735205914],[128.30232858308375,35.31823346872296],[128.2977152007457,35.31535223989119],[128.29686359660283,35.314385469299644],[128.2949434594557,35.31163665105509],[128.2930365280374,35.30811444388818],[128.29047388023963,35.3020865247485],[128.29057848449594,35.29728430556729],[128.29154256974658,35.294114657504515],[128.29448629707676,35.29009671541695],[128.29708293834707,35.28907691293721],[128.298424952283,35.28752071174045],[128.29946616554733,35.28652046416335],[128.30125544416055,35.28442684266853],[128.301631524314,35.28292774809668],[128.3006880502664,35.28197050208924],[128.298676957822,35.28045186400706],[128.29716213653109,35.27993132598223],[128.28619672307155,35.27695919797725],[128.28245153753656,35.275604772238594],[128.27917622651933,35.27198001687851],[128.2778674618992,35.268366933182705],[128.27762303509505,35.267027044501845],[128.2769289822553,35.264756061043855],[128.27666457663048,35.26308184770229],[128.27570059035764,35.26114344383633],[128.27404180914874,35.25739383942994],[128.27521458498293,35.2572539436001],[128.27675039626718,35.2568707439179],[128.27746236787524,35.25677371522418],[128.2779159084552,35.256550653832896],[128.27855446467538,35.25604310948799],[128.2797146880571,35.2556576086271],[128.28059210474876,35.25513868230752],[128.28190950630375,35.25381789623942],[128.2827659967002,35.253337793065434],[128.28544166522423,35.2522540570337],[128.28639426882506,35.251567963468545],[128.2883843093162,35.25197384046439],[128.28891352334534,35.25202226858381],[128.2893520511648,35.25220775129261],[128.28955330122594,35.25247285166533],[128.28967529303324,35.253038880869035],[128.29052304874017,35.25324026978686],[128.29192574569208,35.25334866599543],[128.29249892422118,35.25322765037],[128.2935843136626,35.253449905784926],[128.29387794374458,35.25302737616406],[128.29440317910363,35.252973447894085],[128.2950452110925,35.252376906906804],[128.2955754752448,35.25215573890665],[128.2971552480734,35.25090194563336],[128.2978914044566,35.2506174369668],[128.2986110138387,35.24992215128384],[128.29848562642167,35.24932031551563],[128.29821958170555,35.248853889022556],[128.29841401853795,35.24834308635378],[128.2973834261059,35.24665145037997],[128.29702581274168,35.246444519481386],[128.29626819873613,35.246257613441344],[128.29606967860218,35.2459903943254],[128.29574718411203,35.24498854702759],[128.2952644168345,35.244226886114355],[128.2940117005557,35.2431990503473],[128.2938339344305,35.24285482665578],[128.29403393156437,35.24213344473752],[128.29374826041115,35.24084991574013],[128.29498241470404,35.24055719306279],[128.2956508521431,35.24027627716078],[128.2960497441624,35.24021803495359],[128.29661958121258,35.23972582256696],[128.297259565233,35.239574968361985],[128.29751099107744,35.238957180132715],[128.2974479066712,35.23790094321953],[128.2976035311113,35.23750516074685],[128.29879307382726,35.237613105762264],[128.29938262585728,35.23779027230964],[128.29973754821853,35.23771944867619],[128.30097443912962,35.237963411229124],[128.30176474578187,35.2383618059685],[128.30254758000078,35.23783021019886],[128.30276099574237,35.23745374512669],[128.30357655230222,35.23718846558227],[128.3037254609665,35.23645620076823],[128.30457745046573,35.23481372026017],[128.30615322778485,35.23400364042535],[128.30702880729243,35.23259984204936],[128.30806542276585,35.22933705506837],[128.30779262908388,35.22900573767885],[128.3077019715212,35.228410537862075],[128.30746369747266,35.22798903951511],[128.30718616627047,35.22771124170451],[128.30607237780936,35.22542526890187],[128.30619786711821,35.22515308688863],[128.30589528084323,35.2243747242908],[128.30581680777593,35.223934317650205],[128.306315771258,35.22297742807365],[128.3071426931554,35.22182338145557],[128.30731011372518,35.22178407344801],[128.30743030852722,35.22151235998095],[128.30883034027613,35.221638217146534],[128.3093428237204,35.22156194689496],[128.31187526035148,35.22211620913591],[128.312720860808,35.2220939025612],[128.31383534989658,35.22188354779403],[128.31452205246458,35.221906039122786],[128.314795967865,35.22180580258896],[128.3152097178124,35.22203729336566],[128.31542896441982,35.222465355507836],[128.31623420208732,35.22272142128064],[128.3175118546627,35.22215663973164],[128.31830275274314,35.22166630391242],[128.3187849021215,35.22097761897306],[128.3192912117682,35.2206175229765],[128.31971274492793,35.220697724912334],[128.32013204354084,35.220619957145914],[128.32038094349394,35.2202233834421],[128.32030415234598,35.21948681453209],[128.32068950508216,35.21902417806897],[128.32091148128993,35.218430871382786],[128.32137785382872,35.21821770301447],[128.32156852418007,35.21758451157277],[128.3219051072727,35.21696773709021],[128.3219928521457,35.21619522525946],[128.32216757325267,35.21569106332399],[128.32173341552436,35.21497094601712],[128.3222971973317,35.21380597668601],[128.3226899247366,35.21327282084078],[128.3235981466542,35.21319561493058],[128.32424504264773,35.212490923790305],[128.32547651759072,35.21148218700256],[128.32622690943316,35.21133325202688],[128.3264620856378,35.21092201138205],[128.32655906842882,35.21027162137876],[128.32694939401446,35.20981695044362],[128.32672983543003,35.20940153594494],[128.32697935584963,35.20876598240376],[128.32692829885957,35.20857578783779],[128.3271717898518,35.20806820557957],[128.32745952947297,35.20768661351904],[128.3280165007313,35.207488136332174],[128.3282771401239,35.207146746090494],[128.32869986339023,35.20687415698557],[128.3297802389862,35.20672792208769],[128.3301474531471,35.20709856569039],[128.33092418517532,35.20689858624093],[128.33192611762925,35.20693941755267],[128.33320167982697,35.20749895060878],[128.33417638987737,35.2074370435239],[128.33503597234787,35.207482607749185],[128.3363013560814,35.208365087960914],[128.3381404117057,35.208861961054836],[128.34007205314586,35.20771197308746],[128.34110456307675,35.207617962002395],[128.3417172363798,35.20793571949587],[128.34249872633112,35.20795696651144],[128.34549633189005,35.208438538803044],[128.3466230364066,35.208476036120025],[128.34729511167015,35.2088098649111],[128.34839536224243,35.20880254962503],[128.34924911202538,35.209808131277875],[128.34962792381094,35.21009371697204],[128.35024204708662,35.209905757101915],[128.35293216598646,35.2095351787209],[128.35381766056986,35.209068781582694],[128.35388353828827,35.20888740588149],[128.35386213316636,35.20823834058511],[128.35442989859894,35.207933057036826],[128.35567910053746,35.20777191418694],[128.35665129490894,35.20698541872174],[128.35716194012087,35.20675349405665],[128.35793853614064,35.205798316178004],[128.35875085941936,35.20422309973509],[128.35860020103925,35.20391135572306],[128.35864517056902,35.203495259759855],[128.3599754979972,35.20115930996539],[128.36051949158932,35.201004570656806],[128.36105391308823,35.20073100329049],[128.36127505081205,35.20037322373307],[128.36173636887247,35.19916370120969],[128.36261954183902,35.19883302615807],[128.36347573414,35.19835070321456],[128.3637983148439,35.19827220690725],[128.3642200716103,35.1980409660947],[128.365073901981,35.19664258877546],[128.3656782440241,35.19629356115339],[128.36592439798824,35.19508840440642],[128.3656622105574,35.194785000720266],[128.36722548605,35.194267528977406],[128.3676571366783,35.19447809723781],[128.36862076147884,35.19461369579404],[128.36949897149233,35.19422737281411],[128.36967846368333,35.194281376685375],[128.37149323702664,35.19389668513634],[128.37320353244743,35.19384017937366],[128.37408633968755,35.193063256371516],[128.3754273947672,35.19437501120662],[128.37608702988342,35.19540163211356],[128.37636863825384,35.19551945551722],[128.3764479071864,35.19594144658735],[128.3760418802145,35.19700711913738],[128.3759179464628,35.198211169332595],[128.3763048369419,35.19864157266218],[128.37727853791648,35.198852096287744],[128.37744525614758,35.198986121169256],[128.37796816954346,35.199860699214874],[128.3781632724384,35.19988597769335],[128.37880284990447,35.20037213551886],[128.37913557720842,35.20099366448824],[128.379953641746,35.201764501632375],[128.3828073713867,35.20279128098433],[128.38455423461366,35.203714054800464],[128.38471418224165,35.204126292657556],[128.38523848181165,35.20455934119461],[128.38598472500794,35.20455243299369],[128.3865388787477,35.204794732960465],[128.38743440771557,35.20558925484508],[128.39000269213895,35.206439002860115],[128.39039300247617,35.207215105904666],[128.39405606093297,35.206249761825866],[128.395711381328,35.2055084335619],[128.39737542791107,35.20528002229318],[128.3976856659229,35.20537506928907],[128.39829300587536,35.205285336605556],[128.39869185776618,35.20558532370522],[128.39909691929915,35.205370438821426],[128.3996119695901,35.20527702431993],[128.4008714587968,35.204824354292754],[128.4018362582042,35.20423223851194],[128.4019086608922,35.204074151172314],[128.4030513507079,35.20294527992572],[128.4040529199891,35.201026917917446],[128.40488379373838,35.19835538319294],[128.40635118858995,35.19629280931765],[128.40684049330739,35.19470915659833],[128.40716047925773,35.19403547309926],[128.40704105334532,35.19347925032333],[128.4068542906343,35.19327987987412],[128.4070468656408,35.192811594225326],[128.40718629299687,35.19200061100937],[128.4049308058409,35.19004973776195],[128.40446588934515,35.18951489131962],[128.40433808701408,35.18870058104325],[128.4040292199552,35.18801959730725],[128.40421458483735,35.187419582080175],[128.40399753064298,35.1871977296804],[128.40397695642594,35.18689484632403],[128.40371840637172,35.18639236990265],[128.4035594267457,35.18577088947559],[128.4031400060042,35.18502646515298],[128.4037180467074,35.18431198830844],[128.40404575473136,35.18348646129093],[128.40485426060246,35.18280570883185],[128.40509922095197,35.181801227738866],[128.40529779423784,35.1814794942764],[128.40560208882428,35.1806109366389],[128.40579879199962,35.179608528806924],[128.40783277462754,35.17915091632823],[128.4096564716638,35.17905740637944],[128.41026799295057,35.17832383334122],[128.41164745747804,35.17760672650824],[128.41405253583915,35.17526343569335],[128.4142157906171,35.17473305856572],[128.41539484495385,35.17387989503712],[128.4154278328598,35.173472528530375],[128.41602021640134,35.17257987965181],[128.4161770155341,35.17187677781653],[128.4161556337606,35.171182446160465],[128.41681350707708,35.17019715346878],[128.41727330252428,35.17020111671147],[128.41819031774736,35.169722857444924],[128.41960850584434,35.169197652917305],[128.4211561984968,35.16886872376075],[128.42244330689812,35.16814313073265],[128.42512819077353,35.16726077046863],[128.42537393872226,35.16686704155902],[128.42787276775363,35.165292495504545],[128.4292910385404,35.1651486078528],[128.42984645926995,35.16502231963421],[128.43027071484096,35.16431332513562],[128.43111280792274,35.16422209572519],[128.43183861219364,35.1640128434158],[128.43230595615287,35.16417096548773],[128.43311238540878,35.16429076596571],[128.4342858539121,35.16415011206862],[128.43472121401027,35.164347232822344],[128.43631479441783,35.164701359157554],[128.437060726561,35.16499210827072],[128.43759244246567,35.16528499426003],[128.4379806652216,35.16563363077415],[128.43888067594514,35.166842048627046],[128.4401443858727,35.16740101136093],[128.44096441889505,35.168170647899075],[128.44305385147874,35.1697835516533],[128.44399361826055,35.17018475254578],[128.44467058295754,35.16996034202279],[128.4440006385456,35.170183909768184],[128.44444122559668,35.17236439668791],[128.4451597266019,35.174801273852125],[128.44525317675854,35.17558381106966],[128.44577178751402,35.176773448489804],[128.44585433761466,35.17795629878022],[128.44581790795476,35.17884248527384],[128.44535910495222,35.18058232154969],[128.44704455418443,35.180913361245416],[128.44983876828536,35.18131925580025],[128.4524154843428,35.18210200115222],[128.45376459601863,35.18243238850812],[128.45578830656643,35.18330418157476],[128.4575777884442,35.18394483788251],[128.45792974798317,35.18562150331046],[128.45895568111635,35.18611530236629],[128.4609169759069,35.186410761282914],[128.46129066808476,35.186287418576605],[128.46140171310904,35.18631213378278],[128.46151397274087,35.18636181920217],[128.46151150093118,35.18648744733705],[128.4617123527121,35.186595995493754],[128.46242437655437,35.18682346304483],[128.46420880184894,35.18854933886252],[128.46548944359532,35.188964335510796],[128.46703432949093,35.18865817532917],[128.46755233221418,35.18864847984465],[128.46829751690623,35.18851348901786],[128.46876302512115,35.18857196335892],[128.46953568616738,35.18833386070345],[128.47028195611978,35.18844182986519],[128.47228249183763,35.18828100131714],[128.47328738673613,35.1885713482966],[128.47642139613214,35.18875522983018],[128.47706905539545,35.188271045278185],[128.47814146491615,35.18791737422769],[128.47867687348594,35.18782226820952],[128.47904516662663,35.188015498630904],[128.47988106786906,35.18882698302872],[128.48015188363158,35.18929056775305],[128.4813279214039,35.19040950279092],[128.48176580483747,35.19108273691032],[128.48214608525936,35.192029202727255],[128.4821029695511,35.192139851983605],[128.4829295592226,35.19277532412317],[128.48325738174498,35.19323029291834],[128.4837673359363,35.19452330475819],[128.483919526335,35.195189699053344],[128.48444053426317,35.195595224787475],[128.4847080814451,35.19612393637299],[128.4848683121615,35.19683998730966],[128.4852909779735,35.197629771036716],[128.4869558933755,35.19789627593323],[128.48768924057592,35.19877875429414],[128.48838185794278,35.19912695364061],[128.48868797494094,35.1999599842618],[128.48939794892215,35.201435926099975],[128.48994821544164,35.202174475420165],[128.49006962625722,35.20257178392429],[128.48994336631606,35.20323786887183],[128.49044444391666,35.2047207805249],[128.48979586060213,35.20500223113334],[128.48953160152837,35.20701097213092],[128.48975508239408,35.20731598295051],[128.48939896161465,35.20744161429128],[128.488874828391,35.20804557940569],[128.48632996778625,35.2101105781242],[128.48569938802353,35.21042629322158],[128.48542025069173,35.21096357730246],[128.48459268042396,35.211767768811455],[128.4840387451098,35.21214335387375],[128.48333072791021,35.212108951848585],[128.4827790949892,35.21221827346688],[128.48173067369302,35.21251644058737],[128.48136545235027,35.21271188250555],[128.48056928426473,35.21264981783488],[128.47978557662455,35.212691475936914],[128.47912084290698,35.21291082690515],[128.47874287803967,35.214319253364394],[128.47854788734458,35.2154522368684],[128.47853204891106,35.216740119245145],[128.47870172684475,35.21707127531284],[128.47857432738238,35.21780613619501],[128.47822938628408,35.218013485338425],[128.47800896374494,35.218497423881054],[128.47680194307938,35.21884694290492],[128.47611790454772,35.21950006504605],[128.47576460953772,35.219601406048895],[128.47531286369187,35.22000261509401],[128.4749407393516,35.22135855529355],[128.47416289135032,35.2223633904087],[128.47499213492455,35.22391827303498],[128.47506070386635,35.22435699469041],[128.47533506904588,35.22467982248589],[128.47491091016147,35.22723615643516],[128.47410623033733,35.229524007137684],[128.475152993302,35.23078336379174],[128.47539807034357,35.231210991252574],[128.47548239758837,35.232897857972155],[128.4750877988549,35.2340449533738],[128.475381028339,35.234504648958044],[128.47536526807178,35.236487735680484],[128.4757963640481,35.23685917655466],[128.47568331985738,35.23716625540924],[128.47584361264546,35.23786809200634],[128.47544745060455,35.2383014229384],[128.47534339923286,35.2388707971005],[128.4746330136038,35.238949545840455],[128.47435529712823,35.2391819859994],[128.47419283449736,35.239692173487704],[128.47379742448715,35.240061166432895],[128.47365967159726,35.24043560533106],[128.4743530662984,35.2409321706956],[128.47456371541645,35.24126718485829],[128.47462216575371,35.24145644594689],[128.47445447673363,35.242038563592125],[128.474472485924,35.242466469189004],[128.47480648518163,35.242841414231414],[128.47496478309415,35.243565524062895],[128.4752087809034,35.24414630520664],[128.47533479957235,35.24526684382511],[128.4759576170629,35.24563297432548],[128.47624387215674,35.24641089819092],[128.4763309339082,35.247187822686826],[128.47609269142708,35.2475950692584],[128.47536556045316,35.24833578045822],[128.4754556548487,35.24871542985047],[128.47590937743405,35.24918783882595],[128.4768356099255,35.24952551841649],[128.47701773868545,35.25002053064252],[128.47744708816953,35.250386270757],[128.47761721392445,35.250907907636886],[128.47759968458445,35.25152701352845],[128.4782276894017,35.25189294893196],[128.47895445523253,35.25337064480824],[128.47975627365625,35.2538158499853],[128.4804585363305,35.25447767463127],[128.4814530601062,35.25563072502313],[128.48205951101312,35.255813447437454],[128.4830202555555,35.25623433549316],[128.48430901945966,35.25645259908434],[128.48469041806916,35.25714204910337],[128.48531686905162,35.25763857580373],[128.48608341907453,35.25799346970962],[128.48660431845394,35.25799638801715],[128.48752332923027,35.258909746044104],[128.48793507037084,35.25921770475307],[128.48821346913525,35.259677368110786],[128.48832648087296,35.25992158303287],[128.4884863391668,35.26155602210549],[128.48840929972286,35.26212300036392],[128.48831969846498,35.26213792804729],[128.48852408098628,35.2623009447424],[128.48870964879174,35.26277297661627],[128.488678600019,35.26316220638326],[128.48892379160196,35.263363591706415],[128.48914337780255,35.26408884814038],[128.48940658456118,35.26445909220103],[128.4895282213853,35.26482644515785],[128.48970476469776,35.26469861730484],[128.48964404483823,35.26477025312484],[128.48989421991286,35.2650255418874],[128.49089345816802,35.26585128510561],[128.4909793127748,35.266373603721746],[128.49075898203395,35.26751880389266],[128.4909176081261,35.26812094899389],[128.49087781880314,35.268544262885214],[128.49022125214566,35.269216069090184],[128.49021565698425,35.269545719847656],[128.49046248014687,35.270116580799176],[128.49063436562116,35.27108869234546],[128.4905556840915,35.2719234824447],[128.49070315959142,35.27255299200294],[128.490729080308,35.273503152684704],[128.49101338756745,35.273880252502146],[128.49112229343447,35.27394966617416],[128.49174130741127,35.27387676672871],[128.49249919761834,35.27408205662605],[128.4930703922939,35.274379372064814],[128.49378915481674,35.274609682215534],[128.49445435901308,35.27427737202167],[128.495101227971,35.274223976308846],[128.4952907612359,35.27428814431593],[128.49545710090456,35.274525646373675],[128.49596257554583,35.27483652315917],[128.496240616192,35.27530701866089],[128.49717767797972,35.27556390279728],[128.498243506714,35.275006913763036],[128.49876331555464,35.274818647292705],[128.4994025917348,35.27485844685851],[128.5000729458677,35.27449834465758],[128.50061663471885,35.27444880918752],[128.50088944628396,35.27400050708089],[128.50135575449696,35.27377704319726],[128.5024261175017,35.2737220371024],[128.50319378091615,35.27338862541196],[128.50373516167005,35.27374790366413],[128.5050329455111,35.273745287819054],[128.50555063258378,35.27365826330752],[128.50572880538806,35.27376560221192],[128.50710909039296,35.27335761920206],[128.5077459190412,35.271994866389456],[128.50863027677136,35.27059617768222],[128.50859003731992,35.26993133560769],[128.50885226887772,35.26924008480101],[128.50942647738867,35.26873704121253],[128.5101886574117,35.26855217653253],[128.51067270262794,35.26856654380422],[128.51128788505085,35.26899921781479],[128.51224111891094,35.26869792154013],[128.51472031415992,35.268873098876135],[128.5156411944046,35.2685104289736],[128.51687782770048,35.2686395019843],[128.5172429536717,35.26913062303684],[128.51804400354217,35.269144195535496],[128.51851862085044,35.268850669867824],[128.5193136871759,35.26903731125955],[128.52061320828352,35.269672355543236],[128.52140573887047,35.26983903096153],[128.5218261724665,35.2700583635363],[128.52309177763505,35.269929831541425],[128.52360726599002,35.27016988821422],[128.52447446766692,35.2703583592027],[128.52514785400666,35.270220409982606],[128.5243257768371,35.26965931778785],[128.52441002519268,35.2691623449258],[128.52543173861173,35.26887925308994],[128.52615088023342,35.2685654032926],[128.52748539284258,35.26857829866563],[128.5281859351974,35.2681205589645],[128.52860576262788,35.26762152787512],[128.52876170653474,35.26767372327178],[128.52919562682936,35.26830714590691],[128.5294766067165,35.268460689302444],[128.52939275221033,35.268787281760645],[128.52949814763204,35.26893645821142],[128.5296235295702,35.26895745648663],[128.53036890057234,35.268265915752835],[128.5308127751327,35.267984069493416],[128.53210902971415,35.26737684619842],[128.53236332233314,35.26734820483403],[128.5327247895695,35.26647293346957],[128.53334710074935,35.2661781397426],[128.53346071344828,35.26643267582364],[128.53423907515392,35.26663515696431],[128.53505149626093,35.266689035661734],[128.5352363707428,35.26680734960635],[128.53495145996845,35.26787998212271],[128.53535236650822,35.26802269202686],[128.53555524516727,35.268327006069235],[128.53550847911313,35.26903133353085],[128.5365791384239,35.26976156266615],[128.5366432917108,35.270652586750366],[128.5376883778026,35.271758249848816],[128.5382967971161,35.27176887964027],[128.5387059817133,35.27193832135675],[128.53915494992174,35.271638706030075],[128.54153147669211,35.27125020738247],[128.54313987543287,35.271177826546726],[128.5438403353326,35.27076929193403],[128.54462677801465,35.27058310969802],[128.54513253759205,35.270752350278244],[128.54584508610645,35.27153476748033],[128.5470921424383,35.27209801478384],[128.54779865425405,35.27269068969665],[128.54807797106562,35.273321149198175],[128.54966365327593,35.27331863718137],[128.55195871669773,35.274791146837295],[128.55428020336547,35.275454634204195],[128.55532528956496,35.275998053603026],[128.55547718700615,35.276514279975416],[128.55698210756105,35.27707710920109],[128.55829763676005,35.27705902334245],[128.5619007273649,35.27583630605724],[128.56252063486355,35.27597314412623],[128.56422313444207,35.27533864135088],[128.56492354441357,35.27449958199129],[128.56718698297618,35.27370681331421],[128.56820239061582,35.27405902281],[128.57524618814386,35.269704417535735],[128.57768838121666,35.26906162709233],[128.5785106980784,35.269173412393705],[128.58018848995556,35.2697150535735],[128.58139006327093,35.27046029464125],[128.5821439126111,35.27062512142389],[128.5830089083854,35.27063631905281],[128.58382849550864,35.271146039034534],[128.58590388587024,35.272095689701295],[128.58746519689217,35.27217182865393],[128.58983593288886,35.272723293505734],[128.5916519750005,35.27323966357818],[128.59027899224725,35.275519666196665],[128.58937476104856,35.277866612250065],[128.5833902880789,35.278429777653],[128.58286449311368,35.27882206113178],[128.5819366343787,35.28050877523605],[128.5817163758677,35.28110228867606],[128.58159579344758,35.28225089376725],[128.58161790335913,35.283045390658906],[128.58124320844502,35.28407590347695],[128.58188664800366,35.28517552954968],[128.5814780615322,35.28769420947191],[128.5796311238499,35.28870401787591],[128.57691484789981,35.29090453325151],[128.57658304922361,35.291609932679364],[128.57638236498536,35.29356150929245],[128.5746848420799,35.29571140443881],[128.57441875342047,35.296844516762704],[128.5736450072269,35.29911871416724],[128.57272756252425,35.300538606046295],[128.57254821410191,35.300631004346435],[128.57267021907936,35.301346935728176],[128.5732629619197,35.301611517624245],[128.57550262553613,35.30290474156118],[128.5755868373203,35.30366352810864],[128.57626356151593,35.30444237148223],[128.5772359046217,35.30516857880596],[128.5794420550448,35.305915017089006],[128.58090029101348,35.30685035818812],[128.58158325051414,35.30803226904992],[128.58212883654872,35.30850739617066],[128.5825729688295,35.30864667848775],[128.58193048382347,35.308832111241834],[128.5816585093774,35.30951111215811],[128.58125197950102,35.30987585655959],[128.58077745782754,35.30997195384127],[128.58034918355747,35.31030092931221],[128.57913340188173,35.31090975628716],[128.57880736709487,35.31143808706944],[128.57834162726436,35.31267933339554],[128.57808429516768,35.313031867225966],[128.57730444490153,35.31337166264929],[128.57692598923646,35.31334630402963],[128.57640078365162,35.31289611382875],[128.57605418689238,35.3128221037329],[128.5754112309825,35.31309974274153],[128.5745671829771,35.31389393965332],[128.57446329117087,35.31416763014822],[128.5735018878298,35.31485872437549],[128.57352494016058,35.31530386883487],[128.57323043307215,35.315253301645406],[128.5724053314152,35.315531949080494],[128.5720285391307,35.31591084873673],[128.57197583411104,35.317372579149406],[128.57252617343653,35.31815486792808],[128.57211503065062,35.3186793579912],[128.57198037213666,35.31925171089032],[128.57250190859483,35.32013080550931],[128.57153745182288,35.320993724005376],[128.57136750286543,35.321476874586985],[128.57160023316925,35.322041026065435],[128.5710200796474,35.32179594819679],[128.57065102022668,35.32179606037087],[128.56988512064822,35.32246564588868],[128.5698782069249,35.32332887469556],[128.56954517445774,35.32362849001564],[128.56904889290462,35.324380158781075],[128.5690098806126,35.32479663196594],[128.56855236975775,35.325153281334515],[128.56789664970123,35.32480014094149],[128.56762615039003,35.32533850649945],[128.56685199401164,35.32629812063905],[128.56542724537735,35.327303294461224],[128.56482278865667,35.32752014195779],[128.56497525134344,35.32799473314715],[128.56493849568733,35.32845828152466],[128.56577249424745,35.32902533436406],[128.5659968559435,35.3294886057164],[128.567277666696,35.33025506897981],[128.56813924854706,35.330893385178925],[128.5684382460352,35.33177543982413],[128.5683776994328,35.33192550330649],[128.5685240545684,35.33232370037535],[128.56858692273266,35.33295297958527],[128.56879250578916,35.33343731308314],[128.56967880359588,35.3343021511511],[128.56971700960403,35.33473190701797],[128.57009527447244,35.33605171092126],[128.5695925746928,35.33679959236896],[128.56938475211655,35.33734157565755],[128.56816524907148,35.33793011210821],[128.56784002012708,35.33830974556238],[128.56727958965354,35.338244828807774],[128.56647971549455,35.33864307126854],[128.56564856739317,35.339490969538105],[128.56552721644212,35.340217280026245],[128.56534255985002,35.34033702450318],[128.56499210468343,35.340897249640975],[128.564593026283,35.34113481868987],[128.56489360261406,35.34141803813275],[128.564981535712,35.341916796081904],[128.56580423161688,35.34241401276707],[128.56458198802997,35.343784280238864],[128.56415450329962,35.34482049206958],[128.56426403689412,35.345053716226886],[128.5639129718444,35.345412884746146],[128.56371366209152,35.34588343268887],[128.56347748376564,35.34604227028674],[128.56304738104984,35.346005579297284],[128.56298372911755,35.3461764969337],[128.56289011024268,35.34621124900183],[128.56271905270057,35.34679168767998],[128.5625228938256,35.347007485235274],[128.56231337247857,35.347008497467975],[128.56226454616728,35.34713437007961],[128.56238546709875,35.34739058320058],[128.56278314549309,35.34765172748224],[128.5627189882433,35.34787947438814],[128.56288407942037,35.34815018284833],[128.5633642342031,35.348435683429706],[128.56400052420548,35.34861545177262],[128.56405227618612,35.34871363020274],[128.56389485767073,35.34893457803982],[128.56393140730907,35.34920343378719],[128.56408400502085,35.3491621314824],[128.56429190011752,35.3492140747648],[128.56464067783511,35.34909160593642],[128.56496054188543,35.34923722128909],[128.56493461623955,35.349733701624004],[128.56462326609298,35.34971958757565],[128.56436455896844,35.349807558068434],[128.5638884370103,35.35001643329897],[128.56369175194396,35.350264620619974],[128.56283737563135,35.350537933381844],[128.56253933938197,35.351107133816306],[128.5606091475443,35.351538472868505],[128.56016263984054,35.35177825055645],[128.5601168559552,35.352041554226936],[128.5598437645198,35.35253342642063],[128.55953007600888,35.35270437608241],[128.56110639184124,35.3543029038809],[128.56128971523734,35.35473364120507],[128.56190141463318,35.35503492633886],[128.5617581903924,35.35581573688876],[128.5614403583427,35.356359144677185],[128.56125073598767,35.357126092690706],[128.5618786270029,35.357040437634744],[128.56221182633587,35.357117802187005],[128.56260839599642,35.35702621667587],[128.56307165750223,35.3570275215656],[128.56320401783853,35.357113067797066],[128.5636465876549,35.35718750053244],[128.56419081689356,35.35716190666343],[128.56452112247598,35.357331542401354],[128.56539821275243,35.35720706534087],[128.56668031674758,35.357358135266054],[128.56741531996633,35.357358652976224],[128.567832236372,35.3578895963956],[128.56876571584536,35.357749043345],[128.5697033017674,35.357858498148474],[128.5706357897495,35.357832882115055],[128.57076214196022,35.35791732631728],[128.5709987983499,35.357904393312126],[128.57117319191408,35.358319561394055],[128.57135015432536,35.35837066639003],[128.5712677540029,35.35897352165402],[128.57139703786405,35.35934216794565],[128.5714257096497,35.359899169308854],[128.571323605465,35.36070370080848],[128.5713800294524,35.36166222580153],[128.57169519461593,35.362022084237],[128.5725804039776,35.362549088990306],[128.57318222155044,35.3627269927367],[128.57341655467982,35.363076986349704],[128.57387866899407,35.363219300992604],[128.57401759849594,35.36351198196909],[128.57441746320947,35.36390932402489],[128.57463709083956,35.36428339335752],[128.57472570084474,35.3647999790184],[128.57495216456095,35.365329382197885],[128.57578660722984,35.365465716735876],[128.57709211694763,35.366060614224],[128.57691326143973,35.36649402011747],[128.57691758057385,35.366849843104724],[128.57649797189697,35.36736999434815],[128.5761743612176,35.36762593923659],[128.57620024305788,35.367732150503],[128.5759349939889,35.368180490856695],[128.57593507421828,35.36832902751269],[128.5757262269647,35.36857559108562],[128.57566164335304,35.368911616206056],[128.57497872044175,35.369489798235776],[128.57501200434484,35.369717136409335],[128.574828181535,35.36997441083138],[128.57485593702202,35.37023096613904],[128.57499086800664,35.37028897079678],[128.57491588927346,35.37072681593966],[128.57433697183453,35.371165294638125],[128.57406466371472,35.37208622478365],[128.5740832984799,35.372164829654324],[128.57430741478984,35.37221744384634],[128.5743591896378,35.37284542728598],[128.57450391774282,35.37309227768012],[128.57498945201195,35.373642704593124],[128.57526418811216,35.373803596613186],[128.57520446339785,35.37404110318877],[128.575412849328,35.374234032518636],[128.57551570345152,35.374827547222715],[128.5758358015452,35.37509837799993],[128.5757719766267,35.3752544964277],[128.57593071870147,35.37589425198221],[128.57577461078006,35.37636144482589],[128.57608606618257,35.376394388620696],[128.57620757825507,35.37684737514922],[128.5764365133047,35.377124615318586],[128.5766113855948,35.37760704758998],[128.5763891251101,35.38080366753689],[128.57142611872234,35.379531601894534],[128.5659282288323,35.3786540156408],[128.5549234390733,35.3785988676518],[128.54941830540835,35.37906340488527],[128.5439121466596,35.37970015500837]]]}}
