{"type":"Feature","bbox":[127.5061896242147,37.67561999959654,128.0296079209108,38.085024555810804],"properties":{"regionCode":"51110","version":"vworld-20260909-3f8952dfda77-p2","name":"강원특별자치도 춘천시","attribution":"국토교통부/K-Geo플랫폼 · VWorld 법정구역정보, CC BY 2.0 KR; 공공주택 복덕방 가공"},"geometry":{"type":"Polygon","coordinates":[[[127.58474236006619,38.08087709170621],[127.58317836945264,38.08108554426284],[127.58255064860366,38.08195889009913],[127.580811913878,38.08241631782985],[127.57857192835365,38.083453198586795],[127.57634089895475,38.08433621876944],[127.57558216132131,38.084805971580884],[127.57349425180126,38.085024555810804],[127.57157356079512,38.084838708290356],[127.57075070091139,38.08441977754347],[127.56863028925336,38.084238064914345],[127.56610801792475,38.083858542824515],[127.56558547704293,38.08301338184868],[127.56534913284139,38.08227313774386],[127.56547770907895,38.081723683607876],[127.56652041405393,38.08000739207431],[127.56669637300237,38.07928843872449],[127.56633551204706,38.078784940470314],[127.56636051812818,38.07810759625122],[127.56512126778398,38.07654685596708],[127.56426711110821,38.07516488611973],[127.56453303919055,38.07404024598041],[127.56423513823104,38.07254896250781],[127.56417207979263,38.07168110873741],[127.56438035565371,38.071096464997524],[127.56536330631799,38.069426665307624],[127.56545435211068,38.068360047948325],[127.56565340388532,38.067711794460415],[127.56659570057832,38.066441846341604],[127.56717154749097,38.06647650814851],[127.56807218597376,38.06676234997408],[127.56973474984993,38.06669821909371],[127.5724918620495,38.064931957067735],[127.57408886287,38.06401755735951],[127.57653696758757,38.06199428406085],[127.57693095902087,38.061570336784825],[127.57707737071449,38.06074011473959],[127.57727328963323,38.060184723401576],[127.57714431060928,38.059516346311156],[127.57730282427178,38.05909400117931],[127.57696830271786,38.05825031362786],[127.57690500080278,38.0576584063757],[127.57768591716058,38.056919428284274],[127.57861602220319,38.05678301931036],[127.57894434913332,38.05634787525481],[127.57956911189729,38.0557679482402],[127.57957683536877,38.054708755409756],[127.5791680863402,38.05415422237491],[127.57862788582882,38.05372298465554],[127.5770153613843,38.0530221664903],[127.57533799116817,38.052428805880226],[127.57499343840503,38.05181136874943],[127.57402714766542,38.050923625464215],[127.57425250872484,38.049572010813634],[127.57389621888098,38.047129341813765],[127.57545567713129,38.045443960185985],[127.5758149581108,38.04470833807359],[127.57632637687925,38.04430584747581],[127.57772287342044,38.04289661817396],[127.57823980243052,38.041754322304264],[127.5784022793052,38.04093074742166],[127.57854069042817,38.040633833525796],[127.57856409754334,38.03977994898633],[127.57712907934003,38.039105168892014],[127.57595178878898,38.03796563275804],[127.57552206821471,38.037081566058035],[127.57468951217815,38.03652289434227],[127.57398259040532,38.035527578983334],[127.57055638462624,38.03395494810885],[127.56986032419856,38.03289115560853],[127.5677139574384,38.03231802972161],[127.56687015551765,38.03193394339225],[127.56659094930045,38.03078436857467],[127.5653057927071,38.02972997463579],[127.56509382534001,38.02730573875817],[127.56431598410217,38.02632479099906],[127.56419461425327,38.02592337773523],[127.5642861714114,38.02519371871218],[127.56494023253042,38.02416199059411],[127.56437795996726,38.02291012115861],[127.56385459658888,38.02199089699977],[127.56261838452807,38.02157032483366],[127.56176099939933,38.02139277239157],[127.56100880768798,38.02103215110356],[127.55999196379524,38.0207710208517],[127.55636041308526,38.020813593583924],[127.55517558542822,38.020579487488696],[127.55378972506743,38.01998346242999],[127.55293321032191,38.01979967945751],[127.55070447552535,38.01977557971136],[127.54923780589054,38.02011272459149],[127.54843159431502,38.0201907593548],[127.5474363257938,38.02009600810896],[127.54638411971122,38.0196716964308],[127.5447603211199,38.019527516879315],[127.54486359173853,38.018583400101136],[127.54436186190452,38.01758503907886],[127.54420672105756,38.016255481455374],[127.5439033895955,38.01589998671482],[127.54380156497223,38.01475524794021],[127.54347646881888,38.01353912489267],[127.54355724179668,38.01167074387636],[127.54309898318112,38.01085730542393],[127.54290981858519,38.010161616055356],[127.54243807650658,38.00920361215216],[127.54174148499143,38.0073586071836],[127.54127063313064,38.00579377163528],[127.5410719492564,38.00400005575991],[127.54070500428443,38.00294839750811],[127.54067097262653,38.002348927352294],[127.54037562636141,38.002000198489924],[127.54031434489583,38.00116168750026],[127.53987688008932,38.00056774785032],[127.54051505608562,37.99980420565971],[127.54134616956398,37.99788182056228],[127.54229386690763,37.99427589954606],[127.54230256207039,37.99363083622481],[127.5434543462479,37.99169883777914],[127.54314259585233,37.99057606344056],[127.54332102215753,37.988768379265544],[127.54375002073189,37.98738522969578],[127.54618833333946,37.98498218376847],[127.54578045367222,37.98351502483945],[127.54655406453317,37.98072075352003],[127.54778034830886,37.97838538095523],[127.54475084442096,37.97571089716935],[127.54415383627102,37.96851791062729],[127.54430064948093,37.967819077938444],[127.54524789836725,37.967745932441055],[127.54634538987546,37.967085165140915],[127.54768425414635,37.966638657570186],[127.54889516492928,37.96596714990725],[127.55070974785322,37.96629729944026],[127.55150218008154,37.966324479842086],[127.55447539787987,37.965409650946],[127.55624384791525,37.96414112525953],[127.55692525189698,37.9639711764208],[127.55842301194255,37.96314146029763],[127.5610301187927,37.962676034372414],[127.5619143391153,37.96276040229077],[127.5636686932652,37.963139947852326],[127.56461303138549,37.96344472431415],[127.56820605684635,37.96347073267188],[127.56976332513908,37.963858337332844],[127.57249640212537,37.96422561840032],[127.57419110012542,37.963818709460064],[127.57547430559413,37.96370486897588],[127.57747392027801,37.9631203615894],[127.57760632726078,37.96219442657936],[127.57859937515295,37.961677605206106],[127.57961664308779,37.96145285365164],[127.58051394836693,37.9614887634851],[127.58165878683312,37.961644248276606],[127.58263636192666,37.961348484167665],[127.58343745979849,37.961430687428205],[127.584169061187,37.96167894552473],[127.58578183452155,37.96121681564776],[127.58638802648684,37.96071601684028],[127.58783845380432,37.96048070959325],[127.58889273799356,37.95995667581137],[127.58941179823087,37.9593781335741],[127.5901505693608,37.95929816742135],[127.59116528554186,37.95876785155047],[127.5924277265015,37.95715832502571],[127.59589966254627,37.95649083655178],[127.5985554225107,37.95653261697379],[127.60038589462843,37.956156532950516],[127.60148227246476,37.95577729301358],[127.60285048149089,37.95505191945886],[127.60335285053758,37.95231966133538],[127.60330227540838,37.9506863544099],[127.6025242743764,37.94790521278981],[127.60487025449366,37.9447836495808],[127.60622872366193,37.94400243851708],[127.60894880034685,37.94309243952011],[127.61018771831176,37.94161861194199],[127.61212379488664,37.940498731940636],[127.6127213856554,37.940537189926275],[127.61313075772554,37.93935223174582],[127.61337282520599,37.93817263101566],[127.6138163903022,37.9371381350849],[127.6151866898536,37.93468587387527],[127.61570045964503,37.9319095926625],[127.6164199171196,37.930935707920405],[127.61679865537076,37.929112967403924],[127.61601455818854,37.928197740490106],[127.61545487384082,37.92729987712702],[127.61358512039376,37.92631119679705],[127.61265323522048,37.92537395089724],[127.6120276625302,37.924079860511924],[127.61211430433457,37.92094460167027],[127.61247073917576,37.920336502972965],[127.61384994520822,37.91953302176896],[127.61467735443613,37.919257946851296],[127.61488929763179,37.9167092280569],[127.61525265356214,37.91599790111567],[127.61630382441824,37.914508776840144],[127.61726791272557,37.91155102570918],[127.61742663201487,37.910818529780364],[127.61741726524087,37.908584685649835],[127.61702790731874,37.90727326105714],[127.61712778430766,37.90635518462878],[127.6170698179957,37.90599723264832],[127.61581783192146,37.90473547742091],[127.61539719644306,37.90297330252256],[127.61451745394307,37.90132729255373],[127.61441904362125,37.90005233035035],[127.61335332987008,37.89880627796743],[127.61188057551817,37.8982033627754],[127.61110456196313,37.89719227803623],[127.61062049662858,37.89533915675122],[127.61004940638071,37.894378849639835],[127.61018024420095,37.893891784140145],[127.60929945065078,37.8933060281355],[127.60895187468641,37.893279681603914],[127.60830385846795,37.892036231115114],[127.60841358632463,37.891352359533606],[127.6076297211068,37.889898372978344],[127.60778115821167,37.889612311144106],[127.60768714938234,37.88933211065654],[127.60799300953002,37.8887724290825],[127.60813651074109,37.88791731415039],[127.60758458475534,37.88727632999257],[127.60770875011207,37.88657723936803],[127.60818452678816,37.886128684944325],[127.60863753927327,37.885299069682524],[127.60875521883747,37.88414790415936],[127.60917163272688,37.88366016468165],[127.60883751692808,37.88323928223058],[127.60869756745385,37.8827700249638],[127.60872258083616,37.8822556327983],[127.60801854471573,37.881877112434445],[127.60667015849087,37.879529150329134],[127.60686753999562,37.87912609919715],[127.60616158158828,37.87849004474493],[127.60632423340961,37.87776885579569],[127.60595557966762,37.877103033777],[127.6058290269445,37.876485390720056],[127.60443343007793,37.87584306199143],[127.60366335111104,37.875027331657094],[127.6036377574046,37.87452763339597],[127.60317112557686,37.87421334219795],[127.60098973084014,37.87429684886458],[127.60046962680168,37.87439398626996],[127.59953489169447,37.8747493082843],[127.59887926429569,37.87474233841104],[127.5980716068576,37.874875864177575],[127.59754897111766,37.87535449139116],[127.59685814453336,37.87551457808861],[127.59557248234046,37.87554549543283],[127.59506933825107,37.87579347339174],[127.59418175541674,37.87602140670296],[127.59364471556734,37.8759356438303],[127.59196608493276,37.875923987286676],[127.59039659092512,37.87568143483165],[127.58808354188902,37.87613756127814],[127.58775318766895,37.876330777276074],[127.5865422965214,37.875835841094656],[127.58580043875381,37.8761160953466],[127.58503170262757,37.876127197477814],[127.5848369881375,37.876257746511946],[127.58458278492971,37.87623171034009],[127.5840063119527,37.87589382853782],[127.58347797852302,37.87574329819201],[127.58297886181904,37.87516489083505],[127.58229590614806,37.87505654615392],[127.58159482331234,37.87465036439684],[127.58130214144782,37.87474585867091],[127.58049426325432,37.87423554459028],[127.5799938919191,37.874527914274765],[127.5796698204534,37.87421196650319],[127.57920277178457,37.87409219660078],[127.57848030686408,37.87407183762392],[127.57813174276683,37.8739570678135],[127.57776988498925,37.87394460073622],[127.5775119593315,37.87361365416298],[127.57683579374947,37.873143075862025],[127.57586339857434,37.87285286924196],[127.57572243336647,37.87243396469273],[127.57539700537808,37.872248358688374],[127.57448935719816,37.8722715683105],[127.57394308839962,37.8713999461749],[127.57407742877905,37.87104218963103],[127.57348247147874,37.87024528192508],[127.57213254543633,37.86979224591522],[127.57178827477911,37.86893662652413],[127.57181309153526,37.868757596807654],[127.57070345679129,37.86822512004792],[127.56978918004963,37.86806487359851],[127.56956758429952,37.867565161562176],[127.56966371634977,37.86700837080334],[127.5691503397438,37.86704512602027],[127.56858079333483,37.86681688143942],[127.56846339364756,37.865774897955504],[127.56779118284184,37.865194940269205],[127.5674554131143,37.864708865225374],[127.56700076245315,37.863004302706635],[127.56647131277694,37.86222691924078],[127.56648598463138,37.861884674139894],[127.56590201077346,37.861228909219065],[127.5663798478822,37.86036139012439],[127.56644497789348,37.85983797811488],[127.56687273954776,37.85916485829988],[127.56538050750991,37.85854240332174],[127.56464515148144,37.858027940461774],[127.56387955295851,37.85800825722737],[127.56388758834568,37.857471451436304],[127.56362439840507,37.85712456906975],[127.56354695644399,37.85654498804588],[127.56333845740913,37.85641926822308],[127.56324654256498,37.855847316209235],[127.56084276281393,37.85625233988277],[127.55996919773703,37.856311865400876],[127.55882226714319,37.856200070143906],[127.5584552806157,37.856300044353084],[127.55745753195869,37.856107654661855],[127.55738697801189,37.85614383348068],[127.55710275094414,37.85587196650412],[127.5569128909579,37.855878286485975],[127.5563292270482,37.855485942979705],[127.55606424090423,37.85547905542938],[127.55538795522165,37.85485890858411],[127.5549991825982,37.85437594598811],[127.55461225654514,37.85413026610274],[127.55427867790205,37.85412354332202],[127.55411506712558,37.853974278381195],[127.5539775491625,37.85399590629625],[127.55398320394447,37.85393444682088],[127.55296071388678,37.853567864275185],[127.55274884860097,37.85336470440612],[127.55254719070025,37.85338676495713],[127.55213876348793,37.853152810764136],[127.55188996417739,37.8527116254396],[127.55125348935417,37.85221289427461],[127.5509713061204,37.85210107192365],[127.55045882982293,37.852053252667936],[127.55017301996409,37.851830620771935],[127.55044754670567,37.851058736426644],[127.55047989887619,37.85072812282178],[127.5498837525532,37.84872758276822],[127.54963909749759,37.846538430329474],[127.5459466157815,37.846782748128184],[127.54067435838118,37.84650635971049],[127.53720781417661,37.84515339581226],[127.5325322897215,37.84222396673563],[127.52944900727125,37.839739531619735],[127.52732794115694,37.83647191311649],[127.52561719219591,37.83302416429486],[127.52471299925465,37.82969938515727],[127.52444407955933,37.824968750006505],[127.52567527348623,37.82282215658279],[127.52790186050387,37.82159037326812],[127.53214967545492,37.82015805598692],[127.53491694362717,37.81755041921154],[127.53665529572147,37.81384230038933],[127.537328827908,37.810396554367045],[127.53296647426842,37.806772870223],[127.52958312539839,37.80306721097667],[127.5268994067792,37.7997648013906],[127.52637146847151,37.79955645066737],[127.52316458945619,37.79636857558684],[127.5208652604452,37.792633589846254],[127.52230045453308,37.789073567908076],[127.52570264706986,37.78528739719151],[127.52859787372749,37.78336309026404],[127.53172462104853,37.780442232632474],[127.53360524179733,37.778052628018564],[127.5377046549568,37.774423128215155],[127.54091839274064,37.77097400004245],[127.54315682291079,37.76740503101955],[127.54504882138282,37.763644655434014],[127.54480272418026,37.76006948536713],[127.54340226062912,37.7566731565989],[127.54204348458498,37.75489353647039],[127.53784671231935,37.751699742667014],[127.53806888057402,37.75145743468594],[127.53419801906719,37.74868245890077],[127.52945715865386,37.74615807170556],[127.52836637597537,37.74537972619778],[127.52540192779071,37.743940018817376],[127.51545291924472,37.739504587287485],[127.51398236275773,37.73859360372191],[127.51131051285851,37.736451055109775],[127.51042329747021,37.735100554340676],[127.5095440036066,37.73401134716351],[127.50718741159886,37.73136321272962],[127.50689146590705,37.73070960658095],[127.5061896242147,37.724100736095984],[127.50708511300827,37.72047462630023],[127.50916375346677,37.71725177536922],[127.50950573227749,37.71674901153902],[127.5118322118305,37.71553792605735],[127.51336018897709,37.71752503916162],[127.51955100034738,37.722410326394744],[127.52141922791935,37.723992135911175],[127.52459018555494,37.72640181456869],[127.5269967297595,37.726755772877304],[127.52949369607146,37.726329385413464],[127.53164328670877,37.72395325715488],[127.53385912179947,37.72187891345602],[127.53677858388876,37.72063008236673],[127.5400929407256,37.71942004398615],[127.54246467750237,37.71985797706649],[127.54513350533163,37.72159197732378],[127.54910178969754,37.723947402834135],[127.55096634024768,37.727579194033815],[127.55341258011445,37.72879596514227],[127.55619565578826,37.72923671313736],[127.55859289010118,37.72890947313719],[127.56199225477518,37.728088440402175],[127.5642928144995,37.7278407660976],[127.56516755359915,37.72834229144164],[127.56516991888765,37.72868455275692],[127.56643280700406,37.73112197969777],[127.56753478422387,37.73270705435182],[127.57211915297121,37.733005513135],[127.57361614253831,37.73268445671362],[127.5892216885145,37.72541125170752],[127.59172749068694,37.72264335322154],[127.59346691566624,37.72125347007004],[127.59455921136882,37.7197639310868],[127.5943388829649,37.71804746331417],[127.59299626401541,37.71662340339813],[127.59213675341877,37.71520312444841],[127.59154546931538,37.71300739559683],[127.59163941639417,37.7114683653158],[127.59196224926536,37.70943356662505],[127.5930903901416,37.707520860833846],[127.59367579421209,37.70548545914957],[127.59610517475926,37.7031340840999],[127.59924713146219,37.704151774772974],[127.60172767656435,37.70465749639775],[127.60487019063521,37.704579290806315],[127.60572002062516,37.70440159805781],[127.60704751971987,37.70379736216153],[127.60753164362006,37.70325862810804],[127.60765795377064,37.702560819919505],[127.60748633000675,37.702372501876766],[127.60954121345783,37.70066001865275],[127.6104846520476,37.69841726781223],[127.61059288664715,37.694821175855274],[127.61033972293967,37.69221628699489],[127.60890974872656,37.68919410457762],[127.60795725736284,37.68765782872974],[127.60794214162799,37.6833086241677],[127.60778726296809,37.680408514755165],[127.6078372688989,37.676788567546296],[127.60936271724198,37.675722538840404],[127.61266000083685,37.67561999959654],[127.61577212670065,37.6764332548771],[127.61851538004734,37.677702442217324],[127.61870503914072,37.677142855251645],[127.61890554976365,37.67716847483437],[127.61863919547127,37.67774711247831],[127.62112254402467,37.679116523349514],[127.6230389134572,37.68124170950551],[127.62369458985773,37.68396923370662],[127.62369719731579,37.687484303794555],[127.623362748238,37.691217918686185],[127.62613466324616,37.69480952565477],[127.63005958186628,37.69695483691526],[127.63312486965872,37.69794671632685],[127.63556271569409,37.69826960053446],[127.63818264824677,37.69849513821352],[127.63989742578427,37.69708191120686],[127.64146424651058,37.69456903527146],[127.64189672410464,37.69101395296166],[127.64149205409021,37.688450948650065],[127.6416365151875,37.687477493310205],[127.64130700367899,37.6838810434368],[127.6419217116871,37.68145953857188],[127.64259510511685,37.68031608176281],[127.64384744496616,37.679283348680784],[127.64518647172103,37.67886791420908],[127.64687264038153,37.67908682203272],[127.64943506348028,37.68022960083611],[127.65153477956503,37.68379673573346],[127.65218543114496,37.685956793414604],[127.6509889264612,37.69469165880465],[127.65104008991203,37.69830816708321],[127.65271414292147,37.699526932838644],[127.65839431479533,37.700033930858766],[127.66416784061454,37.698166745374586],[127.66697437263821,37.69747873980755],[127.67032715886867,37.69570723858701],[127.67169097744048,37.69680829906778],[127.67271746429262,37.6969857151433],[127.67356456249654,37.69621895448829],[127.67369011808329,37.69631121960957],[127.6736066637619,37.6961098795798],[127.67399080055752,37.69622211015921],[127.67415811044815,37.69619187754617],[127.67582145777244,37.695716494658534],[127.67696377481418,37.695276868403894],[127.6773797784621,37.69527718617889],[127.67781927441055,37.695155291012725],[127.6781028250755,37.696188678810195],[127.67973110701554,37.697492823751645],[127.68103754953606,37.69761819475476],[127.6818620864393,37.69834942849526],[127.68226552477668,37.698461789759406],[127.68413962016601,37.70135851026887],[127.68425097521346,37.70187825316866],[127.6835245018682,37.70372589589077],[127.68340870147046,37.70425560273866],[127.68302285096539,37.70470551557492],[127.68283006238042,37.705261616938834],[127.68287755422394,37.70568037339071],[127.68338635646492,37.70616142547683],[127.68419679460867,37.70735770138562],[127.68310422643432,37.70749961639868],[127.68266780679505,37.707803685849846],[127.68230296577593,37.70787507550496],[127.68166196211614,37.70775705634259],[127.6811404958514,37.70778925386537],[127.68058053001063,37.70793978827076],[127.6801744848582,37.70870342622324],[127.67966007340834,37.70923695878407],[127.67987382255379,37.70974521570929],[127.67976838954353,37.71048297906575],[127.67990827307457,37.71079993948292],[127.67957434116323,37.711365404210326],[127.68025983894081,37.711583995042304],[127.68162245491438,37.71169840303402],[127.68251802189751,37.71241588546593],[127.68246127279372,37.71251018242651],[127.68223553450429,37.71252887367527],[127.68234008975432,37.71255295607989],[127.68230711153926,37.71261747401522],[127.68298662045835,37.712427415461],[127.68313823054064,37.712450411021656],[127.68314298284704,37.71252354140211],[127.68298376441226,37.71253662539603],[127.6829223806619,37.71262013720814],[127.68303057859228,37.71286853348153],[127.68313384853185,37.71286334188259],[127.68305848216883,37.71273287020247],[127.68318328449139,37.7127509788338],[127.68318180371375,37.712873968010754],[127.68377278310605,37.713146509141126],[127.68428687813962,37.713666354402314],[127.68473996780776,37.71385320186417],[127.68506451461944,37.71417043610417],[127.68581130115206,37.714586666895464],[127.68631804453847,37.715143305323764],[127.68732927412009,37.71559078464641],[127.68739452339136,37.716283504512965],[127.68805507433429,37.71640921793911],[127.68986272797038,37.71635318005495],[127.69007959703264,37.7164902098784],[127.69044428705908,37.716949994816225],[127.69067921337492,37.71699141708687],[127.6913192827993,37.71692496868347],[127.69214025664769,37.716651681852944],[127.69328341429546,37.717144644670235],[127.69360378015517,37.71704347988907],[127.69398630796987,37.71704087539521],[127.69492280671949,37.71716528655557],[127.69519376205243,37.71672790310502],[127.69660252130326,37.71637895687544],[127.69729515822662,37.71653821353524],[127.69746376212531,37.71676389884301],[127.69765268378141,37.716627369360104],[127.69816964228697,37.716907394514635],[127.69872927358473,37.71643964722619],[127.6994325271755,37.71627908258424],[127.70098529648777,37.71654438118568],[127.70099644411896,37.71909570293182],[127.70303460052212,37.71939747357838],[127.70301161710783,37.719558177322114],[127.70367429241345,37.7198908803753],[127.70395395671001,37.720229079434674],[127.70502221767295,37.72085982422295],[127.70546689434607,37.720900118345305],[127.705586461906,37.72098383466942],[127.7060162926446,37.7209403432103],[127.70638349774624,37.72109275063206],[127.70754394245245,37.72121382271794],[127.7080214978183,37.721802920381336],[127.70795038052175,37.72209178548524],[127.7077671558345,37.72227223415025],[127.7079413407952,37.72268907750419],[127.70831806991514,37.72269648654728],[127.709199525017,37.72314367318951],[127.70950439547566,37.72311213863892],[127.70975837192786,37.724289789589214],[127.71014691438494,37.724531440242295],[127.71044080509834,37.72578469397769],[127.7107246863084,37.72619071760054],[127.71075713405668,37.72675771361952],[127.71124498064127,37.726987573823585],[127.71128388614709,37.7271418785562],[127.71175666152155,37.727550035946315],[127.7126097059435,37.72772622667741],[127.71285986005016,37.72770503024514],[127.71320941570566,37.72789992232401],[127.7136520146802,37.72796239619879],[127.71407510820896,37.727791093376524],[127.71509419506289,37.72781374916274],[127.71528697436901,37.72800075496382],[127.71538649456849,37.72929297410363],[127.71566253813498,37.729238777204614],[127.71593108362593,37.729340559526655],[127.71654833117262,37.72939415425395],[127.71732591840707,37.72963299623264],[127.71742415145714,37.730404548095166],[127.71779907769682,37.73075762069599],[127.71859512780166,37.730784467036116],[127.71911680550637,37.731197809113],[127.72085414313001,37.731372680578716],[127.72073214893477,37.73216047455026],[127.72110469732026,37.73300858346812],[127.72171473898231,37.73335009060611],[127.72255457593536,37.73331887413034],[127.72289863392344,37.73307163120384],[127.72347485397067,37.73297232419922],[127.72371185819644,37.7327324311321],[127.72455656163334,37.73259337235206],[127.7249751961817,37.73214674421259],[127.72584746021495,37.731887096011654],[127.7267151289822,37.732089810529594],[127.7273102192489,37.732100731536725],[127.72804203216646,37.73261501728864],[127.72847927140327,37.73269729663545],[127.72900479163097,37.73308470471601],[127.72920326307589,37.73360479328459],[127.73018922010586,37.73409077232874],[127.73022285475484,37.73430141211944],[127.73063981530413,37.73479013762338],[127.73101009162099,37.73501319089478],[127.73116989704137,37.735378400692646],[127.73159188175872,37.735459070543946],[127.73189140552066,37.73538275026093],[127.73240893308564,37.735982591014995],[127.73333035085325,37.73607139214222],[127.73339420658924,37.73624061636169],[127.73377516085486,37.73643940480722],[127.73382182659562,37.73682464822581],[127.73485108760346,37.737287197261175],[127.73631285440929,37.737364252549575],[127.73952053553323,37.73913283969274],[127.73997907922916,37.73926219942794],[127.7418747277775,37.74030027799767],[127.74306090227714,37.74162755059522],[127.74357137665268,37.74164270633912],[127.74403021150923,37.741484655913744],[127.74465004435399,37.74141593733202],[127.74559971261169,37.74186061531611],[127.74600265461511,37.74172124462039],[127.74648102835876,37.74193862972592],[127.74736677711496,37.74145322282436],[127.74783086464873,37.7409704162776],[127.74844640222585,37.74068182771698],[127.74902741790503,37.74024833391499],[127.75043113830223,37.738439230594395],[127.75052275657039,37.73781058314666],[127.7503272938756,37.737418031963855],[127.75063214892802,37.73689917094962],[127.75057826738136,37.736500081814405],[127.75077176275452,37.73633259832319],[127.75075979986616,37.73594811710948],[127.75130548535546,37.73558454891835],[127.75127117156325,37.735233787187234],[127.7510180514111,37.7348855700251],[127.75129923034487,37.73419596474255],[127.75197520115552,37.73393122925459],[127.75243401930426,37.733590307912934],[127.75272840120394,37.73312696022501],[127.75302304734134,37.73306383903985],[127.75375819262207,37.73323544553561],[127.75494088891826,37.732446511375784],[127.75506471784884,37.73270276889526],[127.75691354878074,37.73418222198813],[127.75739031781016,37.73442415125509],[127.7575782170287,37.73493784414341],[127.75791979680356,37.73532418354321],[127.75835975283543,37.735228418389084],[127.75861771925325,37.73538505879475],[127.75871561033577,37.735713778334535],[127.75920221680303,37.73596875326266],[127.75934847971496,37.73631372136557],[127.7602876732699,37.73653570882421],[127.76090424022605,37.73684606827433],[127.7615757457394,37.73686605693551],[127.76215403156398,37.73727148030523],[127.76295473511948,37.737213983977604],[127.7634662287242,37.737339099872415],[127.76371764255164,37.73743706362852],[127.7640062343919,37.737824837661655],[127.76439332470243,37.737852352882385],[127.76676762743179,37.73768747028884],[127.76728645958997,37.737795997385184],[127.76794984265376,37.73773234294343],[127.76837121088924,37.737923094974875],[127.76964375274923,37.73779518395578],[127.77012484043847,37.73762988040192],[127.77088815809992,37.73765449436642],[127.77089203760762,37.737771674278164],[127.77109196493318,37.73780670173179],[127.77153509747406,37.73772986931305],[127.77269962094493,37.73839630683144],[127.77405365899641,37.73861283631576],[127.77478979119671,37.738946762493896],[127.77556823639168,37.73911630199128],[127.77598894849869,37.740145242808765],[127.77756318996629,37.740702966872675],[127.77808609120126,37.7405526188516],[127.77883606331257,37.74053339384783],[127.77937192715825,37.740633160185524],[127.78011789910123,37.74100765780053],[127.780784737225,37.7416713622924],[127.78127922570435,37.74174860057835],[127.78180549661711,37.74230270872145],[127.7827523385253,37.741552882553364],[127.7836137440967,37.7413011869843],[127.7840675583266,37.740999909058345],[127.78458515845888,37.74085763892286],[127.78503992470125,37.74054411672475],[127.78509210011138,37.74038894967773],[127.78592175331826,37.74005669031347],[127.7864643253722,37.73996946028428],[127.7877567399449,37.738852926343924],[127.78733259802769,37.73813140476696],[127.78715747227325,37.737660291287376],[127.78733123945503,37.73711095402537],[127.78727628351051,37.73697122357341],[127.78742879137778,37.736858816791965],[127.78746465141792,37.73672039900446],[127.79026909438926,37.73586594516018],[127.79174237961995,37.735782922754694],[127.79205386470716,37.735651972692445],[127.79219072007083,37.73542550305974],[127.79250386262194,37.735452764949095],[127.79266063387674,37.73532948161332],[127.79307758177708,37.735194182144184],[127.7931121747304,37.735283042751256],[127.793549784294,37.735308844013666],[127.7937175060792,37.735394867149495],[127.79488519525687,37.73499369664085],[127.79563472343172,37.735733206264456],[127.79613641113104,37.73593545592374],[127.7961975490063,37.73608743738162],[127.79639941276203,37.73617365029874],[127.79712734694412,37.73634283556333],[127.79744794268956,37.7363463011195],[127.79831983355758,37.73675812253063],[127.79860646441864,37.73681859330921],[127.79879324156674,37.7367700846826],[127.80008242002971,37.73722727091316],[127.80063427848499,37.7368507413667],[127.80103833864992,37.73719694287048],[127.80076577022244,37.73766709129659],[127.80115851928862,37.73866479675585],[127.80151527635928,37.738820535368866],[127.80169826831586,37.7392452663133],[127.8012163366663,37.740233354324836],[127.80117307443561,37.74114525412864],[127.80140268295075,37.74129959626646],[127.80145813565079,37.74156510423402],[127.80175400879806,37.74189071388724],[127.80268322897774,37.74194603433561],[127.80370628964378,37.74271981252246],[127.80402512622031,37.742565007996056],[127.80426094514435,37.74226585499748],[127.80459040242424,37.74217254605772],[127.80541720010923,37.742282201761796],[127.80630292709563,37.74264329115063],[127.80670088538845,37.74419620567145],[127.80638690115114,37.744828514653975],[127.80656987383865,37.74512591448491],[127.80639691568301,37.74595651953011],[127.8067601982625,37.74633951233273],[127.80766060583292,37.74639212654689],[127.80805897254726,37.74661055523329],[127.80880097571563,37.74666150518269],[127.80947932129826,37.74708740680228],[127.81040126067887,37.74659961148642],[127.81103420978296,37.74718413979881],[127.81182922383759,37.747053517387265],[127.81207415019848,37.74707517515708],[127.81237980083561,37.74744112562291],[127.81279705897019,37.747580737553704],[127.81393135935517,37.748396813816925],[127.81573344269191,37.74846931952263],[127.8163079542456,37.74857111246458],[127.81722092997127,37.747817061801086],[127.8180116264979,37.747782486992385],[127.81853883983511,37.74756476332671],[127.81874530675064,37.74731724925281],[127.81903979106553,37.747273619735324],[127.81906822173485,37.74708878371207],[127.8198027986773,37.74720698102642],[127.82044591017772,37.74678621903859],[127.82071662472434,37.74626226156963],[127.82131334989337,37.74590594500361],[127.82181992039091,37.74499930411403],[127.82281784853741,37.74495929820735],[127.824437342151,37.743970683426575],[127.82500037549289,37.743240197795814],[127.82496613893643,37.74288624241078],[127.82532267999481,37.74259853273817],[127.8254031566386,37.74198792729886],[127.82570607363738,37.74178412468006],[127.82616170198895,37.74168110510271],[127.8265179028148,37.7417632464207],[127.82663673388477,37.74163454493767],[127.82669384209235,37.7417711791076],[127.82710778249958,37.741309188551256],[127.82840579991817,37.74139010383608],[127.82837590754565,37.74091923166577],[127.83043303895425,37.74119588452686],[127.83103827591543,37.74120152851464],[127.83143169165871,37.74145768842699],[127.83155107519642,37.74173884936885],[127.83141504595905,37.742025449727144],[127.83152086703815,37.742085760898775],[127.83200200240701,37.741544730661445],[127.83231829656175,37.74133471733704],[127.83341150337043,37.742104965920305],[127.83487622927375,37.74429175400886],[127.8359817268993,37.74564113126606],[127.83788584547595,37.74678367523134],[127.83839495388092,37.74685848840419],[127.83943196343839,37.74717398792713],[127.83974281420826,37.74739948889389],[127.84044171457708,37.747270980365116],[127.84104822207769,37.747577692762185],[127.84137397725367,37.74749495451479],[127.84348489006464,37.74907654106179],[127.84482971287667,37.74950600706978],[127.84465824134551,37.75009368893947],[127.84462370366815,37.75116282528542],[127.84501006213672,37.7514031416475],[127.84523495037375,37.75172159870007],[127.84521370525967,37.75225780626533],[127.84425098351238,37.75231086913638],[127.84364800552498,37.75270490657617],[127.84284286176938,37.75294032112783],[127.84175806937078,37.75385213947],[127.84057300562644,37.75503020190592],[127.84036820244825,37.75563556001253],[127.84030000125732,37.75618496398488],[127.84043972582336,37.75637721293128],[127.84173343871164,37.75695810859266],[127.84234398525881,37.75689313048989],[127.84248921981198,37.75703409009428],[127.84280353642365,37.7569590081873],[127.84433903279186,37.757378312477236],[127.84621369674274,37.75747629225919],[127.8468182150213,37.7578946684077],[127.84814399827754,37.75842518992541],[127.84900795450999,37.75973863256363],[127.8494607073276,37.75993171883553],[127.84978656278557,37.760395551589504],[127.85096359072331,37.76071253553379],[127.85138068012066,37.76132255154102],[127.85372451718504,37.762640854959855],[127.85490087761653,37.76339597363876],[127.8550333243783,37.76401300905821],[127.85573321189591,37.76506249042591],[127.85624981085938,37.76529337354174],[127.85616401814283,37.76571490337071],[127.8559647196786,37.766097514451076],[127.85613156370262,37.76693409104086],[127.85667297817973,37.76769063071095],[127.8571535102713,37.7681207279393],[127.857380782893,37.76854750489726],[127.85644692093193,37.769372078523915],[127.85610418135785,37.77102620755659],[127.85476390124738,37.77285487285179],[127.85450701257929,37.77351638596968],[127.8533055614692,37.77434656458564],[127.85302052132248,37.774876785899984],[127.8517445275415,37.776281770566634],[127.85188658637244,37.77718311528983],[127.85133220122205,37.77758797499051],[127.84977868177704,37.77777931951682],[127.84981013919611,37.779201104962326],[127.84803549726894,37.78032795851412],[127.84665423141962,37.78079223315624],[127.84466195335256,37.78384363188704],[127.84395297115908,37.786335532225046],[127.84410285579446,37.78783258137827],[127.84325811417891,37.78965641695434],[127.8423351041361,37.790022973581216],[127.84177622860912,37.78982083868146],[127.84075495968833,37.78966209302825],[127.83968891464254,37.79004758445552],[127.83841187497279,37.79032285176801],[127.83729701891416,37.79039919060941],[127.83697271997983,37.79109806333389],[127.83608925693126,37.79141714412704],[127.83520753002652,37.79195979431819],[127.8332418657688,37.79245946576835],[127.8323355097155,37.79304034932925],[127.8315199447429,37.79373709985403],[127.83064705647237,37.794060427355355],[127.83000372882354,37.79472466720364],[127.82836614504868,37.795355128541615],[127.82715158706675,37.796198843701184],[127.82488639907147,37.79826698747858],[127.82518266439148,37.79864607355535],[127.82513621772122,37.79966598086957],[127.82572144720466,37.80042352382704],[127.82508069435652,37.80112400173877],[127.8252208960814,37.80212594218606],[127.82540606125353,37.80240261100675],[127.8255584708664,37.80292856246134],[127.82616193886562,37.80311290336933],[127.82683476247311,37.80385719714918],[127.82662042057733,37.80414625792825],[127.8265428237786,37.80451184687071],[127.82668741217569,37.805339003971284],[127.82648016941992,37.80551647081352],[127.82672178976657,37.805918222394986],[127.82664831086387,37.80678982754481],[127.8270902630208,37.807380028568375],[127.82714869740988,37.80863352267967],[127.82541806757573,37.81098839187606],[127.8251117793109,37.8117939823884],[127.82519316072148,37.814066932106634],[127.82500395068948,37.815695336978386],[127.82602656691921,37.81640517692516],[127.82608057942122,37.81676981103452],[127.82650916243273,37.81706910585449],[127.8267621544323,37.81747783179223],[127.82709778036376,37.81769891923539],[127.82740850433419,37.819054652840975],[127.82772871027018,37.819246557062925],[127.82758883597849,37.82046945598476],[127.82668110368046,37.821394689831905],[127.82619795213738,37.82162275611129],[127.82553763307702,37.824352857216105],[127.82356609024933,37.824617451514676],[127.82199527800559,37.824624602521325],[127.82078544139343,37.82530475575713],[127.81719992491851,37.82822301462686],[127.81840083007897,37.82937848947708],[127.81362357215137,37.83328893940876],[127.81356091857647,37.83367272092828],[127.81448878314724,37.836058986898244],[127.8143112390103,37.83695734399233],[127.81496186626403,37.83725774349154],[127.81527608727494,37.83763884433556],[127.81426238747349,37.838393899979934],[127.8141838017911,37.83870698188429],[127.81479108321524,37.839867188355704],[127.81508001078753,37.84003610737742],[127.81513873729077,37.84052875112079],[127.81544190495117,37.84100468616281],[127.81624265424948,37.84096324689592],[127.81715469533361,37.841616418666725],[127.81880412621167,37.84186906224244],[127.81937196605674,37.842150227036065],[127.81927098071912,37.84369875063399],[127.82081401414527,37.84470932102454],[127.82131429831374,37.845440298722224],[127.82209692049202,37.84568951274616],[127.82316005265885,37.84539748871439],[127.82364925471242,37.84483397105165],[127.82521764552948,37.843720822269134],[127.82793178532498,37.84350982132386],[127.82918544235882,37.84410860087908],[127.8295202894207,37.84391912473654],[127.83229391097711,37.84365363940498],[127.83307946777008,37.84224310661656],[127.83372861401934,37.84171751915527],[127.8345898446116,37.841271960575874],[127.8358615044556,37.84045221851134],[127.83634817607434,37.840028399699634],[127.8383705865402,37.83979187624497],[127.83930014616192,37.83981752099482],[127.83964143308906,37.83966923423397],[127.83991408104,37.839398276134794],[127.84092095788324,37.839019564235045],[127.84161472808024,37.83856947083607],[127.84244865666277,37.83778782606061],[127.84291842150022,37.837790686324695],[127.84459381859128,37.837454193044834],[127.84547697467755,37.83707876039713],[127.84574857675949,37.836848431910326],[127.84731952893446,37.83615263923155],[127.84827844198766,37.83563960951837],[127.84908792347746,37.83554982003679],[127.85111723705668,37.83562240894343],[127.8517965753922,37.83557588216264],[127.85398917401172,37.835060111311726],[127.85463791687748,37.834833156345816],[127.8572050464563,37.83547274692008],[127.85800664673032,37.83594035558478],[127.85914067128535,37.83596922033697],[127.86036912797363,37.83624567995533],[127.8610909553799,37.83622888224757],[127.86168659731284,37.836703283620615],[127.86232766320242,37.836412918974496],[127.8629100182046,37.83627126955919],[127.86632672637089,37.83640244978666],[127.86696000915983,37.83686727059606],[127.86760161466017,37.836751378325125],[127.86820206137781,37.83683606268484],[127.86847985641826,37.836636445904126],[127.86928724193473,37.836572660383894],[127.87026815478663,37.837221660578166],[127.87163136817284,37.83746628890198],[127.8711866920505,37.83850707130693],[127.87147228552382,37.83897154965766],[127.87185584657314,37.83928466925301],[127.87173428845743,37.84096677455485],[127.87257200767712,37.84320810857824],[127.87271618072783,37.84464752268901],[127.8735783746443,37.84566125280173],[127.87446179156535,37.84583281967394],[127.87530260232852,37.84583036840569],[127.87608903815449,37.84677464106722],[127.87736828794334,37.84754055463964],[127.87710921822425,37.84780689922346],[127.87737732365207,37.84843879314437],[127.8781980637755,37.849521715678655],[127.87880655866992,37.85204020822458],[127.87805867336046,37.85421608809699],[127.87645215121718,37.85641861875973],[127.87703233558585,37.85704323765761],[127.87961838839492,37.85937862056484],[127.87980117143644,37.86015943332744],[127.88072374769553,37.86070363888902],[127.88305673903697,37.861044490331864],[127.88460351282744,37.861632999828345],[127.88640506624316,37.86207741029327],[127.88799820260694,37.86205479599088],[127.89061500599,37.86313211307777],[127.89120662157694,37.863048362641955],[127.89165164576137,37.86278544504453],[127.89227427265558,37.86209694143699],[127.89328862014958,37.86194854123553],[127.89492375212033,37.86099955422272],[127.89535010981679,37.86017152844043],[127.8960006016518,37.85939567575843],[127.89735264435559,37.85908043709864],[127.89849541556607,37.85920047957142],[127.90066702947254,37.858788683326026],[127.90212227668671,37.85805799980872],[127.90428016886989,37.8576340828873],[127.90617029507757,37.85687307853455],[127.90835336081501,37.85542022738801],[127.90883716693824,37.85454774587434],[127.9079757385972,37.85334742417253],[127.90667967771418,37.852578818573015],[127.90650376393188,37.85178628297773],[127.9061188095151,37.8511998616186],[127.9063991639394,37.85065580631736],[127.90568659682793,37.84942242847207],[127.90767984011799,37.84910277667521],[127.9086526989442,37.8485896918283],[127.91031777668256,37.84799170858379],[127.91361998280884,37.84618389345673],[127.9157568122046,37.845771551881455],[127.91663162708436,37.845147087732386],[127.91854207170638,37.84420941735633],[127.92098664971746,37.84023370770358],[127.92230446159513,37.83906582388309],[127.92449662876854,37.83831955285531],[127.9253726902254,37.83697923369035],[127.9263883644525,37.83324839902085],[127.92860184151208,37.82920217853772],[127.92923325509749,37.82772258333615],[127.93036057091169,37.826916296394025],[127.93155386148966,37.826798498542345],[127.93148798393023,37.82543187396819],[127.93134703390042,37.82487081253012],[127.93206327754265,37.824383523837476],[127.93308121700454,37.8253364885929],[127.93490414482402,37.826741183899365],[127.935073126033,37.827505355655255],[127.93553062862563,37.828261473566315],[127.93609428095183,37.82873376712679],[127.9361071675432,37.82898078824514],[127.93574130776972,37.82966541621997],[127.93513953392112,37.830251729315165],[127.9351502021866,37.831413829335126],[127.93495902616762,37.83160291458222],[127.93593767648889,37.83242877484188],[127.93705742258389,37.83392883222306],[127.93736213007072,37.83463435248239],[127.93713743872361,37.83530849498507],[127.93762273286083,37.83578644672958],[127.93749205258476,37.835989652777215],[127.9377328102287,37.836074317611185],[127.93778903621774,37.83595719987937],[127.93799742857941,37.83624014257798],[127.93860193576626,37.83658642165839],[127.93860423796733,37.836741270501584],[127.93990469953482,37.83724389826536],[127.94164207685608,37.83825609596482],[127.94413405367725,37.83842176587387],[127.94465727979724,37.8388312782916],[127.94429629813814,37.83948589244537],[127.94502393227489,37.840441521925],[127.94603699327405,37.8411505300062],[127.94598117848687,37.84201180372099],[127.94606287228972,37.84395451276771],[127.94579254586382,37.844404976789455],[127.94539828364067,37.84418795389579],[127.94532744807837,37.844281407926935],[127.94586871258946,37.84456013326452],[127.9459028554508,37.84502824561034],[127.94554785470395,37.84585939371731],[127.94472704329552,37.84623606821647],[127.94370253097576,37.84690869346144],[127.94319147635476,37.84738026542043],[127.94296443918007,37.84771686180399],[127.94360183666343,37.84916529921618],[127.9440145625749,37.85047408991216],[127.94406858881042,37.851032043473325],[127.94441501232858,37.85129963765442],[127.94468737499491,37.85302234443928],[127.9455004491723,37.85360115415111],[127.94589244134463,37.85425081152377],[127.94630520828424,37.855895543489694],[127.94687932065256,37.8569155435565],[127.94726501580331,37.85739011247052],[127.94764841240234,37.858155781469094],[127.94761031085838,37.85881979144126],[127.94821237408253,37.86020938609569],[127.94888407649361,37.860574707387904],[127.95004889686923,37.861618135564775],[127.95017097193762,37.86198400404165],[127.95006536764015,37.86321351986756],[127.95062087178326,37.86400553958199],[127.9529346076461,37.864875707101845],[127.95309965759908,37.86642574152552],[127.95370119823492,37.86793828353786],[127.95464105991705,37.86920141622163],[127.95579236065392,37.87014894629358],[127.95645379141091,37.87135412773976],[127.95686010702131,37.8726078733508],[127.9577582001503,37.87314372249457],[127.95753219598177,37.87378009662656],[127.95848363770995,37.87427998530115],[127.9592122561464,37.87451538860396],[127.95959129052167,37.875058389748276],[127.96308615758579,37.876434641115964],[127.96362797474677,37.87682430809037],[127.964376171469,37.87721866381475],[127.96456913507019,37.87755329483401],[127.9649900342407,37.87758094170649],[127.96578702980482,37.877842797204856],[127.96644932201305,37.87912134772427],[127.96724034495371,37.87967883826387],[127.96754358784428,37.88039256431637],[127.9682712317665,37.88038060879948],[127.9699287732718,37.8810424159604],[127.97242262240879,37.88249777827567],[127.97275615578978,37.88250569390373],[127.9726303054411,37.883908112404036],[127.9723503816192,37.884716624198155],[127.97261941338274,37.884946506176085],[127.973143322828,37.88702807362421],[127.97236995437683,37.88730419393508],[127.97203403189303,37.8876383445136],[127.972081433404,37.88813192062221],[127.97182340156954,37.888850007403306],[127.97125476656052,37.890076307463005],[127.97091130950379,37.890614786001684],[127.97051937954093,37.892057337702234],[127.9700890367768,37.892677658217174],[127.97139496578137,37.89458559385485],[127.97153813315975,37.897050661127345],[127.97120978174149,37.89862909636445],[127.9721816383818,37.89985123734229],[127.97368286093305,37.90067661667478],[127.97655416361526,37.90384226911985],[127.97820796418142,37.90454098328507],[127.97914093432372,37.90669110069979],[127.97964080176524,37.90734640909873],[127.98067628416126,37.90858655952967],[127.98272847783898,37.910314961499566],[127.98457566549553,37.910663368195834],[127.985067366034,37.91101144024492],[127.98591125433943,37.911100754825924],[127.98732825415324,37.911791166762626],[127.98484183491423,37.91369068084102],[127.9847524987126,37.915195907137516],[127.98562067336158,37.91550840138664],[127.98559464608402,37.916273358468764],[127.98511704158285,37.917052503834526],[127.98443945181809,37.92013473540496],[127.98439713739448,37.921680710250456],[127.98383106709962,37.92341328535647],[127.98703669520744,37.924581050805095],[127.98850703735813,37.925808621633095],[127.98967580806672,37.927008522692226],[127.99082589432362,37.9288790101306],[127.9931725347075,37.93089456194417],[127.993467123068,37.93277452754645],[127.99507641582582,37.93330490186498],[127.99523167552243,37.93461103160202],[127.99604041871804,37.93583015873353],[127.99529301732485,37.93771561993853],[127.99661608139287,37.938688003782985],[127.99635164127997,37.9406906830505],[127.99330254573299,37.94194141780751],[127.99373444184343,37.94355589066019],[127.99103250568432,37.94475951106118],[127.98964064652509,37.9452074502694],[127.98814242554019,37.94811100252644],[127.9874951890754,37.948672965264315],[127.98728432641352,37.951815321627386],[127.98369670312945,37.95345346330495],[127.98061737881564,37.95602459407772],[127.97756461007208,37.957111372840224],[127.97871587466753,37.95799221377338],[127.9800040858093,37.9585910013276],[127.98026888341359,37.95955204613321],[127.98081693218091,37.959839176995715],[127.98162847344489,37.96063855739767],[127.98171562588097,37.9621625419461],[127.98397167308161,37.96377141488447],[127.98355296232087,37.96509301108871],[127.98449913422392,37.965995048917925],[127.98391370103599,37.968378572733],[127.98402555137294,37.970405440102645],[127.98340565143353,37.9710945478402],[127.98250860013866,37.971581417710986],[127.9823670025975,37.971985792812134],[127.98278739562241,37.97283019766837],[127.9837079023937,37.97430418838689],[127.98450196461668,37.974782037742585],[127.98486380173084,37.9753035143861],[127.98428250169152,37.97702572634039],[127.9847541610586,37.98003939797025],[127.98459648612894,37.98022691112569],[127.98368515533772,37.98077722308403],[127.98293812633284,37.98177760234309],[127.98261390078014,37.98253350866741],[127.98179254345963,37.98350023760223],[127.9818651678779,37.9844647419005],[127.9823019960086,37.98516297378067],[127.9825891232946,37.98531615363824],[127.9837341259858,37.986538757836676],[127.98416520667031,37.98671339788214],[127.98402449819042,37.988757065315816],[127.98363506978079,37.989078864596145],[127.98545145330823,37.989408021904055],[127.98805792270129,37.98880257157902],[127.98829579461605,37.9890659253685],[127.99041677222577,37.99046059023091],[127.99156429785987,37.991041255402145],[127.99301898826928,37.99080647133354],[127.99478712927915,37.99082893101568],[127.99649225341227,37.99029423517045],[127.99732180174306,37.99050407676864],[127.99780502388415,37.990883718698534],[127.9986565919439,37.99102158211138],[127.99960187818326,37.991380073722006],[128.00024355466476,37.99227524567775],[128.00123464959825,37.993141228910176],[128.0034303058689,37.9956331691224],[128.0048811920746,37.99540271419044],[128.0066356085093,37.99644571835236],[128.00886486563743,37.99612583847676],[128.0109155422694,37.99645213448159],[128.0134275058959,37.99637743123121],[128.01530021276963,37.99664140988615],[128.01637117350447,37.99743430345458],[128.01650174333008,37.99769705568805],[128.01634276375836,37.998843341837514],[128.0169206422558,37.99907422247459],[128.01785731853883,37.9996124836473],[128.01878180599135,38.000569547788984],[128.01996627248664,38.00614427914288],[128.0195875461965,38.007365891348755],[128.0201983314757,38.007627516613034],[128.02148505160432,38.007755243103176],[128.02262821153522,38.007981542872756],[128.02282019866064,38.008221017483706],[128.02374033182832,38.00833764043983],[128.02422598739182,38.00858313724678],[128.02494173701044,38.00957551197143],[128.02481845782202,38.010062064455425],[128.0245964825997,38.01038244844221],[128.02441631923838,38.011085058274595],[128.02508140511068,38.01170494448885],[128.02570609065506,38.011883853077045],[128.02615752281412,38.01221493229865],[128.02666939208302,38.012916027664055],[128.02912727735225,38.014211550024285],[128.0296079209108,38.014650908122746],[128.02878038579902,38.01535957980284],[128.0282585839242,38.01609106823803],[128.02494189946296,38.01952556873467],[128.0233339547176,38.01979301444152],[128.02143083200218,38.01974628585935],[128.0195392923125,38.019515108063494],[128.0166330967377,38.019515565468986],[128.01432077708506,38.01932406845482],[128.01295702840707,38.01900889298658],[128.0095058924469,38.01693910518541],[128.00773519259283,38.01573785912542],[128.00590533554603,38.013738499963445],[128.00494160432214,38.011877568684525],[128.00328539106772,38.009137066522264],[128.00064621278412,38.005278379630674],[127.99797375936613,38.002734234136625],[127.99581732678881,38.00171637505912],[127.99331376981087,38.00160196784021],[127.99109970844529,38.002655010430125],[127.98938022721276,38.003796783564],[127.9881716889557,38.00501842638628],[127.98569014049887,38.00727105472476],[127.98477953093762,38.00826348847197],[127.98382036545199,38.010296825436086],[127.98365716206271,38.012236630509534],[127.98397347400265,38.01451865556051],[127.98713004992288,38.020097759158006],[127.98756621490857,38.022636012753914],[127.9875560902785,38.02369233331228],[127.98747490846007,38.024201843528445],[127.98685717565007,38.02551259394278],[127.98543048723215,38.02685585247608],[127.98303341239033,38.02786543658766],[127.97778367510628,38.02957069195244],[127.97248768017789,38.03054863986122],[127.96901936625015,38.030898126469275],[127.96610803190441,38.032052993245145],[127.9630059287351,38.034860995820594],[127.95762280675112,38.03787059445814],[127.95542680171525,38.03868084211186],[127.95260497098299,38.03853771477062],[127.95175110262392,38.038200687388404],[127.94991884604146,38.03619057153586],[127.94861213779792,38.03412110256385],[127.94701198062306,38.031329555590844],[127.94642872465705,38.02914205016265],[127.94686043516737,38.02583666704955],[127.94714347291902,38.022579469690484],[127.9462081426849,38.020573420736085],[127.94550556255948,38.0194799242576],[127.94492660298692,38.01837489151386],[127.94333196968893,38.01672119161464],[127.94042876478264,38.01505087877956],[127.9381968007513,38.01421885180661],[127.93652213302812,38.01419310659534],[127.93433927656271,38.01385300647739],[127.93448776030856,38.01425887822667],[127.93428496970222,38.01482583038554],[127.9345112453642,38.015106286209615],[127.93441291591947,38.015568060489926],[127.93425461167327,38.0156058104455],[127.93282343923038,38.01666241178011],[127.93227131922718,38.01723066001302],[127.931964500226,38.0173491145],[127.93136635353133,38.01789397343994],[127.93065234709438,38.01802002283365],[127.92998399148804,38.01826789296266],[127.92991105771424,38.01843161956818],[127.92941677374841,38.01846316075476],[127.92919600293052,38.01882657555716],[127.92865441189112,38.01897754550632],[127.9275803526193,38.019019369317625],[127.92668348647828,38.018916322896224],[127.92626896007748,38.019074050797975],[127.9255066174184,38.01961400064663],[127.92531770205161,38.019860483259755],[127.92484780708564,38.02003794617591],[127.92441736687188,38.01998092096207],[127.92380238569119,38.020298994792995],[127.9232254245164,38.0200671868736],[127.92244095391665,38.020073721089794],[127.92117682358459,38.02048469211611],[127.92093480289944,38.02048907916505],[127.91993890282204,38.02098057738551],[127.91922655541067,38.02107379536708],[127.9182514588382,38.02106833076777],[127.91777912780935,38.021277017924184],[127.91626856670247,38.02220392236713],[127.91514956991938,38.022171353220585],[127.91337933151726,38.022860896129764],[127.91245236997267,38.02368774170176],[127.91138033146784,38.02411480901781],[127.91024724501621,38.02467633072608],[127.90983762079888,38.02562686350042],[127.9074847974341,38.027114638802686],[127.90632939568998,38.028422854725555],[127.90457019294568,38.02976041642749],[127.9040661104603,38.0303307223145],[127.90399899772142,38.03122340743722],[127.90370403639712,38.03198746202001],[127.90381272814906,38.0330077229843],[127.90404112039505,38.03334575992117],[127.90254498291459,38.03474871315692],[127.9028796047612,38.036695833179444],[127.90275373408338,38.037634140657886],[127.90186101164282,38.038225052776646],[127.90263194194071,38.040609591924216],[127.90371283090234,38.04185412307165],[127.9036425750259,38.044373481250524],[127.90403609625764,38.04616504640682],[127.90276591270286,38.048950418682395],[127.9026690051678,38.05065070140319],[127.90118501477247,38.050398630157645],[127.89946535171124,38.049924361686905],[127.8977889608077,38.05086398015341],[127.89503332319592,38.0510942494728],[127.8903942682249,38.050124667478606],[127.88827377199792,38.050170510219665],[127.88637475982296,38.049446983017475],[127.88468185209507,38.04901370294045],[127.88265982667205,38.04803197919011],[127.88026101554352,38.047632949679034],[127.87904835871038,38.0473374253957],[127.87630576841795,38.0484753917128],[127.87489145042207,38.04921869875391],[127.87281468524822,38.04881408085756],[127.87238177748478,38.048439391151334],[127.8706348026858,38.049255993645964],[127.86970223561336,38.04918366085045],[127.86865042728145,38.04956475262718],[127.86807421734761,38.04964242234876],[127.86729726304364,38.05023904151819],[127.86434042407794,38.05027343719102],[127.8608342320146,38.04997502501644],[127.85918397531988,38.04997119225732],[127.85521110696438,38.05230277488406],[127.85346575511454,38.05051173843598],[127.85310095352452,38.04829753424187],[127.85272261125506,38.0479540626123],[127.85202942699371,38.046684147886324],[127.85194953845824,38.04639898095173],[127.85151701861007,38.046146977844984],[127.85125227753251,38.04553989802635],[127.8514385520801,38.045231770873805],[127.85172864095281,38.04376831128092],[127.851277993525,38.04340025859575],[127.85120704319796,38.04313493568263],[127.8512739100453,38.042537416644976],[127.85180396512585,38.04216569425269],[127.85001236283347,38.03995803091872],[127.85015023630648,38.03777723850819],[127.84923752032388,38.0362576044203],[127.84943915454369,38.03527644462529],[127.84977113794444,38.034369789435836],[127.84972890229876,38.03347095786431],[127.85054047432239,38.0326010725911],[127.85087694150008,38.03169232760142],[127.85081441952585,38.030849594629935],[127.8555933318368,38.02862310674933],[127.85415387333029,38.026406606988225],[127.8541501137398,38.025261536117256],[127.8550084098381,38.02313205729648],[127.85807078028854,38.01880136878363],[127.85756572307012,38.01842301314411],[127.8522294614552,38.01696845368692],[127.84984785965807,38.01670856191652],[127.84822764998256,38.01524500368799],[127.84740055850452,38.014316465488434],[127.84640096074662,38.0141418434145],[127.84423347396614,38.01441552919708],[127.8432522064011,38.01432861173586],[127.83977757953001,38.014505521550916],[127.83709043714298,38.0130691404048],[127.83650331926398,38.01159681110804],[127.83490174214523,38.01005983686111],[127.83403805030729,38.00886338270121],[127.83216535338767,38.00699291286822],[127.83184476981629,38.00435693250829],[127.82895657194348,38.00319769608702],[127.82797467484335,38.002613766265064],[127.8271592382095,38.00163418908655],[127.8271971545208,38.000752095705465],[127.82621590565817,38.00099354891398],[127.82495543230482,38.00115374153403],[127.8224576305036,38.002950161934535],[127.82134817185671,38.003527016924444],[127.82031173277687,38.0038847582278],[127.81691485005327,38.003553900568825],[127.81564993589822,38.003668321069995],[127.81323490350604,38.00366669017474],[127.81163271268476,38.00324851565184],[127.80904643442732,38.00151727630641],[127.80810879120226,38.00073826874013],[127.80630386222825,38.00054245443572],[127.80481934210563,38.00059640501525],[127.80316545817156,38.00050202338595],[127.80205324460769,37.999662169295775],[127.79954782713487,37.998191212670356],[127.79637096952656,37.99680725699771],[127.7946413462002,37.9957060942079],[127.79166654110345,37.99482428048959],[127.79046523156448,37.99428678351924],[127.78820537485849,37.99429379401894],[127.78785099399974,37.99536273326004],[127.7877536564417,37.99680006048465],[127.78754019938596,37.997306983659804],[127.7879466622677,37.99818780716707],[127.7865844513078,37.999189395033376],[127.78680454120186,38.00042464775658],[127.78554365410862,38.00152434800912],[127.78555143404667,38.00275987275381],[127.7842707737,38.004090240880885],[127.78320685181424,38.00649071301064],[127.7813422270297,38.00851905748131],[127.7806553551711,38.00961052655114],[127.78018806838655,38.01185069057345],[127.77979231895064,38.012662717698745],[127.77939296946325,38.01310362787298],[127.7791558604176,38.01365662843349],[127.77821801006804,38.01390159244469],[127.77653662464814,38.01359686466517],[127.77639699155998,38.01582785217515],[127.77652075339104,38.01821065385653],[127.77565784811469,38.02086323494808],[127.77478615475539,38.02171544402661],[127.7743908292361,38.023160642445866],[127.77194281251235,38.024696100358526],[127.76951994959185,38.027984506936235],[127.7679859262688,38.02924718887655],[127.76626938058746,38.02970412051841],[127.76505866765139,38.02947343100251],[127.7635872036229,38.029648896679156],[127.76244402220036,38.03012123514963],[127.76142116904892,38.03018453429963],[127.75950459290057,38.03096975802895],[127.7584829797506,38.03182130177698],[127.75810949799855,38.033521548608235],[127.75847260732905,38.03477121553295],[127.75815613761961,38.034683756406054],[127.75783503342313,38.034854486158544],[127.75729671406054,38.03466054321841],[127.7558434986367,38.03488701082833],[127.75537340170942,38.03477413417849],[127.75475241362673,38.035003536478236],[127.75416676263588,38.03484636034271],[127.75331749221661,38.03521706291828],[127.7525839613082,38.035144741331614],[127.75185270931192,38.03533019329779],[127.75131179606022,38.03569284072979],[127.75068856914685,38.035540210576826],[127.7502895784433,38.0362210025101],[127.74935827266967,38.03668375662018],[127.74940864099733,38.03705879590841],[127.74899378196449,38.037356126800105],[127.74870334931994,38.0374298283108],[127.74850789345928,38.03799160880862],[127.74806926927585,38.03816915937792],[127.7478466005871,38.03906376746585],[127.74752520265983,38.039441032612494],[127.74673811894264,38.039548438113556],[127.74562367584019,38.03910429826764],[127.74560981185812,38.038508632079946],[127.74527940219096,38.03801603033527],[127.7447329592226,38.037697010223],[127.74390773075831,38.03766914324976],[127.74326573146129,38.03792303249501],[127.74232956371071,38.03810749170054],[127.74169037082004,38.03787830272308],[127.74089049213896,38.03793596624631],[127.7401987831803,38.03807890802803],[127.73964716470087,38.037927561999375],[127.73868698722106,38.03822684648202],[127.73802489963553,38.03829706657899],[127.73761356289106,38.03787611295441],[127.73688847384697,38.03780374131835],[127.73620000782232,38.03719786765158],[127.73531415078105,38.03717529137391],[127.73499368615232,38.036774481296476],[127.73415146162438,38.03635402075975],[127.73374725885415,38.035814522348815],[127.73275724168886,38.03564403684334],[127.73293146922255,38.03534372867138],[127.73254210509857,38.034709459159586],[127.7320861783348,38.033018808653246],[127.73117833436828,38.033117851060894],[127.72982173053181,38.03291930098555],[127.72924516580701,38.032805579671496],[127.72892170238046,38.03246718681385],[127.72912867167533,38.031916916112365],[127.72853262718107,38.03112644288579],[127.7287395689108,38.030301531860914],[127.7285053166799,38.029287291533144],[127.72717709224803,38.02825273098079],[127.72705178004679,38.0275000529928],[127.72627723821017,38.02701760522567],[127.72616001460995,38.02632092356299],[127.72551986795685,38.02603255965365],[127.72529977673295,38.02558002490959],[127.72538889538309,38.025096051846404],[127.72451679542088,38.02489483937681],[127.72384993001637,38.0249850477863],[127.72325822668854,38.02467550900714],[127.7225112839686,38.024795631275204],[127.72175518404634,38.02480199511806],[127.72072895946162,38.02461215072834],[127.71966336181347,38.02475748297422],[127.7189246171258,38.024570946518324],[127.71813080639427,38.02472188726373],[127.71704898156607,38.0245449878236],[127.71653039191615,38.02482960167627],[127.71592764288452,38.02468130235221],[127.71550043918144,38.02402063684345],[127.71439272774684,38.02412644653617],[127.71357790192309,38.02386578892877],[127.71301730639682,38.02510261504085],[127.71217196854558,38.026570699242775],[127.71151480490208,38.02829034580762],[127.71059754321715,38.03027124089023],[127.71011968047591,38.03059081505487],[127.70942870149726,38.03232858004218],[127.7080413107142,38.0333772386278],[127.70775741605686,38.03378335781716],[127.70680034794046,38.034779560779576],[127.70641556625668,38.034999239764616],[127.70599452577615,38.03539343699432],[127.70527517500516,38.03571186210099],[127.70457111986809,38.03654651291056],[127.70378539777808,38.03681071318633],[127.70314733024783,38.03723523654882],[127.7024615213637,38.03740072162445],[127.70178987938318,38.037745849123425],[127.70122785523282,38.03787166352063],[127.7005869837812,38.03816188119207],[127.70021902374457,38.0382003568735],[127.69944132965404,38.037952731776834],[127.6990586051593,38.0379573099936],[127.69859363188215,38.03780614905215],[127.69851401605264,38.037613315235056],[127.69817573003809,38.03737279635878],[127.69767199434551,38.03727758203586],[127.69716433134737,38.03703211924663],[127.69629962004676,38.0368662231612],[127.69574474550939,38.03662143869604],[127.69518376769255,38.036122838758665],[127.69437680083405,38.03556548100068],[127.69371611139408,38.03536290484709],[127.69263828265271,38.03536484162407],[127.69205184486655,38.035233898208475],[127.69135365666088,38.03544061755065],[127.69112479149715,38.03530247338158],[127.69076296194801,38.03525029808548],[127.69001001363968,38.0352949249642],[127.6872283216426,38.034330931464034],[127.68589909189153,38.034287898993476],[127.68470815962417,38.03455969060308],[127.68398166500715,38.034875739969486],[127.6832238727721,38.03488079166283],[127.68263754866997,38.034267882938266],[127.68158496568019,38.0341531017131],[127.68132885723975,38.03454768239209],[127.68071162086103,38.03459898743608],[127.67843877089351,38.03589343760431],[127.67550600342067,38.035776467263354],[127.67485742587402,38.03558491228083],[127.67403449009022,38.03560938822705],[127.67342414141581,38.03526665231797],[127.67259157017286,38.035037487732566],[127.67183944790438,38.03510495093222],[127.67158739309065,38.03490659322332],[127.67093654364922,38.0348379135184],[127.67000210095806,38.034322066709244],[127.66955583820506,38.034176486846675],[127.66881705117616,38.03354357247073],[127.66830723075573,38.03329297856152],[127.66757143558566,38.03254321129862],[127.666041368042,38.03153264147909],[127.66591565393159,38.0309696298265],[127.66537774314254,38.030365937682234],[127.66499449418953,38.03026540788293],[127.66430949199403,38.03032204489521],[127.66384726293067,38.02995779409783],[127.6633782458342,38.02991710122678],[127.66267568642684,38.02973453056899],[127.66196860181223,38.02933953095765],[127.66072348933618,38.029664510529635],[127.66032605593274,38.02887419387313],[127.65602099641734,38.027314916735406],[127.65605686123835,38.02756452868497],[127.65595289259865,38.027247619807795],[127.65491178236124,38.027260887639244],[127.65474587656311,38.02574353480199],[127.65551931695147,38.024102257886476],[127.65412244365866,38.02382647596278],[127.65324121096349,38.02425260910442],[127.65075931015026,38.02701356487884],[127.6502701068118,38.02791489752422],[127.6497848547054,38.030220976164514],[127.64909921550182,38.03083021471532],[127.64852925826843,38.03152316584799],[127.64810479290796,38.03339978583775],[127.64811045455555,38.03437566566722],[127.64842653643795,38.03607195556945],[127.64844717179962,38.03744296037118],[127.64895963263207,38.040603846298595],[127.64879745653758,38.04115134314777],[127.64870668056885,38.04350095437843],[127.6488965186604,38.04457269230106],[127.64989100523043,38.045710085203865],[127.65185333486174,38.04734251600069],[127.65305179542281,38.04971096156404],[127.65331952677529,38.05093196989022],[127.6532646744769,38.05212496654637],[127.65271936677605,38.05346626521448],[127.65199369752416,38.054505831075524],[127.65048357848922,38.0555260500061],[127.64804193988519,38.05629343814608],[127.6461440787191,38.056607446971576],[127.64537517455447,38.05644691253831],[127.64430278070122,38.0558607376686],[127.64178307230829,38.053372508230055],[127.64116049920882,38.052922312252285],[127.64152241096768,38.05275810168964],[127.6411982703883,38.05198262166228],[127.63790904278014,38.05137368929367],[127.63565232589481,38.05065756826811],[127.63380764387412,38.05018177422903],[127.63289272370874,38.0500454044574],[127.63109840377987,38.05009858492578],[127.62627577026382,38.05077808779195],[127.62510469697668,38.0509908472705],[127.62367039757105,38.05155121180373],[127.6203650454521,38.054689043255834],[127.6180310387064,38.057177478085876],[127.61725342385618,38.0575211287425],[127.61568576916149,38.05774279998177],[127.61404299644857,38.05745074814382],[127.61252371552995,38.05672013252079],[127.61214698511219,38.05638214447673],[127.61196698456897,38.05559754907517],[127.61167193802218,38.05541944998865],[127.61156486434813,38.05589620315171],[127.61167711331659,38.05651639597604],[127.60960049326386,38.059158117019024],[127.60817292483904,38.06026393515682],[127.60540198497888,38.06105070514446],[127.60633768721608,38.064036287999826],[127.607907344588,38.067527917676465],[127.60819640038244,38.06834878398294],[127.60828108245725,38.068939355636914],[127.60806510277503,38.06994462284247],[127.60760321801722,38.070519624472766],[127.60776114340342,38.071673996172514],[127.60472608508125,38.07264822059827],[127.60230629467424,38.07420616916705],[127.60145638225029,38.07461047485994],[127.60034731437538,38.07562604446139],[127.598167330426,38.07685674917454],[127.59756902149175,38.077614746167804],[127.59683732387774,38.07989606853026],[127.59349523451456,38.080315325340905],[127.59061755034575,38.08053463941383],[127.58890464272714,38.0808817335195],[127.58777882787453,38.08035422213558],[127.58565544625392,38.08020094039846],[127.58474236006619,38.08087709170621]]]}}
