{"type":"Feature","bbox":[127.74428148736935,37.143408056851946,128.21841633931245,37.50691111385778],"properties":{"regionCode":"51130","version":"vworld-20260909-3f8952dfda77-p2","name":"강원특별자치도 원주시","attribution":"국토교통부/K-Geo플랫폼 · VWorld 법정구역정보, CC BY 2.0 KR; 두꺼비집 가공"},"geometry":{"type":"Polygon","coordinates":[[[127.93459211988365,37.50338473811256],[127.9345107836844,37.503607990364095],[127.9342141040174,37.50378093265235],[127.93315567000874,37.503829414203324],[127.93279126311164,37.504307745630996],[127.93247780735875,37.50439327711374],[127.93162313501833,37.50519767183604],[127.9309720058048,37.50549251235467],[127.93063861097242,37.505989161213584],[127.92978757053692,37.5062743951562],[127.92954780904128,37.506637891237226],[127.92913789527958,37.50691111385778],[127.92882067136328,37.5067353381333],[127.92765381204153,37.506488863476775],[127.92704589573087,37.50613271755846],[127.92705317334173,37.505896797430246],[127.92692979340146,37.505690998903766],[127.92664640006383,37.50537083514736],[127.92640852417358,37.50526955564041],[127.92600746675586,37.504776434013074],[127.92574568048602,37.504230522130776],[127.92510165376706,37.50406656415183],[127.92446256196507,37.50293361965048],[127.92364044143707,37.502685785544685],[127.92325666783115,37.50204764280413],[127.92305901964086,37.501884452931726],[127.92261740114382,37.50171426152094],[127.92241720572616,37.50110414749518],[127.92248262811411,37.50051952930535],[127.92219887904332,37.50000513517206],[127.9221145843084,37.49949572796993],[127.92174293628635,37.499224072081674],[127.92142356419008,37.49865434421194],[127.92097966397942,37.49828686306669],[127.92053765972477,37.49823167509407],[127.91989130738902,37.49829657195287],[127.9187535889942,37.49796755582321],[127.91846078159905,37.497495685472785],[127.91903684588138,37.49691385397659],[127.91842981011382,37.4961398870325],[127.91820780889675,37.495975866497815],[127.91837746560537,37.49514378363063],[127.91829505724691,37.49491173879804],[127.91845027299732,37.49446923909759],[127.91870112238425,37.49408541598801],[127.91892253143064,37.49323081293103],[127.91912551864296,37.49287371267582],[127.91847443547255,37.49253965338195],[127.91842393695887,37.4922455359011],[127.91749940363428,37.49170008756577],[127.91662340141372,37.49145119898358],[127.91644784967423,37.49108056685465],[127.91552473376267,37.490988775858334],[127.91510432499659,37.490859829416515],[127.91494465514326,37.49051701020298],[127.9140994148536,37.49050387397048],[127.9137608848414,37.49014522554928],[127.9132219625166,37.489792097689914],[127.91257511356294,37.48865351326126],[127.9123432881406,37.48850430527178],[127.91162681751827,37.48826058217224],[127.91139266608229,37.48781578400356],[127.91126851366684,37.48704059921783],[127.91036108832084,37.48708114394895],[127.91000613379498,37.48681234879382],[127.90969289445606,37.48644220380253],[127.90976340736634,37.485668512492715],[127.90941732498905,37.485207332969026],[127.90959298380108,37.484845297419405],[127.9092114890046,37.48437248079645],[127.90942830878058,37.483985783994335],[127.90927059366177,37.48371057911692],[127.90927628073788,37.483504040893415],[127.90879291611678,37.482973999248415],[127.90901358317814,37.48245596658065],[127.90894271080754,37.481914890917714],[127.90850638456473,37.48173525511515],[127.90834368636163,37.4813704913028],[127.90815264230203,37.480395457768445],[127.90779106182666,37.48002522004348],[127.90739804383313,37.47915112804087],[127.90790667843,37.478591921035985],[127.90737847420321,37.4775280047825],[127.90703296812616,37.477082048581046],[127.90697128726761,37.476741098288585],[127.90664834804946,37.47640074271866],[127.90644573823478,37.475754505392054],[127.90598903655695,37.47511597691632],[127.90585578703711,37.47432306797928],[127.90610750898807,37.47327187791072],[127.90535020158293,37.47268059691299],[127.90468908370634,37.47248861707512],[127.90399971819438,37.472550358897976],[127.90342918704776,37.472392394331806],[127.90312759618796,37.47213334197092],[127.9020093543681,37.47225235522692],[127.90114496866772,37.47209476336355],[127.90040237128268,37.472189576450845],[127.89888975415187,37.472524613720886],[127.89734792518627,37.47249009264176],[127.89586986293847,37.47234649255993],[127.89639358779343,37.47154864193946],[127.8967519277087,37.47067333476344],[127.8968601051081,37.469710336511916],[127.89726627228254,37.46887323443392],[127.89708209783734,37.46864949632778],[127.89626583185914,37.469401848299526],[127.89502916782993,37.46967671418771],[127.89435784856235,37.46960542492661],[127.89381358646234,37.46920024819828],[127.89380768001328,37.468703378250396],[127.8935652683464,37.468523354760755],[127.89244664041765,37.46785425326667],[127.88894935901949,37.466193797394695],[127.88841318672428,37.46621532074133],[127.8886012294109,37.46634442354784],[127.88782141994366,37.4671374133911],[127.88745238659364,37.4673066350425],[127.88727890142236,37.46765443436123],[127.88717071097523,37.46827027777036],[127.88726149407115,37.46856571219103],[127.88690423458489,37.468537594403415],[127.88503971165194,37.46773761716795],[127.88422972480754,37.46776542885846],[127.88410598757028,37.468521524864634],[127.88451906868252,37.47019812743636],[127.88328980677066,37.469412393000916],[127.88207599262996,37.469473052387706],[127.88106097403048,37.468700881097185],[127.88054282730641,37.46855765265715],[127.87783506161477,37.46746451688329],[127.87698693160942,37.466920847948245],[127.87724816789814,37.46657204526094],[127.87664940977311,37.46600185691404],[127.87662121614369,37.46537025539674],[127.87628222205915,37.46467098585735],[127.87621029075311,37.46349824789882],[127.87535013616483,37.46207100363028],[127.8753340809594,37.46183653595121],[127.87579499664187,37.46080741753191],[127.87585154227149,37.46034138208027],[127.87556158998107,37.45988332568451],[127.87555436146374,37.45946713668969],[127.87522598191775,37.45922151689681],[127.87534598019393,37.458707713082184],[127.87529971385219,37.45845756457159],[127.87475657360895,37.45805138313363],[127.87501711135137,37.45736428925107],[127.87515135957615,37.45658341172596],[127.87477205397198,37.45593210387841],[127.87481714640711,37.45570347300706],[127.8746514335361,37.45500601480454],[127.87309648564828,37.45445802191827],[127.87092559306804,37.453413325898836],[127.87063562453385,37.45275755415044],[127.86956754010723,37.45189206755283],[127.86886144275337,37.45115952958084],[127.86880964194174,37.45081253788822],[127.868571312518,37.450686076540826],[127.86823454306236,37.449607118114244],[127.86836965666762,37.449244645776254],[127.86834144262662,37.44901281493191],[127.86716840086315,37.44794579466869],[127.8661078012432,37.44754160436077],[127.86599053799091,37.447188367350485],[127.86565257211153,37.4469504674717],[127.86561005675497,37.44614568819304],[127.86547595616688,37.445555067342326],[127.86564686440349,37.444970676173824],[127.86591128456156,37.44478353740221],[127.86595723446828,37.44414645982481],[127.86584336653003,37.44272422076707],[127.86607079273152,37.44151865802195],[127.86586417377089,37.44076963396434],[127.86598207702815,37.44042415565873],[127.86594731372558,37.44014376386242],[127.86570477818921,37.43963841001609],[127.8642338585973,37.43848861991293],[127.86416650522101,37.437820303764966],[127.8640322366469,37.43744525831192],[127.86404750836243,37.43700466596808],[127.86338773242731,37.43624972613039],[127.86369242931987,37.43536111815103],[127.86372085556064,37.43465189082438],[127.86432789901023,37.43432407264553],[127.86456613667347,37.433580609412616],[127.86449924819146,37.43314158970987],[127.86488561580265,37.43219962834175],[127.86508629845378,37.43195683520911],[127.86494189190145,37.43001378612274],[127.86476194254894,37.42901570269054],[127.8642640522325,37.428515047181044],[127.86431020165483,37.42794186619356],[127.86388215956717,37.426938645881954],[127.86403777021279,37.42610927307951],[127.86394372531512,37.425325986286914],[127.86437541492448,37.42493381738051],[127.86469509231242,37.42486000062588],[127.86483982377945,37.42429935137887],[127.86511081152238,37.42383736576292],[127.8654945016555,37.423643444813656],[127.8656109956469,37.42301409530277],[127.86627556078905,37.42281764967755],[127.86731934059223,37.42141082800768],[127.86750665530248,37.420990380508954],[127.86738364492788,37.42060358851256],[127.86750281680607,37.420133230911134],[127.86895834634468,37.419515818766115],[127.86959543103484,37.41915675841722],[127.87005717155287,37.418650248808845],[127.87044127741436,37.41841927836346],[127.87078132981046,37.41759839625009],[127.87068639152534,37.4164357452565],[127.87099088370029,37.41614156940993],[127.87126032856769,37.415654360802584],[127.87081688940289,37.41504261044915],[127.87066494869914,37.414533238735174],[127.87060979372905,37.413409098864584],[127.87040743273667,37.412909196817274],[127.8704118757452,37.4124088638611],[127.87054001994217,37.41225918738363],[127.8703251864646,37.411105388164515],[127.86986138906636,37.40975057828803],[127.86926380634297,37.408842655371735],[127.86920331827417,37.408335934017494],[127.86996034631908,37.40648068858873],[127.8694805063232,37.40631463767909],[127.86878404899453,37.40569062607123],[127.86836872404983,37.4049300938179],[127.86808094976931,37.404161519309376],[127.86800371540316,37.39963050815668],[127.86716203942782,37.399050445672344],[127.86597198922671,37.39868045822926],[127.86421868968766,37.39844170675779],[127.86249910575242,37.39830899193462],[127.86115842411708,37.39834502847794],[127.8592254209892,37.39885598743901],[127.85790842213575,37.39890809672933],[127.85650211755467,37.39865242929895],[127.8557332230557,37.3982811203994],[127.85426917008238,37.397824724434166],[127.8524129174265,37.39693522660736],[127.85158913607951,37.39612639544932],[127.85105304243814,37.39550638527526],[127.85099341381141,37.39533111984127],[127.84978135579783,37.39693130981892],[127.84963502554677,37.39755206908351],[127.84965008306118,37.39820567312157],[127.84913804626726,37.39865876737407],[127.84858875684002,37.399672746891795],[127.84763664864779,37.40078662577696],[127.84853273809411,37.40192510627709],[127.84945448083859,37.402442253161354],[127.84965407027504,37.40353390676034],[127.85001538517677,37.404001378858766],[127.85052087119963,37.405047039672525],[127.85009801444464,37.405697849794365],[127.85014237795384,37.406458902100766],[127.85033407724622,37.40682318259931],[127.85121548878999,37.407763149521344],[127.85126610345105,37.40858251059649],[127.85108304557976,37.40918329870983],[127.85080998359904,37.409338655578836],[127.8501832361156,37.41023724750297],[127.84955144898547,37.41056515378358],[127.84901303808982,37.41161512382279],[127.84909236043153,37.411903429023084],[127.84891218657964,37.412142796603106],[127.84879581485104,37.412527380199364],[127.84821893615596,37.413345094217995],[127.84815484509873,37.414365685043784],[127.8478722484946,37.41498984859278],[127.84771355015971,37.41585003811963],[127.8475512074153,37.41609008837453],[127.84761039001667,37.4164588904663],[127.84756465006362,37.41713658673978],[127.84746476743912,37.41737234111337],[127.84754894083186,37.41778152701126],[127.84741797238806,37.41806275151823],[127.84654887770265,37.41848219359812],[127.8462892910597,37.418774967231386],[127.84591861020756,37.418942722038686],[127.84566521447381,37.41927523761226],[127.84573860062856,37.419624837503996],[127.84555571557948,37.420195908080125],[127.84580259703698,37.42067756936842],[127.84578513827397,37.42119513915456],[127.84557871694291,37.42154474409065],[127.84556110153586,37.42222485183655],[127.84544967074372,37.422613478701614],[127.84493911222422,37.42359686881928],[127.84490480293738,37.423812458610826],[127.84433199344507,37.424195218564094],[127.8439695923218,37.4243262373038],[127.84353512374787,37.42494958028672],[127.84353643265821,37.425221712064904],[127.84305359339916,37.425895681507434],[127.8424615504254,37.42633279949956],[127.84241642029875,37.42674825977845],[127.84174842833178,37.42745649834679],[127.84175483058367,37.428164743063014],[127.84111758320043,37.42865865783941],[127.84081642851199,37.429254746572084],[127.84063342234982,37.43032225837569],[127.84050139752802,37.4304665609966],[127.84032575692294,37.43121870556917],[127.84008939316965,37.43147040559683],[127.84005734870783,37.43220146614686],[127.83972372856319,37.432596408296085],[127.83995749646112,37.43330274414722],[127.8400221850067,37.433823820083134],[127.83967693406896,37.43414796380499],[127.83883531482243,37.4342407112896],[127.83863658927015,37.43417437549619],[127.83682566387296,37.43418352832669],[127.83450152050298,37.43399580127049],[127.83444799764827,37.43428420630048],[127.83389533930671,37.434857979896876],[127.83330204922464,37.43567033075704],[127.83318769504676,37.4361097152836],[127.83278345938751,37.43636450025353],[127.83173794619806,37.43660224847777],[127.83129365519581,37.437070852533985],[127.83093097745954,37.43768919313453],[127.83068274604338,37.438377423923164],[127.82959018543269,37.438709822462904],[127.82917772866604,37.43892036059572],[127.82889523251124,37.43886072081484],[127.82834815491596,37.4391814447289],[127.82812014702077,37.43942829489145],[127.82733504343759,37.439883294013335],[127.82716134954833,37.4401076883304],[127.82658247727424,37.44028087075076],[127.82639538554983,37.4408948828948],[127.82620034436283,37.44116895343563],[127.82539805550545,37.44128154147584],[127.82518997481647,37.44145202273411],[127.82523643407652,37.44200302063641],[127.82509872158096,37.442542129520334],[127.82477596907353,37.442710872051315],[127.82363374835076,37.44294215491973],[127.82354395879995,37.44331503857273],[127.82315534081994,37.44366446741622],[127.82285458341558,37.44407111743251],[127.82278249226691,37.44431764833208],[127.82187618090285,37.44546001943609],[127.82091319629622,37.445384043886946],[127.82057998582894,37.4462820919598],[127.82009084304443,37.446334902218595],[127.81983325925219,37.446575434579486],[127.818609516776,37.4462556649302],[127.81802857143983,37.44600730456321],[127.81729567460721,37.44598994897468],[127.81652031259503,37.445398723713666],[127.8156560113982,37.44521588627509],[127.81481561727195,37.44486072853334],[127.81442279422271,37.444862587238795],[127.81384689066519,37.44499367202538],[127.8134363332441,37.44526914981147],[127.81316818503409,37.44509929949609],[127.812306704022,37.44414196254306],[127.81200462852365,37.44409171386372],[127.81172092836549,37.44370841677872],[127.81155758796373,37.44303455463209],[127.81032485447102,37.441886655501136],[127.81050429196993,37.44138556217695],[127.80919695364051,37.44125082162782],[127.80879847902168,37.44091929846163],[127.80789871415155,37.440764226488916],[127.80675909759417,37.4403579936535],[127.8058756417354,37.44014722399898],[127.80488848880806,37.440017258294645],[127.80393084644204,37.43964423086947],[127.80343324288438,37.43971322766471],[127.8025802514775,37.43954245357521],[127.80204204980683,37.43921059986109],[127.80034524480429,37.438623491543865],[127.80145285301805,37.437388012065334],[127.80118579942757,37.436642577721074],[127.80157866424815,37.43572643710804],[127.80199425461922,37.435176327973906],[127.802308630777,37.435055025175295],[127.80288903027325,37.4346739404075],[127.80269359881474,37.43364914137741],[127.8036088034905,37.43244700108759],[127.80375540619701,37.431967944540474],[127.80333292467016,37.431580926735585],[127.80323956706427,37.43094531912206],[127.80385641717405,37.42918749975428],[127.80386783396979,37.42887678836018],[127.80328001223441,37.42856791693418],[127.80234211397058,37.42863281176575],[127.80221345009852,37.42729479992791],[127.80133876163656,37.42724471529657],[127.79989689875362,37.427326370752326],[127.79951005181483,37.42727057935765],[127.7988486507815,37.42734805888478],[127.79771241749273,37.426905845166694],[127.79744454125864,37.42694428349146],[127.79720965005345,37.426319453659005],[127.79651561721178,37.42589914584051],[127.79601847219688,37.42519975489903],[127.79567218417246,37.42519619577826],[127.79499040448259,37.42502094833148],[127.79454553836923,37.42430320560075],[127.79467432314422,37.423603608621455],[127.79459812457839,37.423367995171255],[127.7940331470491,37.42315131221496],[127.79362327950226,37.42239633842339],[127.79361027352682,37.42218043182025],[127.79383373489543,37.421558334943285],[127.79348306914946,37.420782616847895],[127.7935066941335,37.42038598714335],[127.79375668493225,37.42009614899623],[127.79293999861942,37.41888205000274],[127.79220134516498,37.41836249147206],[127.79219687522532,37.417775120782444],[127.79192254860824,37.417350624749226],[127.79207403332082,37.416966305779695],[127.79191225469775,37.41638718527324],[127.79182289713253,37.415182656748364],[127.79154580185383,37.41439887232778],[127.79177407674959,37.41416672928342],[127.79140284040352,37.412942035630095],[127.79065986378471,37.41208996670744],[127.79084733980919,37.41140161972566],[127.79057820813892,37.410448710918274],[127.79028461829077,37.41024115266429],[127.790241439903,37.40863397466251],[127.78960594215401,37.40821404521704],[127.7895897906005,37.407019258091495],[127.78887625822783,37.40656217339751],[127.7886365391262,37.40630581565431],[127.78863650202999,37.40586492652397],[127.78781519877457,37.405357637398005],[127.78805669912464,37.40485770921163],[127.78764114062024,37.40421593904487],[127.78754494091575,37.403771894464796],[127.78773327592188,37.403488046535315],[127.78771190206311,37.40321418766617],[127.78749304498236,37.402971683135576],[127.78788286654328,37.40237393011961],[127.78794438363612,37.401940424526416],[127.7877649160119,37.40156124580792],[127.78786394030365,37.401459848442265],[127.78782099196333,37.401080526621534],[127.78721984590211,37.40043535003376],[127.7866481536488,37.400405369362794],[127.78629635099333,37.400133857435534],[127.78630030449533,37.39962277858912],[127.78567515255654,37.399334383673185],[127.78503890657133,37.398714412801475],[127.78474368203959,37.398596724339704],[127.78380599134891,37.39857883286312],[127.7842026824144,37.39633312263336],[127.78448579292922,37.39622848933918],[127.78462036160713,37.39545889025495],[127.78409687623659,37.394849175893484],[127.78378671981207,37.39428510702118],[127.7831695756967,37.39350667469656],[127.78222434603751,37.393332811995045],[127.78167435471883,37.393049618966934],[127.78222151693804,37.39242753922527],[127.78284840779617,37.391110283941444],[127.78313816900614,37.39028498421557],[127.78409636003322,37.388845661840165],[127.78358207587435,37.388625340465026],[127.78329134028675,37.3882574302499],[127.7831243959055,37.38742038411016],[127.78280111110377,37.387127128989526],[127.7820887408777,37.38708636997206],[127.78099761082628,37.3867921140903],[127.78037082901095,37.386843687912965],[127.77979760111454,37.38645039566692],[127.77963488385187,37.38600513046117],[127.77920694125613,37.385854561732394],[127.7785750337094,37.385782986014334],[127.77861461271407,37.385570884280206],[127.77839519062897,37.385022906854836],[127.77780579441234,37.38452348174416],[127.77750893000221,37.384391361978736],[127.77663880552684,37.383354464544745],[127.77670506779606,37.3811098307666],[127.77663045408102,37.38085160071135],[127.77617679948935,37.38040647142089],[127.7759175080758,37.37974187459132],[127.77579638241522,37.378854502823195],[127.77668094118704,37.377186135559306],[127.77746570306911,37.37635835285647],[127.77743427967549,37.37552947165638],[127.77700742788055,37.374737321885796],[127.77666552883956,37.374527640219924],[127.77696024574011,37.374026475495384],[127.7777852451053,37.37308713641405],[127.77771351975137,37.37278890732629],[127.77855477862016,37.37180271209236],[127.7789921103343,37.3706251828982],[127.77739803580465,37.37116335546985],[127.776058370219,37.37088269830206],[127.77532218597167,37.370349100561704],[127.77355053892254,37.36990602765277],[127.77293314534792,37.370089450572976],[127.77261579592826,37.36994354354247],[127.77204341465405,37.36992229621088],[127.77163013460347,37.36976116823381],[127.7704662553918,37.36960925532743],[127.77017173277298,37.36945507970955],[127.76964692986996,37.369341035384764],[127.76915474789864,37.36954203834217],[127.76873507415387,37.369577050522416],[127.76871125675217,37.369521685745895],[127.76726237977726,37.36949041312442],[127.76665046590156,37.369612105585695],[127.76606615387908,37.36986090184993],[127.76483752375273,37.36979982151214],[127.7642160718988,37.36986434074013],[127.76401876624463,37.370064374798496],[127.76278389464592,37.369946665725294],[127.76198008048371,37.369622416484454],[127.76164694463475,37.36940548767194],[127.76112537537172,37.36884617405636],[127.76034447284032,37.368445575264666],[127.75988737853562,37.36804519225772],[127.7596151813357,37.3669790646171],[127.75987336857817,37.366291011598314],[127.76039270071232,37.36605721483571],[127.76082163770899,37.36520663171841],[127.76108016108745,37.3649588367496],[127.76109663739021,37.364361620283354],[127.76129012077301,37.363608441028845],[127.76092016793801,37.36301733072649],[127.76042734262441,37.36166759549536],[127.760535093817,37.360934266876875],[127.75996267060931,37.36043287409419],[127.75937593073871,37.35968443466733],[127.76027549539371,37.35858621501475],[127.76056711040654,37.357942327826244],[127.7605840858283,37.357395239299805],[127.75981121565279,37.35625734216465],[127.75992696341673,37.3559218966064],[127.75977183491706,37.355328312157525],[127.76017365866839,37.35488972306003],[127.76001454822183,37.35462392955402],[127.7604651270555,37.35379873393519],[127.76086248873726,37.352651734429955],[127.75909910551927,37.35162091697211],[127.758387165206,37.35078696415869],[127.7586423732306,37.34836758432832],[127.7579863653557,37.34708000738143],[127.7578914630609,37.346347414972676],[127.75798659320212,37.3458404798061],[127.7588168115415,37.344540671454425],[127.75844544359491,37.34314500781773],[127.75870468575788,37.34252938794776],[127.75891527064027,37.34233235250431],[127.75906036855427,37.34174657411253],[127.75903334467705,37.34144916428697],[127.75963039428011,37.3413330204555],[127.75984480309539,37.34141589210747],[127.76017077335455,37.34109922463473],[127.76073354202408,37.3408187716089],[127.76066418608247,37.34053529352231],[127.76078109652164,37.34000402425228],[127.7605795349646,37.33954905977072],[127.76092999963798,37.33887110281591],[127.76099664522141,37.33837800788704],[127.76102026107935,37.33722807731753],[127.76088549415002,37.337055408818344],[127.76128666615544,37.33681108717844],[127.76177054661612,37.33617237307399],[127.76183603000332,37.33570704282087],[127.76256175372748,37.33506368319035],[127.76294034218941,37.334303964486764],[127.76167091288912,37.33392211805743],[127.76145168020078,37.33324630452091],[127.76049407371232,37.33239692252564],[127.76039841728668,37.33206541622435],[127.75948863092037,37.3315841023737],[127.75910833951386,37.33125598794609],[127.75854168938467,37.33113649172365],[127.75838664853876,37.33080257153637],[127.75872104607242,37.33031099782846],[127.75970541354116,37.330113789472755],[127.75985999646718,37.32978647258338],[127.76041493352311,37.32928539916699],[127.76036143340433,37.32864412720889],[127.7607227936494,37.328156717690746],[127.76075917904166,37.32779309231085],[127.76128823416627,37.326991640018235],[127.76187395379081,37.325291097430856],[127.76270411919158,37.323463089569394],[127.76288564356308,37.3225289226674],[127.76209426150332,37.32152162467127],[127.7620550864846,37.32125469404937],[127.76246712235813,37.320348605257436],[127.76295936933492,37.319661486646794],[127.76343015634461,37.31837147810782],[127.76368848626721,37.3180977016698],[127.76428834950396,37.31796186855575],[127.76535291815986,37.31741778382792],[127.76513424728674,37.31659728789183],[127.76519720833355,37.31592180396379],[127.76499551494986,37.315373924460225],[127.76537099013822,37.314915846375804],[127.76550345385694,37.314230909257034],[127.76569963539558,37.3139276281037],[127.76572977321317,37.31352264408423],[127.76553927469546,37.31343662093666],[127.76553533054962,37.31302114006735],[127.76586717495402,37.31278982595818],[127.76636259728522,37.312274952283886],[127.76651612873334,37.31192903785921],[127.76655438699096,37.311268405599264],[127.76679089585161,37.3107650792685],[127.76828295566442,37.3093414892682],[127.76840599587139,37.30831278007838],[127.76821884973965,37.30753602480982],[127.7683232288256,37.30669932206986],[127.76818250447694,37.306375016764356],[127.76814413524879,37.30584301463466],[127.76769760099211,37.304713338783245],[127.76758227841496,37.303928983026445],[127.76768047578426,37.30289412822224],[127.76807676646148,37.30248636714828],[127.76819336052714,37.301521236129894],[127.76758054204994,37.30150060757588],[127.76722130625541,37.301797092797344],[127.76652152685669,37.30151042103891],[127.76573226647866,37.30138525240023],[127.7645129076033,37.3017507573056],[127.7631556812682,37.30185398910485],[127.76210556926992,37.302154902670324],[127.76190229851633,37.30211889847616],[127.75932014165356,37.30110077693023],[127.75914567970652,37.300962138775205],[127.75874976370959,37.300278311025515],[127.7575060033077,37.299999265681606],[127.75678662986229,37.29924105374418],[127.75653668039709,37.2987143969048],[127.75550228158954,37.298299786119124],[127.75459950680593,37.29759851353062],[127.7538345631985,37.29773121400625],[127.7512987906029,37.29770848186582],[127.75071116802683,37.2978990877787],[127.75032852322902,37.297653831222924],[127.74989519073004,37.29709957485353],[127.74989138575383,37.29653669389593],[127.74968238525378,37.2959644784102],[127.74959674086011,37.2952129185432],[127.75001596857518,37.294248191997916],[127.7499108807611,37.29343176459161],[127.75029246467584,37.293079661749545],[127.75012910767289,37.2918524083751],[127.75085658548008,37.290976546912646],[127.75240159371668,37.289713773698885],[127.75258065734448,37.28907105838246],[127.75294802279284,37.2887349273258],[127.75354180667733,37.288948939270014],[127.75432649491741,37.28767713030563],[127.75441815548045,37.28662359887118],[127.75498248274685,37.285853438903885],[127.75507542730976,37.28553726654729],[127.75556066264711,37.284977712485905],[127.75552572564595,37.28492324256643],[127.75531413861948,37.285034262697316],[127.75505364950588,37.2850303965989],[127.7547927975703,37.28492426179469],[127.75395997113492,37.284216578003],[127.75509264779133,37.28252349057935],[127.75534434325984,37.28243467946251],[127.75528565553914,37.281944263693646],[127.75551275181435,37.28189800074975],[127.75655845299003,37.280170591757575],[127.7563123385799,37.27944557712529],[127.75682655107795,37.2791074353316],[127.75729668874864,37.2789659946258],[127.75737878945877,37.278880668290185],[127.75730666020638,37.27882870806246],[127.75762112607998,37.27876619542474],[127.75674866877448,37.2779109586582],[127.75659475805914,37.27757862775927],[127.75675503473933,37.27722201159396],[127.75655188381319,37.27715824543739],[127.7578112270402,37.27707653978821],[127.75818078577066,37.277298729484656],[127.75908463223611,37.27706287438354],[127.7589150621158,37.276620227950175],[127.75955325289792,37.27549892401779],[127.7596326609251,37.27485011972518],[127.75932276962213,37.27460473156791],[127.7595497589024,37.273582943978354],[127.76038359272451,37.273319633339256],[127.76048184277123,37.2728997168868],[127.76007513104379,37.27218694830863],[127.75977497080059,37.27211258209696],[127.75933537313867,37.271776651616356],[127.75929425304052,37.27156927567541],[127.75970987873649,37.270600918143394],[127.75931854481203,37.27014025775049],[127.76009006255771,37.26939915640949],[127.76067618942777,37.269063615754746],[127.75932850805616,37.26677959479775],[127.75987585305998,37.266042017617835],[127.7598099848719,37.26531837766101],[127.75959466864303,37.26516699651346],[127.75949224111987,37.26434630514507],[127.75884204433474,37.26382161717791],[127.75879783674465,37.263443917118096],[127.75857643505117,37.263233673296995],[127.75845480325454,37.2629434860373],[127.75860445679413,37.2624540900115],[127.75799751869103,37.26157153319898],[127.7580716075621,37.26137355755317],[127.75748036189242,37.26032585050363],[127.75719884517237,37.25888352857759],[127.75760991117879,37.259012552040595],[127.75761488793651,37.2582473057659],[127.75703784685219,37.25792927276097],[127.75411156252207,37.254520788250936],[127.75267374421166,37.252604656087584],[127.7516261057022,37.25075555642685],[127.75032270968622,37.248908072176505],[127.7494163762096,37.24716546368845],[127.7479159891283,37.24357086332936],[127.7468697165583,37.239973379362695],[127.746968237719,37.23908326624242],[127.74698760930073,37.23636856512815],[127.74723760653838,37.233942240387535],[127.7479759884784,37.23241137802341],[127.74691027369146,37.22977228288232],[127.74711280197887,37.229159620293274],[127.74717365361197,37.227157351749184],[127.74817462770633,37.22538618123062],[127.74918778143117,37.221938377709414],[127.74892219959806,37.218335970435035],[127.74823619162423,37.21705747638269],[127.74797589876427,37.21625963942444],[127.74762484360879,37.21452057193226],[127.74605739674908,37.21446841799666],[127.74574540002364,37.21410025638763],[127.74511126985517,37.21272283758418],[127.74432152522347,37.21163750040517],[127.74428148736935,37.207552892216356],[127.74571175803534,37.203615292917775],[127.74650936821261,37.20033071170058],[127.74973568940725,37.189498080963595],[127.74971748615401,37.18765300306376],[127.75010676687377,37.1858916320235],[127.75077986432005,37.18376129838081],[127.75104063755892,37.182467341496455],[127.75189161205479,37.18225173837242],[127.75202815966796,37.181960949687294],[127.75223293593042,37.180728093121644],[127.75286220391202,37.17886021363498],[127.7551451661868,37.173494287991815],[127.75552878559708,37.1714408203253],[127.75657661020652,37.170080299428335],[127.75707326074672,37.16920879362151],[127.75790092013392,37.1682056964936],[127.75889410896282,37.167227774432696],[127.75986701083308,37.166470745932806],[127.76019391626144,37.1663140459499],[127.7643697209777,37.16040675230817],[127.7654987940369,37.15913643534671],[127.76631688415804,37.15854849904698],[127.76755451708098,37.157948231184434],[127.76869231359308,37.1566465611424],[127.77089566289906,37.15507347011945],[127.77344477127221,37.15372592967332],[127.7744793194509,37.15307376101301],[127.77566512985464,37.152171010843446],[127.77817260837537,37.15058987916375],[127.77918444305725,37.149663255415376],[127.78381090725452,37.14706727113898],[127.7844624664832,37.14658718988584],[127.78729751762435,37.14523885861629],[127.78751075473401,37.145034532816936],[127.7878247515647,37.14423974243828],[127.78952196853096,37.143408056851946],[127.79051076365361,37.14382704319261],[127.79210994587211,37.1446814483615],[127.79282330150996,37.145229830611356],[127.7930058524529,37.145571885721616],[127.79334734302044,37.14573450411837],[127.79432556375613,37.14560475745991],[127.79549000217023,37.14525171543434],[127.79685386390902,37.145511241999316],[127.79767582511586,37.145494990448576],[127.79945284753641,37.14496281367296],[127.799944007399,37.14471453471094],[127.80107182757689,37.144331816198395],[127.8016470121335,37.14426137553583],[127.80212067964378,37.144426363512856],[127.80260901335866,37.144727839037884],[127.80485106801373,37.14577502141516],[127.80551732575816,37.14619232074029],[127.80571191360835,37.14640921379354],[127.80693601306021,37.14706570544739],[127.80801921859658,37.14721011847709],[127.80965635747219,37.14707272422806],[127.81121961744302,37.14660478591532],[127.81307570868192,37.14664674626343],[127.81461987641427,37.146590272538674],[127.81632068049933,37.146960367357195],[127.81685177438214,37.14700447936905],[127.81739378388822,37.147217023749015],[127.819262595826,37.14838745556985],[127.82142264840071,37.149958054146396],[127.82195665018664,37.150296234985575],[127.82358775918472,37.15110902946565],[127.82520147138524,37.152248112906705],[127.82537012900923,37.15226279200203],[127.82622038432393,37.15200795920669],[127.82671999850608,37.152042648653065],[127.82687985521356,37.15214236058215],[127.8272353923506,37.152093481853356],[127.82739914963699,37.15222583699754],[127.82840372849203,37.15228878174577],[127.8283711333238,37.152405951536956],[127.82870623221088,37.15253109103964],[127.82976292723687,37.15267073980846],[127.83039535307981,37.15259701128533],[127.83064991349801,37.15231599356859],[127.83202188600879,37.15237148747198],[127.83291996135156,37.15206028384762],[127.83330339354984,37.15200072955079],[127.83364588739568,37.152075903071655],[127.83447117177194,37.151736357373544],[127.835258744893,37.15178786559064],[127.83588025708836,37.151680043540736],[127.83738173464155,37.15163076407915],[127.8385926723291,37.15214665060339],[127.84031738443366,37.15223493165386],[127.84082156128203,37.15212979128423],[127.8429402200774,37.15243455822026],[127.84462736584003,37.15283886010672],[127.84636384573334,37.15285890615424],[127.8468848922627,37.15279316368097],[127.84760386876391,37.153024886093874],[127.8495657663823,37.1534328689773],[127.85000012944744,37.153572914503975],[127.8502072190145,37.1537682235054],[127.85034789250989,37.15412748312092],[127.8505152173793,37.15494934371643],[127.85066741928365,37.156584757322214],[127.85127453707804,37.15846310602907],[127.85168045953529,37.158776939222655],[127.85195009571262,37.15954733639669],[127.85223319962259,37.15992182427043],[127.85264792875431,37.16014035383023],[127.85337659155343,37.160306493553236],[127.85418492080017,37.16039982149677],[127.8546603206403,37.160331381442184],[127.85499709677171,37.160207436498546],[127.85529148239517,37.159951757066516],[127.8553737518308,37.158847617234194],[127.85528355993475,37.15812312367204],[127.85498851312015,37.15778258095238],[127.85489300508965,37.157453025097674],[127.8549791764117,37.15724342978541],[127.85508862831723,37.15720914021709],[127.85510735699526,37.15753511302403],[127.85528987334743,37.157938727688936],[127.85516305785374,37.15745813480258],[127.85517980550864,37.15697729907363],[127.85588520516443,37.15647983594081],[127.85635248771466,37.15637671984914],[127.85800624980835,37.15640238028524],[127.8592272344637,37.15634257087429],[127.86023050672537,37.15564801286587],[127.86129998997502,37.155346519001306],[127.86169488126396,37.15560056081632],[127.86181871827714,37.15592834811808],[127.86185370109308,37.15652498476832],[127.86137143878663,37.15861591422492],[127.86137487504634,37.159243181431485],[127.86196160070024,37.16104540269753],[127.86279688361584,37.16162739719131],[127.86325166775892,37.16169074719588],[127.86353858333901,37.16182715807309],[127.86362587033243,37.16213095322674],[127.86418554059233,37.16238356120012],[127.86500249825546,37.162450579236996],[127.86577241025816,37.16232368061401],[127.86579665223893,37.16249611104025],[127.86719952638094,37.16229539427505],[127.86760306402736,37.16243805204149],[127.86861375514309,37.16329150748374],[127.86961235761898,37.163828278618546],[127.87055345249162,37.16411991601548],[127.87204051948268,37.16434421389596],[127.87246659656948,37.16427703811882],[127.87332489591164,37.16392604952058],[127.87505636363322,37.16375537863828],[127.87497717325802,37.1635968057144],[127.87584748744418,37.16309811301861],[127.87651030745377,37.16281577060472],[127.87695100591905,37.162722964587836],[127.87892905166404,37.161765883889665],[127.88015363320847,37.16224637228938],[127.88073466773523,37.16206812937535],[127.88188880405421,37.1620237296957],[127.8823774626819,37.161843865377705],[127.88278107850195,37.16185036142644],[127.88290629677236,37.16173165729324],[127.88343782394512,37.16184477331513],[127.8843715477053,37.16157865141571],[127.88494375854951,37.16122694320209],[127.8855808515119,37.16111976374763],[127.88657145182832,37.16107540335821],[127.88742487927355,37.16014589372251],[127.88774454062907,37.160037902854086],[127.88837516314938,37.15964305262176],[127.8885685545366,37.15969470065566],[127.88953413361797,37.159436048779654],[127.88974683079391,37.15916640930379],[127.89015513815076,37.15904575839624],[127.8901561913447,37.15913586017567],[127.89041570998867,37.15913078691564],[127.89057094275246,37.15920708303084],[127.89106534138756,37.1587392760935],[127.89110242725685,37.15848502553567],[127.89126745608397,37.15830009856626],[127.8914527176855,37.158270214298774],[127.89197484339624,37.15794065361697],[127.89223609213175,37.157990500971756],[127.89290466124417,37.15759600579668],[127.89316368327624,37.1573142736519],[127.89360633674353,37.15717117611444],[127.89391938068404,37.1571810809924],[127.89416660932373,37.15686091533227],[127.8943956709494,37.15676246532382],[127.89435173988184,37.15669785037492],[127.89447892430003,37.156572514665896],[127.89543450081449,37.15612909074235],[127.89552128794979,37.15572137312205],[127.89601180697666,37.1552631151391],[127.89645064832474,37.15432333422453],[127.897090472424,37.15348809136017],[127.89778792027265,37.1522249198988],[127.89837113162062,37.15050748554277],[127.89890305356258,37.14987758210745],[127.89997027277133,37.1504828870711],[127.90025699073314,37.15090688538021],[127.90064381066806,37.15128599674516],[127.90165860314055,37.15179580184992],[127.90190326109888,37.15217178145042],[127.90191720647057,37.15318740379959],[127.90306401510085,37.15512851417338],[127.90317716969821,37.15588107071491],[127.90367118701262,37.15676422155925],[127.90387687943553,37.15696151072639],[127.90403597284869,37.15872532718441],[127.90345716181453,37.16003410574092],[127.90408726308274,37.16020633179868],[127.90490289384125,37.16073797190499],[127.90551186502708,37.16133878851788],[127.90618992390107,37.16173264068748],[127.90712169599391,37.164260730684404],[127.90721666393812,37.164684648400744],[127.90716525743369,37.16519886403457],[127.90797021070455,37.16615278347085],[127.90835550872941,37.16630142240748],[127.90864775211874,37.1670986868413],[127.91111455866427,37.16751423070101],[127.911438370638,37.16751587240685],[127.91200512579628,37.167807927361004],[127.91302466044455,37.16817858103931],[127.91354815607434,37.16856869417767],[127.91377387766966,37.16844626444274],[127.91503782484928,37.16887566635232],[127.9173996277215,37.167541543362155],[127.91888356204515,37.16694508804036],[127.92080742041904,37.165853011029704],[127.9215424860051,37.16501786425603],[127.92203126652069,37.164954511324694],[127.92321491075529,37.16392962942514],[127.9238605537233,37.16363481937178],[127.92430030081944,37.16421562590583],[127.92468778512188,37.164548589357274],[127.92635924498465,37.16552218881108],[127.92671941237289,37.1664123409236],[127.9265481544242,37.16657928580048],[127.92695788215764,37.16798034940205],[127.92714718672141,37.16817042729821],[127.92740907630842,37.16974177530358],[127.92830943478032,37.17042898843138],[127.92910542842304,37.170851175817745],[127.92952528539787,37.17090721153008],[127.92993695104651,37.171148828917154],[127.93001426052696,37.171335877613],[127.9302933789597,37.17143523459409],[127.93079283055846,37.171928924927066],[127.9310356409571,37.172538395528036],[127.9311885612764,37.17332923540246],[127.93187621491236,37.17473484813088],[127.93254421448823,37.17507423141557],[127.93258347915193,37.17520940944472],[127.933829585981,37.17569569269328],[127.93345718960381,37.17688777547181],[127.93339900170336,37.17734103646113],[127.93324659085039,37.17745611422603],[127.93307688982506,37.17780485330001],[127.93321489929875,37.17823055292766],[127.93315030524933,37.1785235035471],[127.93405680743649,37.18035630329983],[127.93319719378403,37.181088183831505],[127.93270456372508,37.18223789491381],[127.9335068826853,37.183539337523165],[127.93358669721115,37.18547257790382],[127.934391722948,37.18578973344115],[127.93476368343514,37.185832465990686],[127.93477711152445,37.18599101938076],[127.93546247874721,37.18713363781164],[127.93513976657866,37.18799182206048],[127.93582630199035,37.1886999319905],[127.93586269092442,37.189410256534586],[127.93551632092063,37.18951841551581],[127.93464318026477,37.190050378248934],[127.93428815255305,37.19039265898124],[127.93389708041386,37.19164426381613],[127.93368943375627,37.19172098745869],[127.93346753198726,37.19236153328735],[127.93279125026474,37.193020413611706],[127.93165581552385,37.19636648759801],[127.93182433454773,37.196713540374716],[127.93151930532095,37.19874143414287],[127.93123153957063,37.199335971113655],[127.93103257145681,37.200145308327976],[127.93105147679437,37.20050858348526],[127.93070817498975,37.20129338242835],[127.93134542700945,37.20185022896803],[127.93152611802579,37.20290110152633],[127.93156591430653,37.20374208284296],[127.9313958338087,37.20409978490337],[127.93154408006622,37.20457624858552],[127.93160720971169,37.20539628613766],[127.93178013617593,37.20567945060474],[127.93250401094605,37.206236192748214],[127.9323732667519,37.20721773706824],[127.93062158698108,37.21086494531029],[127.92950205441156,37.21197240582103],[127.92725980175214,37.2179499112484],[127.92714500754273,37.22044101114203],[127.92602105003246,37.22089790042931],[127.92358711857852,37.22164656432544],[127.92264806770494,37.22239253762968],[127.92191422205899,37.22407546355281],[127.9216980695349,37.22539025589701],[127.92220209362394,37.22651266525791],[127.92488452912772,37.231511078153964],[127.92575582213776,37.2320205757541],[127.9279905588975,37.23305840337568],[127.93028077742537,37.23452466589423],[127.93070976596478,37.2349607417212],[127.93188313546891,37.23590239053171],[127.93372484967513,37.237258049938454],[127.9344288984488,37.23797119328874],[127.93531806893894,37.238615955056744],[127.93638013997811,37.23959289132324],[127.93739058044855,37.24025911233997],[127.93888105712837,37.24074323781588],[127.94092190962876,37.24055737957369],[127.94366299182515,37.24051043673862],[127.9443576993835,37.240662953697964],[127.94536478651456,37.24067939238774],[127.94666931716127,37.241286357512095],[127.94706795716621,37.24169469936879],[127.94726272879694,37.24246391157039],[127.94732565130339,37.24425144270267],[127.94790968907637,37.245336452857565],[127.94813111306568,37.246915587339615],[127.95009637882663,37.247128703704234],[127.95062862697034,37.24733592263704],[127.95144442576402,37.24744552056954],[127.9518367563217,37.24774177563537],[127.95234138072328,37.247863973251036],[127.95393768220437,37.24903737909912],[127.95439570361704,37.249190217384196],[127.95550899159642,37.24976384191509],[127.95603631317154,37.2498620457393],[127.95665654020702,37.25025017938188],[127.95821253326253,37.250155382453926],[127.95848080985013,37.25004516676813],[127.95942910383866,37.249876731086275],[127.96166187626763,37.250811622780674],[127.9621312977987,37.250826132130555],[127.96273687161603,37.2509912357994],[127.96403022737957,37.2511732014828],[127.96472030848034,37.25158534847089],[127.9650203343177,37.25207989179803],[127.96559368979743,37.25244760061238],[127.96598821193537,37.25303412143474],[127.96647706923143,37.253260597712256],[127.9671744523322,37.25400815778844],[127.96871492608331,37.25476286777013],[127.96948650205805,37.25589728594246],[127.97139203361229,37.25656828185109],[127.97202422745072,37.25664431801737],[127.97245633387091,37.256477251567624],[127.97352469741739,37.25646828737117],[127.97402293917462,37.256567379789395],[127.97432094400892,37.256751167121124],[127.97475978138445,37.25680526236349],[127.97626252581155,37.25733709518919],[127.97658729234314,37.257548389670625],[127.97727950935281,37.25753939068995],[127.97756706675261,37.25778199368689],[127.97803529225702,37.257914031657066],[127.9784245134319,37.25789615149883],[127.97969883888611,37.25844004234527],[127.9799416389416,37.25827769604042],[127.98002307509077,37.25809421684236],[127.98081360073792,37.257357340251346],[127.98103610159237,37.257225249227595],[127.98137816900173,37.25676708956938],[127.98203372146102,37.2569938221616],[127.98222525735957,37.25690102779864],[127.98279475534012,37.257189729594245],[127.98298031223229,37.25749972156423],[127.98327214735751,37.25761616279511],[127.98349202992759,37.2575255997216],[127.9844907120593,37.25778916133577],[127.98525847709445,37.25822594113673],[127.98566102313075,37.258183826996046],[127.98592204414618,37.25798911296381],[127.98640703866523,37.257919819752026],[127.98671745960677,37.25803818080755],[127.98732515366714,37.25741375469793],[127.98820243127761,37.25717148370086],[127.98848770760723,37.256772737801036],[127.98889339597626,37.25642020074467],[127.98945044634421,37.25623248774336],[127.98960574324124,37.25595219866718],[127.99022621228504,37.25551581689659],[127.99108250546304,37.255143442787585],[127.99181660442872,37.255098329467735],[127.99229326348204,37.25492185289606],[127.99252677619045,37.25494243232146],[127.9932700315532,37.254136725142786],[127.99352251498446,37.254037878852145],[127.99399691003623,37.25363649772852],[127.99432096381697,37.25376432784735],[127.99515220518057,37.25430433639352],[127.99651032343591,37.25446656093246],[127.99685606198132,37.2545688106983],[127.99814059161075,37.25460511736748],[127.99882194943746,37.25482988348644],[127.99934086133489,37.25448113149007],[127.99957373948763,37.254446525307976],[127.99960178738074,37.25387528129468],[127.99987137719208,37.25352830521843],[128.00039648807103,37.25337860541306],[128.0006670829997,37.253396657630525],[128.00106097758288,37.25355212439176],[128.00182211921083,37.25333476554707],[128.0020386157623,37.25315380675012],[128.00256867807093,37.252974082407775],[128.00380183362824,37.252278926681484],[128.00512548782328,37.25208423407457],[128.00552184042,37.251890655358224],[128.00613728732395,37.25201312357701],[128.00789277615792,37.2516330239078],[128.00857420322964,37.25047505851625],[128.00876031536015,37.250301023452664],[128.00932357387703,37.2503095755484],[128.00966146403164,37.24990079736963],[128.01088915937754,37.249667556414984],[128.01108974565236,37.24920787157701],[128.011151857703,37.24870852790439],[128.0115492015335,37.24850801823515],[128.01195039499157,37.24818317193452],[128.0122376924827,37.24746482246755],[128.01391672239836,37.2466239455969],[128.01550728075526,37.246372310062824],[128.0157511935751,37.24624858602423],[128.01659296625522,37.246441871556556],[128.01730861004688,37.24591597751733],[128.01779873720042,37.24573836421082],[128.01792727170098,37.24544858028923],[128.01846218370892,37.24512841273382],[128.0185486650458,37.24469937894317],[128.01921279570104,37.24439711705478],[128.01933458516172,37.243448841017866],[128.01930598213374,37.24283873945361],[128.01956292144396,37.24225302643096],[128.01953195372394,37.241413580336676],[128.02031220052277,37.240723999192795],[128.0200009508673,37.239512272578274],[128.01987546677353,37.238409950464636],[128.0200703707,37.237462880547206],[128.0197742917678,37.236544207649985],[128.02016788666754,37.23607975275553],[128.02038455021736,37.23497679433705],[128.0203934915325,37.23402012385301],[128.02074749896212,37.233027084761126],[128.02121407811185,37.23227738973291],[128.02120788528768,37.23143932278715],[128.02096883972922,37.23045995496762],[128.02141922318924,37.22945531743676],[128.02160067467213,37.22833226891488],[128.02211223987132,37.22769609754246],[128.0222319793567,37.227253788957135],[128.02277088325627,37.22668161057229],[128.02270208025416,37.22619414959702],[128.02292686249058,37.22541031264643],[128.0241294461257,37.22520879840359],[128.02599751968899,37.225524681108496],[128.02684505004353,37.22466954866943],[128.02788417801406,37.22474464679296],[128.02884826584608,37.224164141327066],[128.02992294601492,37.22398286738238],[128.0317466013175,37.22334638122846],[128.0323703955079,37.22341507967633],[128.03245782184626,37.22277808484098],[128.03217487018392,37.22130954320468],[128.03242814652185,37.2205050512903],[128.03347949021776,37.21928758747695],[128.03439386138453,37.218949300681075],[128.03556052949085,37.21839698109272],[128.0361478445462,37.21837526301245],[128.0376625133677,37.217221813826555],[128.03799810870498,37.21641262189145],[128.03866619117025,37.21626800269765],[128.0392583577825,37.21549478307085],[128.0391890439565,37.21445794847851],[128.03874169566814,37.21410147399644],[128.03833042573908,37.21356569867623],[128.03753459536648,37.21330998383823],[128.0373137179294,37.21252741179],[128.03647386234022,37.21192278264376],[128.0344673481595,37.211171255539284],[128.03355100744025,37.21064094823836],[128.03316491970014,37.20986637546917],[128.033381754655,37.20926882362432],[128.0332891069218,37.20855701715627],[128.03269968000268,37.20777637556881],[128.03170666709303,37.207517734365894],[128.03090708334045,37.20674550479075],[128.0301938036505,37.20430962686345],[128.03005549134326,37.20329280157026],[128.028943638423,37.20274369062204],[128.0287479908923,37.20205936173829],[128.0291441271843,37.2014071576348],[128.02976547655152,37.20098036476278],[128.03033161822043,37.20011213243306],[128.0312215075307,37.19985129982027],[128.03224147432454,37.199332300561004],[128.03232616028606,37.19875235817914],[128.03286278915095,37.19786891874829],[128.0327163769038,37.19755669688902],[128.03300952625332,37.197184462077466],[128.03282711687737,37.19692753564451],[128.03286552581042,37.196519503539065],[128.03275594788806,37.19630659474247],[128.03307045131444,37.19564425725159],[128.03299769095943,37.194851855102776],[128.03324414544556,37.19457649607965],[128.03301149313972,37.19321559727984],[128.03360547902358,37.19254974143231],[128.03413203696977,37.19149597569628],[128.03455942684815,37.19127947625882],[128.0349267352518,37.19093096204672],[128.0349098486354,37.19060423274878],[128.03584040138077,37.189967671664036],[128.03635967741508,37.189764554195676],[128.03715304304154,37.18898320560109],[128.03814484417347,37.188814809831776],[128.03858457581788,37.18890476563137],[128.04025698155266,37.18860324327002],[128.04105610832738,37.188374281775396],[128.04179885845494,37.188566675898684],[128.04252207043783,37.18892148311113],[128.0430580529972,37.18937233057857],[128.04327194361858,37.1902531637194],[128.04421796824613,37.190493358103986],[128.04575937992644,37.19016042845667],[128.0466003867993,37.189828182908016],[128.04744775871566,37.18996226078989],[128.04808142826056,37.18962951857441],[128.04884007142047,37.18985513056218],[128.04933696436962,37.18970047616253],[128.05040038087165,37.19038508487055],[128.05116408927472,37.19056060347917],[128.0515185013154,37.190821350649564],[128.0522842467217,37.191162048942616],[128.05399491975575,37.19157658177628],[128.05483572742216,37.19167112889342],[128.05529641418434,37.19220547248709],[128.05698172720568,37.19299688671446],[128.05776297500105,37.19361441953164],[128.0584576934589,37.19399262721245],[128.05931127058935,37.19399100180675],[128.05986957220557,37.19427213857215],[128.061020576132,37.19430684558124],[128.06128531816134,37.19371405216266],[128.06208104485665,37.19347958741494],[128.06288662423378,37.192885530212784],[128.0644227508258,37.19330764592226],[128.06571606628953,37.193942631525964],[128.06733118117867,37.19401711409859],[128.06782034765752,37.1942365567719],[128.06921062046652,37.19440599189914],[128.06995162374722,37.19460835440922],[128.0707845833928,37.19459452429805],[128.0716056426589,37.1944519679768],[128.0720148552388,37.194485257477524],[128.0741006594399,37.193112074718336],[128.0755320471946,37.193497105814096],[128.07715279797978,37.19352428923511],[128.0789765007005,37.19402239808665],[128.0799191372041,37.194475042981296],[128.08089588836665,37.19453923647561],[128.08451345024147,37.19589534155581],[128.08564800965985,37.19642148333597],[128.08614640554293,37.19681994864165],[128.08658488143686,37.19769260696944],[128.087142841609,37.198437200814794],[128.08791479090178,37.19863958196488],[128.08848884142856,37.19848617088487],[128.0888309997506,37.19850941241464],[128.08922658297485,37.19871010180866],[128.09021315703436,37.198224355166204],[128.0916890459385,37.19799394691485],[128.09215264410986,37.1992996713499],[128.09254186968434,37.19926747236609],[128.09354980915217,37.19969808907912],[128.09431722396099,37.19989637674569],[128.0951292770817,37.1998851284573],[128.09528379254243,37.20009220036495],[128.0953722812178,37.200432816299916],[128.0955981658213,37.200377084883776],[128.09645874034916,37.20046997453949],[128.09724050200708,37.20103156457272],[128.09806435018967,37.20127895979702],[128.0983717870436,37.201440627190635],[128.09906073014037,37.20153967392524],[128.09921698494577,37.20187146916974],[128.0997099958607,37.201690275617295],[128.10007597387286,37.20171896709128],[128.10084102092478,37.20207528815178],[128.10195217588307,37.20236848238291],[128.10259139966104,37.202696173747675],[128.1031519275427,37.20285933165499],[128.10368207424875,37.203267760804295],[128.10429616334926,37.20360565939958],[128.10500851857023,37.20374813276965],[128.10568579705753,37.20438286348446],[128.1065797751556,37.204985025585536],[128.10756411450393,37.20521206216873],[128.108694933881,37.20566212437632],[128.10891197740986,37.205867522732525],[128.10931966071465,37.20658543763764],[128.1100773549832,37.20691702530759],[128.11034436054345,37.2068951106097],[128.11069108977736,37.20724905469495],[128.11158754722385,37.207740153152066],[128.11185149466687,37.20836955727966],[128.1118164854409,37.208916307534125],[128.11172981691993,37.20922484549388],[128.11137105944442,37.20946951245521],[128.11125005680418,37.20966134128499],[128.1111713462768,37.21020044395329],[128.11139750730223,37.210427699834945],[128.11224059160597,37.21080606388478],[128.11279468771846,37.21138553341211],[128.11324847609936,37.21225290831191],[128.1142092464513,37.2130427293798],[128.1141383574644,37.213602968692726],[128.1142291390707,37.21402290741832],[128.114131746238,37.21476592858458],[128.11448346810977,37.21566928099982],[128.11477149264587,37.21581612914882],[128.1149504855824,37.21602247959252],[128.11520313844767,37.21662908521764],[128.11496845387728,37.217054165515705],[128.11449151808458,37.21840115011433],[128.11457363732555,37.21868791409391],[128.11480738309123,37.21890982164023],[128.114938286532,37.219304669017376],[128.11516870857295,37.219444481355765],[128.11530971985232,37.21965383710889],[128.1152451372356,37.21996854145897],[128.11530185064376,37.22005657277319],[128.11548568832993,37.22006066540038],[128.11608220707015,37.220858309498674],[128.118428646997,37.22292367539373],[128.1201033028371,37.223756219658384],[128.12241929783178,37.225308576112006],[128.12217750045244,37.22562268088159],[128.12191511153677,37.22620696358569],[128.12194980177,37.226445903243736],[128.12122800374289,37.22690759615288],[128.12089919108277,37.227363563557894],[128.12128358272423,37.227667897248374],[128.121407992494,37.227894529209685],[128.12144734289583,37.22842422874108],[128.12176422981736,37.228962451684836],[128.12159459430654,37.229352509872776],[128.12173182631648,37.22957957709314],[128.12232077418932,37.23008451818662],[128.12257239403388,37.23050360201698],[128.1233704747281,37.23097339074057],[128.123368347438,37.231349252301044],[128.12377584431357,37.23169285946216],[128.1240828354877,37.23262945892497],[128.12471860201046,37.23326984925816],[128.12465605160307,37.23383344520366],[128.12536199832286,37.234589699886534],[128.1259574428497,37.234430654542194],[128.12638852355383,37.234606165865245],[128.12694897594912,37.23435598414046],[128.12765475466946,37.23425368909766],[128.128040870508,37.23362683628789],[128.128882620284,37.23360353554965],[128.12926481420703,37.23379743023353],[128.12961502372116,37.233804896439175],[128.13010594781505,37.23305838765102],[128.13049716253667,37.23262787710974],[128.13049191472666,37.23233558156772],[128.13127062105073,37.231669224998754],[128.1322922738888,37.23096968957164],[128.13236267894482,37.2302335840879],[128.13262048472524,37.23017148217746],[128.13292019393697,37.22985372261404],[128.13347950153798,37.229787173155415],[128.13492224678444,37.230068143416915],[128.13549586309222,37.22985482225037],[128.13717539326214,37.229952142410376],[128.13981076371945,37.2295839319737],[128.14066742661694,37.229631628420655],[128.14143918113766,37.2292403730662],[128.14215038214624,37.22873585112391],[128.14211544266928,37.226416951158406],[128.1421964127444,37.2257843416501],[128.14230348571567,37.22524213722561],[128.1427609096111,37.22418504698335],[128.1430125373623,37.22384506363544],[128.14477895096928,37.222718669736096],[128.14490583489706,37.2224237387955],[128.14563575073487,37.22208084527376],[128.14625195471714,37.22245719300736],[128.1469573427554,37.22258099550043],[128.14743982295357,37.222358768717505],[128.1483375312884,37.221262822044935],[128.14891343201666,37.22089180939848],[128.14941887763123,37.220743664074696],[128.15010945000503,37.22086238575528],[128.15097925536875,37.220844532593226],[128.15168917583034,37.21925677531386],[128.15263621730162,37.21760147091131],[128.1531934051275,37.21706241252254],[128.15396727674747,37.216513307226386],[128.1553208590693,37.2159176013967],[128.1568193056767,37.21626302283808],[128.15808943337535,37.216392396820936],[128.15935394212025,37.215928249439095],[128.15995056714874,37.215820098151184],[128.160730451818,37.21554005529075],[128.16143637298205,37.21543069006265],[128.1616129137178,37.214911034810406],[128.16239067613532,37.21458906545548],[128.1628672737718,37.2139577003387],[128.16394638501856,37.21337884028533],[128.16443263523945,37.21352152292445],[128.16466964978474,37.2137844926738],[128.16510074095834,37.213943490815005],[128.16661189560904,37.214843232879886],[128.16683839606983,37.2148356084993],[128.16678256226893,37.215263905434774],[128.16798987207602,37.21602174676092],[128.16834523494057,37.21671789288987],[128.1688590857595,37.21709190443344],[128.16918166871704,37.21766542357612],[128.17136318827218,37.217839059018424],[128.17224650625423,37.21843301179601],[128.17272268205863,37.21904823096351],[128.17265203482205,37.220312761506314],[128.17236872754796,37.222114937629165],[128.17235330985292,37.22372749680383],[128.17243789175046,37.22458089623519],[128.17232021185671,37.22489603653681],[128.1726342985626,37.225164589559746],[128.17313622919485,37.225426363916156],[128.17353075919854,37.226139790736504],[128.1746515954139,37.2268596929955],[128.17514058651057,37.22761215704194],[128.17609478404813,37.228335112525365],[128.17597414664777,37.228579512998024],[128.17520856087674,37.228863156569524],[128.1747529178843,37.229123192597164],[128.17409904387839,37.23057257806238],[128.1734805023912,37.2314628135131],[128.1738121054299,37.232105829092156],[128.17388510377978,37.232693316960486],[128.17441207730926,37.23302469875729],[128.1754037241717,37.233238147398595],[128.17569880028051,37.23378332058648],[128.1769406030018,37.23396387555986],[128.17725848562435,37.234327557357744],[128.17771289828673,37.235310374532474],[128.17806315814946,37.235572730992885],[128.17910148296855,37.235784387507586],[128.1796760965622,37.2364347445834],[128.1807631334948,37.236839694691255],[128.18497710834808,37.23882241562048],[128.18541467897958,37.23947529274831],[128.18569220327495,37.23963514738144],[128.1860751576397,37.24009836956535],[128.1876164081053,37.24094088986037],[128.1879987244973,37.241281783699314],[128.18835700171783,37.24135505943479],[128.18897852000035,37.241760631994026],[128.18964045736558,37.24239161941534],[128.1896797032404,37.24259218050951],[128.18995407099834,37.24286040015727],[128.19063185510578,37.24313963994397],[128.19056838610683,37.24318350659282],[128.19067403192983,37.2432590117658],[128.19090786111042,37.24323349767066],[128.19111709750595,37.243501090427245],[128.19301334894067,37.24495840563712],[128.19317191522467,37.245232293516864],[128.1936190928575,37.24523764136993],[128.1942600693327,37.24546527207841],[128.19466540899745,37.245736212666614],[128.19691032271035,37.24574322142506],[128.19682187344588,37.24587592864231],[128.19968457203856,37.247055729237715],[128.2004680645123,37.24714987182328],[128.20070912832466,37.247715509016096],[128.20081367842857,37.24833518331233],[128.20150307982206,37.2489980460813],[128.20346751181657,37.24913651374256],[128.20384276078644,37.249027664116724],[128.2044122547632,37.249090933231145],[128.20493054611583,37.24885999710675],[128.20569473254324,37.24873238685898],[128.2066756829863,37.24870868532536],[128.20783720342374,37.248857259111595],[128.20813070756475,37.24970648052752],[128.20852769234338,37.250136644884236],[128.20842081435694,37.25090557009486],[128.20872941990618,37.25126067397226],[128.20874320550385,37.251665578792256],[128.20852495682772,37.25179499718783],[128.20863896960273,37.25263469320346],[128.2089900096963,37.253174218201394],[128.20889723176688,37.25446919419604],[128.20933933834561,37.254925769807535],[128.20958363784032,37.25539593243019],[128.2098321249184,37.25617817224776],[128.21072210681552,37.2578173309721],[128.21101128442137,37.25873355065892],[128.21106284783207,37.25912080580104],[128.210967456774,37.25948840811423],[128.21128722469484,37.2595722397758],[128.21148996528436,37.25984502087757],[128.2113977765858,37.260888218990395],[128.2116501088708,37.261188415707785],[128.21207599441306,37.26145912946478],[128.21256335704558,37.26212776452829],[128.21258249706273,37.26256774295178],[128.21230351272757,37.26278324635523],[128.21224105507372,37.263320735277865],[128.21246849610614,37.2638721711519],[128.21229672083254,37.26452759689319],[128.21244797948535,37.26506548531449],[128.21237058940764,37.26566311414959],[128.21254574315552,37.26620248824614],[128.21179902775174,37.26666709150498],[128.2110883774341,37.267337441378444],[128.21100813381312,37.26788364253821],[128.21144971611693,37.26947528969529],[128.21117722046506,37.27067314352347],[128.21160745040999,37.27214598490754],[128.21162682607303,37.27316770470638],[128.21122290212836,37.27430942745954],[128.21062603252963,37.275126794500764],[128.2110529544079,37.27540178452139],[128.21169938277095,37.27555770229144],[128.21264007297492,37.275620926561515],[128.21305519690924,37.27618548442282],[128.21348750493377,37.276442540670025],[128.21397749449963,37.2768659129447],[128.21478382291895,37.27712889784275],[128.21539007081293,37.27722243876483],[128.2156109984387,37.27736695236933],[128.21647136014894,37.27721991383031],[128.2168506820572,37.277802206628095],[128.217899542434,37.27761410105701],[128.21841034222027,37.27845265449259],[128.21841633931245,37.27861009304188],[128.21788723325318,37.27955566668125],[128.2168023472348,37.280382833552046],[128.21668006692104,37.28137786953933],[128.21604246446103,37.282227503153464],[128.2162773747599,37.283219124251374],[128.2157826588893,37.284003311221284],[128.2155388587666,37.28469495267413],[128.21491116173846,37.28538864607887],[128.2146868883522,37.28664066413915],[128.21420134089692,37.28693322467784],[128.21358072671077,37.28825951094191],[128.21236217722796,37.28887681872587],[128.21091823667277,37.28871670248387],[128.2096450173524,37.288926903044],[128.20801612009427,37.28869789680548],[128.20732150686888,37.28811271460001],[128.2060833679973,37.287775256931155],[128.20525664049455,37.28875488663862],[128.20505793607217,37.28921429088357],[128.20399926133092,37.28981043253807],[128.2034506266377,37.289881865931505],[128.20260629376648,37.290286859668356],[128.20182028972468,37.29085794505372],[128.20142592528384,37.291242688075485],[128.20041209906904,37.29299501184552],[128.2000809154922,37.29335569355281],[128.19974993019056,37.29357465816383],[128.19958252839308,37.29388388372756],[128.19935950255615,37.294781678364146],[128.19837172213278,37.296089808612855],[128.19785030302526,37.296550687850214],[128.1973643694405,37.29684127975155],[128.19628336409906,37.29727542304882],[128.19608278465424,37.29741989346616],[128.1944567400732,37.29727872252478],[128.19289623093815,37.29667519910297],[128.19199353468372,37.296128848485],[128.191563089762,37.29582246685759],[128.19159501106196,37.29547352007567],[128.1915133769286,37.29543947420723],[128.19162287790067,37.29440127523467],[128.19144463020288,37.29419525699702],[128.19041585831852,37.29363801523347],[128.1902477274112,37.2934646526426],[128.18964007966383,37.29326262777687],[128.188088070134,37.292843667221895],[128.18736080335455,37.293054747380374],[128.18699533418828,37.29302669286503],[128.186805344309,37.29293090245939],[128.18620694543296,37.292833948706246],[128.1855054868065,37.29235914223227],[128.18453367023088,37.29226390589498],[128.18392516477593,37.29248608614097],[128.183149763617,37.29290144261669],[128.1829685212644,37.29282248020823],[128.18266612722834,37.292891132482204],[128.18200675813327,37.292581208071475],[128.18120719958665,37.29241653324587],[128.18085142159336,37.29222463017697],[128.18047010478335,37.29219678545406],[128.17959915705282,37.29194741792566],[128.17882101790204,37.29185970268594],[128.17836530733842,37.29140611363248],[128.17840240102998,37.290941570510356],[128.1781828166837,37.29073591493823],[128.17781281952432,37.28987731755359],[128.17787746540236,37.28947434151096],[128.17764988087902,37.289119445617665],[128.17774574337466,37.28868631090181],[128.1780483045993,37.288453095914875],[128.17812774591445,37.28810755568944],[128.17837976251053,37.287945429378304],[128.17851546653193,37.28761269052083],[128.17856926359192,37.2869587466204],[128.17871260602232,37.286639464606324],[128.1786347117037,37.28636818773604],[128.1789000855432,37.285599607558446],[128.1790932903646,37.285399279305196],[128.1790803446028,37.284860766720925],[128.178860000517,37.28472973834628],[128.17901093557265,37.28424236756758],[128.1786498449289,37.28393605557404],[128.1787458911528,37.283455363519764],[128.17822328128307,37.28316994006625],[128.17802751305493,37.282698410688035],[128.1776906447619,37.282447249525056],[128.17769224755548,37.281718448739134],[128.17793583502808,37.281436795865005],[128.17810692321194,37.28095342987122],[128.17783988132805,37.28033072263843],[128.17782902104247,37.27951845095092],[128.17642015203137,37.27921793771011],[128.17523669572475,37.27923767980447],[128.17416513515963,37.27904844325189],[128.17327750038817,37.279207547136934],[128.1721202988798,37.27850775940946],[128.17163452014407,37.277954611567665],[128.17078486411862,37.277714155536145],[128.17016375043,37.27791972238073],[128.16968725827215,37.27722356873938],[128.1687120239591,37.276788689067885],[128.16797450356609,37.276211923499396],[128.16717390778547,37.27617222190566],[128.16630731782448,37.27572764553139],[128.1658379461963,37.2756824212381],[128.16466559351517,37.27539246849541],[128.16392929681084,37.274858012181205],[128.16391337656177,37.27446932157709],[128.16341431225925,37.27391680148181],[128.1628686690119,37.27378333073053],[128.16162645317308,37.273851752737535],[128.16026055889017,37.273676843041336],[128.15935298288326,37.273864316710544],[128.15853873877413,37.273173284391355],[128.1576001323634,37.27310161031498],[128.1570998148221,37.27323507498831],[128.15653388204606,37.273009324413145],[128.1548064860496,37.27260464039884],[128.1532046282264,37.272544498003285],[128.15245667559813,37.2722452487505],[128.15020409226182,37.272561003876255],[128.1487792064564,37.272413851628656],[128.14842550557816,37.27244958791025],[128.14720325163236,37.272198761306996],[128.1459910309576,37.272117214299165],[128.14485339656832,37.27157012792216],[128.14255993602228,37.27104201573061],[128.14093802887004,37.27127818282121],[128.14050859990388,37.27119487352238],[128.13884772730688,37.271492960586166],[128.1383333871666,37.27182306821272],[128.13680169961748,37.27180468147192],[128.13576929426674,37.272125147958945],[128.13494995988373,37.27265385490692],[128.13269474013677,37.27389042535626],[128.13136734917288,37.27448093293709],[128.12986635993713,37.274504629251915],[128.12861799741353,37.27471649623248],[128.12741411674983,37.274344789211135],[128.12596955640282,37.27495056798622],[128.12555428839391,37.275220959912204],[128.1246776584908,37.27515503038638],[128.12384282845812,37.27463157357259],[128.12140816726063,37.27222184005346],[128.1196417192392,37.27242498955402],[128.11882672107038,37.27233053817058],[128.1180563227324,37.272633466499386],[128.11739908915357,37.27263854738348],[128.11661821448197,37.272258534389465],[128.1155492500937,37.272476963791384],[128.11515744040182,37.27305802828744],[128.11459270055667,37.27348613699039],[128.11499427841392,37.274336370765354],[128.11515641601335,37.27521492158988],[128.11545013934298,37.275968429054146],[128.11544845492202,37.276514398827395],[128.1150131441867,37.276828110224784],[128.114534371585,37.277525706502495],[128.1142026195217,37.2783025289016],[128.113392425639,37.278345352555945],[128.1130929393687,37.27828183475614],[128.11203770511247,37.27879038274226],[128.11169195763807,37.27880844712448],[128.1110479440884,37.279173240155274],[128.1104220268315,37.27924331093618],[128.10988521652695,37.280658130621035],[128.10983848450996,37.28117127468542],[128.11043492801156,37.28243045119778],[128.1100741715201,37.28320734450001],[128.10896384077492,37.283839653263186],[128.10887776524018,37.28458171857801],[128.1087124408181,37.285127732474166],[128.10878388754867,37.28558638673531],[128.1085359219302,37.286174274639215],[128.1086639371957,37.28705445224914],[128.10912728580809,37.28848172724292],[128.10785800893652,37.28968259518286],[128.10782687771376,37.289966958194384],[128.10761397873694,37.29028790602598],[128.10765533143382,37.29084567993066],[128.10726706901005,37.29134431952381],[128.10716199962215,37.292763614891825],[128.10740804724853,37.29360565549963],[128.10765850586512,37.293697362126125],[128.10791386382473,37.29454309085734],[128.1082925069475,37.2949089174714],[128.10868389043281,37.29564200042436],[128.10894745545178,37.29670014961891],[128.10875208513093,37.29723528961604],[128.108797344003,37.29832006526617],[128.10855976660656,37.298804403603846],[128.10773008735828,37.299340887136864],[128.10724180546183,37.299600311255745],[128.10627462525036,37.29978281895256],[128.10575668483244,37.299982823643504],[128.1045187721927,37.30091293092828],[128.1041992500171,37.300910358542],[128.10291945782404,37.30031745424591],[128.1016814464295,37.299537192657425],[128.10129854175992,37.2996744670669],[128.1001106353728,37.30080636105232],[128.09954885392946,37.30065563415125],[128.0981351935411,37.301258308124574],[128.097511759149,37.30094319849239],[128.09651933143945,37.301030959087086],[128.09536274710706,37.300576197394946],[128.09368048341202,37.30053009998255],[128.09271182137869,37.300884118934114],[128.0921868440698,37.30085909968537],[128.0913971470091,37.30122694088453],[128.09137648596806,37.301392823096705],[128.09078903961873,37.30135649816447],[128.0900525835666,37.301653751242576],[128.0888978886738,37.30180515367176],[128.08819668969326,37.30086782990107],[128.08685747187255,37.3009499205169],[128.08653909492688,37.301358354894],[128.0859175628028,37.30156918826607],[128.08568381184082,37.3017529513333],[128.08493095586195,37.301984802444714],[128.08468011146448,37.301835723506954],[128.0840611670342,37.30194988432267],[128.0834239871654,37.30175039414081],[128.0832044641853,37.3020600164067],[128.0812204108692,37.303387303462834],[128.0807515386955,37.30331241249761],[128.07932513697378,37.30345354937699],[128.0778045009011,37.30412711723313],[128.07653837363864,37.30388400526103],[128.07576262330358,37.304120380534556],[128.07461509404294,37.304314157859594],[128.07364931905465,37.304387918037044],[128.0718525510848,37.30602949145067],[128.07055156528367,37.306920540793165],[128.06975124210305,37.307588280465325],[128.06811440452933,37.30849726513811],[128.06654159575282,37.30884502181665],[128.06384412391418,37.30879949700746],[128.06218913051805,37.30926468086921],[128.06036682769962,37.30913943769237],[128.05803763029044,37.30917786052521],[128.0565727530507,37.309046158655505],[128.05633791210303,37.30912699938377],[128.05524438844992,37.30904205620798],[128.05495104290358,37.30910554840889],[128.0533942768735,37.308697029815846],[128.05278461953134,37.30864075734776],[128.05197695473473,37.30845610002252],[128.0518025516256,37.30868897666041],[128.05096520668948,37.309378831836646],[128.05036809838782,37.309674252066365],[128.0495133255158,37.310481886189706],[128.04892122087406,37.31085346810688],[128.04836262565837,37.311083805283445],[128.04782064758027,37.31197045644747],[128.04765443057016,37.31245696379706],[128.04632275791747,37.31329995175469],[128.04550997745912,37.31404227753191],[128.0455590577168,37.31443704500124],[128.04521159803994,37.31514458333621],[128.04440177299415,37.31564432894556],[128.04385799858406,37.31643512386336],[128.04374911571296,37.31672592031529],[128.04330800350567,37.31678094602003],[128.04279495425638,37.31780018039194],[128.04201611185226,37.31837056214561],[128.04085293956066,37.31841556329326],[128.04055844713213,37.318824631836584],[128.04008447933026,37.3191303694703],[128.03975388739858,37.319595738914636],[128.03983342292196,37.31994843539163],[128.03941918144866,37.320986879384925],[128.0384342629629,37.32171451984352],[128.0384961705191,37.322216683559475],[128.0384021164215,37.322642865475245],[128.0381247297593,37.322828393457286],[128.0380827245859,37.32354352186977],[128.03774961154562,37.32410679974624],[128.0377786076577,37.32453253172565],[128.0376575360418,37.32469562830538],[128.03774801566593,37.32533719278194],[128.0375610840018,37.32544001021762],[128.03757631828407,37.32574437580757],[128.03739610944774,37.32613077167552],[128.03732976801896,37.326679585918534],[128.03748132766563,37.3270209577952],[128.03723447701682,37.32761412851979],[128.03568798157008,37.32763530643973],[128.03570281252973,37.328103247877344],[128.03521654460124,37.32956258891654],[128.03492532884917,37.33086191417746],[128.03441739071437,37.330929345218635],[128.0344216427076,37.331294398346394],[128.0342622192006,37.33142755839424],[128.03401405036576,37.332003041128026],[128.03364964865912,37.33245418820533],[128.03367279968313,37.33287052217577],[128.03400379118742,37.33329309638121],[128.034379378903,37.334083307605916],[128.03537119376935,37.335109894154634],[128.03564346670964,37.33566205402199],[128.03633140162648,37.33609730437352],[128.0364961841238,37.336557402787186],[128.0372903038142,37.33744621131813],[128.03774286508198,37.3376348783685],[128.03790370788877,37.338074313091504],[128.0376663708802,37.33952571531608],[128.03780554449412,37.34093123811184],[128.03843599209733,37.34197798274029],[128.03932649209895,37.34316836503547],[128.0394574542862,37.343482526200084],[128.0394733508006,37.34470374948919],[128.03840774235445,37.34505946072705],[128.03815511198815,37.34570942694178],[128.0378235406097,37.34596813809692],[128.03726389767107,37.34624686919946],[128.0369376977582,37.346249424654836],[128.03662860867308,37.346643417626545],[128.0367413096198,37.347948262450295],[128.03669936832378,37.35054037036172],[128.0371445822991,37.351030464630114],[128.0375289928631,37.35166938249896],[128.03811063061215,37.35319827232537],[128.0382157800219,37.35408838830892],[128.03808210030758,37.35458880084994],[128.03904798002756,37.35597871991772],[128.04015802297852,37.35630658463162],[128.04063903793795,37.35629712651284],[128.04174270056677,37.35652340034409],[128.04460463292364,37.35832915373506],[128.04568603879113,37.35923124211162],[128.04554298895206,37.361437952220214],[128.04608699712387,37.363382817807626],[128.0473248848656,37.3644813544788],[128.04874391671228,37.364900034453555],[128.04963547761847,37.36592874930674],[128.05002497602112,37.36585646276332],[128.05118499430415,37.36523384171775],[128.05356840992198,37.364779330165824],[128.05482242908343,37.36418637913036],[128.05479772247813,37.36406460011519],[128.05551234528073,37.3639464647126],[128.05642807766432,37.36392795823506],[128.05696104196585,37.36404606111348],[128.05887294235055,37.365060849021525],[128.05911586898853,37.36504617127058],[128.06001264324627,37.36593110886114],[128.06047107277473,37.36595945799899],[128.0607369494522,37.36574625012775],[128.0621242717548,37.365495715651186],[128.0623983699041,37.365212556979614],[128.06336677144765,37.36485096211486],[128.06433618296876,37.36436399928274],[128.06548091249437,37.364304369187785],[128.06564658989078,37.36458281416133],[128.06638824078053,37.364830159314245],[128.06706991012035,37.364841012241726],[128.06882191333847,37.365922326335685],[128.07008971967457,37.36681495655125],[128.07062958593446,37.36693674743542],[128.07107735841896,37.366843609583384],[128.07157758673137,37.36694037334779],[128.071634157048,37.36701298514163],[128.07235539761075,37.3671046264514],[128.0726380268512,37.36724691776622],[128.07259286432316,37.36767277648951],[128.0732807092881,37.368600732344426],[128.07269982694578,37.36929909050514],[128.07278724675996,37.369698378151206],[128.07337369007382,37.370370004506164],[128.07432928596958,37.37059862204802],[128.07529968880073,37.37152195804571],[128.0760049740458,37.37250822051753],[128.07672223903188,37.373786925868885],[128.0762841682089,37.37438200388803],[128.07484547516182,37.3755848967875],[128.0752293939374,37.37615915382183],[128.07527379132569,37.37708461236335],[128.0745974829862,37.378751078156455],[128.07444287083646,37.37966916929621],[128.07613131255917,37.38084304684489],[128.07649346135992,37.38158226535739],[128.07600168310773,37.38217998134203],[128.07646629963273,37.382796585378124],[128.07628890846217,37.38318963532013],[128.0762955656575,37.38464159650616],[128.07556853355408,37.38478137251558],[128.07494979911664,37.38591804715039],[128.0745562564695,37.38637609020402],[128.0744980209202,37.38691364311745],[128.0740544265696,37.38727883301276],[128.07371198292492,37.387941694428505],[128.07366414260122,37.38845884701273],[128.0737307107904,37.38873662517493],[128.07329097056996,37.3895386233743],[128.07333749464973,37.390057458929846],[128.07193663664177,37.39190409866151],[128.07275882645948,37.39323327585267],[128.0734015187046,37.39363630530013],[128.07385645288582,37.39422841634955],[128.07429159286718,37.39440485271066],[128.07455246893815,37.39467954367276],[128.07449986611894,37.39487825585985],[128.07512113842975,37.395620097790264],[128.0755647527751,37.396939626022885],[128.0761656639457,37.39706124720281],[128.07660770521673,37.39700780263894],[128.07696083175145,37.39733250773315],[128.0772077939568,37.398210134747316],[128.07854738687732,37.39905147587013],[128.07882111811773,37.400054763358064],[128.07951069780296,37.400235188413056],[128.08041128105586,37.400707605497445],[128.08081251949739,37.40080961899814],[128.0817355680758,37.40121570904981],[128.08225384235564,37.401003109138834],[128.08282322121266,37.40098311748415],[128.08346534517872,37.40113558099226],[128.08388042719687,37.40104318950872],[128.08445680833452,37.400638808785274],[128.08495876681545,37.40069067548121],[128.08620915636308,37.40128035463251],[128.08645981976352,37.40112319815185],[128.08741476192913,37.40105597484606],[128.0883659572781,37.40135108044536],[128.08901137395443,37.40222495228413],[128.08992894918345,37.40225163625621],[128.0903247811773,37.402402384970785],[128.09085788252227,37.40229301355719],[128.09164068800996,37.402694333778484],[128.09211793351733,37.403435873193104],[128.09293846747593,37.40369938738703],[128.0934097230341,37.40400504330656],[128.0945768320424,37.40419784872214],[128.0948206066272,37.404445488596856],[128.0949063340497,37.40504199569848],[128.0954077673189,37.405424123302716],[128.0975173745508,37.40624329098454],[128.09729514776416,37.40668756423558],[128.09707193072538,37.40813816696642],[128.09693008706526,37.40833313607239],[128.09663645525345,37.408407789463],[128.09630261276334,37.40904818196841],[128.09604532301012,37.41024312440655],[128.09391717399228,37.4103349204986],[128.09275605477418,37.4108651435431],[128.09206046686148,37.41140189875236],[128.09125223250547,37.41162182825479],[128.08857785571482,37.414292965352764],[128.0884274860384,37.41504301588836],[128.08811214793857,37.41586695083606],[128.08805784536872,37.416392976585165],[128.08754810689257,37.41712865312274],[128.08707515601446,37.41755790266724],[128.08649498456316,37.41926317557153],[128.0862198615179,37.41978213007144],[128.0863014368551,37.4199022346134],[128.08589978017665,37.420714179401365],[128.08622414727486,37.42110663786241],[128.08605641950803,37.421407595618156],[128.08604634820858,37.42203383365181],[128.08559951503577,37.422455567211394],[128.08537577922516,37.422862738941284],[128.084783306822,37.42321292616967],[128.08393135213797,37.42387710426872],[128.08360914033503,37.42442255351399],[128.08395620382984,37.42469625189218],[128.08411495301522,37.42580120537417],[128.0842620426665,37.42618560134679],[128.08423575094432,37.42672746641006],[128.08269761640352,37.42692663019599],[128.08219675649994,37.42707878063445],[128.08165550437093,37.42734253919805],[128.08032903867004,37.42830993060559],[128.07994059810355,37.428465306166345],[128.0798673714024,37.42861921029856],[128.07942061392555,37.42890631542591],[128.0788819168743,37.42880441620178],[128.0782905135943,37.42923070390518],[128.0782442365705,37.429439742396426],[128.0779457577117,37.429631853516824],[128.07752996900908,37.429714907633766],[128.0773426347259,37.429868523063895],[128.07653049834113,37.430158798413366],[128.0752990002888,37.4300726068085],[128.0750617924303,37.43053620293501],[128.0742535641402,37.43079034937709],[128.07373791290624,37.430860709935544],[128.07361503711746,37.43096210055765],[128.07294311817247,37.43067709183073],[128.07262217232375,37.43064265731265],[128.07214310055556,37.43078896122801],[128.0711783587603,37.4308485182542],[128.07071706294482,37.431235181442666],[128.0705912965855,37.431729507874344],[128.06886668201187,37.43279429708578],[128.0680341575418,37.43356585112641],[128.06784625258223,37.43403796963728],[128.06728020031935,37.43425299246217],[128.0671081433956,37.43442011453422],[128.0668670179743,37.434423719275685],[128.06655032932312,37.434560547845486],[128.06597591282693,37.43502491758262],[128.065455604145,37.4352684148002],[128.0650232468032,37.435367121307706],[128.06440248975133,37.43572910072237],[128.064150404749,37.4356643747192],[128.06391902184075,37.43585638615352],[128.06363779276805,37.43583765954929],[128.0634606853277,37.43592250937384],[128.06216637079913,37.43576548740753],[128.06223752129554,37.43610193682036],[128.06197993351591,37.43619886964524],[128.06237941453332,37.43653034486529],[128.06244670766202,37.436787047973596],[128.06143262945224,37.43763427931197],[128.06140005991296,37.437858157258624],[128.06186922540937,37.43816060994552],[128.0620231133314,37.43888485310714],[128.06238110619574,37.43919631139184],[128.06232381253415,37.43938792924921],[128.06257157902337,37.43972144126986],[128.06246008898347,37.43987994140022],[128.0626127231544,37.44012986816782],[128.06261410554035,37.440773508729],[128.06236727610766,37.44098835090229],[128.06227910038882,37.44092869628519],[128.0621892418835,37.440971678941814],[128.0622540940462,37.44106152671004],[128.06209760533724,37.441780433862924],[128.06154386733584,37.44207671242769],[128.06113558248097,37.44212902425788],[128.06110439602355,37.442403134727996],[128.06121930605366,37.442736768073544],[128.06114854040678,37.44286447672733],[128.05918920622275,37.44311732327808],[128.05938376165886,37.44341072953865],[128.0598089823613,37.44450791242087],[128.05893166239505,37.44513112668893],[128.05831804303736,37.445062664205594],[128.0577143512244,37.44473507086892],[128.0573746573629,37.44428451493414],[128.05700872462904,37.44448116724301],[128.0567238317756,37.44449910005571],[128.05537561344897,37.443870594306304],[128.0550201476776,37.44384436597846],[128.05475491754737,37.443589053211966],[128.05410299645317,37.44336250323634],[128.0537839612955,37.44371225859694],[128.05306810877786,37.443577873093936],[128.0524144242795,37.44357637106663],[128.0515478864068,37.44344503579814],[128.0507356161643,37.44353940072985],[128.04998124083545,37.44339565038093],[128.04953907048397,37.443111507681955],[128.04903021378107,37.44301724537505],[128.0488938445849,37.4431701669991],[128.0476028467063,37.443064376364724],[128.04743235746898,37.44331702812824],[128.0473548186486,37.44367593921698],[128.0471001607245,37.44397279106552],[128.04676732912077,37.44397662793933],[128.04628545030639,37.44381551634058],[128.04479363727006,37.443648725458566],[128.04428571792343,37.44347693456832],[128.04408386219598,37.44326633712498],[128.04308105730445,37.44337634035867],[128.04272203901667,37.44331690399338],[128.0424576600942,37.443384860147354],[128.04227388673365,37.44357065267797],[128.04182884822055,37.443597249604196],[128.04154097462768,37.44384884728967],[128.0418438822825,37.44528129652517],[128.0417769444869,37.44557694444724],[128.04114032440273,37.445603042283615],[128.04051276646234,37.44598370642496],[128.0400130350162,37.44605634769486],[128.03852032366405,37.44710319786183],[128.03836997125669,37.44712783389878],[128.0379205712069,37.44669905865998],[128.03716649226612,37.446354336368096],[128.03654567355036,37.446399167161815],[128.0361166404353,37.44634720708688],[128.03569723281367,37.44643693778659],[128.03484898467417,37.446327519439784],[128.03469345945186,37.44652818366202],[128.0345132717056,37.446472025262054],[128.03393673217292,37.4465478869943],[128.03357752436725,37.44637153480451],[128.03331186977738,37.44645995709053],[128.03300757436995,37.44684018234116],[128.03262760039667,37.44713916897916],[128.03240033602,37.44777394862344],[128.0316785695999,37.44777056465103],[128.03150311810433,37.44762555991423],[128.0310714888033,37.4476415380762],[128.03093267609412,37.44789978433409],[128.0305476180926,37.447992756835966],[128.030331026687,37.44788190565645],[128.0299731455543,37.44787410166847],[128.0296871569898,37.44800334596559],[128.02947146081158,37.44831289369971],[128.02917477440465,37.44820135632288],[128.02886335941614,37.44837205896038],[128.0284694890397,37.44827791653117],[128.02819345133304,37.448482313560284],[128.02741359844288,37.44858609291642],[128.02726323106805,37.44848422642487],[128.02691879975606,37.44852073277497],[128.026613116143,37.44841713223845],[128.0259229882011,37.44845609222455],[128.02563570684546,37.44828813546059],[128.02504429521565,37.448329991686634],[128.0248437183899,37.44807106242321],[128.0239285944913,37.44798782920946],[128.02334018710226,37.44768467163754],[128.02351120926053,37.44722775151508],[128.0230827722872,37.44699161606643],[128.02248171283352,37.44680108430225],[128.02127286332004,37.44663191340112],[128.02094383289074,37.44625817454682],[128.02051800995443,37.44635854646534],[128.02010550605908,37.44672645369673],[128.01986026150422,37.44666271732311],[128.01970914659822,37.44617030456032],[128.01955576075642,37.44593054519299],[128.01940713580902,37.44587857765342],[128.01913395224736,37.44598199181568],[128.01851807440855,37.4460536300101],[128.01841302130552,37.446137470739615],[128.01817929438616,37.446136499185776],[128.0178814025535,37.44579361044066],[128.01765527911112,37.44566706687971],[128.01738562913877,37.44565344719091],[128.0168633613596,37.44587953772114],[128.01640426335257,37.445856821006615],[128.01574355991565,37.44533773159923],[128.01542994414163,37.44530244658454],[128.01506422522598,37.44537033726503],[128.0146893187005,37.44524046758455],[128.01423903792076,37.445246049285245],[128.01395878782373,37.44571099019503],[128.01378022579692,37.445854656412266],[128.0137000313084,37.44616949318652],[128.01386106077652,37.44644547807871],[128.01388259903328,37.44688239877136],[128.01374220136535,37.44755746286504],[128.01300153004047,37.44798354838429],[128.0124939168061,37.44878706239169],[128.01226359824932,37.44946751523061],[128.01201956101815,37.44977102393004],[128.01144348033492,37.44958364580006],[128.01063042901686,37.44978704455693],[128.01013138015819,37.449700225966374],[128.00973312062493,37.44974261933401],[128.00811792104548,37.449266709813685],[128.0077858295266,37.4492922233979],[128.00696625238544,37.449792138073356],[128.00677424875104,37.45010528272449],[128.0069702694486,37.45047146162488],[128.00747837138886,37.45092712924801],[128.00710991964877,37.45131849161205],[128.00711871239145,37.45172695421173],[128.00667230264236,37.45243867019044],[128.00711937823672,37.45287491949449],[128.00653429073702,37.45338804178938],[128.00633398973332,37.45372716961338],[128.00605447664952,37.45385424779273],[128.00578530558022,37.45435437562348],[128.00557973739117,37.45440975713608],[128.00522411042635,37.455199557189296],[128.00483864309646,37.45568336405185],[128.0040012367263,37.455891466916164],[128.00343863513618,37.456365885951904],[128.0028370782147,37.456622365867005],[128.00262306665357,37.45684195173406],[128.00187744969128,37.45678050359752],[128.0012097534541,37.456438075136596],[128.0006844786532,37.456451805856865],[127.99973509004239,37.45633034180089],[127.99940498845206,37.456341599060615],[127.9991009079375,37.45652601657644],[127.99890058365634,37.45646216250766],[127.99802361149945,37.45657096418922],[127.99750892674112,37.45686349847079],[127.99635863618066,37.45657311876515],[127.99490154909942,37.45655586905297],[127.99423476039165,37.456158269809954],[127.99390122647036,37.4563109384316],[127.99354601126637,37.4563641229204],[127.99249578269128,37.45640157629762],[127.99236278056154,37.45690929768472],[127.99208813692165,37.45711369751073],[127.9915373470932,37.4571789031547],[127.99117489925548,37.457311354068025],[127.9909743045628,37.45761706514572],[127.99051314165374,37.457763441871464],[127.99044280268828,37.45795696470841],[127.98940227295697,37.45850918541663],[127.98860485186506,37.45854052655114],[127.98815509970196,37.45886028202806],[127.98788792630148,37.45890161325315],[127.98717308008717,37.458727446047206],[127.98649684932025,37.45870870366318],[127.98602261966948,37.45841298568201],[127.9857806715137,37.458466347073326],[127.98456313435183,37.45919849085932],[127.98427797940695,37.45910203478269],[127.98318261533737,37.459402541005055],[127.98270946541136,37.460191333320864],[127.98214370383698,37.459745933457405],[127.98187770601332,37.45974275856618],[127.98160995762652,37.45936295866418],[127.98110494158402,37.45911728109509],[127.98087049588986,37.45918904832536],[127.98003237558244,37.45862105550565],[127.97980790938091,37.458559981133305],[127.97922128078069,37.458684962391956],[127.979114582942,37.45864294074425],[127.9787363657278,37.45821905460579],[127.97839465318593,37.45805984764658],[127.97822806075932,37.458183280599165],[127.97819743852442,37.458322788864955],[127.97794595404119,37.45831944091871],[127.97779222607434,37.45851617789744],[127.97763637390733,37.45853301715949],[127.97748585492924,37.45841589726741],[127.97703235306793,37.45848452169708],[127.97629028753215,37.45829140487066],[127.97635702104438,37.45808803675238],[127.97651909714682,37.45796659952902],[127.97644363851549,37.4576796703199],[127.97633882156735,37.45761854585448],[127.97615666799307,37.45762138191122],[127.97615668571893,37.45772547146568],[127.97426972643485,37.45763386592677],[127.9734524945552,37.45621905566984],[127.97276446417587,37.45559524761067],[127.97138814742944,37.45458456037733],[127.97045760194288,37.45366160678999],[127.96884041698506,37.45230915221866],[127.96817227707028,37.45187198833625],[127.96497729378618,37.450884537721564],[127.96453255961397,37.45178081157479],[127.96478374708656,37.45207744429521],[127.96466743172586,37.45219079779377],[127.96476840032746,37.45257084398243],[127.96419701542492,37.452995803320086],[127.9640067167486,37.45322458722833],[127.96402699826375,37.4533556581584],[127.96370287277765,37.45354258291791],[127.96298811203192,37.453622152779346],[127.96275022630674,37.4535823012778],[127.96221745783221,37.45372490554825],[127.96163251915753,37.45372692054365],[127.96120189332775,37.45358762368721],[127.96064601001919,37.453248810315706],[127.96061254001387,37.45311295616255],[127.9602585919621,37.453116439834396],[127.95971389555132,37.452998487104175],[127.9591412201249,37.453298935784275],[127.9589970289385,37.45313961334985],[127.9585882458459,37.45293027787743],[127.95813271577157,37.452978591176155],[127.95781709461703,37.4531590879038],[127.95741066026439,37.45323540836817],[127.95695732236095,37.45388719858555],[127.95640082202812,37.45403279876232],[127.95562702146978,37.45469490225476],[127.95522143331135,37.45490101225998],[127.95507496923204,37.455363311919704],[127.95472864296804,37.455468878984895],[127.9527976820687,37.45486743565281],[127.95261807408146,37.45466284563382],[127.95237480669991,37.45456299171129],[127.95165317745058,37.45459530398524],[127.95117215941067,37.45433612187906],[127.94925456124894,37.45435392076191],[127.94904372713232,37.45481057545146],[127.94891597593002,37.455712086316154],[127.9490361149162,37.45630788358238],[127.9486707423098,37.45708011773144],[127.94857251654827,37.45834196207382],[127.94828277395699,37.45864049510138],[127.94776247499293,37.45946392546472],[127.94712011077085,37.46009791927207],[127.9469146884724,37.46018589532939],[127.94446084419042,37.462235508727424],[127.94401379490921,37.462885433185185],[127.94378231406499,37.464453682932614],[127.94292108868105,37.46523567181264],[127.94242393710284,37.46597145612672],[127.94239974155991,37.46634791158199],[127.94188264281966,37.46648229112378],[127.94145436964575,37.46694748447903],[127.94188418265063,37.468122201140645],[127.94157469296279,37.46851967723465],[127.94130555961658,37.46864416959317],[127.94111230317053,37.46893164765816],[127.94071581862796,37.47043201661179],[127.94042208125747,37.47075794543225],[127.94027061330141,37.4710938498028],[127.940168632121,37.47213744503617],[127.93989358804582,37.47278932975957],[127.93964889328187,37.47303453350926],[127.93954928071395,37.47331495063181],[127.93924842326919,37.473486793136864],[127.93937589430249,37.473832692561544],[127.93933442070797,37.47428526374352],[127.93948213913208,37.47452866126387],[127.93911583212548,37.47509668339307],[127.93895666253768,37.475532943460344],[127.93840327643008,37.47607588818616],[127.9374459209305,37.47591529995586],[127.93722388278455,37.47594709894597],[127.93692376572531,37.476293906329246],[127.93704198255068,37.47688970116588],[127.9369486721665,37.47704410007937],[127.93744713612921,37.47870396824406],[127.93761400386332,37.47905220484848],[127.93814715540236,37.47947183156804],[127.9385862973318,37.480230227813436],[127.93771116617428,37.48138140719095],[127.93771126365563,37.481816925404814],[127.93845195662502,37.482447707073646],[127.93792255405681,37.482748007038],[127.93719644275994,37.48391911953986],[127.93635429536927,37.484534859898346],[127.93569900352473,37.485504676001945],[127.93486766039436,37.48604163005894],[127.93408749037646,37.486156501454595],[127.93334771094932,37.48652050023463],[127.9329700290781,37.48699210023386],[127.93292428281417,37.48759219270611],[127.93278908563961,37.48804363394302],[127.9329761947632,37.488341037708736],[127.93262095655572,37.48943658849594],[127.93279894119587,37.48992125849023],[127.93254466785233,37.490445761742144],[127.93300476875496,37.490777790923296],[127.93354801301233,37.491319647546085],[127.93385809268976,37.49147912277098],[127.93403465581807,37.491800348501755],[127.93454220906611,37.49204425143211],[127.93499567245952,37.491999421848305],[127.93579951562769,37.492450481179844],[127.93560755511864,37.493296909977786],[127.93570965356041,37.49481688209982],[127.93607672495904,37.49491407706009],[127.9380494915056,37.49624066217767],[127.93834792680273,37.49797836286681],[127.93868966458088,37.49860855559154],[127.9386644730884,37.49933274581547],[127.93963411345806,37.50114891162327],[127.93877791500893,37.501322784541664],[127.93856885602145,37.501467940657996],[127.93766029823806,37.50147660218526],[127.93696140270954,37.501971878024655],[127.93649732361747,37.502175900298205],[127.9361439416915,37.502167371725115],[127.93459211988365,37.50338473811256]]]}}
