{"type":"Feature","bbox":[126.85140741907772,35.883473415157276,127.13972175898881,36.15657051280633],"properties":{"regionCode":"52140","version":"vworld-20260909-3f8952dfda77-p2","name":"전북특별자치도 익산시","attribution":"국토교통부/K-Geo플랫폼 · VWorld 법정구역정보, CC BY 2.0 KR; 공공주택 복덕방 가공"},"geometry":{"type":"Polygon","coordinates":[[[126.98353457804471,36.147688144505416],[126.98080497663734,36.14795875221304],[126.97719204874687,36.14852150815888],[126.97145880467497,36.151031586863425],[126.9655344738661,36.15489964712871],[126.96302833626733,36.1562778999438],[126.95969656532388,36.15654830705052],[126.95662626867673,36.15657051280633],[126.95304329074928,36.155736916589234],[126.95027060347785,36.15490102344568],[126.94445701330757,36.15350960641101],[126.9413484073917,36.15211427490116],[126.93886136027386,36.150737157479654],[126.93662051080325,36.14851481959815],[126.93439812869751,36.1468485559097],[126.93080656308182,36.14224658590113],[126.92803529099228,36.14101309568485],[126.92525074505885,36.13991014616807],[126.92246845964473,36.13850153231361],[126.91968874472488,36.13629940736813],[126.91469612774837,36.13574399601108],[126.91327127867221,36.136012543039435],[126.91108924291353,36.1365700328438],[126.90859108474949,36.13822623515938],[126.90697932370539,36.13987901240823],[126.90414853251883,36.14129211669396],[126.90080303281141,36.14240352170838],[126.89775628515467,36.142684217529556],[126.89524753935183,36.14244864955475],[126.88969621145533,36.13962227514012],[126.88775636377846,36.13795365808211],[126.88573956596244,36.13568422955857],[126.88220512346481,36.13129266074207],[126.88164232796646,36.128792293078156],[126.87914460030173,36.12378902154818],[126.87748081714147,36.11714160815159],[126.87493092489227,36.112655335320895],[126.87381126100482,36.11043827830317],[126.87411619364617,36.10322891948216],[126.87413896191426,36.09930466098199],[126.87386804438596,36.09657276274166],[126.87358818119931,36.089581072321145],[126.87358758704109,36.08683482987521],[126.87306303980952,36.084217575815444],[126.87108507623485,36.07156615660263],[126.87081771121454,36.067404507977386],[126.86803632236509,36.062411756441854],[126.8655295119951,36.06092551980896],[126.86504956596247,36.06071230373175],[126.86526949566789,36.0599608934371],[126.86591343635877,36.056184583363326],[126.86538760398668,36.05645353191376],[126.8647113031424,36.05609253009355],[126.86523936552163,36.0553984885388],[126.86512061352362,36.05489524041219],[126.86562569820903,36.054281010194856],[126.86599572563544,36.05405778456385],[126.8664697266079,36.05397519670622],[126.8670693082092,36.053648169430375],[126.86682462057676,36.05285361533125],[126.867009881159,36.05245697088744],[126.86686680504192,36.05112671041876],[126.86695207276756,36.050668391555575],[126.86707163741089,36.05008347311461],[126.86743405947095,36.04946989498716],[126.86816665575337,36.04870701071133],[126.86801239659309,36.04839161820231],[126.86811746481624,36.04812554346432],[126.86826669109327,36.04668423576177],[126.86872320825563,36.04609392811971],[126.86854362026051,36.045862216406704],[126.86956643689436,36.04526909860385],[126.86985861081007,36.04501113187552],[126.87099899224135,36.04458553092338],[126.87149525136505,36.044480076532196],[126.87195565595879,36.04449540865939],[126.87219559005887,36.04393533456211],[126.87236384038297,36.04380767846538],[126.87382459782401,36.043158866217716],[126.87425426259593,36.04335686217228],[126.87433546059596,36.0430721550062],[126.87415745772472,36.04240942398439],[126.87370964639655,36.041982867495335],[126.87350846408516,36.041385351230694],[126.8731920545087,36.04098234134892],[126.87328916017502,36.040407238801436],[126.87280254237908,36.039406010777284],[126.87265677171762,36.03931541917427],[126.87256334238349,36.03904247171981],[126.8723287585399,36.0388358045841],[126.87152150611223,36.03854356892995],[126.87146223508981,36.037851076480536],[126.87133916209554,36.03757088808583],[126.87117214061774,36.036561926786746],[126.87068600705591,36.03600307212118],[126.87057179214658,36.03534189251619],[126.87081082565025,36.03490131172499],[126.87068427063923,36.03394595100431],[126.870407073546,36.033038386704284],[126.87054443862647,36.032936754138014],[126.8705174315538,36.03280272162696],[126.87163750432359,36.03271697130547],[126.87214063941896,36.03251826398717],[126.87266280806479,36.03204323551112],[126.87398910054895,36.031575798898615],[126.87391290393651,36.03088349791284],[126.87455652426785,36.03064899641112],[126.87520547348625,36.03053474036845],[126.8762809744445,36.03065025910645],[126.87673177625896,36.03045650727694],[126.8770689198502,36.03005047935239],[126.87798660620282,36.029699480368805],[126.87851112526494,36.02975658107516],[126.8790694672118,36.02996668575946],[126.87912428875998,36.02917665929657],[126.87964202122149,36.028327214647476],[126.88013134808114,36.02808113608824],[126.8801887766383,36.0279131523781],[126.88098023181209,36.02731002329209],[126.88159526567719,36.02705322406437],[126.88228883203273,36.02710062420912],[126.88289052127558,36.02682362642722],[126.8843235115544,36.02584937969901],[126.88486213426087,36.024564390744224],[126.8849992015739,36.02380500864457],[126.88620106632284,36.02297623395158],[126.88613227693676,36.02326143945394],[126.88624602096722,36.02326451539141],[126.88664853232007,36.02219741865325],[126.88737164873429,36.02110398084038],[126.88879659993711,36.01954195678826],[126.88946511780931,36.01896485005357],[126.88964694861956,36.01857434027101],[126.89038306812012,36.017749682199536],[126.89028481321992,36.017711433742534],[126.89194376521888,36.016749596292165],[126.8923241444754,36.01627944992143],[126.89330589717397,36.01537969924054],[126.89345114226097,36.0152472061371],[126.89352737634702,36.015284296632295],[126.89421332194097,36.01467176477299],[126.89505762884066,36.014198931848746],[126.89520899979154,36.01420024701489],[126.89586524770725,36.01388806388923],[126.89632409209045,36.01378704455743],[126.89855900235982,36.011489117505356],[126.90108680019819,36.00789199046494],[126.90184552626528,36.007881230517484],[126.90309746993984,36.00754562862042],[126.90443762967037,36.00751001359494],[126.90603315464969,36.00705046954225],[126.90586940495412,36.00698762275116],[126.90610212574407,36.00692863278342],[126.90744788861792,36.006964186008666],[126.90802002420762,36.00686452506631],[126.90867746627261,36.006119567851385],[126.90917575262101,36.005831884494484],[126.9092364400694,36.00587635174264],[126.90914973962222,36.00592937568339],[126.90968347812634,36.00578056007618],[126.9106404492601,36.00585411771253],[126.91220497212854,36.005502786096976],[126.9139339224292,36.0055647044366],[126.91400753793062,36.00538381789077],[126.91396430995309,36.004997025877095],[126.9140614517125,36.0047625615828],[126.91451787253614,36.00443490070557],[126.91495451595557,36.00428940663736],[126.9148132026113,36.00367728074627],[126.91535115254669,36.00141687836119],[126.91539881307403,36.00053700843873],[126.91514610452042,35.99672061470138],[126.91421057010743,35.99391424271142],[126.91320869095819,35.99151279135759],[126.9131802465724,35.99089557233274],[126.91275604322865,35.990156225076646],[126.91208711712406,35.98940565707331],[126.91167980565322,35.98908161914675],[126.90857848969247,35.987384786368786],[126.90821840400191,35.98707428584408],[126.90785890153944,35.9835971529994],[126.90933218172214,35.98364546336298],[126.90982799333634,35.98295710576749],[126.91017651716595,35.98199508424481],[126.90946924624211,35.98161229513679],[126.9070529969848,35.980774490218046],[126.90639313145809,35.98072641149947],[126.90642716674682,35.98039962649872],[126.905823636236,35.980355590157984],[126.9050601558512,35.97997148696594],[126.90464237210182,35.97994211291685],[126.90465441865656,35.97928488314725],[126.90229026542079,35.97837126737176],[126.90297528822872,35.97212668896625],[126.90097714276496,35.97214389524795],[126.90095041882614,35.97201625813392],[126.89933355311607,35.97065647656904],[126.88511873879008,35.96087067356433],[126.88571067361876,35.95960325657585],[126.88805658941024,35.95910820496326],[126.8892540805187,35.958969296957136],[126.89006295704462,35.959745849556825],[126.89047933661493,35.95978030037544],[126.890778293536,35.959702287815134],[126.89099486567106,35.959423798453116],[126.89098359234916,35.959048072577396],[126.89112375998894,35.958342121721444],[126.89101983490583,35.95840757328589],[126.89096898090642,35.95834840567705],[126.89133363452176,35.95810036971995],[126.89169411365384,35.95771341240982],[126.89190365125914,35.95776934476647],[126.89266154440777,35.95735390952631],[126.89270324385943,35.95708076538281],[126.89253121697416,35.95653254968872],[126.89366255220052,35.95512099590315],[126.89238277166633,35.954241432680625],[126.89208557190851,35.953889826708945],[126.89054673526334,35.95289005379877],[126.89058281461813,35.952849721553235],[126.88300313831509,35.94799450526303],[126.88334880754803,35.94793178585195],[126.88328002222873,35.94792528361967],[126.88303501949872,35.94695977471294],[126.88310659725379,35.945939655351026],[126.88283801789491,35.94489405749046],[126.88293434473805,35.94462424092919],[126.88279611873317,35.94391009229631],[126.88269759056455,35.943807388991026],[126.8820520787564,35.943935769416406],[126.88194990333905,35.943177304853954],[126.88129829542584,35.94191715065432],[126.88124338762275,35.94176699687051],[126.88130078690484,35.94159053847145],[126.88097869796722,35.94119123665048],[126.88088146235332,35.940940315830424],[126.88105870633304,35.94085333419563],[126.8809819571715,35.94059843308536],[126.88185516755826,35.940272265208336],[126.88170935749652,35.93996901919743],[126.88182104128184,35.93979504536796],[126.881831105072,35.939464418510376],[126.8809642858856,35.93808867165706],[126.88110611200477,35.93806439834642],[126.88093631894078,35.93804375911538],[126.8799777571358,35.93673724523835],[126.8793571627374,35.935570633386774],[126.87891915606325,35.9350515437681],[126.87866281204408,35.93448622368416],[126.8775617545422,35.93327975271902],[126.8763847827872,35.93278222850341],[126.87608639630334,35.932211361442135],[126.87577198831374,35.93206259865348],[126.87373729984009,35.93015651735952],[126.87151205392907,35.9285090469624],[126.87093272051347,35.92798541042388],[126.87018667932304,35.927532354704155],[126.8700344600634,35.92733358350013],[126.86993569361984,35.92739018982298],[126.86977007715963,35.92731863239458],[126.86895470590846,35.92636725243969],[126.86731156139716,35.924954728464876],[126.86632597237757,35.924247521214454],[126.86597617091893,35.923486978654935],[126.86578452177204,35.922806586922775],[126.86544028652773,35.9224307295065],[126.86479036416672,35.92214103645155],[126.86378816351792,35.921822757769924],[126.86373512288577,35.92153192710017],[126.8635809845707,35.92132653424307],[126.86299304766482,35.9211257916227],[126.86250501256701,35.92172749650943],[126.86183955694604,35.92119757231087],[126.86155959407347,35.92124592372255],[126.86092156214731,35.91879604089675],[126.86040451669682,35.91856436699992],[126.8602804467167,35.918096702718074],[126.86017807883682,35.91808801229349],[126.85964056644913,35.917495507457886],[126.85911711872618,35.91728187975826],[126.85852812587444,35.917876197658124],[126.85885146192211,35.917917443151524],[126.85892179333429,35.91818172461991],[126.85774262880268,35.918386089850195],[126.85781140765405,35.91865129947686],[126.85659359166812,35.91885938295231],[126.85652420760337,35.918594659876774],[126.85538954022066,35.91879123248014],[126.85523262405215,35.918187950126196],[126.85518039396113,35.91824301636335],[126.85466915207162,35.91810035746081],[126.85420782843727,35.91786089984448],[126.85417879700611,35.91772604993372],[126.85433137810877,35.91742313069027],[126.85386051627513,35.917423273575004],[126.85282169446486,35.917734073171],[126.85140741907772,35.91690998093038],[126.85170668944619,35.91290157785357],[126.85221582480686,35.91095299922152],[126.85312147714167,35.90959751962339],[126.85679043602491,35.90705617150058],[126.85790811538041,35.90645624095957],[126.86080626214229,35.905655835165916],[126.86295880301732,35.90628853849326],[126.8656428407756,35.90828192361419],[126.86708047641763,35.908972349468556],[126.87171346272724,35.91079977900061],[126.87301772248064,35.91152586025498],[126.87893794888652,35.91239573272588],[126.88355770894616,35.91319553834026],[126.88504306880012,35.91370857782558],[126.88511879925393,35.91304580572205],[126.88554495654954,35.913043569480834],[126.88534250704828,35.9121017120132],[126.88707408029977,35.91239913398504],[126.89002830741985,35.91218487596611],[126.89028167752052,35.912982545805285],[126.89061478234422,35.91341749477899],[126.89156421900987,35.914068918295676],[126.89285496143243,35.914148140017744],[126.89394005915356,35.91377108208731],[126.89555614066387,35.91219676356006],[126.90890615257057,35.90337136794913],[126.90994581490712,35.90315215533722],[126.9112168795143,35.903205044356056],[126.912183862105,35.903444858687465],[126.9131538706357,35.90385529768552],[126.91402986457112,35.90429683404885],[126.91487589659339,35.90528476607491],[126.9177192874586,35.9065403939902],[126.9194403387552,35.90741639755039],[126.92150043526361,35.90788993765938],[126.92212830284345,35.907668548715314],[126.92403601766284,35.90801851128484],[126.92513869217981,35.908849242292085],[126.92764166953958,35.9097817893448],[126.93185408786253,35.91078377249764],[126.93186903583829,35.91373822866102],[126.93199645705586,35.91377134115259],[126.93212674971821,35.914679281357046],[126.93476751694959,35.91447885389422],[126.93856666411024,35.91267337777851],[126.93857213409673,35.91276224461787],[126.93967200413337,35.912788445267175],[126.94097568901812,35.91265577015359],[126.94198624540843,35.91245717205489],[126.9449720274441,35.91147222253349],[126.9460175224816,35.910970215626136],[126.94795863348507,35.909878466928376],[126.94806118672,35.90972796089521],[126.95018535526667,35.90891292132564],[126.9509514340843,35.90854561132008],[126.95188883835536,35.908618759459],[126.95225714945812,35.90873013355378],[126.95261736619457,35.90905240051828],[126.95265543432956,35.90956961270108],[126.95255557358254,35.91052750066901],[126.95199986525665,35.912226391505364],[126.95192444908236,35.91305086840004],[126.95220606857359,35.91380470181389],[126.9551996277283,35.9163998045563],[126.95602057424455,35.91653477537877],[126.95648386635597,35.91617321000665],[126.95664512963484,35.91576958385176],[126.95660484119493,35.912228190359464],[126.95668221662773,35.90862326527891],[126.9568874618963,35.90733522412696],[126.95709735659943,35.90662042801728],[126.95758352140284,35.905689310158834],[126.95828615682464,35.9046706643805],[126.958831343286,35.904063017819645],[126.95961880279053,35.90337657319925],[126.96114186458644,35.90236907246714],[126.96203276701792,35.901998860927954],[126.96448511589954,35.90068094013394],[126.96529334499343,35.90044238517673],[126.9661556706438,35.90045328470664],[126.97195037622585,35.89799802436774],[126.9725134009114,35.897815606188324],[126.97264962734394,35.89724267194151],[126.97311178091635,35.896847842260605],[126.97375119492153,35.89674607487234],[126.97464073474092,35.896774325216036],[126.97568226964052,35.89781393840958],[126.97864936418665,35.899103839345926],[126.9841880281489,35.897819194620915],[126.98864258380118,35.89657238566705],[126.98827495476115,35.8966515110583],[126.98972693312355,35.893700819680504],[126.99071614193711,35.892003877279976],[126.99526510128051,35.891682627473216],[126.99583494597513,35.89155519053559],[126.99653067870261,35.89120054718013],[126.99716748532525,35.89060667679215],[126.99723411243095,35.89022022883619],[126.99688259777979,35.88966330814343],[126.9962984088549,35.88918930111489],[126.99526530553523,35.8890694853224],[126.99369793994782,35.8886208736024],[126.99327028159371,35.88825330716108],[126.99307578845934,35.88763466133667],[126.99330219232246,35.88595740666144],[126.99403139425344,35.884356500698196],[126.99467052976385,35.883688104582966],[126.99526574167285,35.883473415157276],[126.99637871190451,35.88352880187338],[126.99713943561528,35.88375430582625],[126.99798751448917,35.88418145972226],[126.99830361524774,35.885112888131104],[126.99912720811582,35.88655583732017],[126.99993475638585,35.88759382128785],[127.00156454627003,35.88930549513667],[127.00159701945957,35.89002179442696],[127.0013895907299,35.8906067544956],[127.00094571715786,35.89128674328369],[127.00067933105333,35.89196391694759],[127.00054248981628,35.89274282608453],[127.00070977561757,35.89320934035955],[127.00753385599656,35.894638937439936],[127.01339702020842,35.89553583012926],[127.01521013940788,35.895593405225654],[127.01653930321672,35.89523835397845],[127.01770457411382,35.894726846917365],[127.01954272375507,35.89420658266184],[127.01937400119945,35.89431458647809],[127.0194625230741,35.89485806290992],[127.01940849440896,35.89559904322056],[127.01979717174395,35.89588660714197],[127.02050533998703,35.89538532490736],[127.02131865997792,35.89495481485525],[127.02295535048532,35.895008334725794],[127.02355390199514,35.895345579537285],[127.0240005294565,35.896008164056],[127.02474682166012,35.89673732615107],[127.02569215856904,35.897338726911116],[127.02674038188447,35.897817170588084],[127.02749579752015,35.8979591177206],[127.02849449372798,35.89807516584669],[127.02956401773301,35.89781341693693],[127.03831260797128,35.89781105165197],[127.03807987743481,35.8997123406854],[127.03824433377476,35.89992419823916],[127.03807798682652,35.9001060027382],[127.03800045191979,35.90034952422639],[127.03862872827115,35.900714245820176],[127.03835131231106,35.901019563271156],[127.03823364681314,35.90105038559334],[127.03779920214332,35.90189227832522],[127.03782942343219,35.90211591207853],[127.03755789841273,35.90221260833787],[127.03755182196635,35.90227496753593],[127.03687406722689,35.902312109021615],[127.03685044675758,35.902375447278615],[127.03695800221078,35.90236488776744],[127.03693860899575,35.90249640509085],[127.0367672385145,35.90269030219102],[127.03693848307248,35.90358027535442],[127.0374010762592,35.9042923510425],[127.0373493801713,35.904616814276714],[127.03721756263272,35.904829448084946],[127.0369773574679,35.905124936495056],[127.03576296778978,35.904955937764086],[127.0356243913176,35.90468367612762],[127.03556080129908,35.90423221753826],[127.03510501724226,35.90431060069839],[127.03465994420347,35.90446108035926],[127.03427523953279,35.90469551682242],[127.03406265375929,35.90500040918538],[127.03405096696152,35.90537920594854],[127.03258661804936,35.90601907094117],[127.03250621288147,35.90611721797908],[127.03271677814098,35.90651416951727],[127.0330829542934,35.90670858835575],[127.03345626079474,35.907740411845786],[127.03365257618697,35.90864752377313],[127.034197312112,35.9088721084825],[127.0349723137412,35.90865666120399],[127.0355969952892,35.90857700348942],[127.03574607669486,35.90875973357948],[127.03639353429405,35.909061688458536],[127.03623536007228,35.9093100262309],[127.0358440799828,35.90952111049802],[127.03551265781074,35.91002299675516],[127.03461658814216,35.910681217637745],[127.03460963615848,35.910590717086585],[127.03432694981169,35.91067117522948],[127.03370505025585,35.91063482747314],[127.03302010800616,35.910416114764004],[127.0327565959365,35.91024005335704],[127.03234400600053,35.91015273132951],[127.03199021003122,35.91021493634999],[127.03177692479471,35.91040578290083],[127.03153459822987,35.91078615796923],[127.03179092019583,35.91107522828869],[127.03159992453335,35.91150800882469],[127.03167133941676,35.91183370754422],[127.03151243357976,35.91211226844493],[127.03173627701398,35.91252255549596],[127.03188403254953,35.91249530108363],[127.03183834901918,35.91265394849976],[127.03153732153207,35.91288943672501],[127.03155411864326,35.91301321052362],[127.03137702395618,35.91297938576834],[127.03118142551338,35.91311680835917],[127.03102039130687,35.91355187852824],[127.03111011789416,35.913726651176844],[127.03074588786428,35.9140788187544],[127.03076844261903,35.91458361683968],[127.02978111802204,35.914883120403076],[127.02943615557497,35.91527584288899],[127.02910911207853,35.91536310665037],[127.0294266136345,35.91614625644671],[127.02891107032006,35.91653698962345],[127.02921745589154,35.91705088016027],[127.02909282929738,35.91712936145161],[127.02888451490965,35.91704862037123],[127.0287061315104,35.917357031143275],[127.02901009690724,35.917375680609936],[127.02944301104431,35.91714943978267],[127.02963290454328,35.91714192340042],[127.02968739074872,35.91750909595784],[127.03001857234307,35.917591760102866],[127.03018295701432,35.917473575618466],[127.03039363589673,35.917671681912196],[127.03017553750847,35.917912726340326],[127.03035132021016,35.91838718715454],[127.03057229213283,35.91840147246808],[127.03067251708651,35.91858378675116],[127.03063754919664,35.91875758978924],[127.0312249851425,35.91902579999931],[127.03210090789734,35.919128004663854],[127.03396003239094,35.91890007889125],[127.03511317739046,35.919001784759814],[127.03518438518067,35.918586128363174],[127.03561940673396,35.91860258073903],[127.03586597542294,35.918534672830546],[127.03654134465954,35.91893481757205],[127.03709418389631,35.91933724505719],[127.0372978948966,35.919636677167574],[127.03838028001692,35.92074076509481],[127.03887693281628,35.92100305123509],[127.03904270733459,35.92123322180653],[127.03966227580175,35.92234760705863],[127.03955524609596,35.923052409511406],[127.03966148551133,35.92328690570161],[127.0398779689423,35.923493157170945],[127.03991534762585,35.92373420887921],[127.03984612852621,35.92377308372208],[127.04029990340545,35.92473992180819],[127.0407188796596,35.92524722093864],[127.0407649623806,35.925602111445855],[127.04222870551905,35.92556842075648],[127.04331784654164,35.924786033716536],[127.04398841588163,35.92469671887379],[127.04390550718708,35.92433696614376],[127.04408398044745,35.92407417216751],[127.0445361146456,35.92413852219025],[127.04586632817325,35.9238566531911],[127.04750407469875,35.92395137731851],[127.04811820934482,35.92376485446953],[127.04808236116263,35.92356993128975],[127.04863278140847,35.92338583646999],[127.04893191344333,35.92340501426278],[127.04957620589707,35.92326698503231],[127.04994398072222,35.92328992592032],[127.04991404182923,35.92307153158739],[127.05110018004935,35.92289386409553],[127.05119971625793,35.922703030856084],[127.05162609766394,35.922737043584874],[127.05340121078378,35.92227852553659],[127.05350582489416,35.92222261166487],[127.05349594673363,35.92212949039379],[127.05397910671287,35.92218743775463],[127.05446279687439,35.92214288431653],[127.0553653261186,35.92186076445489],[127.05575090842359,35.921699044075176],[127.05622490828999,35.921332429411265],[127.05648272701995,35.921367242480784],[127.05666960227876,35.921290011166604],[127.05715490883462,35.920873144305226],[127.05760727528002,35.92076748755174],[127.05775475560777,35.92054338061918],[127.05805352906567,35.92033800760015],[127.05963749272058,35.9197540417567],[127.0605826836526,35.91925763700965],[127.06117054785332,35.918302798100264],[127.06396331645176,35.917297972911264],[127.06519010425095,35.91628655977893],[127.06636503398681,35.91575127935787],[127.06678639708872,35.91570300414739],[127.06754207163503,35.9162671205479],[127.0685728518009,35.91682474943089],[127.07063885584873,35.9181122776312],[127.07117518881005,35.918278472860656],[127.07182869347889,35.918647734149005],[127.07249364256336,35.9192951163193],[127.07260741995252,35.91930868652245],[127.07579431640607,35.92148460950761],[127.07624405843602,35.92170700004869],[127.07684136025411,35.92216764614464],[127.07710926792697,35.920659802809084],[127.07715798545081,35.92076345086694],[127.07720681330623,35.92070498284308],[127.07782091721008,35.92077119513565],[127.0785558479191,35.92097194668017],[127.08030624326474,35.92126994901039],[127.0808629399993,35.921800808432025],[127.08098302834725,35.92209301104676],[127.08139660865004,35.92241030533495],[127.08273296616137,35.92318765595863],[127.08449316329407,35.92439293153262],[127.08457533403123,35.92431710655656],[127.08481377577289,35.92453450971385],[127.08553105806148,35.9257140552602],[127.08570168345774,35.92628676230284],[127.08740999920921,35.926792361448555],[127.0886493044001,35.927522003841055],[127.08971917319104,35.92918953405549],[127.09043479576513,35.92965469287731],[127.09050919146665,35.929614252141164],[127.09168384925171,35.930260706393305],[127.09255598365733,35.93160072980854],[127.09263809080034,35.93257883600319],[127.09275353502551,35.93281823213996],[127.09354394163906,35.93378194421449],[127.09382815776361,35.93428445480432],[127.09431124525533,35.93589724956221],[127.09420242053152,35.93723601275531],[127.09433947851396,35.93783704400331],[127.09435673762947,35.939469644864694],[127.0945975425117,35.94030781600889],[127.09503761661433,35.941039745914175],[127.09500491938019,35.94111219426204],[127.09597781769537,35.942580690947054],[127.09702833125539,35.9437271953],[127.09711967343927,35.94410953513428],[127.09715858224574,35.945273746659396],[127.09745061562623,35.94620182274774],[127.09910323129589,35.94793284704422],[127.09929713430773,35.948046089361334],[127.09971562596463,35.94860736920118],[127.09999796505207,35.95030767845382],[127.10036298884856,35.95067843474897],[127.10092869259874,35.95095260048759],[127.10171914796759,35.95118966242323],[127.10219125743257,35.95144881559889],[127.1027616730991,35.95209715018654],[127.10292881296321,35.95248018682343],[127.10298918176692,35.95345307199075],[127.10380291300237,35.954335807436415],[127.10391784127337,35.95480214163469],[127.10376114266553,35.95581157781926],[127.1038898131901,35.956163561222176],[127.10454996334462,35.95673415370728],[127.10551400530868,35.95735703890234],[127.10553421369816,35.957821525468646],[127.10587793377603,35.95822466469277],[127.10592999380603,35.9585564978193],[127.10615038300585,35.95884800877051],[127.10635845730772,35.959640191694334],[127.10638632730037,35.960781868488205],[127.10600323667597,35.96123462870788],[127.10573438889948,35.962024982436],[127.10565743193354,35.96192220217929],[127.10498412353307,35.96284253785256],[127.10432681186148,35.964015335922966],[127.10403821947392,35.96611974422435],[127.10423280780606,35.967012663595995],[127.10399916140831,35.96869954597904],[127.10466672675803,35.97048306083957],[127.10580636394752,35.972554710484985],[127.1058281766192,35.972928587531314],[127.10606088698778,35.973587227037164],[127.10675562303679,35.97474146592231],[127.10665600926067,35.97591711946511],[127.10670711647649,35.976505129968444],[127.10653862719043,35.97707088870253],[127.10678897295469,35.97704502767326],[127.10706482774218,35.97631611302583],[127.10714048144878,35.97634347160063],[127.1068504280425,35.97694248731766],[127.10706970485047,35.977188663806324],[127.1068257100589,35.97809075758994],[127.10689859216443,35.97885986780841],[127.10749218061684,35.97999385762651],[127.10751546634972,35.98020929318889],[127.10803626927935,35.980841423996516],[127.10795713264032,35.98191426385832],[127.1085530088556,35.98418776101297],[127.1090966070319,35.98493861233827],[127.10936953268673,35.985661507220016],[127.10946369539084,35.98564201665121],[127.10950246503447,35.98597909588417],[127.10963524997477,35.98622683232446],[127.10954210913404,35.98653277409339],[127.10950712488915,35.98737926752391],[127.10971448261327,35.98813569804165],[127.10844459275307,35.989722342822844],[127.10828802027592,35.99017439350283],[127.10823409252231,35.991104698993745],[127.10861775723558,35.99261905394711],[127.1077243313031,35.9930108353036],[127.10742068835896,35.9953895349076],[127.10951968683479,35.99677081383267],[127.111475786296,35.997287368518734],[127.1116868684073,35.998408805553154],[127.1121290635985,35.99859984734714],[127.11283692725245,35.99860109359445],[127.1180812716251,36.0012920964821],[127.11858691785851,36.00183662714619],[127.1186213056646,36.00216189235173],[127.11976825626239,36.00207494367795],[127.12024092689265,36.00222198795663],[127.12273803890304,36.00512059407224],[127.12407711479263,36.00530867876557],[127.12545300454228,36.005243483100955],[127.12532246491385,36.00625645441177],[127.12553312484177,36.00653591374587],[127.1250005310853,36.00763852665862],[127.12488824292157,36.008468102786736],[127.12456397573834,36.00923690295752],[127.12488652928975,36.009524097483215],[127.12509986306928,36.00987076108225],[127.12545711069285,36.010118293493676],[127.12549764042643,36.01062127831414],[127.12530309528462,36.01082119084075],[127.12557144761735,36.01127872582995],[127.12551087527385,36.01167732835348],[127.1251362927365,36.01186876598501],[127.12513239808807,36.012180396236545],[127.12467866675716,36.01287026332295],[127.12234422694861,36.01414957677469],[127.12223004845093,36.014927863046196],[127.12238922424307,36.015307713841295],[127.12227453061371,36.01621414438849],[127.12230992512787,36.016712378426085],[127.12198441546384,36.01760758683159],[127.12154661572715,36.017935205561066],[127.12119271436993,36.01851513673576],[127.12115441164529,36.0203871162714],[127.11924698303487,36.02152981054615],[127.11826821687752,36.022403018011566],[127.11815801409388,36.02233210735214],[127.1176788066212,36.02354593486484],[127.11735716582223,36.02357738593216],[127.11580115137015,36.02409748674377],[127.11641195593552,36.02462459510925],[127.11646225189892,36.0249720408763],[127.11823828889193,36.02615819184398],[127.11630411510228,36.03048531596809],[127.11950664416119,36.03277527688809],[127.11976311874322,36.03335578863039],[127.12202572695168,36.03534030666794],[127.12293640170827,36.03655293580592],[127.12432249569333,36.0377857832155],[127.1246511078043,36.038519616916865],[127.12824541999424,36.04167124451046],[127.12891774797674,36.042085696463346],[127.12891392577643,36.042344296272525],[127.12920518431996,36.04308687306122],[127.12901705751571,36.04351213356229],[127.12911615925383,36.04367462573791],[127.12989912482954,36.04396555136038],[127.13108700301059,36.04477018840113],[127.1316402063004,36.04531636897976],[127.131982088053,36.04599489444578],[127.1323834201217,36.04647553991574],[127.1323357204438,36.04717788440137],[127.13309464937558,36.04761491946715],[127.13339327710884,36.0485621779387],[127.13392119742495,36.04916135736155],[127.13390187921415,36.04974599185253],[127.13417886387182,36.04989514563629],[127.13419415405036,36.050355361121596],[127.13436213075792,36.05092285263709],[127.13523372536346,36.05240005414477],[127.13538112142945,36.05289221748743],[127.13600509451165,36.05350858235129],[127.13660527704099,36.05371968523624],[127.13728034601662,36.05429449477812],[127.13814215123377,36.05468485092545],[127.13844173219088,36.0557023553804],[127.13870330464184,36.05621282182094],[127.13916763729728,36.05638761405226],[127.13972175898881,36.056974685757105],[127.138143495995,36.057940393152144],[127.13750595899516,36.058165035938714],[127.13622568367933,36.059921034531136],[127.13517198372426,36.06060746511533],[127.13448105759348,36.06091006002341],[127.13357630261336,36.06166103635885],[127.1329735562511,36.06270852616801],[127.13247051479267,36.06289976598942],[127.13238087943513,36.06299059751598],[127.13245666046976,36.063112424071925],[127.13238347770526,36.063225975346796],[127.13177201418888,36.063500214416756],[127.13152947952555,36.063530398719],[127.13139446018351,36.06340871040882],[127.13133374890079,36.06318167739001],[127.13119137290178,36.06357294308807],[127.13126376957987,36.063988577359595],[127.13108057128493,36.06415313066376],[127.13117379575124,36.06432027816347],[127.13121347375356,36.064825169025625],[127.13103396879089,36.06574790184376],[127.1305782487578,36.06586548860107],[127.12577619104243,36.06492781117807],[127.12473463360715,36.064413183195086],[127.12318758688934,36.064247607450156],[127.12289937548597,36.06376151111863],[127.12205250507914,36.06302469199165],[127.1215496608558,36.06330657452319],[127.12126037351709,36.06369094513567],[127.12089012641925,36.064702552299515],[127.12012822087588,36.065482510204866],[127.11811614805832,36.06711966345176],[127.11738346028424,36.06745964713184],[127.11558453434411,36.06766060344909],[127.11265111410444,36.06924803269472],[127.11147142722007,36.07035157902693],[127.11054682093338,36.070813575943156],[127.10941146180386,36.07215270325559],[127.10934819343731,36.07259526695634],[127.10844902941274,36.07263550952662],[127.10749522975665,36.0720097157885],[127.10626054424039,36.07195674487921],[127.10570772692954,36.07259481102251],[127.10549004361594,36.073249535672126],[127.1044349003209,36.073902521317315],[127.10359476634773,36.07401964998548],[127.10300943556834,36.074654999281584],[127.10281021140773,36.075060932190524],[127.10204072426332,36.07575481500267],[127.10175994808566,36.07572101093894],[127.10129767639502,36.07547215547864],[127.10067112908364,36.07564567324635],[127.10059106982834,36.07501204913788],[127.09950317569516,36.07499082736927],[127.09912715423826,36.07457211523829],[127.09880535513227,36.074605522016746],[127.09800691515123,36.074522166507705],[127.09634521202955,36.07416023914632],[127.09568619496345,36.07413905776596],[127.0957214596017,36.0739316879435],[127.09543528231339,36.07365278978838],[127.09539285008077,36.07355605887738],[127.09546752122282,36.07351284051407],[127.09516122897234,36.073337234127884],[127.09446073513581,36.07322307241019],[127.09417734816762,36.07336782061168],[127.0941372419912,36.073964717668005],[127.093796078973,36.07416494342147],[127.09362801844426,36.07442230567755],[127.09379058954968,36.07467436946296],[127.09370921694997,36.07490940502694],[127.09304160550552,36.07546844512641],[127.09270960070363,36.07599246734915],[127.09225412093771,36.0756017931002],[127.09214003348961,36.07453947276545],[127.09152994205327,36.07303208022842],[127.09096673576157,36.07258039016263],[127.09050902166811,36.07195175386215],[127.0908129553162,36.07139231597683],[127.08885927534999,36.07319726885864],[127.0888314502816,36.07342323462401],[127.08851551897872,36.07382264857564],[127.08817431939273,36.074032825989235],[127.08784511161433,36.07556315455409],[127.08603658031089,36.0763075773633],[127.08590863309668,36.07646127055505],[127.08528133975986,36.07669328050062],[127.08454675016245,36.077152698312766],[127.08388923069819,36.077331403189014],[127.08358159038262,36.077522718288094],[127.08340480955496,36.077495676974095],[127.0822302681706,36.077767423830174],[127.08157286545945,36.078673054623124],[127.08139113787507,36.07938785050994],[127.0808387446096,36.079695791187305],[127.0796195921563,36.081025227991404],[127.078651252654,36.08147674227046],[127.07739883028316,36.08189841852691],[127.07739024351395,36.08245983652778],[127.07696371575199,36.08259210553071],[127.07695122967823,36.08297808674229],[127.07658549766818,36.083010128180476],[127.0765703284318,36.0832159039963],[127.0769678305958,36.083528240887624],[127.07664227462618,36.083952639722455],[127.07648301706723,36.08404375269759],[127.07627129192332,36.08447132953379],[127.07569184697891,36.084652987742516],[127.07536580449894,36.08496164802588],[127.07462839265551,36.08484202125437],[127.07166514081852,36.084730169657284],[127.07007697247424,36.08757094182058],[127.06868624723434,36.087934749346246],[127.06738913362932,36.08839585545332],[127.06599039853333,36.08923710456131],[127.0652474849053,36.089828746584],[127.06487577741743,36.08982103961012],[127.06408235550309,36.08951182507988],[127.0638848030648,36.089368553208004],[127.06369521201938,36.08907438849325],[127.06283572208781,36.08937181714124],[127.06255079136871,36.08937974081933],[127.06121409846708,36.089001516267004],[127.06110967295811,36.08907528823367],[127.06075798030858,36.08886251414513],[127.06122827987676,36.08963405396313],[127.06187058282596,36.0900736234722],[127.06259058716861,36.09028374523794],[127.06257923957718,36.09098814940887],[127.06313465095221,36.0915650469958],[127.06309397503637,36.09183401629208],[127.0618725948409,36.09270125488724],[127.06094971842295,36.093790409559766],[127.06045586424726,36.09390639671847],[127.06039292502658,36.09423167482235],[127.0605631579926,36.09461286717922],[127.06018863836093,36.09486586809046],[127.06018024052757,36.095073151924815],[127.06066420348742,36.0952766954534],[127.06045599534217,36.096072371434936],[127.06051489928142,36.09679442185322],[127.06072450049653,36.097571003590474],[127.06111419857962,36.09832979128733],[127.06113326565604,36.099207688713285],[127.06125269655908,36.09967682774246],[127.06074572822305,36.100269401474804],[127.06032946817704,36.10051808963148],[127.06029040186857,36.102413978811015],[127.06045314022116,36.102833277997114],[127.06077580094076,36.10324222361879],[127.06035651523206,36.1039202681956],[127.06056542025051,36.10452920336916],[127.06076973002024,36.104488909413384],[127.06104744725924,36.10547631914536],[127.05975170962202,36.10572262721926],[127.06001181966121,36.10663831041652],[127.05780605050514,36.10705014131311],[127.05827129181087,36.108925070851015],[127.05846107240717,36.108890374767654],[127.05896366783581,36.11077997569347],[127.0583888797446,36.11088875327371],[127.05866477871658,36.11183110753012],[127.0578855367462,36.111976573303146],[127.058146428802,36.112901090645664],[127.05695771949138,36.11312029885353],[127.0572242855665,36.11406875580853],[127.05745838780156,36.11402549438787],[127.05772072079588,36.11494496888554],[127.05696532190798,36.115086989573605],[127.05725133774972,36.11603817412631],[127.05848750274323,36.11580516924667],[127.05875375403022,36.11674086050287],[127.06005015667631,36.11628609518421],[127.06184602787434,36.11659830132576],[127.06174025138809,36.11707504079644],[127.06106402425594,36.11718860778609],[127.06300310423418,36.12522756653261],[127.06195399787215,36.12512394748066],[127.06102670373261,36.12421846258257],[127.06039519132132,36.12376568392433],[127.06021748904627,36.12372895634553],[127.06075926975774,36.12604874419036],[127.05608258729137,36.12677336611965],[127.05629625581176,36.127657300262904],[127.05509778905345,36.1278597483573],[127.05560992321287,36.1300704606186],[127.05070160646484,36.130905915642565],[127.05045698688669,36.13164428564249],[127.05050730513916,36.131814315093656],[127.05033212453907,36.13219351437602],[127.04999609841956,36.13254099435496],[127.049514378525,36.13281112832181],[127.04965290480024,36.13315738169023],[127.0500711466831,36.1337168784252],[127.05012682748448,36.13416601679298],[127.04959207601983,36.134246080254506],[127.049105067148,36.13420344848455],[127.04897580444627,36.13427391142118],[127.04815963824139,36.134272982888376],[127.04825790062822,36.1339662081605],[127.04780786667847,36.133849134862956],[127.04684763063098,36.13430329562846],[127.04623805087128,36.134498268423364],[127.04645588751403,36.13515320983413],[127.04620687253693,36.13529564079266],[127.04594142441806,36.13521520689753],[127.04571930834794,36.13454293467856],[127.04491199645993,36.13465267392011],[127.04518479986976,36.134957182426184],[127.04500295656968,36.13489652507741],[127.0453419521135,36.135242473557014],[127.04536906664273,36.13541431565127],[127.04514389652256,36.13596333983015],[127.04539528446026,36.136329318135815],[127.0455334193811,36.1372069894452],[127.0458119791784,36.137734608721786],[127.04570563363806,36.13793448805526],[127.04550653384646,36.13794540256734],[127.04487778330595,36.13758067069392],[127.04453260155837,36.137587564597176],[127.04460219183004,36.13814966641767],[127.04485775757992,36.13860361106708],[127.04524222342478,36.138552778886414],[127.04554485501656,36.138645409335766],[127.04510816288987,36.1392299760276],[127.0449737077908,36.13955739681853],[127.04482675947659,36.13959406585756],[127.04478542657253,36.13974933129869],[127.04488177779989,36.139933611234],[127.04443393633422,36.14164707367817],[127.0441213673764,36.141853227897315],[127.04375831758418,36.14228252087704],[127.043317227564,36.14257372911697],[127.0432480485797,36.14277536157832],[127.04349084408067,36.143049928207795],[127.0436998976746,36.14308793061551],[127.04392241161428,36.14297702209003],[127.04386423080386,36.143113089961965],[127.04426425458426,36.14298185749425],[127.04414496001354,36.14323660743591],[127.04553903742638,36.14302367106892],[127.04499160966068,36.14332470202409],[127.0441943949523,36.143447913036695],[127.04482956183544,36.146080783695815],[127.04251760107411,36.146480444083494],[127.04216667307666,36.14506502216072],[127.04183954835234,36.14485508982905],[127.04157396610243,36.1445037366852],[127.04141886336811,36.14362416593435],[127.04108281165897,36.14294292100079],[127.04085101281758,36.14218016317905],[127.04093115900446,36.141255119368985],[127.04051991351571,36.140887103384735],[127.04063383176751,36.14064040536237],[127.04062075071789,36.14041062036936],[127.04049946174202,36.1402203613775],[127.04061754695562,36.139642713216595],[127.04058865186501,36.13933857320196],[127.04029804884485,36.1387095617363],[127.03961608603234,36.13795440812995],[127.03964883939311,36.13825681603202],[127.03923523756748,36.138533868583444],[127.0390421662858,36.13886628623642],[127.03882808411988,36.13898978425859],[127.03837219453092,36.139069158001696],[127.03814466254524,36.13896799439678],[127.03769938902812,36.138941690869345],[127.03614566820546,36.13893776085613],[127.03529729016756,36.139017902993885],[127.03492260115581,36.139250682269115],[127.03444233132326,36.13908134361106],[127.0345120765637,36.13883902537035],[127.0342904868957,36.138717316476175],[127.032711172254,36.13847069094848],[127.03256368490995,36.13833229510049],[127.03208600710992,36.13815688057625],[127.0313923874698,36.13816867317615],[127.03048018935183,36.13780758541101],[127.03098136787435,36.13762162514249],[127.03062455768242,36.137394365664996],[127.03019027201513,36.13684833803389],[127.02983141671154,36.13662913355837],[127.02857606628206,36.13662660273395],[127.02867136104092,36.136663882408854],[127.02745022063435,36.136771804241825],[127.02713153299898,36.13671175186823],[127.02663825824102,36.13640251780812],[127.02605390999182,36.136497563309184],[127.02405590909524,36.136483464868974],[127.02345580731917,36.13662788587793],[127.02293382855964,36.13717085038066],[127.02256479610475,36.13742784032948],[127.02187961975132,36.13760234382099],[127.02156585892888,36.13781839668733],[127.02138003864086,36.13777142207999],[127.02122757919555,36.137617772257336],[127.02091834366242,36.1377769420044],[127.02058484490044,36.138083522307205],[127.0204272102754,36.13811380045314],[127.020489426549,36.138535258389226],[127.02022017046498,36.13868086273988],[127.02016307630568,36.13907111210759],[127.02002368057161,36.139323022061944],[127.02020165527296,36.13955276478949],[127.01986884685937,36.13952506938075],[127.01971928635989,36.139606939368505],[127.01961641965505,36.14016059355614],[127.01943974958277,36.14035014357665],[127.0195709702726,36.14110024250394],[127.01951328713908,36.14134964318975],[127.01936116481141,36.141535259733885],[127.01938239142892,36.14165498237061],[127.01907509311475,36.14196484404535],[127.01892757439136,36.14316563320145],[127.01838981306604,36.143675018781764],[127.01845019694628,36.14375972181075],[127.01813845078436,36.14405808254541],[127.01781430115025,36.14536708405347],[127.01764558329654,36.14573300527252],[127.01732664506405,36.146129758376986],[127.01710783820961,36.14668162250206],[127.0173835082764,36.14681831609819],[127.01740554879711,36.147014667850016],[127.01710695989648,36.14706465317692],[127.01638520352088,36.147437492125896],[127.01637813606756,36.14785031781536],[127.01606975607076,36.14792032436235],[127.01609973160555,36.14802745731757],[127.01566743478882,36.14827220411217],[127.01549147154783,36.14847567994779],[127.0155320146666,36.1485211691018],[127.015272393391,36.14867138445049],[127.01448696303049,36.14803225711473],[127.01394035702634,36.147106596751875],[127.01385570748283,36.146882424094294],[127.01394140001062,36.14687881766284],[127.0135396914328,36.146777618079994],[127.01245927372315,36.14604188627629],[127.0121163508582,36.14600613123125],[127.01205983026946,36.14587245170129],[127.01147167494182,36.145891518362504],[127.01129325160682,36.145831988711535],[127.0109673421995,36.14608446978134],[127.01014732005969,36.146073610300036],[127.00962139108285,36.1462405676132],[127.00930328404338,36.146479579673375],[127.00915284287872,36.146910861934614],[127.00894468008268,36.147127660098135],[127.00880503253713,36.1471676360729],[127.00840774171982,36.147172327684096],[127.0080088914595,36.14703655722025],[127.00767024880157,36.14678975314963],[127.00746516153635,36.14706626461613],[127.00713436540231,36.14729289611031],[127.00649174581903,36.14739286730545],[127.00614287277855,36.14717058254428],[127.00584306599403,36.14724126524955],[127.00614483889947,36.148074419065196],[127.00634134358265,36.14835161382897],[127.0066466016796,36.14966917887654],[127.00655488431285,36.149836545548794],[127.00669834972014,36.149989132664984],[127.0053403909339,36.150616863748375],[127.00135229758374,36.147956046327884],[126.99803150414043,36.14684591950768],[126.99386598079272,36.14684751146368],[126.98718680547607,36.14768814117685],[126.98353457804471,36.147688144505416]]]}}
