{"type":"Feature","bbox":[126.7155331647562,35.461385927006326,127.11693654750526,35.759026884417956],"properties":{"regionCode":"52180","version":"vworld-20260909-3f8952dfda77-p2","name":"전북특별자치도 정읍시","attribution":"국토교통부/K-Geo플랫폼 · VWorld 법정구역정보, CC BY 2.0 KR; 공공주택 복덕방 가공"},"geometry":{"type":"Polygon","coordinates":[[[126.88204294402746,35.759026884417956],[126.8815588661596,35.75900422200311],[126.880039138808,35.758742008419524],[126.87984935302303,35.758507685222135],[126.87959614935122,35.757814422420175],[126.87843124986789,35.75739497619313],[126.87827050771197,35.7571188899428],[126.87734534645783,35.75701651290401],[126.87684320714622,35.7578496455075],[126.87631139790099,35.75853721517344],[126.87537794094358,35.75872879703806],[126.87312837353426,35.75850601489523],[126.87313271248144,35.75807104775624],[126.87285857294457,35.75766406036802],[126.87296551984298,35.7576419856087],[126.87293249631963,35.75750928707642],[126.87271046308543,35.75755493936257],[126.87270836560604,35.75641348730227],[126.87343364256024,35.756408447782626],[126.87367449614683,35.756097172104475],[126.87392119572159,35.75609895767828],[126.8738959096974,35.75460115686628],[126.87505050481536,35.75458879322391],[126.87501608260015,35.75242286644193],[126.87619539753726,35.752411950862694],[126.87619218538512,35.75218350294071],[126.87735041240036,35.752165264563274],[126.87734770934712,35.7519829260538],[126.87845241001425,35.751972191735305],[126.87843946904835,35.751252165619256],[126.87961750052285,35.75124161729741],[126.87965025513144,35.75015702796375],[126.88075509761663,35.750144697077914],[126.88073075110181,35.748388311757395],[126.8822517973682,35.7483697147471],[126.88213531796879,35.74361130423481],[126.8820703442413,35.74344148471464],[126.88184613436329,35.74341277409529],[126.88179344370731,35.74132274057633],[126.88060058955797,35.74133748123477],[126.88059811151143,35.73975847821996],[126.87880159179826,35.737557444957645],[126.87847071397937,35.737232560575045],[126.87750685732615,35.73658300261317],[126.87662293949124,35.73560546778094],[126.8753925768356,35.73463085107848],[126.87484637358213,35.73431270981148],[126.87416488897338,35.73371561981251],[126.87411754391493,35.733480853882604],[126.87442884163973,35.73327758567433],[126.8740684329243,35.73295911198413],[126.87400858730565,35.73302209237348],[126.87383769318599,35.73292027610125],[126.8737686514231,35.73301745734765],[126.87374100053955,35.732868773781874],[126.87353248635405,35.732784373455075],[126.87321482427434,35.73210889535629],[126.87331091961305,35.73202871376483],[126.8728692730332,35.731851488072486],[126.87231138985946,35.7319669289467],[126.87212338313793,35.7316706304568],[126.86976097585847,35.73065142182868],[126.86934944476847,35.730203356255615],[126.8692791061805,35.729880075071485],[126.86899507284998,35.72959796464687],[126.86891791069806,35.729670349358685],[126.86886461896083,35.72961973794554],[126.86846465280544,35.729143707706484],[126.86836802730232,35.72888332367966],[126.86805785381894,35.728657275242654],[126.86734848286244,35.72745288859707],[126.86694115688701,35.72798074785017],[126.86613896334227,35.728038379310384],[126.86483537520009,35.72775020233537],[126.86443771129254,35.727562845397586],[126.86397736198568,35.72751394903508],[126.86270872639092,35.727550905623936],[126.8620623447789,35.727738278952756],[126.86165720636083,35.72776403722654],[126.86141865271338,35.72771770501223],[126.86130885772972,35.727550752229334],[126.86111225683683,35.727658854724375],[126.8605361046555,35.72769955152871],[126.86028565721824,35.72781768460053],[126.8599898222557,35.727849691285265],[126.85920989576864,35.72755405656347],[126.85872237651982,35.727042911135726],[126.8581797955932,35.72673151008641],[126.85696016705569,35.726333673209204],[126.85573331777321,35.72620709822372],[126.85394038285037,35.726420947404215],[126.85252975909557,35.726217957906094],[126.85077787025934,35.72670002788486],[126.84995558481752,35.727260215266384],[126.84972372276084,35.72712842818672],[126.84906373158756,35.727662948149856],[126.84847351219399,35.72794681952257],[126.84804279754348,35.72796932613526],[126.84770022019421,35.72814239212672],[126.84679547553938,35.727963538787684],[126.846778365969,35.727689377917486],[126.84670474610766,35.72772141298996],[126.84617582044308,35.72746371624562],[126.8462783291961,35.72739856158237],[126.8442966013757,35.72629688416579],[126.84390391563964,35.726606831060074],[126.84355015124984,35.72672259505228],[126.84306108723504,35.726743979315565],[126.84262971660532,35.726637548071245],[126.83971487219218,35.72500354240524],[126.83944216394862,35.72465816011011],[126.83938380629067,35.724631070746845],[126.83945906717987,35.7248087579516],[126.83763358092806,35.72365817124452],[126.83721393126112,35.72331905627399],[126.83514592193328,35.722392965273684],[126.83044873101588,35.719976373467134],[126.8295002356546,35.71966693198246],[126.82790157836315,35.718965208122476],[126.8289679493407,35.71726887564502],[126.82962497336358,35.71706855378329],[126.82980271621182,35.716836288206416],[126.82898431439592,35.716069623124525],[126.82988241370876,35.71543196358948],[126.82841165200593,35.71408240525866],[126.8274672259119,35.714753663448896],[126.82707287500939,35.71439288941436],[126.82682317543197,35.71453511697315],[126.82638770326412,35.713832954879486],[126.8262021902507,35.713292401107964],[126.82618425025075,35.712638305166024],[126.82634358579045,35.71200962280148],[126.82675969678988,35.711501424638186],[126.82818793304635,35.71009530809823],[126.82853288130134,35.70960072643879],[126.8287924106059,35.70897160034729],[126.82892333207776,35.70830650690958],[126.82916253396235,35.707990548271795],[126.82952597897942,35.70768048006041],[126.83082017302137,35.70685919981469],[126.83161059698725,35.70556291117275],[126.83199231692862,35.70518648383686],[126.8326126606843,35.70493279067302],[126.83403586680188,35.704542158178356],[126.83443709417624,35.70426864793592],[126.83482090043907,35.703782701470395],[126.83477178307315,35.7030296120176],[126.83397622451423,35.70165514196285],[126.83347306487394,35.7010826935613],[126.83347382796728,35.700861386202725],[126.83395804954347,35.70045028984452],[126.83560634274738,35.69975964667739],[126.83695855937029,35.6989834237249],[126.83829633305596,35.69927494002724],[126.83840742656761,35.699429504164286],[126.83856098679944,35.69942971336276],[126.83892463628597,35.69989720685642],[126.83932026434532,35.700157695070615],[126.83964998017855,35.700065432952826],[126.8397522687011,35.69989354658319],[126.83961584921177,35.69943113614747],[126.83923190314296,35.69907814906442],[126.83916684790901,35.698782624847794],[126.8395752661185,35.698349095210354],[126.83998603668446,35.69805583132522],[126.84089549552505,35.697674060899104],[126.84059722235634,35.69721176222341],[126.84060041853411,35.69693496773722],[126.84084556945697,35.6965868800863],[126.8409320731529,35.69626007078769],[126.84061488401773,35.69582738592941],[126.84048952923193,35.695331500101005],[126.83979406624009,35.69582628769876],[126.83894539397875,35.6961623092161],[126.83798878369468,35.69617751691101],[126.83778783855027,35.69636857401992],[126.8347927854035,35.68725722831485],[126.83430810881768,35.68681469834198],[126.83305204727995,35.6863845536937],[126.83308965691303,35.68606201566622],[126.83230827202972,35.68609963870158],[126.83202811835524,35.68575312944038],[126.83187957519058,35.68585843145342],[126.83121519001944,35.685939933046114],[126.83072489494141,35.68576719487272],[126.83074093178679,35.685441820172436],[126.83064152404219,35.685211656859245],[126.83052434291996,35.68517713493934],[126.8300351346704,35.685346491584255],[126.8288805325093,35.68501352559939],[126.82865142474095,35.684456082729035],[126.8287921188408,35.68437952249831],[126.82818518227135,35.682919099685954],[126.82830757440509,35.68268158486168],[126.82822780085256,35.68250579227786],[126.82792816168067,35.682574839572844],[126.82743241259112,35.68148304128587],[126.82709839729061,35.67999455464588],[126.81878362406823,35.68069207304987],[126.81891645780964,35.681734235642516],[126.81770508384426,35.681831263171034],[126.81781156798755,35.682411575033846],[126.81724640035151,35.68250578780785],[126.81713890222596,35.68244439079838],[126.81692002950278,35.68246968927348],[126.81579357222388,35.68272737033328],[126.81573211660503,35.68326741862722],[126.8158164006365,35.683788329681526],[126.81472253941182,35.683687086307636],[126.8146200143886,35.68353036712528],[126.81421401078708,35.68333076049071],[126.81405387847319,35.68273888777399],[126.81371406174434,35.68266144394714],[126.81328372646973,35.68274060840809],[126.81299310850002,35.682359589597176],[126.81275261675201,35.68223052037403],[126.81227305633513,35.68220267531666],[126.81164125660214,35.68198540193833],[126.81101479030211,35.68159908195559],[126.81058599870539,35.68109220262579],[126.80984085381874,35.68072758234117],[126.80929364195904,35.68067255947409],[126.8087632884507,35.68074633735281],[126.80860058771466,35.680335987690526],[126.808139885583,35.67973624415166],[126.80799675915391,35.67968518323052],[126.80803985977035,35.67959495325139],[126.8074503934001,35.678873840787745],[126.80754205769911,35.67886355218157],[126.80723804106466,35.67823530613355],[126.80598712872347,35.675888867977896],[126.80588201360521,35.675922063823876],[126.80576443553605,35.67573894093945],[126.80516118808605,35.676494164913116],[126.80455169921073,35.67696128157404],[126.8029862106355,35.678722118649965],[126.80220031971042,35.679947887727096],[126.80176322525017,35.680253056931],[126.80122239360038,35.680805459980796],[126.80124501788372,35.6810879644922],[126.80089807652607,35.68210870193025],[126.80037904962023,35.68295883801984],[126.79848681819486,35.68466081858363],[126.79788049498974,35.68420640898563],[126.79757416676365,35.68373635482893],[126.79635944782058,35.68345576198907],[126.79606524661538,35.68283989814646],[126.79570273969486,35.68236057565765],[126.79468611324832,35.681400509628055],[126.79467094604962,35.68103674860793],[126.79455599632261,35.681271709973615],[126.79468801736189,35.68098299844357],[126.79401249513843,35.68040465096771],[126.7932119484877,35.68022613409943],[126.792929528029,35.67994039142157],[126.79280075962946,35.67965609531363],[126.79226605853303,35.67895864782093],[126.79215445354002,35.678199335716315],[126.79191605892692,35.67796570707134],[126.79135154795476,35.67766591481589],[126.79112713117165,35.67739008447916],[126.79095564927381,35.67734104357305],[126.79115596437582,35.67738074394461],[126.79059913329249,35.677032048005934],[126.79041534107927,35.6767672300637],[126.78983400550894,35.67623999329368],[126.78903925475684,35.6757556262173],[126.78889889540407,35.67578521078297],[126.78896629752477,35.67600182472173],[126.78851566936794,35.67616831388644],[126.78821927063699,35.67507443599404],[126.7836888755247,35.67593158709964],[126.78366128066021,35.675834965766484],[126.78348915343194,35.67590005195397],[126.78345471261228,35.6758019021594],[126.77721071570191,35.67960119706536],[126.77803552407283,35.68050447994709],[126.77657501985617,35.68138525212996],[126.7772869646585,35.68216257631],[126.77510295081298,35.68348671412513],[126.77440114257416,35.68271992236786],[126.7729806880082,35.68358204410575],[126.7721221106438,35.682644106435575],[126.77172783359686,35.68290142601579],[126.7715084532544,35.68247132495793],[126.77035427445793,35.68208258643311],[126.76995747245688,35.68181273195238],[126.76967593170916,35.68147514076616],[126.76913928428559,35.68030964166475],[126.76819225396936,35.679357194490365],[126.76798970274976,35.678187145751],[126.76744397681553,35.67710230369862],[126.76704474712221,35.676506895200056],[126.76661271893667,35.67515315171119],[126.76580054130963,35.67407363909858],[126.76497074754458,35.673180958821035],[126.76485453408344,35.67286498718783],[126.76529333945942,35.67169303897918],[126.76527493701916,35.671292347793255],[126.76502776238375,35.67075447818013],[126.76450740323122,35.670116307801074],[126.7644983580362,35.66986196143311],[126.76498784981136,35.66845319175033],[126.7648326068093,35.66686154214966],[126.76490342614316,35.66686168058483],[126.76470557916848,35.66650364904594],[126.76399887637376,35.666021957672264],[126.76395427882458,35.66563011303297],[126.7643323416486,35.66543517224333],[126.76430441887416,35.665268102633576],[126.76508524380306,35.6650916539658],[126.76512093291612,35.66448691303458],[126.76475766828793,35.6641191008667],[126.76440469043703,35.66405075711665],[126.76423218377136,35.66383605869456],[126.76346493732703,35.663838500021924],[126.76298828873308,35.66274853710955],[126.7634150088865,35.66245023926595],[126.76314333036613,35.662003307934256],[126.76236851340262,35.661984152717324],[126.76254115528279,35.662320625788375],[126.76224514441583,35.66193167815953],[126.76068814022643,35.66231153003955],[126.76105929769867,35.663574506797254],[126.7586904223191,35.66409249615814],[126.7587908864538,35.66439696793075],[126.75600262829826,35.665021129400245],[126.75631654569463,35.66594801006755],[126.75517131401068,35.666210377065994],[126.75534520277435,35.666878306906774],[126.7515526770324,35.66774175969904],[126.75144176415694,35.66743068229477],[126.75131402601932,35.66734524406998],[126.7513340679277,35.66711528077412],[126.75010959855317,35.66357693804024],[126.75018595445522,35.66349318778303],[126.74787460527051,35.66458871945421],[126.74608498754817,35.665270709317156],[126.74471468827039,35.66602434562133],[126.74473557630449,35.666078366426596],[126.74400112067607,35.66642540337823],[126.74370829746584,35.665979205114006],[126.74440055082373,35.665649086350456],[126.74247353436057,35.662943475458086],[126.74360230974003,35.66240504252042],[126.7412244886329,35.65905231852413],[126.74131339764122,35.65898185087301],[126.74127737473916,35.658920036046794],[126.74221288318196,35.65847087525676],[126.73864062997114,35.653461047870216],[126.73972801523033,35.65294696448265],[126.73784606382064,35.65031421379443],[126.73676453977808,35.650829446524824],[126.73560254893732,35.64919692657522],[126.73536451404155,35.64931023159683],[126.73532904239502,35.64924852483822],[126.73506776242141,35.65001006805683],[126.73502881525987,35.650386101388655],[126.73479715388677,35.65088629339182],[126.73457565893284,35.651061372741395],[126.73423183476353,35.651106612300374],[126.7338715235795,35.65101657500472],[126.7337171473473,35.65059396790323],[126.73334745988784,35.650571512592855],[126.73319625400204,35.65038784010151],[126.73298868316151,35.650347205848085],[126.7327524138411,35.650142298827824],[126.7327804710205,35.65000399581424],[126.73244209566293,35.6499837189699],[126.73225232622268,35.649660051883856],[126.72845405140806,35.64933313541938],[126.72858714836032,35.648357507468084],[126.72683022578593,35.6481971421385],[126.72722128129152,35.645342750481234],[126.72638989714501,35.64462634790516],[126.72622142473224,35.64463952030645],[126.72595744646036,35.64430160232294],[126.72549073416116,35.64416655057595],[126.72524354321388,35.64387965713905],[126.72499708696478,35.6430467712849],[126.7252905082942,35.64298611167622],[126.72392261375033,35.6382379348405],[126.7244785798264,35.63812448154717],[126.72367269741386,35.63544920817426],[126.7232773011934,35.63346422751633],[126.72309922108234,35.63324300203094],[126.72281503843438,35.63210240668791],[126.72273279725361,35.63204011849676],[126.72217590573224,35.63213557254069],[126.72210833137339,35.63182810657173],[126.72166146595896,35.631593196419374],[126.72131040420962,35.63155825817041],[126.7209416743188,35.63116438760596],[126.7206457725582,35.63110289792586],[126.72025421313016,35.63022443557396],[126.72053889074932,35.63009801125278],[126.72078098244855,35.629739045484726],[126.72067512962835,35.629220363844425],[126.72077318327497,35.62879613528929],[126.72106340186022,35.62842190550537],[126.72108089528933,35.6278224499422],[126.72152201587254,35.627820160317256],[126.72150992922508,35.626103364013574],[126.72206748863474,35.62592787086378],[126.72209956289936,35.626100747932384],[126.72215934207294,35.62573496651277],[126.7222950151256,35.62449421897889],[126.72217859867807,35.623689104300745],[126.7220991187052,35.62368937011776],[126.72196284728405,35.622966083669645],[126.72210075368884,35.621740417250656],[126.7220279751703,35.621613683831015],[126.72231003934881,35.62089221103624],[126.72156353797693,35.620536789669394],[126.72223260650081,35.61960302823015],[126.72266051940505,35.61980967253056],[126.72272234689024,35.61971946356922],[126.72287759653516,35.618710899638835],[126.72317518186891,35.617750902222795],[126.72308275265084,35.61747928496924],[126.72202143519215,35.61677272942559],[126.72178295382977,35.61623714861835],[126.72168344185638,35.61575472242352],[126.72149925477086,35.61582513590101],[126.7214553581252,35.61574597267707],[126.7213460396127,35.615753478227305],[126.7210042681365,35.61529664610641],[126.72081934354922,35.61415977757482],[126.72060655422037,35.61348457335269],[126.72044703031378,35.61179660535937],[126.72030138372054,35.611295538391076],[126.71989011865675,35.610475509321915],[126.72054069462607,35.60938920672533],[126.72068601829457,35.60940405521652],[126.72073835284783,35.60924662536471],[126.72060123540928,35.60908466841781],[126.72066736847644,35.60914116289385],[126.72115417773618,35.60824415944235],[126.72119985328783,35.607302251576264],[126.72151572439715,35.606041593701946],[126.72177963562012,35.60569495139278],[126.7217759594163,35.605552414736934],[126.72101648246722,35.60421881247668],[126.72089432064932,35.60373279055871],[126.72051665902552,35.60331404898849],[126.72072434052308,35.60319723042555],[126.7211546798242,35.60331207406651],[126.72093662199985,35.60236034238489],[126.72169617813299,35.602248771233576],[126.72149472014688,35.60136202508056],[126.72141750692755,35.601373544915134],[126.7214311335608,35.60115890861764],[126.72235525373698,35.60102081195514],[126.72160975217557,35.59773912889063],[126.72155256886741,35.59774539549819],[126.72141656996945,35.597156540150685],[126.7213166325393,35.59714569071296],[126.72145540585255,35.596969252451494],[126.7213443856546,35.596559811890195],[126.72148129784725,35.595848737597265],[126.72144672545198,35.5956141955341],[126.72148849128538,35.59550374181138],[126.72155442670446,35.59551596283907],[126.72160551505144,35.59526945589715],[126.72157162934687,35.59486934868624],[126.72185426610261,35.59466793616511],[126.72218156943835,35.5946311113841],[126.7263830138526,35.594435009394196],[126.72621913438883,35.59379472419918],[126.72551299781394,35.59370955921721],[126.72503499868222,35.59344799126428],[126.72485905277829,35.593271837365265],[126.72470184428907,35.59303813377642],[126.724833856081,35.5929624599289],[126.72441579541004,35.59183173700521],[126.72425160431933,35.583636411988515],[126.71820355733763,35.583704820523714],[126.71779206955436,35.58378560016687],[126.71735417578448,35.58246048875843],[126.71652294844272,35.581455701244394],[126.7155331647562,35.579498914347354],[126.71561343688315,35.57910743322842],[126.71625007926463,35.57795607945123],[126.7158128474728,35.57714458505195],[126.71579009110823,35.57527284488601],[126.71589554438866,35.574990712777534],[126.71656589931462,35.57416486242608],[126.71741006351124,35.573880687044706],[126.71811812586495,35.57327360360694],[126.71866582507819,35.57322735602322],[126.71911311228872,35.57254901246087],[126.7232212390989,35.57249727530319],[126.7232603339864,35.57446325879577],[126.72399509806246,35.5744507087232],[126.72395741068301,35.57248716521391],[126.72788562597214,35.5724655884298],[126.72752887024521,35.57106688033862],[126.72802450832414,35.57064557056958],[126.72842226710762,35.5705896012004],[126.72901720870986,35.57077913677573],[126.73072041894258,35.5706903226815],[126.73165932985945,35.57018991064968],[126.73297698779544,35.56981464453631],[126.73340597730899,35.56982271821973],[126.73501447608689,35.56901610557377],[126.73682521160603,35.568388687143006],[126.7372326118244,35.56877113448195],[126.7383300813713,35.56926446685204],[126.73873695198037,35.56923143682443],[126.73912522118465,35.568945590875096],[126.7391281140839,35.568836170692066],[126.73925795517466,35.568777482340764],[126.73949380364255,35.5684571811268],[126.73971363411185,35.56834498899649],[126.74062295911213,35.56915337796579],[126.74086645064992,35.56948702096592],[126.74088966127793,35.569807337102695],[126.74132060202423,35.570931562703045],[126.74126419709762,35.57127657103622],[126.7411237793097,35.57152842209631],[126.74156543119575,35.57155022067581],[126.74190599894644,35.57138457622973],[126.7428717824561,35.57054921844699],[126.74296557953988,35.57015537721609],[126.74366490624246,35.57035907117065],[126.74452287497981,35.569972182893785],[126.74443535264751,35.569582215246974],[126.74458288736919,35.56910750471212],[126.74512716785975,35.56916165993134],[126.7457916536869,35.56952893218162],[126.7466844925809,35.56977770170332],[126.74708592537641,35.57004461909027],[126.74738392150955,35.570377274882624],[126.7488342305795,35.570567033509704],[126.74939279004685,35.57051454835261],[126.7520357451572,35.571687774098265],[126.75226180286168,35.571734314117876],[126.75263404679205,35.57165702271151],[126.75293341633923,35.572143688653654],[126.75355311908115,35.572858146597085],[126.75353669313232,35.573083469519545],[126.7556446240671,35.57296925677685],[126.75560126866533,35.57310689573858],[126.75463244661964,35.573879348875366],[126.75439295431296,35.57432569109513],[126.75443414931244,35.57461966742718],[126.75675031855667,35.57247220122309],[126.75679903533488,35.572522592762674],[126.75633051393929,35.572959848445066],[126.75709113761411,35.573508023571634],[126.75937904305796,35.57140659631719],[126.7601761848739,35.571992589080985],[126.76138980544148,35.5714978606567],[126.76104474517675,35.57123814356601],[126.76415264143158,35.56839090483612],[126.76377321356314,35.56815329932903],[126.76411329515966,35.56793026816518],[126.76457294677186,35.56745783389261],[126.76452757980941,35.56681970249806],[126.76558561729559,35.56542908485637],[126.76581530480071,35.565316917469474],[126.76632090971813,35.56480128456637],[126.76668232300193,35.563913965720204],[126.76735409699957,35.56299578288175],[126.76799810529562,35.56279724149333],[126.76838650012363,35.56232203128024],[126.76897000629432,35.56116158182764],[126.76936908811061,35.56077003638354],[126.76928405445834,35.560557257768785],[126.76907025753869,35.560378443974656],[126.76928346698139,35.559915961603075],[126.76782179202704,35.559990017237865],[126.76770940619147,35.55847825304024],[126.76653124158346,35.55853390654652],[126.76648671701562,35.55784198837476],[126.76656212411979,35.557838620575296],[126.76668337952073,35.55753719442243],[126.76641177932362,35.55770592807634],[126.7664444666329,35.55784389164122],[126.7663362514402,35.55784872595354],[126.76627773667673,35.55767998019358],[126.76661929115275,35.55750155962151],[126.76629186455882,35.557355000872924],[126.7661540525142,35.55702991551474],[126.765906838823,35.55679578285676],[126.7652864831566,35.55642877072111],[126.76503595845774,35.556403593886955],[126.76485596449014,35.55628520801104],[126.76425126556165,35.55654746623213],[126.76395198458114,35.55644948358577],[126.76382709898985,35.556034905896524],[126.7635658510603,35.55581289814181],[126.7636545456471,35.55551945033873],[126.76266084438893,35.555041648285474],[126.76230158148398,35.55497746857193],[126.76197547805447,35.555105020072844],[126.76219554065153,35.554738188899535],[126.76274156512966,35.55468881744436],[126.76326038897547,35.55429367082545],[126.76343245578109,35.55404788272803],[126.76335119527742,35.55403464795357],[126.76347107432906,35.5540001389257],[126.76373686866853,35.55352760212438],[126.76391748928549,35.553554141921566],[126.76334220555593,35.55339400870523],[126.76346704602456,35.55309031554175],[126.76367833823969,35.55283953893925],[126.76415362972789,35.55249910244997],[126.76483615311734,35.5521414856634],[126.76513509376153,35.55149776437947],[126.76530776525998,35.55065690887672],[126.76564658672409,35.55020455468182],[126.76570044629584,35.54974285461571],[126.76624282520099,35.549158488628365],[126.76573147519692,35.54811286406038],[126.76486102843036,35.54690219278258],[126.76409511517036,35.546176668322495],[126.76388558560696,35.546198536257904],[126.76319125115904,35.54565774148029],[126.76255840289741,35.54532689556242],[126.76217887262023,35.54470444870871],[126.76238842035382,35.54366104006513],[126.76220234791157,35.54336138904964],[126.76196020468105,35.543242800655825],[126.76217801735416,35.54301727948422],[126.76218768681936,35.542910918239585],[126.76229670844702,35.542871990678826],[126.7623149850699,35.54262175709921],[126.76243765052398,35.54246713885342],[126.76230510295481,35.54222518478969],[126.76247629499123,35.54239528378559],[126.7627498977493,35.54167724170337],[126.76268706451798,35.541364051965196],[126.76227207308001,35.540706547151764],[126.76203929006977,35.54048319523275],[126.76201798441784,35.53974519952507],[126.76211657851773,35.53941466505989],[126.76299895672462,35.538143119703136],[126.76294710373885,35.53765647111212],[126.76263881818886,35.53716792662477],[126.76262410367127,35.53669367162853],[126.76212947489246,35.536415940109094],[126.76226992793214,35.535652712075134],[126.76196132255167,35.53551297576522],[126.76166169104955,35.53507104593714],[126.76186569594427,35.533730726743364],[126.76113506396158,35.53299037382134],[126.76213847182191,35.53293397566463],[126.76267839733875,35.53279045834077],[126.76358019073116,35.53278418201376],[126.76390828531991,35.53298943272314],[126.76517637000627,35.53343506183954],[126.76528902883089,35.533197197650004],[126.76511617119455,35.5328476063946],[126.76423436323337,35.532150888168815],[126.76393714132061,35.531276046780114],[126.76368812488734,35.5310687976313],[126.76360140066902,35.530827708644615],[126.76383205694373,35.53082951711522],[126.76423083464478,35.53057757794591],[126.7642756468196,35.530111786067],[126.7645669756271,35.529989513364406],[126.76455170627517,35.52989565683323],[126.76490058674577,35.529774035393956],[126.76495500068278,35.52983029400972],[126.76516322373605,35.52958482706249],[126.76545357726168,35.52956944478261],[126.76649613635861,35.529732089370285],[126.76708615046195,35.530026428416534],[126.76727169549432,35.52977549850169],[126.76727518851206,35.52923674597627],[126.76846193249462,35.5278500469937],[126.76838682593996,35.52771307932491],[126.76861629233214,35.5275516382318],[126.76770728966031,35.527003063988204],[126.76870409444354,35.5259337098057],[126.76928107868821,35.52628231734162],[126.76968655044826,35.52583522370411],[126.77005050814603,35.52597606517137],[126.77002554303999,35.52589653174348],[126.77026000102458,35.52585162777504],[126.7713747156505,35.52534258822498],[126.77176626918015,35.52500737645561],[126.77255292605558,35.52455553744794],[126.77259175540519,35.524466103329345],[126.77286082696716,35.52437907992785],[126.77313398528757,35.52377077270255],[126.77355248773847,35.52355745889933],[126.77406798996984,35.52315492995064],[126.77410359220444,35.52300154403579],[126.77374874079,35.52276973618108],[126.77255653875918,35.522553195901814],[126.77092584701664,35.521992547673094],[126.77049739570543,35.52124887025249],[126.7700350942857,35.52112100113616],[126.76970235498302,35.52085907595549],[126.7687655473237,35.52072396957831],[126.76830611676935,35.52031858033537],[126.76802480877575,35.52026774486952],[126.76767832194997,35.52033926804274],[126.7666017609321,35.52012014327529],[126.76648753515863,35.519859267192075],[126.76648677280751,35.51944025132274],[126.76620294315612,35.51931045209034],[126.76574549009436,35.51891425108538],[126.76532228584828,35.51883284720411],[126.76459883294574,35.518827814722705],[126.76414273459032,35.518517800316715],[126.76341671924978,35.51838869357137],[126.76274166528299,35.51781128361553],[126.76234769819216,35.517761834529495],[126.76173969034645,35.51750104396903],[126.76139589388484,35.51727477660596],[126.76135190231764,35.51712885772351],[126.76087896524776,35.5169534422951],[126.76066358078941,35.516786642114845],[126.75975861383442,35.5157850692455],[126.75963794953273,35.51543505044049],[126.75971165336308,35.515086062199615],[126.75963643783822,35.514461061591724],[126.75952451622234,35.514328451667296],[126.75957773778374,35.51415177868298],[126.75928889779867,35.51359389924147],[126.76026592198203,35.5133332175002],[126.7598977554254,35.51240675721999],[126.76097858321918,35.512115996409804],[126.75983440674642,35.511239332254526],[126.75999687485682,35.5110231466032],[126.76075544115538,35.51051545676236],[126.76135068897969,35.51030438562902],[126.76198729925788,35.51026201863078],[126.76276655010774,35.50963013109988],[126.76326221322353,35.509532256278995],[126.76381125452245,35.50957028172202],[126.7645481958996,35.509413103003396],[126.76491921333884,35.50944830499038],[126.76530688239855,35.50929367238096],[126.76545125083888,35.50911657785571],[126.7657961102428,35.50900092251711],[126.76641379743161,35.509058602164],[126.76699257488866,35.50924589158353],[126.76814746079398,35.509234241162495],[126.76855512354764,35.509138237859034],[126.76879830444159,35.50884666152768],[126.76917424606903,35.508645519671994],[126.76997796362218,35.508804179433056],[126.77019545100063,35.507914337211176],[126.77055474097507,35.50775510867098],[126.77064520617596,35.50760804563565],[126.77063630085053,35.506860283295964],[126.77085681981664,35.506606097465735],[126.77076229353541,35.5063002130295],[126.77019378809025,35.50564095859859],[126.76938988226463,35.50420970164421],[126.76860962180251,35.50336330105687],[126.76802195252137,35.50233177336929],[126.76763259628981,35.502223007321206],[126.76730529612036,35.501687909797496],[126.76817900355151,35.50090985258535],[126.76814394616966,35.499887520395504],[126.76828851268725,35.49848531244737],[126.76817358700195,35.49730135694128],[126.76847972859503,35.49613214140289],[126.76800679575163,35.49603485094856],[126.76789012483357,35.49560497401902],[126.76739615371532,35.495127976792865],[126.76712025713027,35.494967128293915],[126.76684497094855,35.494911290374894],[126.76626028053894,35.49456906167521],[126.76555173841172,35.49366965790528],[126.76531249116127,35.49351751105135],[126.76484376568929,35.493495158875035],[126.76469587476953,35.4932332311546],[126.7643377577585,35.49307835986562],[126.76436377284027,35.492618938611436],[126.76476488419307,35.49233946390797],[126.76512859187011,35.49221039809301],[126.76533669533111,35.49145627143273],[126.76576547238061,35.4909006647858],[126.7656603155677,35.49054992451298],[126.76573851525583,35.489980139566],[126.76603065948765,35.48884435612259],[126.76618514916636,35.48866336143189],[126.76614781997975,35.48829095079263],[126.76644110676499,35.4879352112493],[126.76646171815828,35.48713501115817],[126.76671098723524,35.486423647862736],[126.76673234034776,35.485640213641716],[126.76751647850517,35.485070805124785],[126.76824835234812,35.48480961828905],[126.76912285070493,35.48410022164507],[126.76954991527695,35.483369618137594],[126.76979965239815,35.483142067721175],[126.76979487120487,35.482792190359675],[126.77024064772621,35.48223785239313],[126.77003615609932,35.48154407768],[126.77025170856646,35.47986407410142],[126.770974348843,35.47827845117234],[126.77140897930657,35.47631083965804],[126.77135972233141,35.47515215394677],[126.77148335792333,35.47502453975038],[126.77163668929514,35.47390513346827],[126.77278248365195,35.47247346835402],[126.77312869003205,35.47105494691616],[126.77317861202283,35.470403199533244],[126.77344196046784,35.469652504210224],[126.77296445315326,35.46917526154165],[126.7730315422416,35.4684140380631],[126.77319544236863,35.46808500128785],[126.77406894491756,35.46845870864177],[126.77480777227423,35.46864665945319],[126.77551271932624,35.46873445263311],[126.77699555403935,35.469134749189664],[126.77963554389494,35.46948265797543],[126.78077492568814,35.469948773751725],[126.78087618246191,35.47020088172944],[126.7818956617486,35.470628239061575],[126.78366895249367,35.47013149565135],[126.78496846435633,35.46954906739023],[126.78607950119188,35.468691173892815],[126.78721201694624,35.46845308005338],[126.78885441509487,35.46835620043753],[126.79098788783355,35.46774141732927],[126.79132193617305,35.46783343615615],[126.79234744554533,35.46763411825603],[126.79406200728864,35.46810329424265],[126.7943453986068,35.46837676878887],[126.79566944683228,35.46864893012667],[126.79642323135869,35.46855971169362],[126.79696528476181,35.46839043841746],[126.79714423073871,35.46820737773315],[126.79837815795658,35.46809072418846],[126.8003237221552,35.46817043756118],[126.80123853738355,35.468330228210455],[126.80193348298609,35.468600543540475],[126.80365728193998,35.46796013941719],[126.80586408409809,35.468124525374414],[126.80815512053998,35.468146836881346],[126.81074229628572,35.46874202049337],[126.81203355030586,35.46869935671709],[126.81397269488447,35.46879902144279],[126.81414311452635,35.46935402321033],[126.8144844747055,35.46993361362638],[126.81435838394351,35.470326108136824],[126.81442756688553,35.470486513833485],[126.81420722494147,35.471484574392655],[126.8141478750931,35.47220525794842],[126.81463580482298,35.47263810893409],[126.81476124199115,35.47331568979258],[126.81532497411821,35.4737536731567],[126.81424954111468,35.47470433018549],[126.81416721743815,35.47485839652563],[126.81374073471338,35.47516658404515],[126.8128371472677,35.47613796391714],[126.81331524599089,35.47778919836438],[126.81378899034536,35.47849767520409],[126.81354368348501,35.47936261017551],[126.81351869674502,35.47982411168866],[126.8136333555159,35.48049476103696],[126.81398257384473,35.48096272005101],[126.81454333541994,35.482272003957604],[126.81387940647109,35.48419143753033],[126.81462634006508,35.48479289042876],[126.81576781162471,35.48490638692138],[126.81631993135453,35.48487594242972],[126.81689032691624,35.48506008714038],[126.81760952012588,35.48560016417532],[126.8179193917871,35.48609529751537],[126.81840288710112,35.486381917779646],[126.81887014812557,35.48654354423358],[126.81895639310187,35.486883123762844],[126.8193136573955,35.48672699730871],[126.81921870174271,35.48646274506404],[126.81969789793357,35.48610160450869],[126.82020971728784,35.485838804903246],[126.82099861726508,35.48569333629251],[126.82159382293607,35.48574414869948],[126.82270406535493,35.486136169315834],[126.82334245746969,35.48691387576111],[126.82411210464527,35.48686120301924],[126.8249047282155,35.48641061288961],[126.82542692958943,35.486344499253505],[126.82689095329154,35.486687255709626],[126.82790288593574,35.48632350593316],[126.82839603233359,35.485753526363574],[126.82866781144305,35.48475059364392],[126.82873864336328,35.48380834709167],[126.82923103309429,35.483309862332256],[126.82950722069388,35.483156087704444],[126.82987394504549,35.482731300832064],[126.82988111797854,35.4824092580061],[126.83029338700587,35.48162314761721],[126.83046485540942,35.480852845737324],[126.83164968950518,35.480336722137686],[126.83502435859062,35.47961773010966],[126.83686138336903,35.47959782261226],[126.83828815204703,35.47940462904286],[126.83965496635525,35.479399808268646],[126.84078023317339,35.47929636984106],[126.8408414772915,35.479340165851134],[126.84143887886745,35.47916737785166],[126.84229064850548,35.47919762636391],[126.84230688349871,35.479326710741816],[126.84242123692918,35.47913282208682],[126.84284924264792,35.47895113872389],[126.84314204885197,35.47844435909554],[126.84373889939542,35.47858045401883],[126.84318543819194,35.47832043399333],[126.84321566103218,35.47811986882004],[126.8430821927679,35.47784942000078],[126.84313791321176,35.47628140352792],[126.84308022899235,35.476208115120365],[126.84313900608261,35.47620802930262],[126.8422637757084,35.475387219049686],[126.84188631394578,35.47462053914181],[126.8418840602198,35.47405931229913],[126.84144226286806,35.472581260988306],[126.84149840041844,35.472201759961],[126.84121682795062,35.47161210322492],[126.84131665579115,35.47100922684424],[126.84113201562906,35.47037387458616],[126.84081508204474,35.470007974849786],[126.84027025962257,35.46897090860028],[126.84033699854729,35.468702046565824],[126.84114599805159,35.46829055925396],[126.8416774560811,35.46695852869403],[126.84077314986527,35.46658995735308],[126.83922725144765,35.46531991403939],[126.83802401279313,35.46447946140532],[126.83813177250319,35.463896196451735],[126.83867646339051,35.46294392704295],[126.8391312036727,35.46261269700419],[126.83920154652013,35.46266510582922],[126.8394325329652,35.46245047959664],[126.8395812500234,35.46245347177585],[126.84024625273925,35.462172306129425],[126.84064346238402,35.46173119566037],[126.8407399602637,35.461385927006326],[126.84102523126101,35.46144125767626],[126.84105153069423,35.46172804297804],[126.84135164406369,35.46208235994203],[126.84147292000192,35.46320908113388],[126.84167446008095,35.46359938186512],[126.84240592561352,35.46408108598853],[126.84324128890603,35.46406828457683],[126.84401304197377,35.464608149392696],[126.84481359923281,35.46474279222155],[126.84590739693851,35.46504175539015],[126.84687994793595,35.46518686140294],[126.84726670167429,35.46517980354252],[126.84787106804039,35.46541125412312],[126.84840732251266,35.46588135384276],[126.84890792006999,35.46598937944326],[126.84919281302693,35.466234173531035],[126.85057248481858,35.46621510336694],[126.85060960511393,35.46606561385005],[126.85263182395485,35.46579540562437],[126.85411846944618,35.465804430392836],[126.85535850595744,35.46526695721775],[126.85654438927632,35.46509737913846],[126.85766209826322,35.46480320542856],[126.8590080214332,35.464321493375735],[126.8614156894066,35.46374679556236],[126.86228082294784,35.46340209119453],[126.86293105922577,35.46323048267241],[126.86467810588232,35.46315371972144],[126.86631570428634,35.46260561988478],[126.86838797319228,35.4621062389392],[126.86779133292504,35.462540233365125],[126.86747413911004,35.46296707325435],[126.8663467922402,35.46343014632881],[126.86561009916976,35.46382453395056],[126.86516500096535,35.463917162571],[126.86459529903017,35.464927161601516],[126.86467294674144,35.46555735392269],[126.86428385077276,35.46647034391227],[126.86440527476599,35.46693215349275],[126.86427542615257,35.46734478160533],[126.86403577656823,35.4690364178792],[126.86292033611151,35.46964599285089],[126.86295349551051,35.46990519371729],[126.8627042680132,35.470590658232915],[126.86194397141773,35.47111300965896],[126.86172372901076,35.4714748335386],[126.86186087300585,35.471993965475995],[126.86176340160515,35.47269920627244],[126.86107395659806,35.47341189806958],[126.86075372106968,35.47425091170682],[126.86139731197244,35.47580080748465],[126.86137927683119,35.476247364722035],[126.86147538330356,35.47653155001767],[126.86198184642791,35.477177470764794],[126.86134079233251,35.47759865645356],[126.86082886089503,35.4778349531355],[126.86047227357152,35.4782524180222],[126.85991859802395,35.47835603294788],[126.85975427509568,35.47855713543539],[126.85973885167444,35.478713107406946],[126.85980622207634,35.479673274708304],[126.86006565923289,35.47961267733042],[126.86097486494727,35.480194855852595],[126.86178075123097,35.48036616637302],[126.8618331385948,35.48048579175528],[126.86254944815076,35.48052074235817],[126.86305328373017,35.480378258006965],[126.86396575088082,35.48029867035369],[126.86486253053043,35.48060047050302],[126.86523003247379,35.48057134033711],[126.86623530856352,35.48069156138968],[126.86710601076882,35.480507955649486],[126.86834941548956,35.48041816452451],[126.86859676046365,35.48029105610685],[126.86894564038074,35.480285752494815],[126.86923615044475,35.48018892782556],[126.870724329786,35.480470080515325],[126.87138481353826,35.48050235769635],[126.87237608294853,35.480119484656704],[126.87310962506831,35.47967125459425],[126.87345393797217,35.48012030674201],[126.873413146456,35.48031447007315],[126.87355495432114,35.48061739405272],[126.87421802836033,35.48070064513348],[126.87458526069666,35.48138021990314],[126.8752502494654,35.48199877858851],[126.87520074022883,35.48225209277224],[126.87555602974356,35.4828911291919],[126.87604978556475,35.483331560827324],[126.8767684597427,35.48352559041533],[126.87714446871722,35.48427593916904],[126.87754417812693,35.484270716241284],[126.87803560118861,35.484100970987036],[126.88060538434034,35.4853351315046],[126.8806414400862,35.48498100245279],[126.88103170039331,35.48371837484257],[126.88183624296003,35.4832366891017],[126.88293127616373,35.48273985895705],[126.8833678956151,35.48225088000003],[126.88400633941758,35.482071025314724],[126.88424009907379,35.48170867458788],[126.88526609470298,35.48080644350896],[126.88602598711255,35.48041781599936],[126.88772052274122,35.4797714212607],[126.88899348591862,35.47842881386435],[126.88949713612865,35.478392858456516],[126.88975230042716,35.47871786330748],[126.89010970494549,35.4789254207157],[126.8907222671385,35.479574455721796],[126.89236305558022,35.48016648564452],[126.89287588694512,35.4804726434179],[126.89381390131659,35.480855872132985],[126.89438992570291,35.480929659608016],[126.89784700172183,35.48078693671732],[126.89963431612215,35.48051770421675],[126.90170193920996,35.47912858040936],[126.90591239276397,35.47825146616314],[126.90669049043464,35.47834634694016],[126.9070330691665,35.47856908447095],[126.90828114492957,35.47750754034048],[126.90922332502608,35.47755884764296],[126.911448311644,35.47695336054167],[126.91262465760124,35.47681973864499],[126.91353718558825,35.47680487742057],[126.91469549181794,35.47733640495024],[126.91516224414943,35.47737501716791],[126.91531341220313,35.47788548903244],[126.91568414417775,35.47852249136884],[126.91710863114788,35.47936518748139],[126.91710363471725,35.47952821182966],[126.91732223378379,35.47996615646154],[126.91760676170594,35.48020522747531],[126.91780767755394,35.48051638951258],[126.9182009922726,35.48070998495261],[126.91886687780985,35.48146229098773],[126.91940557772328,35.48127126750287],[126.91990177586457,35.48146281508667],[126.92067800678456,35.48147826276506],[126.92139116787739,35.48201305151062],[126.92165050352415,35.48248333576454],[126.92219851872063,35.48286221878588],[126.92260525966762,35.482970656695336],[126.92321382381122,35.482768314634214],[126.92400129655864,35.48269417541688],[126.92422913428419,35.482483209161764],[126.92479018595917,35.48234054661831],[126.92572792382244,35.48154648337429],[126.92628663646877,35.4799786977847],[126.92625931925302,35.47980687426625],[126.92641264704406,35.47960192147947],[126.92680401655204,35.479281162447144],[126.92729374120573,35.47911179380517],[126.92754046841205,35.479602616900515],[126.92761376484572,35.47960266341252],[126.92733945302199,35.47910481910387],[126.92770098160847,35.47911667594372],[126.92790631654914,35.479397982146104],[126.92825014402378,35.479634522296934],[126.92915310719938,35.47994832700416],[126.9311875121949,35.48120957296572],[126.93211006357063,35.48095837720989],[126.93367135672183,35.48101776874682],[126.93415143426779,35.48116678177763],[126.93443917110332,35.481519829460154],[126.9352536206122,35.48171217579874],[126.93585808604202,35.48195979504608],[126.93551569645608,35.48260623343328],[126.93527178237701,35.48354981304734],[126.93524054287735,35.484232973573775],[126.93557014294203,35.48487600164965],[126.93558916615503,35.48560220429502],[126.9365769343243,35.4867786356583],[126.9358173934929,35.48735260726838],[126.93592779944335,35.48754888036636],[126.93593981308786,35.48813016624504],[126.93674357192867,35.48886216194193],[126.93758969018045,35.48941957254675],[126.93768999498688,35.4897583903311],[126.93838147655475,35.490037625859024],[126.93842763235206,35.490189746394876],[126.93876626247403,35.49026738024259],[126.93945818788947,35.49022512595653],[126.93999750412073,35.49051184314136],[126.94110434760138,35.4907262277889],[126.94137119341464,35.49093833935551],[126.9416902578885,35.49089363862268],[126.94152639302928,35.49190188287947],[126.94067137086509,35.492471711485365],[126.94026630187533,35.49253587764974],[126.94017545255774,35.49290619387251],[126.93988975349178,35.493064282655524],[126.93959290500443,35.49301116908136],[126.93895564067346,35.49333578841625],[126.93877267268401,35.49335253965601],[126.93860354893849,35.49319510093563],[126.93831198687504,35.493147443992704],[126.9377378555078,35.49396017919033],[126.93713155207581,35.49443300660761],[126.9367501370314,35.49508135495675],[126.93588176250054,35.49529053615592],[126.9358062635084,35.495539923782935],[126.9355126599904,35.49579668738039],[126.93538571683943,35.49638073780595],[126.93540081422817,35.49738967270637],[126.93463151804316,35.498009390192834],[126.9343782634539,35.49850448874108],[126.93413553380731,35.49872013376077],[126.93387847160467,35.499189696478446],[126.93404622905885,35.499746550465375],[126.93390782822081,35.50036577640081],[126.93416059490767,35.50073246960361],[126.93489192749513,35.5013782290453],[126.93387196428469,35.50195871148562],[126.93399532752012,35.502213156594756],[126.93384215032802,35.502574149295306],[126.93324729041827,35.50321519905508],[126.93315839984126,35.50393889476123],[126.93328864679982,35.50407181902086],[126.93308906402942,35.504243405708024],[126.93331389835295,35.504098404796885],[126.93359694545053,35.50442014768488],[126.9336146424777,35.50483045825479],[126.93390052108315,35.50589469531351],[126.93362838053862,35.50622804532476],[126.93372098920202,35.50661372799588],[126.93365238367338,35.50716644626701],[126.93265168664188,35.5073746573148],[126.93085936459865,35.50857954886738],[126.93051307160562,35.50890057680736],[126.92887369793375,35.50846125579467],[126.92883077390916,35.50855868542606],[126.92938699042617,35.509014959291164],[126.92980987335207,35.50954779281819],[126.9299007364377,35.51025556572094],[126.92972583394027,35.51060005603248],[126.92994795240602,35.51132381515988],[126.92984550730104,35.512892847513385],[126.92976168866433,35.51303723154092],[126.92920323389234,35.51336244039541],[126.92915702901784,35.51411681857664],[126.92893122242874,35.51524245133653],[126.9290428644167,35.51579238553339],[126.92915691673836,35.51586762360968],[126.92929809096103,35.51671694667991],[126.92912369081077,35.51735195401873],[126.92858041863606,35.51816339147075],[126.92830101980115,35.518883603809236],[126.928697691512,35.519084456134685],[126.9291448159074,35.5194902732238],[126.92935870456064,35.52016254706774],[126.9302769793348,35.5207980205928],[126.93008227189408,35.52111090986289],[126.93002120987742,35.52151874676732],[126.93028575298902,35.52178495770708],[126.93024501191799,35.52231552970114],[126.93052087518421,35.52258878498294],[126.93079871052039,35.52364735489246],[126.93115175281774,35.52421481024512],[126.93110373405992,35.52477465167996],[126.93156625235305,35.52496310263304],[126.93195885665617,35.52535899006461],[126.93308113804957,35.52549508904432],[126.9335773078372,35.52500620592246],[126.93554229630574,35.52380317787544],[126.93612004106635,35.524290644155776],[126.93692962685373,35.52545290958773],[126.93743144557943,35.52591522687156],[126.93760176603331,35.52624960872621],[126.9379340202731,35.526349991115666],[126.93873643469969,35.52733897295843],[126.9391556918329,35.527533564619716],[126.93938148164756,35.527851966708],[126.94021256327972,35.527708210279215],[126.94079971290499,35.52770939032017],[126.94387672962041,35.52882574177103],[126.94393337710083,35.52893576457154],[126.94429138814745,35.529080403901354],[126.94489343620484,35.52899895848812],[126.94520059527004,35.52911765859719],[126.94692381693187,35.52890085624067],[126.94798089784061,35.52963800587304],[126.94842382859545,35.53048732309297],[126.94875157601209,35.53073929845256],[126.94884627292198,35.53096426944366],[126.94945292992522,35.53122323180531],[126.95034444135491,35.53145990607156],[126.95060087732566,35.5318188496849],[126.95148081707856,35.5326826315549],[126.95008209233798,35.53324898884973],[126.95045060565457,35.53467145574787],[126.95039633087222,35.535353128644495],[126.95057391029817,35.53600667240655],[126.95037892355354,35.5364800439886],[126.95119993595172,35.53821648263032],[126.95117817550158,35.53847043257445],[126.95206126419619,35.53857351790402],[126.95242351801858,35.538346126081564],[126.95309162157035,35.53836420453327],[126.95397893988174,35.53991153493704],[126.95442141342454,35.54001378119242],[126.9550957433803,35.541130603232666],[126.95654293118224,35.542232860296075],[126.95687347183024,35.543103165754395],[126.95921215687629,35.54412472693059],[126.96097498054245,35.54462197195531],[126.96094621101557,35.545587964626115],[126.96058680284762,35.54636268493013],[126.96121355525918,35.547693172956954],[126.96274343393539,35.5492825684273],[126.96473074115437,35.549842842653476],[126.97007252151165,35.55223908019592],[126.97070691588797,35.552755543337085],[126.97179654974258,35.553958864656],[126.97299270257545,35.554570950831746],[126.97345214901176,35.55468670382923],[126.97392801433786,35.5553445980071],[126.97442193328834,35.55552696817309],[126.97506847321324,35.55612686196088],[126.97549793417727,35.556090334222084],[126.97695122184695,35.55569616837699],[126.97780254088823,35.55558613525716],[126.97807005944894,35.55565270550626],[126.97864930428796,35.55559688115295],[126.97907418483052,35.55579558902376],[126.98001920014345,35.55493174079004],[126.98046629690874,35.55423625684054],[126.98119634670562,35.553666986384826],[126.98135888134394,35.553102281084385],[126.98095391627567,35.55146063805402],[126.9814502173052,35.551177147012204],[126.98183361341943,35.55078778032389],[126.98203906662663,35.55028860259608],[126.98265490857992,35.550024585237175],[126.98324866191277,35.54954290548427],[126.98234520251353,35.54845738194791],[126.98223970067909,35.5481013956713],[126.98315216264113,35.547119488887944],[126.983441690275,35.547044550862495],[126.98376313756032,35.54680644906382],[126.98406992399843,35.546254740073834],[126.98599451270671,35.54581684396499],[126.98585268625223,35.545162746259194],[126.9877125316683,35.541720976597496],[126.98804895037611,35.540767143301224],[126.9892255781165,35.54001154791853],[126.98980142927881,35.539013941771096],[126.9898052580317,35.53877097177281],[126.9929060129652,35.53689838661264],[126.99313934272757,35.537273136676816],[126.9947408017297,35.538059953794416],[126.99484954006617,35.538295033681315],[126.99538437430954,35.53867695134819],[126.99575398439724,35.5393593493866],[126.99596580038782,35.54005033958728],[126.99694617084583,35.54009520944017],[126.99811748117845,35.54034651133805],[126.99882630280578,35.54066184739574],[127.00050739129568,35.54121331539172],[127.00145456484813,35.54107254309314],[127.00288729719777,35.541439632473896],[127.00377491446308,35.5414545263674],[127.00501549098743,35.54212121214243],[127.0050998281552,35.5425748062088],[127.0063251292201,35.54237636892397],[127.00689631496049,35.542126558818495],[127.00765561865929,35.54206687557968],[127.00814294641874,35.54193345587095],[127.00972872460346,35.542775640478126],[127.01055660412473,35.54273836415914],[127.01211382335337,35.5435445987233],[127.01304032332463,35.54422496513899],[127.01512871048908,35.54548228047783],[127.01673846577003,35.54563553319992],[127.01916347123422,35.54614440713178],[127.0192043709762,35.544926533507635],[127.01907259210606,35.54480275935067],[127.01960695053967,35.544863516525325],[127.01989856650164,35.544410879809625],[127.01941785419605,35.544408808101835],[127.01899533602355,35.54253639629917],[127.01922548280065,35.54175439810269],[127.02016544048153,35.540428988061485],[127.02074860703954,35.53988680406773],[127.02114468081702,35.5387112131093],[127.02144900706563,35.538101011697],[127.02153052279317,35.53736893636185],[127.02131513695115,35.53692699447436],[127.02172349753081,35.536596483285024],[127.02197836939808,35.53625344253695],[127.02259576622076,35.53605833214909],[127.02331434095896,35.536060249421595],[127.02419109071137,35.53593715010528],[127.02474455021677,35.53444889277917],[127.0253125129784,35.53397873849017],[127.02564184500109,35.53389274150375],[127.02678444039985,35.532912354781956],[127.0278173358188,35.53261773361977],[127.0284413697616,35.532277274082155],[127.02993003909239,35.5320870458559],[127.03022262229521,35.5318817177268],[127.0306022899244,35.53196314570938],[127.03182469718018,35.531670403259895],[127.03325806607965,35.53168594734832],[127.03409141967147,35.531315336097414],[127.0343187096223,35.53109877436989],[127.03567467689884,35.5303345459489],[127.03723051147742,35.52970735073944],[127.0373753973207,35.5295229824411],[127.03794686961534,35.52939508763285],[127.03906606404958,35.52876847617851],[127.03998019139559,35.5278247353275],[127.04001351402225,35.52559528894109],[127.04067279041331,35.524944401761985],[127.04099768954579,35.52478768823767],[127.04169558552269,35.52462034553457],[127.04214719141426,35.523345576521685],[127.04261145800214,35.52277965488825],[127.04361915236042,35.52255353312858],[127.0454773645553,35.52141063222228],[127.04648809526124,35.52141668530655],[127.04710400427564,35.521717768886425],[127.04809718679184,35.52175836083335],[127.04955898524317,35.52155816774501],[127.04999301901798,35.521182664250155],[127.05026067210112,35.520686506698134],[127.05063032258744,35.520265263128465],[127.0510287135808,35.519493268788274],[127.05146972198527,35.51908239207866],[127.05173874450595,35.51846059010878],[127.0517801655026,35.51807635831752],[127.05150575891379,35.51730559851661],[127.05145444897637,35.51669559304762],[127.05111085545511,35.51575109049677],[127.0511781694707,35.51434334760272],[127.050935662796,35.51395280788051],[127.05094479583936,35.513693831497136],[127.05060004216949,35.51285909789165],[127.05055033040324,35.51204947938223],[127.05078167882122,35.511709386086515],[127.05194933924463,35.51113684723049],[127.05246923159562,35.510565275085796],[127.053502368662,35.510331288940016],[127.05428593501678,35.50930150008661],[127.05845799639098,35.51039834080224],[127.05956720888398,35.51038192240605],[127.06040129212363,35.510660733512175],[127.06078093172087,35.51120447332253],[127.06131267094653,35.51127655540366],[127.06249757332132,35.51291076227228],[127.06370672209843,35.51375924024399],[127.06586831584382,35.51604887020923],[127.06680821985867,35.516313580468214],[127.06767440817549,35.515875553205326],[127.06989570056379,35.51521575211522],[127.07130027364227,35.514667630954314],[127.07176809611838,35.514157711048206],[127.07444940652094,35.513799337018774],[127.07424170400124,35.512887643270545],[127.07446182020415,35.51190158606403],[127.07532682225037,35.51143362705471],[127.07561549659168,35.51109350717866],[127.07597609591062,35.510231298847216],[127.07633879115181,35.51024582751437],[127.07737260421412,35.50999699247369],[127.07765330793433,35.5101036266263],[127.07944811848596,35.509302537693884],[127.08158165352336,35.50745381634418],[127.08187683122384,35.507387570447214],[127.0829097721693,35.50678778175684],[127.08464394615604,35.50717593358345],[127.08776451024605,35.50803665766952],[127.089264434779,35.50662645286676],[127.09061782054314,35.50471723212441],[127.09116532974666,35.50554526825495],[127.09174010229633,35.50615105348449],[127.09427068528422,35.50679686465701],[127.09530688054762,35.50666495875058],[127.0963812500459,35.50705315603145],[127.09722048562811,35.50763031714108],[127.09789535286149,35.5076667972372],[127.09855724518054,35.50741632722709],[127.100562667814,35.507939765358536],[127.1024579808516,35.50821124214084],[127.10437295415484,35.508079602883576],[127.10495405355232,35.50926378509435],[127.10608998652538,35.50928443625143],[127.10653531377812,35.50949471962447],[127.10779893980066,35.50959822621042],[127.10859785368368,35.509447085806045],[127.10920150935232,35.509243139425315],[127.11011438639767,35.509406033400175],[127.10983775688283,35.51084365105752],[127.10991040277433,35.51128950308164],[127.10960625296374,35.511924734754196],[127.10927847132531,35.51226927114756],[127.10910100065854,35.512711193449064],[127.10836407085179,35.513633211027475],[127.10844755249879,35.513781779935464],[127.10792330755041,35.51427090150387],[127.10801605254431,35.51476478624585],[127.1079371944604,35.515671239590596],[127.10860364692714,35.51613937097558],[127.10880949795582,35.5169025456427],[127.10865264328426,35.51735510121574],[127.10846830233605,35.5171992588133],[127.10804676431479,35.51729212235621],[127.10813941548813,35.517587388810455],[127.10863164579078,35.517772564784615],[127.10893688122539,35.51815216532695],[127.10911390867494,35.518128329366114],[127.10944678363748,35.51862807418015],[127.10910196920693,35.51866380271038],[127.10906857273336,35.51877651376747],[127.1095961541802,35.51901743637828],[127.10962558185645,35.51943910985842],[127.10869625223006,35.5196157111542],[127.10725166389756,35.51929906191491],[127.10604551532153,35.518894645796905],[127.10561902258739,35.51907724843715],[127.1050837039667,35.51907724987908],[127.10242425136545,35.52006143565258],[127.10224885247979,35.520256010767184],[127.10147361572987,35.52073152436702],[127.10097859555816,35.52043945439747],[127.1009090919582,35.52022010682437],[127.10121984351811,35.52000207822326],[127.10057082657387,35.52001416805717],[127.0992832370173,35.519722253795294],[127.09894637983814,35.519362183698576],[127.0986653286061,35.51932827164843],[127.0983795435365,35.51848456826234],[127.09778080398512,35.51875945669286],[127.09755899236451,35.51854351240989],[127.09737513799833,35.51808727773],[127.0974415917145,35.518484904131185],[127.09729668292528,35.51851741217092],[127.09674427243839,35.51720519576648],[127.09681729501959,35.51701753398729],[127.09665258236966,35.5170066665602],[127.09615128455077,35.51652496375779],[127.09625673861959,35.516167545388],[127.09610301807102,35.51563057027038],[127.09654940012541,35.515231925402524],[127.09613141038227,35.51486582331436],[127.09587114551444,35.51440914633928],[127.09553670175296,35.514090266048086],[127.09530047429294,35.51421339793817],[127.09504310023846,35.51512942860527],[127.09478768571233,35.51564029171603],[127.09420739647639,35.51637455162512],[127.09466874365991,35.51689306563084],[127.09471221383379,35.51742129385148],[127.09443492840046,35.51813004543707],[127.0939042221047,35.518735659167774],[127.09493011443672,35.519272800657454],[127.09563241261154,35.51923783369617],[127.09599261811333,35.51949792145864],[127.0969311761546,35.519775762606784],[127.09706772448912,35.52027613654113],[127.09758893432775,35.520430287516405],[127.09783838640502,35.521242518881124],[127.09846711737038,35.521091931915315],[127.09823122678333,35.5216457082402],[127.09914826120355,35.52337572636415],[127.09893995984793,35.52418970243139],[127.09897142482932,35.52501880999498],[127.09846715780648,35.52546855849599],[127.09756752272135,35.52655943592456],[127.09721394958308,35.52687229605531],[127.09787784977145,35.52719200136189],[127.09980844879287,35.52719425315706],[127.09978424404628,35.52766136163317],[127.10022270180653,35.52817021842097],[127.0998685390703,35.52886508435066],[127.10049295904031,35.529631514949536],[127.10011022247757,35.53002696882505],[127.10019733798126,35.53016372173724],[127.10179889096788,35.53016810570224],[127.10183285606858,35.53041308646753],[127.1020872408932,35.53067395329113],[127.10261764063925,35.53097173970891],[127.10323670020978,35.53089979136238],[127.10412861617647,35.53129395689974],[127.10462247375702,35.532587069886944],[127.10476354753838,35.53278195309886],[127.10493230617143,35.53283518445807],[127.10490263822985,35.53296568155113],[127.10508681863662,35.53327361294306],[127.10555695708663,35.53359935323302],[127.10701270852267,35.533449554203266],[127.10777818099068,35.53364578879796],[127.10954407392083,35.53435125010678],[127.1101723522302,35.53399401525734],[127.11074793705521,35.53392833115832],[127.1110838318462,35.53357097701613],[127.11626177053986,35.53221463290683],[127.11675681400926,35.53323466666962],[127.11693654750526,35.534855289552645],[127.11666089254523,35.53637908780832],[127.11624264799454,35.537244524518414],[127.11552669022493,35.53734698068247],[127.1155175573723,35.5371974351479],[127.11477198266604,35.53807600023934],[127.1118882865967,35.53966801415841],[127.10972413685396,35.54110535401812],[127.10880289412268,35.54157835716383],[127.10731474387589,35.542155925606174],[127.10562063120383,35.542501590481194],[127.10412352845071,35.54234935453669],[127.10378215459092,35.54242210789648],[127.10368345266383,35.54298123049523],[127.10281327989117,35.54320457504802],[127.10192336525773,35.54356022383795],[127.10005553037398,35.54411743235095],[127.09885399391909,35.54484076191386],[127.09809432625288,35.545176970002146],[127.09623107293588,35.54619751829724],[127.09454531763873,35.54728506295617],[127.0934845724579,35.547748125166486],[127.09267148818455,35.54800657635803],[127.09020522271646,35.54801688808355],[127.0890321064493,35.54809232062049],[127.08703677574866,35.548493666580455],[127.08599450167614,35.548885619592866],[127.08433015566172,35.54983489185771],[127.08393449977088,35.55055924534996],[127.08429096496462,35.552347863314374],[127.0848036154632,35.55420764780421],[127.08495510218846,35.555305571926624],[127.08517270738872,35.55601375808419],[127.0858468699338,35.557110875751775],[127.08675701167623,35.558272994440074],[127.08622377463959,35.558538305611386],[127.08576741241298,35.55891018342927],[127.08771671298078,35.558908805805494],[127.08811443803882,35.559351652365756],[127.08904606851651,35.56092966563138],[127.08904779068175,35.56251302052903],[127.08964390071267,35.56251258763161],[127.09058817737979,35.5653904605963],[127.0917104363351,35.56666906377073],[127.09231607836709,35.56706428775016],[127.09194434335494,35.56750053868585],[127.09214894967819,35.567700012847816],[127.09182482537844,35.56882012894119],[127.09198752914473,35.56956882881371],[127.09159901441872,35.56967296683286],[127.09117505803184,35.57008441593304],[127.09015925876677,35.57047198421929],[127.08920242180292,35.57153467770418],[127.08922136661792,35.572054275487744],[127.08882391180364,35.57297063719603],[127.08887716683624,35.57342265236715],[127.08866775388998,35.57418811763762],[127.0889458044673,35.57463859671453],[127.08884639795171,35.575635984689114],[127.08809709710054,35.576153848536215],[127.08733732842418,35.57588973889082],[127.08689873951283,35.575923864484004],[127.086931357028,35.57668737123283],[127.08586810896453,35.57783733051376],[127.08440218547062,35.57889850812177],[127.08445382395074,35.579770462588534],[127.08355308592512,35.5806138408375],[127.08365909418357,35.581557078269135],[127.0833409954019,35.5818733417114],[127.08309335522317,35.58293307578473],[127.0835091245514,35.5835262294957],[127.08325107736019,35.58393406777487],[127.08313512184714,35.584525482234426],[127.08399458514754,35.58499044942119],[127.08500279924368,35.58582809818174],[127.08576528784829,35.586175266395124],[127.08633645093924,35.58681390753754],[127.08733060491177,35.58688155791528],[127.08820600584336,35.58715121821283],[127.08877955514367,35.58700754568868],[127.08946098485337,35.58719356159792],[127.09021755252544,35.58703453546657],[127.09134027817555,35.58645201759771],[127.0931010322891,35.58721456100669],[127.09347278800624,35.58706023952069],[127.09471415878947,35.58753450747273],[127.09522166613587,35.58758275606182],[127.09619370820866,35.587383091466336],[127.0964836284291,35.587437499573845],[127.09703848271057,35.58803567054515],[127.09754687451262,35.58825572154013],[127.09830194451908,35.588269420879286],[127.09909579508238,35.589262063857255],[127.09978774822527,35.5892306328191],[127.10017591194321,35.589373889350206],[127.10117326263233,35.59013365740738],[127.10257885842258,35.59020541018026],[127.10310995382473,35.59299166800204],[127.10334272269358,35.593259883106136],[127.10360839517274,35.59378660580505],[127.10363182433821,35.5944915032133],[127.10464555664028,35.59525828384635],[127.10481560049436,35.59597809715034],[127.10380617631776,35.59716464816964],[127.10313151595426,35.59757464731676],[127.10313856537603,35.59794818175312],[127.10244090339991,35.59876502021281],[127.10196945186067,35.59897356594744],[127.10169390223277,35.59932817157292],[127.10153432045307,35.599717570513704],[127.10157610370771,35.59993319519363],[127.10126901798655,35.60010776996563],[127.1005447176887,35.60157568212429],[127.10115630174019,35.60172703321628],[127.10116692192727,35.60178361606905],[127.10101503946801,35.60199935894496],[127.10106104424409,35.60212066016514],[127.10040957674745,35.60300095088364],[127.10059627320969,35.603622207645195],[127.1004889571185,35.603879389297646],[127.10027150159223,35.60394786776059],[127.10006502535532,35.60425973673214],[127.09984403664994,35.60436346609265],[127.10001769403466,35.60447693240385],[127.09605373992953,35.607765758788695],[127.09582602730907,35.609121770451004],[127.09547691105733,35.609467018482775],[127.09385844225933,35.6106163497056],[127.09312109915507,35.610650961274274],[127.09249605762685,35.61261813995977],[127.09124640170434,35.6129851343189],[127.0904580202132,35.61459435325023],[127.09064450301334,35.61504686790665],[127.09036119592378,35.61569766977881],[127.0903246062088,35.61619677520311],[127.09088831277298,35.618559331028344],[127.09080821673328,35.61888347244009],[127.09120245973197,35.619247884835],[127.09134893717756,35.61974203913592],[127.09161583302249,35.61989487112901],[127.09172950609039,35.62025094415457],[127.09167038971171,35.62072685874957],[127.09296835624247,35.62173454337041],[127.09235093359098,35.62291385537801],[127.09229298713991,35.623435885890814],[127.09109676099108,35.62496529650873],[127.09059373416211,35.62504603801433],[127.09010805859539,35.62596650973163],[127.08986418713003,35.62720177107101],[127.09009010270104,35.627611967912216],[127.0909805671344,35.62856050677408],[127.0912053002218,35.63028426816631],[127.09161391835278,35.63040236359074],[127.09281945927488,35.63170872177325],[127.09288787176007,35.63237730349924],[127.09357890596623,35.63345040376386],[127.09205268474332,35.63450098928177],[127.09245219433485,35.63517204421972],[127.09124292745784,35.63596426790228],[127.09001277425945,35.63735310820997],[127.08974552591226,35.637531297662065],[127.08952653295134,35.638001748496954],[127.08957515483885,35.63872508999393],[127.08949115039881,35.63917207818298],[127.08888391090744,35.63950921269482],[127.0890197572776,35.63982396850854],[127.08906777828726,35.64058629939322],[127.08889096574248,35.64130445170654],[127.0890126204455,35.64205602378564],[127.0887839061205,35.64278124423371],[127.08827120479899,35.643148200653485],[127.08818535669697,35.64353494086126],[127.08849823025972,35.64459969608231],[127.08873025464545,35.64504413074449],[127.0883383176935,35.645486986679245],[127.08821047450829,35.64608853961905],[127.08742968043781,35.646790214384204],[127.08757610149902,35.64737204818015],[127.08768560775519,35.647435313385145],[127.08800682632051,35.64825412235616],[127.08851043105454,35.64866042685101],[127.08869799006862,35.64902322550914],[127.08860551254693,35.64983682604556],[127.08866533175694,35.65039849480007],[127.08919759618885,35.65075370904174],[127.0896521132891,35.6517698597406],[127.08976042433062,35.65234835710585],[127.08959061553034,35.653337158005364],[127.0886743601993,35.65367738893056],[127.08856240577923,35.65392855837211],[127.08703852903922,35.65514945336693],[127.08706265625354,35.6554675702016],[127.08625766754659,35.656119565573476],[127.08586246411082,35.65654634752337],[127.08525566453739,35.65676005926665],[127.08495012047642,35.657097905435776],[127.0845948092682,35.65733872245996],[127.08429458852304,35.657425234688056],[127.08401291959893,35.657717739906516],[127.0837870796348,35.657830979858176],[127.0835415928042,35.657861014994886],[127.08282218506764,35.658384785947455],[127.07997189163379,35.659044170562645],[127.07930271451916,35.66014286515098],[127.07940774699638,35.66071832805883],[127.07902338086325,35.662281996803436],[127.07943718954859,35.66298972944972],[127.07975881962436,35.66381953350364],[127.07993466465585,35.6649247461938],[127.08068533182976,35.665356904112144],[127.08222100073569,35.66668372856744],[127.08186405727578,35.66705320299865],[127.08196697701648,35.668105628747114],[127.08151650947379,35.66847389551781],[127.08045365682082,35.6689704321114],[127.07950292314487,35.67022775835277],[127.07896708174485,35.67038808213462],[127.07794119928285,35.67113653622365],[127.07766861492706,35.67191430354719],[127.07741979814834,35.67212515179173],[127.07683167839717,35.6723944534363],[127.07639509293881,35.67281198052432],[127.07511191500079,35.67215320005803],[127.07477206846032,35.672223004165765],[127.07418997614631,35.67197481135173],[127.07411746303136,35.67199946168117],[127.0731939604735,35.67292003821775],[127.07270767278385,35.67311825658039],[127.07258328608114,35.67357475582526],[127.07200778995202,35.67392220977226],[127.07166940476817,35.674309732108654],[127.0710562867703,35.674376818469135],[127.06971666528362,35.675197783104565],[127.06798776522595,35.67657261191835],[127.06680691006997,35.676612518578345],[127.06618350626212,35.67679896994128],[127.06458461552386,35.676985435022374],[127.06420407226598,35.67736937176253],[127.06383326105815,35.677503078546515],[127.06345602452916,35.676815724388305],[127.06302111498863,35.67647140838925],[127.0630216032963,35.67588703099349],[127.06281346220321,35.674599015043164],[127.06242301568186,35.67409847958393],[127.06187793020709,35.67295885584241],[127.0617184326865,35.67258814154545],[127.06157229159304,35.67173668769045],[127.0612700236538,35.67145319814943],[127.0612173435246,35.67094077634535],[127.06067054666583,35.67032068082845],[127.05928915942071,35.67051579314356],[127.05898659197466,35.670473261514886],[127.05864248515353,35.67029107855869],[127.0579412408713,35.67028690305062],[127.05676934036192,35.66966834241773],[127.05602909416073,35.66872668286393],[127.05472613105427,35.66890750311279],[127.05407253732956,35.66944345629183],[127.05285346133942,35.66956508685749],[127.05243925913182,35.66945392089418],[127.05179274246919,35.669576223984826],[127.05169278927603,35.67007492497706],[127.05134273839032,35.670341794502946],[127.05085146451023,35.67045289818535],[127.04942555110131,35.67024392941418],[127.04900942836898,35.670465978849705],[127.04879667076202,35.670267844555774],[127.0487017445599,35.66967899885474],[127.04792134195095,35.6695496333255],[127.04752527213527,35.669228957832686],[127.0476832326752,35.66841716180971],[127.04737434216709,35.66776462194615],[127.04669246125944,35.66764396431349],[127.04671398546535,35.667600080702826],[127.04605337608426,35.66763249531094],[127.04471697451814,35.6680142837893],[127.04361957158238,35.66792073331188],[127.04278731450827,35.66772392382404],[127.04262742294225,35.6674045092512],[127.04229173487373,35.66708707536971],[127.04223436569286,35.66660427146936],[127.04155129754129,35.66615248354999],[127.04109490217101,35.66647978065593],[127.04061653253392,35.66664327686456],[127.03913632205331,35.666748891593116],[127.03852882488555,35.66696234070107],[127.03819513762332,35.666852018600565],[127.03773223231451,35.667235643602595],[127.03697747184341,35.66725059431569],[127.0364296772332,35.66770415130803],[127.03539702445957,35.667880171948646],[127.03475186205264,35.6681581975391],[127.03359390410564,35.666721729850586],[127.0331510553195,35.66690201325259],[127.0325787683153,35.666644900978866],[127.03157830955406,35.66653348615157],[127.03071290953476,35.66616577139186],[127.0301335204435,35.66652238428883],[127.02914440044884,35.66657847755828],[127.02865254422497,35.666456987497554],[127.02768687910923,35.667275536840876],[127.0275178813556,35.667536285647486],[127.02702530527786,35.66780000584323],[127.02654446415151,35.66858830133148],[127.02622250503728,35.6686845160729],[127.02534151770773,35.66840242349078],[127.02387878189332,35.66831265779619],[127.022239711735,35.66951292173004],[127.02177222582459,35.669437267226925],[127.02019343893325,35.67161056713528],[127.01988870475057,35.67192127437018],[127.0189446412355,35.67252324352938],[127.01881903613283,35.673008040386755],[127.01840274616895,35.67342857304134],[127.01776938153547,35.67444443449208],[127.01741571438369,35.67472846550632],[127.01690878239162,35.67553759932053],[127.01630661266654,35.676270097211145],[127.0159469978088,35.676367362735846],[127.01526983559167,35.67679772053651],[127.01466261458731,35.67704456584697],[127.01418984465495,35.676904498420235],[127.01356286694109,35.67692483057507],[127.01306263869218,35.67715835642232],[127.01274579802609,35.67750077237464],[127.01215024490443,35.67770666935756],[127.01144314865839,35.67725532485889],[127.0107839981232,35.67743581408672],[127.01036922976256,35.67764631911079],[127.01035051457049,35.67790899847246],[127.00991104833722,35.67857398182691],[127.0099691505045,35.679090122273884],[127.01017447265667,35.679629150034785],[127.00970911187645,35.679649995015005],[127.0093279880047,35.67984996070821],[127.00892710421601,35.67985717667723],[127.0084738398588,35.679500390652],[127.0080939971326,35.67943991678803],[127.00722481412598,35.67960426342759],[127.00604828512778,35.68012692207138],[127.0055122470402,35.67990834268612],[127.00468100864646,35.67998813197503],[127.00491335755373,35.68175203158243],[127.00429655593962,35.682330241547206],[127.00412708506853,35.68287124551636],[127.00311437095968,35.68365360619196],[127.00278327313767,35.6842870541538],[127.00235693976558,35.68464821710042],[127.00248755982986,35.685444042225626],[127.00265233357301,35.68574247127233],[127.00212448997088,35.68615458337843],[127.0008046528684,35.68590688666513],[126.99989957359298,35.68543105095268],[126.99918182584594,35.68554390515709],[126.9989301361724,35.685956376292815],[126.99835577097129,35.68645678759325],[126.99729935535325,35.68657071274265],[126.99681406701468,35.68678162158098],[126.99593301162105,35.68657841942512],[126.99537967099847,35.686778275649914],[126.99511409442322,35.68731178197379],[126.99498605199793,35.6878765507585],[126.99476417616174,35.6878588386527],[126.99458466539672,35.68863568871857],[126.99402590141771,35.689321400528975],[126.99310559231752,35.68945875661368],[126.99204664965413,35.68903927113078],[126.9916043751325,35.689432478468],[126.99120777616145,35.68993195932345],[126.99146816262257,35.69036128491151],[126.99155563268782,35.6906929166716],[126.9918791785375,35.69088611345771],[126.99230203125242,35.69143554547358],[126.9918339415672,35.69233075291286],[126.99178546689184,35.692670952980166],[126.99204883489081,35.69311563548153],[126.99230778730474,35.69327180990341],[126.99268967980161,35.69388965366766],[126.99228359758679,35.694472107946794],[126.99205317692066,35.69499996466961],[126.99188334359377,35.69588910323613],[126.99231887562328,35.696508149016665],[126.9927295179275,35.69685219616191],[126.99302075857518,35.69751917667784],[126.99273857273795,35.69862902310324],[126.99303254457891,35.699337885646074],[126.99272626084989,35.7001781200192],[126.99228975929586,35.70077829852227],[126.99221000959263,35.701614026387574],[126.99150161512401,35.70193445240506],[126.99023036465093,35.70187061361249],[126.98971010603495,35.702132591438854],[126.98953521167047,35.702384693296366],[126.98939641065537,35.70316984957176],[126.98983569681945,35.703724105208444],[126.98963253706503,35.704622301695736],[126.98966580878145,35.70520996294875],[126.98885508833914,35.705783854455056],[126.98861043614498,35.706162237929725],[126.9869079821848,35.706464961866956],[126.98644945574496,35.706733374447104],[126.9861843430327,35.70747243890155],[126.98558945323595,35.70809513082911],[126.98473120634863,35.70970185643567],[126.98422859974447,35.71014828612785],[126.98369992627333,35.71035751022219],[126.98352293255377,35.71059408587559],[126.98283678349472,35.71108257794387],[126.98286120645113,35.711171204534224],[126.98241949127318,35.71130392932016],[126.98210026341863,35.7115025366882],[126.98212049262963,35.71156294251352],[126.98105977115638,35.712365116771544],[126.9809204885131,35.71295178192941],[126.98172743534519,35.71324665966418],[126.98150778035685,35.713657594172965],[126.98155024546011,35.714082416618616],[126.98128163822972,35.71437710506033],[126.9812913768051,35.71450389754585],[126.98003819759512,35.71499549449661],[126.97950136239726,35.71551406085893],[126.97913416757004,35.715608673791216],[126.97775315935438,35.716547714502035],[126.976156663097,35.717042131539124],[126.97525916366394,35.71715840988924],[126.97317518616016,35.71819453501152],[126.97260231035118,35.718411145771675],[126.97242476054492,35.71838976902062],[126.97197848752448,35.718583469673135],[126.97184106217436,35.71857617295854],[126.97098032565701,35.7191396474343],[126.97063503821155,35.71956209262485],[126.96982470743336,35.72014202223987],[126.96877643630393,35.720744915431595],[126.96777719417511,35.72115122418917],[126.96685532927651,35.72130549390374],[126.96597085621981,35.72159029726813],[126.96545947371588,35.72159259622606],[126.96448845396344,35.72211485788508],[126.9612389964936,35.72320202734624],[126.95883393503708,35.72365933295715],[126.95747590660737,35.7237451420907],[126.95722772155521,35.723830888867674],[126.95442277557996,35.72388385337232],[126.9535288720819,35.72409089237677],[126.95313002132008,35.724272079181446],[126.95271162658246,35.72461915908356],[126.95156583734898,35.72432299246653],[126.95091915988364,35.7242774507805],[126.95033916459636,35.72410800270342],[126.94847863742764,35.72246226396731],[126.94603293599314,35.72142524491053],[126.94580906162302,35.721367278437874],[126.94559580911151,35.72144709598581],[126.94360680450934,35.72092210314516],[126.94310664913783,35.72203677021056],[126.94275119983304,35.72224846666385],[126.9409970211007,35.72208591886804],[126.94048814240227,35.72211835110597],[126.94016606405982,35.72231194440364],[126.93936492422112,35.72242213643105],[126.93888967265625,35.72227037646837],[126.9382693641692,35.72186772658494],[126.93788401947889,35.721852426297794],[126.93729285645053,35.72191030833953],[126.9372909466353,35.722157372760186],[126.93645682474887,35.72215518610614],[126.93586457643335,35.7222680639988],[126.9357859593647,35.72217780368905],[126.93581411733548,35.721937361270555],[126.93600349932565,35.721462132963254],[126.93592692234634,35.72144424650243],[126.93584165308836,35.72111046111482],[126.93585013401244,35.720742116012985],[126.93590000219984,35.720308635142096],[126.93610757036474,35.720023133641206],[126.9355591068847,35.71983347751874],[126.9351549078334,35.720672607170606],[126.9346172559324,35.720505395614985],[126.93417774034114,35.72139894010824],[126.93376251489698,35.721264958879665],[126.93314091963474,35.722458158536725],[126.9324480171936,35.72238507634486],[126.93042381673435,35.726420412175436],[126.93049112902506,35.72652095138689],[126.93042549385757,35.72666134954035],[126.93027247901901,35.72670966614081],[126.93006924940407,35.727120822154774],[126.93018023552223,35.727389374495054],[126.92975243496383,35.72834549332655],[126.92981518448757,35.728505469557916],[126.9295279777374,35.72849633087699],[126.92947455764691,35.728422449434426],[126.92905040548932,35.728594237651535],[126.92928851941362,35.72868402003025],[126.92866923812281,35.730186511918156],[126.92895740447868,35.730400990502766],[126.92904945468965,35.73073355909801],[126.92780857351569,35.7326205137629],[126.92718198374823,35.733408918627106],[126.92629311366531,35.733870516439886],[126.92570512237009,35.73431869081241],[126.92556345256317,35.73466553667504],[126.92535393383965,35.73467197455648],[126.92461393172998,35.735623197355615],[126.92551308067088,35.735891875845084],[126.92538666507431,35.73615999448174],[126.9254845559302,35.73622264124299],[126.92531341115688,35.73659989280383],[126.924227842401,35.73697659986437],[126.92448971583083,35.736967168585196],[126.9242763431265,35.73734929451803],[126.92349819689456,35.73823360210599],[126.92264182138472,35.7387927334477],[126.92178371872777,35.73992006492076],[126.92153431969219,35.740367832534176],[126.92076878913235,35.7410149232867],[126.92063692161815,35.741294011898916],[126.92020837850619,35.74166520669116],[126.9191035286042,35.74188943280845],[126.9181835731868,35.74233098552716],[126.91800852170084,35.74277193538639],[126.91800578039796,35.743258267587855],[126.9178645839293,35.74373500025162],[126.91839735161713,35.744238950578065],[126.91835068519846,35.74427322087094],[126.91661051394807,35.74548595155849],[126.91580868609321,35.744802590639],[126.91425892541415,35.745572826592756],[126.91389825014329,35.74541146202691],[126.91291648052825,35.74516501444215],[126.91323764904298,35.74503558709101],[126.9130858531286,35.74464918870899],[126.91203431101246,35.744916551805275],[126.91214174624567,35.74520862207757],[126.9108453361997,35.74574192536178],[126.9096093807011,35.74645229314107],[126.90859975779914,35.74661922383557],[126.90793203194174,35.746893267875926],[126.90771013085919,35.74732914788011],[126.90783353294557,35.74766093732108],[126.90700039614251,35.74761294270847],[126.90683024847489,35.74766792117787],[126.90670516012494,35.7478293465293],[126.90606743929186,35.74808150336736],[126.90598993933088,35.74836693503855],[126.90643604225951,35.74900147142053],[126.90568449814342,35.74925563587495],[126.90539217109895,35.74913184015022],[126.90508627831873,35.74884428092046],[126.90473447839152,35.74889162105654],[126.90466191422455,35.7491687831625],[126.90494753712906,35.74950454459283],[126.90543576637738,35.74934179869139],[126.90522910125136,35.75010221026551],[126.90454411015017,35.749983236179375],[126.90462299236741,35.74964737415856],[126.9040658204015,35.749849587001336],[126.90394636717514,35.74982662428461],[126.90425565110255,35.74970598910678],[126.90387968706705,35.749256106215185],[126.90339302682217,35.74912942566553],[126.90309983615667,35.74922611762812],[126.9028927884402,35.74941601641493],[126.90285037050838,35.749887234028755],[126.9026790036225,35.750316465056954],[126.90249432735155,35.75036563992377],[126.90129919374748,35.75020715520725],[126.90057723993617,35.75022574154823],[126.90026272532148,35.750349237136064],[126.90023995995763,35.7506721853202],[126.90040237462688,35.75082989960224],[126.90064813019985,35.75098889086756],[126.9011234098089,35.751068270357564],[126.90203149023313,35.75060961843405],[126.90204594002402,35.75072726281602],[126.90104827367868,35.75127401022242],[126.90110248095243,35.75167089649307],[126.90035165744084,35.75168747223698],[126.89995622322563,35.75192051472766],[126.89994478098389,35.75178805715792],[126.90014439052739,35.75166180942919],[126.89998285783007,35.751711497932064],[126.89953244849681,35.75155263079945],[126.89916524691803,35.75155304774417],[126.89887141737361,35.75189564904688],[126.89780444565353,35.75269862545478],[126.89729043688021,35.7525598819955],[126.89684481779672,35.752154133990274],[126.89649414977453,35.75221629707987],[126.89642402185349,35.75259272770835],[126.89693006305994,35.75310225859596],[126.8968035838484,35.75331551289982],[126.8963757499797,35.753375073373356],[126.89579223166592,35.75318209776703],[126.89553130230895,35.75300311093101],[126.8953614467297,35.752691295508356],[126.89544196884302,35.752451188850884],[126.8947621266091,35.752612426902644],[126.8949493108853,35.75317774918928],[126.89488987188821,35.75328503997866],[126.89464097197911,35.75332333613626],[126.89427922792218,35.75303981263371],[126.89409274880514,35.75270285043362],[126.89393552418183,35.75270320706382],[126.89418738366888,35.75268896072185],[126.89417893595753,35.75219067462039],[126.89290142072394,35.75222478332495],[126.89286712709851,35.75236297396172],[126.89270700382946,35.752455524374746],[126.8927162000548,35.75288057968299],[126.89245222599781,35.75292188775493],[126.89241339317708,35.75299618127854],[126.89311925422561,35.7540955748793],[126.89290426125771,35.754279249016946],[126.89246000913114,35.75418779309402],[126.89202993869795,35.753864767845144],[126.89175906119283,35.75380957026279],[126.89119209300132,35.7539030451151],[126.8906188686467,35.75416958306889],[126.89045572790184,35.75411483451761],[126.89044477113639,35.75336497060882],[126.89029438988106,35.75321217813917],[126.88986246113407,35.75325904681302],[126.88970687331083,35.75356002273246],[126.88975459983949,35.75452080766492],[126.88969413222739,35.754631246259265],[126.8895363526671,35.75466205716955],[126.88870173113138,35.754226643853535],[126.88817332217408,35.75413220908161],[126.88742716648649,35.75419469118614],[126.88679015404215,35.75452254288729],[126.88640648806485,35.75457582929325],[126.88627259329043,35.75449648755562],[126.88620502631848,35.754267161499016],[126.8863017280655,35.75408245778916],[126.88679259718161,35.75370642166796],[126.88808698996903,35.753481107766305],[126.88808036938164,35.75278553394324],[126.8834728014947,35.75282482210439],[126.88350023926913,35.75481833735389],[126.88355358695674,35.754871645527494],[126.88435337256092,35.75448231471875],[126.88422263899147,35.754921540640474],[126.8841104938331,35.75603129849149],[126.88398213283789,35.75626121466677],[126.88418401485544,35.75760354212459],[126.88294062478141,35.75772016376827],[126.88284964704667,35.757071532904206],[126.88247255596757,35.75718331008142],[126.88242354131978,35.75704841227872],[126.88264655293449,35.75698805704471],[126.8826184057387,35.756940586850156],[126.88214275547902,35.75676200976581],[126.88181849198652,35.7567435980711],[126.88148938363166,35.75691872904301],[126.88140165382269,35.757170841672874],[126.88146812312195,35.75730698099799],[126.88175766134943,35.757228624348784],[126.88191031300708,35.75827147545265],[126.88281476904632,35.75842238575219],[126.88283720077587,35.75886338828649],[126.88204294402746,35.759026884417956]]]}}
