{"type":"Feature","bbox":[127.52434234580069,35.78811884007669,127.91283787307728,36.06866709755331],"properties":{"regionCode":"52730","version":"vworld-20260909-3f8952dfda77-p2","name":"전북특별자치도 무주군","attribution":"국토교통부/K-Geo플랫폼 · VWorld 법정구역정보, CC BY 2.0 KR; 두꺼비집 가공"},"geometry":{"type":"Polygon","coordinates":[[[127.63806309394275,36.06866709755331],[127.63829521273865,36.06793992121294],[127.63805888487886,36.06752045066468],[127.63799746225466,36.066672529817744],[127.63717267892135,36.06661620249469],[127.63590844134065,36.067508926393074],[127.63457131309826,36.06709360948711],[127.63360702030032,36.06708169274648],[127.63290773908093,36.06684410946247],[127.6325205178332,36.066907115290185],[127.63170882267875,36.06673943540482],[127.63039010402696,36.066740449762975],[127.62934241565816,36.066529402515386],[127.6275632721892,36.06658508310432],[127.62392395130425,36.0672716538448],[127.62355341255878,36.06716502918561],[127.62168457253385,36.06553908627735],[127.62055070710953,36.06420529252343],[127.62057459423161,36.06337669639904],[127.62028841084734,36.06270998462998],[127.62040401375666,36.062419679215694],[127.62041834606458,36.06204160522452],[127.62031306736294,36.06015330051697],[127.62059466205511,36.0596205416007],[127.62017795544651,36.05919034150439],[127.61977353286373,36.058933794550406],[127.61960971672184,36.05868010063708],[127.61970331646448,36.058195295278075],[127.61969080591736,36.057512519345714],[127.61945074414605,36.0568344367338],[127.61963115976552,36.05635146332249],[127.61941103718156,36.05554727387411],[127.61951441969107,36.05510288936732],[127.6191114674587,36.05388949470977],[127.61893361478477,36.0537128468805],[127.61863941252872,36.052656566366224],[127.61862583496121,36.05197213362271],[127.61878622187162,36.05155692608805],[127.61851704060389,36.050183191411676],[127.61863030015117,36.04959974584567],[127.61933090129835,36.048940602198414],[127.61939657214971,36.0483223081448],[127.61967310470254,36.04733516295673],[127.61955230180048,36.04670092344607],[127.61964427944113,36.046186150045614],[127.61955105778058,36.04503657723485],[127.61937572994526,36.044829913432594],[127.61966827655701,36.04429303683584],[127.61943431856362,36.04371752555433],[127.61874595834611,36.042868389303266],[127.61860694343835,36.04253598179902],[127.61868681241823,36.04235207630278],[127.61849071698812,36.04193587207519],[127.6189101238218,36.04157366422553],[127.6192015179071,36.04091432697701],[127.61960389342255,36.040598904340165],[127.61926880252439,36.039953457866545],[127.61909949193576,36.03917297549433],[127.62061979730112,36.040187716563885],[127.62121494875065,36.0409569045746],[127.62219165387575,36.040411054944784],[127.623839868578,36.041231709248876],[127.62365648718799,36.04156730890646],[127.62317470611416,36.04151445245651],[127.62513285748753,36.04231368368371],[127.62589816679362,36.042409175684696],[127.6264529406721,36.04236823863882],[127.62735443841412,36.042629011696114],[127.62879406553773,36.042548606697764],[127.62969649941412,36.0424143793403],[127.63053447167191,36.042152377514185],[127.63102518696705,36.041708057537235],[127.63141641140325,36.041066571858316],[127.63175615260322,36.0394459973848],[127.63174621232312,36.037379657210174],[127.63192442408399,36.03634821936644],[127.63268285003194,36.0354481979269],[127.63368784339947,36.03474660522273],[127.63428096847862,36.03457225689268],[127.6348190354581,36.03487032775035],[127.63559535056388,36.03498870911749],[127.63616929388645,36.03497666806854],[127.63645056888008,36.03484969680263],[127.63705392308432,36.035167437098515],[127.63692675954515,36.034347427254346],[127.63733805178066,36.03431765347388],[127.63826616294749,36.03400310099137],[127.63879392475242,36.03368885930997],[127.6394201080259,36.033107179887914],[127.63974797759866,36.03225242757598],[127.63929369861012,36.032141186168],[127.63914469809949,36.03229882162696],[127.63799694718867,36.03180400182115],[127.63582794303043,36.02939340587218],[127.63664482101788,36.02887284328565],[127.63532991896327,36.02868408639213],[127.63497021863088,36.02951423158096],[127.63263305918562,36.031485478872774],[127.63168300226185,36.03201636626459],[127.63071599768212,36.03235460225563],[127.63009114805085,36.03243260742068],[127.62934201430542,36.03226531113435],[127.62844943160596,36.031956037429914],[127.62754347290706,36.03146434197041],[127.62718287913316,36.030618006610375],[127.62717319912367,36.02964362796393],[127.62739469728407,36.02884012005259],[127.62731727106036,36.02793850463641],[127.62690988616178,36.026912173756656],[127.62589362394493,36.02579289881259],[127.62527723065114,36.02530909299941],[127.6229437477408,36.024640409390315],[127.62213341283214,36.02452186144053],[127.62209668948374,36.02481992844693],[127.62195968469314,36.02479649127355],[127.62104591129236,36.025004799],[127.61854970100404,36.02596639675702],[127.61654352299374,36.02601704360333],[127.61654589448788,36.02632351154022],[127.6142990118709,36.02624363300784],[127.61311669427171,36.026313337985165],[127.61133704184952,36.025879178432874],[127.6107348624329,36.025348609287725],[127.61027305757197,36.02440018690899],[127.61024678850869,36.02321755537398],[127.61097111802036,36.02230091829826],[127.6117699474945,36.02208061754211],[127.61265761130801,36.02196809794918],[127.61363426148009,36.02143621541378],[127.61470219636357,36.0204485952951],[127.6164412726716,36.019056266020776],[127.6166985756648,36.01687280398997],[127.61733152650933,36.013004989683566],[127.61763417239361,36.0118300938288],[127.61826914279358,36.01005057394597],[127.61866262829571,36.00798197548708],[127.61805434785278,36.006800147681595],[127.6169721319815,36.005339525631456],[127.61661355720422,36.004975302984896],[127.61646438552525,36.004544827200405],[127.61593893431424,36.00388706858915],[127.61606648518702,36.003471406301955],[127.61599975301777,36.002841469863085],[127.61563462639906,36.00253873913478],[127.61459340246286,36.001199061467936],[127.61415273525418,36.00080403179823],[127.6134851160983,36.00060614512153],[127.61274163852202,36.00044561054884],[127.61201765682841,36.00066982995522],[127.61190774589227,36.00076616144708],[127.61056906776203,36.001044502247645],[127.6102601113237,36.00156132047708],[127.61029563338069,36.002011159601956],[127.6098616480045,36.00405171235498],[127.60976058635738,36.0049373046607],[127.60981029736338,36.00544831820908],[127.60826272258022,36.006487891287],[127.60697537128353,36.00747792237748],[127.60678395117147,36.00768841109719],[127.60664040820221,36.00804323079695],[127.60661458257604,36.008135807656366],[127.60713558420738,36.009143273509366],[127.60728703296634,36.00961130087437],[127.60766980325977,36.00995574668036],[127.60700590724383,36.011347667250625],[127.60659305824582,36.01190991612032],[127.60558626281951,36.01213391461808],[127.60515676194063,36.011905130660026],[127.60402431451067,36.012093438348124],[127.60320379645923,36.0121046218582],[127.60258075062123,36.011901757141246],[127.60006482871766,36.011941329209264],[127.60021064587694,36.01277404418456],[127.59992809496016,36.01368184587072],[127.59999006320761,36.01387768310228],[127.59935886404799,36.014086911746],[127.59916686783188,36.01446526858845],[127.59890332482478,36.01475327430071],[127.59871009252909,36.015403594726486],[127.59782831429774,36.01642415074453],[127.59791949144831,36.016826790218545],[127.59666737267412,36.01806852372808],[127.59629751688988,36.01900783393853],[127.5953641241461,36.01921497019158],[127.59403095752589,36.01972659388327],[127.59367578066707,36.0199921127021],[127.59250146007624,36.020432300958795],[127.59205836833296,36.02050751541351],[127.5918247481341,36.02065302916995],[127.5915032208397,36.021047152940184],[127.59130777064472,36.02156484931401],[127.59175923374212,36.02245349125499],[127.59174359386871,36.02304148276552],[127.59143465588048,36.023399267881196],[127.59123566908718,36.02515222478111],[127.58977013694427,36.02604624948344],[127.58904042304346,36.02613531522255],[127.58839709288138,36.02596737951863],[127.5876710099202,36.02611069194648],[127.58695726938541,36.026151611859625],[127.5865141612884,36.02598203308043],[127.58437677448049,36.026485328748855],[127.58297040672332,36.027113811296694],[127.58256031649229,36.027226430637604],[127.58202880250805,36.026934822651654],[127.58183285320467,36.02665960549744],[127.58106139329314,36.026203892363306],[127.58068663460536,36.02585183428678],[127.58061375177135,36.025248084674274],[127.57954166746931,36.02492532433582],[127.57828762682865,36.02424366899611],[127.57836282379849,36.02410077188275],[127.57822403288638,36.02420529372137],[127.57774899132627,36.02387438711907],[127.57684564999309,36.023875726689795],[127.5745327403502,36.02330239354794],[127.57352495450232,36.024393830259896],[127.57348138633371,36.024887649052104],[127.57318164531016,36.02514614700798],[127.57306290996358,36.02573352077509],[127.57283890733112,36.0259183874808],[127.57233802931533,36.02599633921621],[127.5716155314251,36.02598094993835],[127.57048079551323,36.026904113092165],[127.5704228954472,36.027928964715066],[127.5695512388615,36.028125396136495],[127.56877707061928,36.02897871243568],[127.5687230393132,36.02927606069044],[127.56831661802723,36.02944512101036],[127.56824608268477,36.02976657431649],[127.56787773252294,36.03011524419666],[127.5677619095762,36.03046674033429],[127.56633079400244,36.031220852829996],[127.565764988088,36.031265657906545],[127.56574418672677,36.0313827064511],[127.56463893348605,36.031377483040096],[127.56379638103193,36.03103374161213],[127.56247490926017,36.030718163328906],[127.56177179848562,36.03123381487643],[127.56168102406029,36.031668665770354],[127.56110957354765,36.03205831335802],[127.56080151478534,36.03251808039027],[127.56057566439196,36.032622420224605],[127.5601932262801,36.0326451471285],[127.55995353123787,36.03281738602096],[127.55977781681815,36.03284439339732],[127.55945097594297,36.03324946684578],[127.55903027621886,36.03344360833157],[127.55744340813172,36.033344856167666],[127.55652659264571,36.032847526201486],[127.55614351191218,36.03283442936443],[127.5556396937063,36.032479104390504],[127.55536575697188,36.03241657252112],[127.5532996197858,36.03283146261395],[127.55291344741292,36.03285850821231],[127.55220332345714,36.0327705069755],[127.55184802930674,36.03347224366679],[127.5518830899365,36.03380390695465],[127.55166369039958,36.03391406949479],[127.551232190249,36.03481512969939],[127.55058056352357,36.035197930727506],[127.55030195592802,36.03523842648953],[127.5501172282229,36.03542308254652],[127.54925675610824,36.03659219942989],[127.54930493893397,36.03671324677434],[127.54911121549446,36.03695034674824],[127.54812466138766,36.03685749903126],[127.5477789585613,36.03820874363164],[127.54590351490157,36.03788507205949],[127.54537874969569,36.03769132205393],[127.54499186056199,36.03816358112049],[127.54486444500444,36.03812978502912],[127.5449726108057,36.038192893577126],[127.54483330060509,36.03863077337344],[127.54448490511072,36.03880566344114],[127.54176396206391,36.03838625653451],[127.54098379753302,36.03812299318736],[127.54034836785681,36.038671513382404],[127.53921974658726,36.03861612820253],[127.53841160807731,36.03966115953296],[127.53833229801886,36.03988914251598],[127.5378846148565,36.0400492265697],[127.53662271348743,36.039726896883145],[127.53624599438088,36.039882838279205],[127.53531933249022,36.040007999228074],[127.53480321968372,36.04036833828119],[127.53416155212783,36.040566590936976],[127.53369115300576,36.04093577835759],[127.53325670137852,36.04112987093411],[127.53315651992776,36.04113448776245],[127.53307465936295,36.040835451761936],[127.53142081551407,36.040842772066455],[127.53117085492272,36.04024752758798],[127.53081733020252,36.03893848554247],[127.53124304034189,36.03873541156871],[127.53131668429111,36.03777953171347],[127.53149621985993,36.03738905530221],[127.531935395196,36.03700793133169],[127.53195792073616,36.03589307821534],[127.53216896904598,36.03541430506814],[127.53200280128387,36.03456900155358],[127.5329580083733,36.03421091108501],[127.53532915034585,36.03396386405791],[127.53564787816254,36.03399488898488],[127.53580704423581,36.03376684947302],[127.5357682073133,36.033506932868704],[127.5362154097522,36.033139290990825],[127.53668142056824,36.03293030337702],[127.53687833587075,36.032590451956494],[127.53760076946313,36.03248829029582],[127.53706854087658,36.03186718328759],[127.53684971229804,36.03127228093109],[127.53690607093678,36.03065513086022],[127.5375178529573,36.02910821853404],[127.53749867218981,36.028595740933994],[127.5373182080006,36.028032442263026],[127.5373959981215,36.027035645134795],[127.53768952612721,36.026736210835395],[127.5386571203127,36.02650273895076],[127.53884161185606,36.02587909433055],[127.5386417663847,36.024976461210564],[127.53848012896727,36.024857721408544],[127.53812118801012,36.02364712594804],[127.53749426733513,36.0234362810127],[127.53698131180217,36.02276214948046],[127.53665185798955,36.02267694028035],[127.53672068498544,36.0221898599415],[127.53649785042035,36.02165261755693],[127.53616578631888,36.021410552580576],[127.53610345068859,36.021068873719656],[127.53630369235225,36.020563283857854],[127.53612776700616,36.01994042934571],[127.53670096179638,36.019468394831314],[127.53665097251783,36.01925010958414],[127.53722601015491,36.01869273089625],[127.53791838521697,36.01853965455516],[127.53774107209638,36.01761164090249],[127.53785985612453,36.01733649176523],[127.5377550165492,36.016683267460564],[127.53750322637761,36.01651764829887],[127.53770992557185,36.015134353864795],[127.5380737404675,36.01444921102836],[127.53892823199685,36.01386342651603],[127.53899929653751,36.013375869194576],[127.5397052642556,36.012416647982334],[127.53987021008449,36.01171689975648],[127.53959008545638,36.01113471156508],[127.53869787080502,36.010551533402264],[127.53777535524372,36.01073149688986],[127.5365588950727,36.01057734443921],[127.5359870427241,36.010108270775376],[127.53502099986775,36.009595490867696],[127.53395121549248,36.00947007491512],[127.53306374763373,36.00963461650613],[127.53276927107011,36.00889335527779],[127.53210391497483,36.00796738089869],[127.53215534141734,36.0075213327336],[127.53283962961434,36.00662267534782],[127.53349757219902,36.00594183004702],[127.53366245305621,36.00531547571838],[127.53422342002249,36.004961872456335],[127.5341842675411,36.00388993378529],[127.53514070614449,36.002317171257374],[127.53557455269798,36.00184328275191],[127.53581091223866,36.000980165026746],[127.5361135929248,36.00050695729205],[127.53585599567427,35.999955949455504],[127.53629535586074,35.998980443604204],[127.53632316188207,35.99859144402359],[127.53606968325687,35.99817640110401],[127.53621201615675,35.997681810101646],[127.53659710923364,35.99704158259676],[127.53645652340091,35.996763348158126],[127.53665519965783,35.99645046845576],[127.53601430198864,35.996089882147615],[127.53586825430764,35.99490431760065],[127.53489979578316,35.99473093618604],[127.5340300149788,35.993669487337385],[127.53364006792586,35.992007347419914],[127.5326833969118,35.99176023746864],[127.53271136417841,35.991687294366855],[127.53251520591519,35.991759368952785],[127.53243220897687,35.99172426344987],[127.53222027535297,35.9911876259017],[127.53056905351211,35.99050723599481],[127.53000737275194,35.990360181459366],[127.52930535643405,35.99039127251721],[127.52875760698467,35.99013616868783],[127.5284940025813,35.98964263847837],[127.528436737843,35.98917245533501],[127.52758756932711,35.988617914168906],[127.5266486020657,35.987646440139656],[127.5259108719599,35.987428249542035],[127.52567287835396,35.98685287848531],[127.52487008442932,35.98581653082645],[127.52493574093768,35.985552971510955],[127.52434234580069,35.98512509103782],[127.52480226238961,35.98474129353349],[127.52543432892611,35.984569421461245],[127.52623267467882,35.98402719336699],[127.5270154567345,35.98295036152667],[127.52701769487491,35.98164740902123],[127.52673210122173,35.98019885863465],[127.5269300333945,35.97878231096762],[127.52716702721798,35.97847193846516],[127.52733300790986,35.977889987992036],[127.52789511642563,35.977494176229406],[127.52833479692417,35.97760638704457],[127.52976521152652,35.97724922620005],[127.53109545464582,35.977364637769874],[127.53171483245725,35.977292555203455],[127.53228184557283,35.97758653945015],[127.53303234261634,35.978226813969336],[127.53386467274973,35.97810620783939],[127.53455421822441,35.97783317877036],[127.53613664377266,35.9780026042927],[127.5365979412244,35.97820414285992],[127.53693595578191,35.97814298489602],[127.53713621964313,35.97733048797138],[127.53721180448916,35.97647581291361],[127.5373948203767,35.97621444589069],[127.53686195750457,35.975048274704996],[127.53602447822729,35.9737595970276],[127.53477024738473,35.97305933311406],[127.53432440534951,35.972722481839085],[127.53395457991179,35.97172883430988],[127.53387797175667,35.971210297881726],[127.53378896994687,35.97123537660057],[127.53378402701834,35.971171438415034],[127.5342430112754,35.97100739225831],[127.53642088576692,35.970951432521275],[127.53657455347343,35.97082599142924],[127.53652356888317,35.97045005829622],[127.53715145440133,35.969724163209825],[127.53728700604553,35.96875745918347],[127.537527492008,35.96837720692833],[127.53814839303585,35.967876208882984],[127.53916345503188,35.96760264505165],[127.53921330325433,35.967300717442775],[127.5390067818927,35.96662061100097],[127.53905872163088,35.96606162770845],[127.53899810303845,35.96589134429722],[127.53911189017593,35.96554005130627],[127.53939250531702,35.96520457710377],[127.54081340038623,35.96415147745226],[127.54173701368262,35.964112176417295],[127.54306751448898,35.96341350021619],[127.54549129261405,35.960652912753176],[127.5465560185582,35.96015168892122],[127.54667811191489,35.959916457242706],[127.54631852533934,35.95901470581304],[127.54580888500969,35.95808461372128],[127.54629149536558,35.95746761105563],[127.54672439364394,35.95745699375012],[127.54709131844204,35.9566539604082],[127.54756627501735,35.955894233850515],[127.54779972676377,35.95496220840419],[127.5478421123009,35.95422806096815],[127.5482246942468,35.953770480462744],[127.54881676352765,35.95350606651907],[127.5494773518468,35.95372637458114],[127.55023132998043,35.953746361850705],[127.55018386558378,35.95354736403977],[127.55041142157451,35.95311284469487],[127.55034656517289,35.95287845555647],[127.55047350691893,35.95230601154367],[127.55074913047471,35.95207798488359],[127.55085337792688,35.951791759806284],[127.5513104750609,35.95160556305843],[127.55141626816408,35.95117952183582],[127.55153500943224,35.95108837848828],[127.55149576767118,35.950269068361415],[127.55158367062019,35.9490998332932],[127.55173719659156,35.94850147493681],[127.55230117184223,35.94744793742578],[127.5525813798502,35.94736475579998],[127.55301352790224,35.94737715388287],[127.55487622722478,35.946885598073116],[127.55471474117414,35.94562290913044],[127.55437475314822,35.94535200224317],[127.55352217279349,35.94384867271333],[127.55321401748711,35.94354133071517],[127.55308625753248,35.94200778416561],[127.55285682142784,35.9418235905378],[127.55264219091048,35.94128962927337],[127.55266060606759,35.94087087160208],[127.55249637147698,35.94039948438425],[127.55283432399084,35.94001905787234],[127.55278135723076,35.939699212137484],[127.55288403218671,35.939457735589855],[127.55291363596855,35.93898129364144],[127.55282629928605,35.93793315845361],[127.5529537684805,35.93747261362154],[127.55273062499182,35.9373981888898],[127.55239248584566,35.93710336465491],[127.55152655028915,35.93679847805391],[127.55111144701283,35.93632481038785],[127.55034629855486,35.936009866273814],[127.54964671873694,35.93503879109701],[127.5492406182623,35.934651443493216],[127.54925258262561,35.93416905149075],[127.54856478097533,35.933063142552854],[127.5493276670879,35.9320419537852],[127.54958587652675,35.930983069656875],[127.54986903851992,35.93075956176541],[127.55021701425173,35.92985185230108],[127.55021083747636,35.92940667483875],[127.55041146296409,35.928872323093216],[127.55156832011204,35.92846164112905],[127.55179662187952,35.92816021560502],[127.55170330349074,35.927741555805596],[127.55181917367236,35.92719149059725],[127.55361390210672,35.925269870099875],[127.55394536656692,35.92336136679031],[127.55498268847039,35.92238361493926],[127.55583860820718,35.92222186491288],[127.55689583819749,35.92254865694748],[127.55915786951495,35.92279124434923],[127.56026775333864,35.92263669626707],[127.56063056340437,35.92268203207768],[127.5610860540539,35.922882839475236],[127.5618204807716,35.922787840031276],[127.56194029013976,35.92285396336627],[127.56315967895057,35.922811773084184],[127.56365367150639,35.92126704852978],[127.56446776966244,35.92090384393174],[127.56466413965457,35.92008708867271],[127.5649548370683,35.91980347756272],[127.56545882955943,35.91963128555969],[127.5657518093903,35.919148455914446],[127.56725787246704,35.91825201094008],[127.5671805235654,35.91729431721549],[127.56778375080799,35.916475322881844],[127.56820359453882,35.91621949583339],[127.568286679282,35.91539083761273],[127.56812052209551,35.914592721265905],[127.56858813044917,35.91352742621057],[127.5683415796061,35.91304959051093],[127.56840987971368,35.912618027919066],[127.5688440955598,35.91219046292654],[127.570353347726,35.91252065297693],[127.57126367020871,35.9117659936855],[127.572063447651,35.91162503691253],[127.57273810740294,35.91082665875668],[127.57364352619247,35.91075051971365],[127.57413744821952,35.91035057097897],[127.5749524411126,35.91002432319448],[127.57553684280457,35.90921877076191],[127.57676189077044,35.90850843931965],[127.57730099935223,35.90750400330215],[127.57775050638983,35.907167177057765],[127.57774566698443,35.90675619473076],[127.57838739463607,35.905994468559875],[127.57904592437778,35.90544281879831],[127.57982875661979,35.905325412840874],[127.57995481954067,35.9054016447147],[127.58019783891766,35.90540487090997],[127.58023651449906,35.90560794137619],[127.58110506802568,35.90567167504314],[127.58146998939017,35.90579091276841],[127.5815593897664,35.905434702362484],[127.58140342267305,35.90518029135297],[127.5814168796396,35.90494329445515],[127.5811623237514,35.90470207552714],[127.58118036244356,35.90393098787473],[127.58140873484439,35.90380549886271],[127.58128740431265,35.903579001391826],[127.58174711137302,35.90240326383623],[127.5818600556502,35.90234440020255],[127.5823872228691,35.902426215938995],[127.5830597938836,35.90088863745493],[127.5830527537403,35.90058203753833],[127.58273841397994,35.90013461279487],[127.58332276750225,35.89957774460744],[127.58344312773184,35.899329855539925],[127.58391069889863,35.899029425499585],[127.58413758191391,35.898577791291466],[127.58486136779808,35.89789412355986],[127.58472358915972,35.89741106452374],[127.58498471247836,35.897275000256414],[127.58485085444097,35.89694130280042],[127.584304247265,35.896771579243755],[127.58379326502524,35.89631341241452],[127.58364540305263,35.89567850991842],[127.58324636661378,35.89537025988425],[127.58317212685716,35.89505582077156],[127.5826011927306,35.894423901295426],[127.58198329577836,35.893369206428865],[127.58173398478664,35.89331073382041],[127.58155452303308,35.892411559085176],[127.58124763842396,35.89230843531751],[127.58082567528774,35.89162832153532],[127.5809069706647,35.890497519158686],[127.58066383686226,35.88886178753153],[127.58014014962284,35.888863589682025],[127.57952572930458,35.889058033738486],[127.57861796474504,35.88904319216148],[127.57811806407148,35.888917963607746],[127.57805331372893,35.88784800807792],[127.57832699458545,35.886921940226124],[127.5779027941753,35.88602948933307],[127.57711191620135,35.88515641938423],[127.57682501904736,35.88459197263206],[127.57651921248558,35.88420351193771],[127.5763430317317,35.883652412946944],[127.57561068552482,35.88287544341206],[127.57571522921192,35.88218387913451],[127.57604968312569,35.88163357276443],[127.57613753304022,35.880940402858194],[127.57540413109508,35.879979517897496],[127.57490423681723,35.879084450287635],[127.57465193255788,35.87895868816301],[127.5755038546295,35.878630556639244],[127.57788989052483,35.87837968146344],[127.57896658114531,35.8774037943889],[127.5794394009096,35.87710189863036],[127.57987967294397,35.87696461925213],[127.5804032610562,35.877040892594394],[127.5808666835962,35.876859131973994],[127.58132672474552,35.87655121459453],[127.58213555076983,35.87550410462444],[127.58243487494009,35.87531293077358],[127.58428290466543,35.876835462336246],[127.58538402722702,35.877313210205834],[127.58648133016163,35.87753025844365],[127.58922194842988,35.87758800581001],[127.59063757761552,35.87833905308711],[127.59089339134754,35.879022272921446],[127.59207201737112,35.88074360415839],[127.59238538270179,35.88142998072905],[127.59270691190318,35.88135574132623],[127.59302441142974,35.88153661346604],[127.59320064766992,35.88177947567618],[127.5948014715748,35.881263896643496],[127.59488708178671,35.88107624327862],[127.59715029680684,35.880581710458884],[127.59720017805384,35.88103916604322],[127.59770173700055,35.88195867911661],[127.59726277250309,35.880995233924175],[127.59721729577424,35.880568573863755],[127.59727769446602,35.880561225515805],[127.59847118353291,35.880521361132814],[127.59946165898272,35.88066047707541],[127.60039982194243,35.88051867367475],[127.60165447770973,35.8810711811271],[127.60212445529798,35.88080787245337],[127.60112041090007,35.87970652103675],[127.59929501618667,35.879043833342536],[127.59878832833158,35.878708112033856],[127.59855400410218,35.87811435658695],[127.59820882376614,35.87763239026384],[127.59794986253675,35.87757862937557],[127.5979143912111,35.8774896727522],[127.59821081825812,35.87707445461158],[127.59791961201563,35.87681511448473],[127.59799270342957,35.87659731905555],[127.59790558702768,35.87659000948789],[127.5978884863221,35.87683454435759],[127.59776028964824,35.876443163163906],[127.59777012694875,35.876169023445634],[127.59807294839516,35.87587774865627],[127.5984095907494,35.875220826991544],[127.59829545509456,35.874849904962],[127.59828349852246,35.874389623340264],[127.59837041091208,35.87443813831828],[127.59846989455826,35.87422167512306],[127.59886599619055,35.87391243014258],[127.59891826477754,35.873662303112255],[127.59944360845938,35.872931872958915],[127.59919150553465,35.872419577413766],[127.59921822602863,35.87228566578689],[127.59988220474632,35.87205258230484],[127.60023267963967,35.87179601223853],[127.60063488717216,35.87170497549269],[127.6007324510684,35.87160368763191],[127.60072206134619,35.87123855015584],[127.60101793737049,35.87108580103681],[127.60185092815854,35.87033198722297],[127.60219441034924,35.87023232509838],[127.60258918637929,35.86979612881486],[127.60315419244384,35.86954702866806],[127.60384735487295,35.86885971024937],[127.603987820658,35.868501756296084],[127.6040655948543,35.86755138979437],[127.60380948947314,35.86728711390551],[127.60345086574729,35.86710312253743],[127.6042361150609,35.866447091241305],[127.60537186018503,35.865258672870745],[127.60595519645715,35.86506251495752],[127.60671069658605,35.8651705629423],[127.60718471680472,35.86582818227845],[127.60787103438457,35.86581522131484],[127.60801738752632,35.86567627009737],[127.60839274984495,35.86551691254062],[127.60853048881346,35.865007812557415],[127.608411292125,35.86483539628893],[127.60841577712144,35.864532127066724],[127.60859553251711,35.86407254533703],[127.60853309670401,35.86392114676841],[127.60868958945498,35.86375498923485],[127.60885288197396,35.86288537849441],[127.60898049712004,35.862656667451056],[127.60888491204392,35.86223091071557],[127.60862670684634,35.86199028169031],[127.60891040429047,35.86190661648588],[127.60917899337046,35.86151604386983],[127.60959909209036,35.86135035212679],[127.60974124147516,35.861077002438655],[127.61054172015633,35.86020910627208],[127.61202453431979,35.85922554416637],[127.61273824988503,35.85846408655666],[127.61372362955291,35.8585866215086],[127.61456501006451,35.859150271110884],[127.6151431044308,35.85942594629636],[127.61574152573085,35.85995531715418],[127.61594508121375,35.859787727067264],[127.61694048356641,35.85952110513958],[127.61763825017798,35.85923948075915],[127.61783325614122,35.85827565610265],[127.61810052521206,35.85823808305633],[127.61892975860015,35.857134800678104],[127.61892425088533,35.85674999129401],[127.61930957362483,35.8563371130424],[127.62004630431889,35.85515764499162],[127.61979300696498,35.85449668533333],[127.61995697448197,35.853981372782684],[127.61969907275672,35.85351378874569],[127.62024836142056,35.85257427405221],[127.62066196645853,35.852120507065614],[127.62139061432717,35.85025119708364],[127.62235681654437,35.84878133431445],[127.62260089190043,35.84856165912175],[127.62301791090768,35.84835002924566],[127.62344724509092,35.84798879083916],[127.62372572777979,35.847630039678634],[127.62430787601886,35.84744567497043],[127.6248588669762,35.847386392252545],[127.62446689681434,35.84661597785699],[127.6235248345178,35.84547757842092],[127.62265695077231,35.84464427144091],[127.6215220336701,35.84299421340707],[127.62082020253132,35.84228038561755],[127.61905028190593,35.84085699926871],[127.6194154789741,35.84059079854474],[127.61985099448532,35.839919797551715],[127.61998307764219,35.837744355331914],[127.62016202611122,35.83697618531661],[127.62060926816177,35.836236489588316],[127.62060596786543,35.83581170978704],[127.62080589643766,35.83519654203117],[127.62094521574552,35.83519508374357],[127.62104162852722,35.834934869714296],[127.62125006815506,35.834933794052894],[127.62271476643798,35.83132128957668],[127.62260622888323,35.8308849192871],[127.62146265515901,35.82994434446631],[127.62115752644146,35.82926792755274],[127.62102884603475,35.82821344182235],[127.62105777498961,35.82629423204501],[127.62091272590077,35.8247004472516],[127.62103015532615,35.8241200859746],[127.62145636230284,35.8232826566893],[127.62286493493532,35.82182161521593],[127.62356945683293,35.82089485109046],[127.62398148045544,35.82049988660757],[127.62455852916472,35.81958762876778],[127.62520773139246,35.81885919653493],[127.62739616745435,35.81732484634697],[127.62782354576711,35.81687497594617],[127.62831936189684,35.81592043135301],[127.62950811556007,35.81480431420561],[127.62977629928373,35.8141646490422],[127.62989350027095,35.81325922032572],[127.63027713338771,35.81280586285065],[127.63105942354726,35.81245463145822],[127.63142634877465,35.81560267023161],[127.63229705009292,35.81667420993359],[127.63357707366463,35.81783994294634],[127.63344137683188,35.8179331679993],[127.63425869976948,35.818539268835636],[127.63442339254635,35.81839815962034],[127.6346134039953,35.818525847327614],[127.63478819018036,35.81834175144799],[127.6350361574404,35.81825586423559],[127.63523276013471,35.817794474894214],[127.63572425821154,35.817119791495855],[127.63608638628922,35.817078019310536],[127.63627046691633,35.81673593766968],[127.63667829125932,35.81654040170499],[127.63797575020723,35.81648179277151],[127.63850902742033,35.81632603573171],[127.63923806746146,35.81636872196944],[127.64006268082169,35.81657184234473],[127.6400333613863,35.81636507525908],[127.64036115885095,35.81644038946625],[127.64049428458857,35.816331442534235],[127.64037713226773,35.81571327459779],[127.64020136761182,35.81570672838003],[127.64018794410825,35.81563344042024],[127.64036471910289,35.815641783311044],[127.64025544012013,35.81505304392773],[127.64014908297938,35.81503630584839],[127.6399659478842,35.81479156490834],[127.64073654257938,35.81501465321708],[127.64153453050136,35.81489622063861],[127.64186794298529,35.81474544258319],[127.64264887204509,35.81406216229791],[127.64337035072943,35.81393606696944],[127.64365218477151,35.81353408876977],[127.64420782783624,35.81336918411885],[127.64434804333443,35.81315274205671],[127.6464793189382,35.812286599804764],[127.64713378641707,35.8122201715257],[127.6472614676804,35.81214726873851],[127.64850264265874,35.81207333628312],[127.64857531163366,35.812149352383024],[127.64949618848419,35.811982321355806],[127.6511035956418,35.81202698143523],[127.65203870106315,35.812389747424795],[127.65243743922703,35.81277830120986],[127.65370873382994,35.812089634139056],[127.65482205250534,35.81232789618469],[127.65478475500092,35.811782120496595],[127.65576381731397,35.81231300382487],[127.65668773880496,35.8132427453934],[127.65829841157374,35.81427437116691],[127.65975875372902,35.81602851772734],[127.66279924501252,35.818048084872636],[127.66359490287763,35.81776539246862],[127.66492250587157,35.8161357290906],[127.66565153841361,35.81547191807983],[127.66908445878144,35.81394920893482],[127.66984698631624,35.81270043443961],[127.67039955105443,35.811591209918205],[127.67081733143979,35.80982852557102],[127.67575824855815,35.81026982687159],[127.67730651464606,35.8102958768827],[127.67794779040796,35.809772192596654],[127.67865027317326,35.808988865866446],[127.68046004595396,35.807353720585105],[127.68234463154043,35.805468244926466],[127.68489840633444,35.804699213421664],[127.68674856506006,35.80392026070559],[127.68750680407288,35.80247994136924],[127.68829067112179,35.80045077381369],[127.6879887534273,35.798250512389714],[127.68790351386963,35.7963903117075],[127.68820817075017,35.795458595105515],[127.6899035996247,35.794093310793954],[127.69345197721424,35.791490245125985],[127.69978916292844,35.78811884007669],[127.70022705811122,35.78901810246087],[127.70387472414568,35.79075018216539],[127.70486498283951,35.791303033946555],[127.70653892164859,35.79192372981944],[127.70742028310796,35.791782873941735],[127.7083173194319,35.79139918435069],[127.7093990191928,35.79134575784658],[127.71044723601617,35.791750915452326],[127.71180635539324,35.793049130261736],[127.71445621014921,35.79466220721841],[127.71736907669994,35.79596330954098],[127.71889046048265,35.79682902520295],[127.71931725395346,35.7972703546257],[127.7194695839085,35.7988148845443],[127.72010251544484,35.801084598810114],[127.72087616429356,35.80218159561344],[127.72174019853249,35.802915777388016],[127.72335893951885,35.80397281415386],[127.72385743104475,35.80469897456353],[127.72423442439917,35.80576841021556],[127.72412061674432,35.80794025844332],[127.72359777908792,35.80973369241532],[127.72348981146273,35.81071970551805],[127.72461469912278,35.81252704609005],[127.7253067368029,35.813200040472],[127.72714347222626,35.81332023219934],[127.72867893336452,35.81304082666708],[127.7296725465722,35.81302360129207],[127.73122386307023,35.814907898589674],[127.73162801295007,35.81587095576938],[127.73225492355247,35.818276715233665],[127.73253584404249,35.82089412087606],[127.73336651992469,35.82218297292559],[127.73432108743421,35.82303897002091],[127.7353556486818,35.82494275206346],[127.73566611583308,35.82525827997787],[127.73803929329979,35.82637756254339],[127.73861753932877,35.82707836706971],[127.73902854863853,35.828802933151486],[127.7389900923161,35.830813660018634],[127.7383492485243,35.83154523543363],[127.7381163986791,35.8332528874535],[127.737737146961,35.834423682802296],[127.738023429708,35.83524992402124],[127.7395157230348,35.8371169408877],[127.74012578549734,35.838099749390736],[127.74113693835328,35.8388643329753],[127.74174432000375,35.84058899508624],[127.74301059410281,35.84217563266702],[127.74447793420438,35.84448669750456],[127.74545864782982,35.84371491002389],[127.7458977679916,35.843561046036314],[127.74974816343493,35.842705183277886],[127.75252853651735,35.841579423144964],[127.75264771357713,35.840450188574316],[127.75402883395988,35.839127054712804],[127.75601878703675,35.83866304302314],[127.75663449390301,35.837413276645954],[127.75778458358839,35.83687874545541],[127.75952107737407,35.83701791071228],[127.76079347915362,35.837427358003765],[127.7643572134434,35.83893026049174],[127.76528980388855,35.838919719434784],[127.76664270707091,35.83832130288026],[127.76888280219883,35.83837919775125],[127.77060406396669,35.839033561449526],[127.77280697352307,35.83962474527716],[127.77315390179812,35.840122535150016],[127.77518420418144,35.84209685176535],[127.77553115217542,35.842805513153934],[127.77728152600912,35.843258563431824],[127.7784789773826,35.84506518783143],[127.779251105261,35.845798308150094],[127.77920358689698,35.84724672280923],[127.78135509732297,35.8490761280635],[127.782533221135,35.84955177260891],[127.78384654834758,35.85091200808574],[127.78575139621051,35.85161989222718],[127.78679655949001,35.851862837526575],[127.78770053141942,35.85271682214324],[127.78890202672689,35.85278778776653],[127.79006882851259,35.852588609929576],[127.79087130556991,35.85265321177581],[127.79213051368211,35.852486372691736],[127.79309929252923,35.852906191008444],[127.79350457322509,35.85316446590368],[127.7939114318562,35.85363622121532],[127.79494268846739,35.8540268623099],[127.79714869492449,35.85450418199579],[127.7977022393572,35.85497680658023],[127.79889702876545,35.855055008037425],[127.7999305025446,35.85561570689897],[127.80042901599333,35.85577652717231],[127.8014698499972,35.856593617257225],[127.80300008940739,35.857581193190335],[127.80424476860537,35.85849838343953],[127.80513720681287,35.85788146364444],[127.80613282126274,35.85768123104127],[127.80714626024904,35.85703059043539],[127.80788478645573,35.856238729586],[127.80931584818153,35.855107855175284],[127.81192489891008,35.85388279712283],[127.81342091607,35.85354369470015],[127.81447853876473,35.854364315952736],[127.81472811563798,35.85474391464755],[127.8148675544665,35.85516869903016],[127.81458583356326,35.855775639297455],[127.81446829002839,35.85677478765149],[127.81597633355322,35.85783080550814],[127.81653184073888,35.85831332384942],[127.81725928542434,35.85911177550756],[127.81938435420662,35.85960275373331],[127.81940483960058,35.86066919694013],[127.81957266310212,35.86157747887584],[127.81933405870039,35.8624534475062],[127.82087539461489,35.86341430314744],[127.82084851417125,35.864211124479965],[127.82310188883629,35.86640272427705],[127.82425503417721,35.866833930210554],[127.82523305878405,35.86765108788817],[127.82645589796978,35.86828253329931],[127.8282666059319,35.86868108310296],[127.82956809041694,35.869052590250135],[127.8322395559496,35.86885336316518],[127.8334402393904,35.86735259499858],[127.83444472108602,35.86684485735788],[127.83568646210645,35.866812829372904],[127.8368721046525,35.867145527004425],[127.84144558006969,35.86626578957381],[127.84256104311083,35.86775230722404],[127.84445441553821,35.86956260972051],[127.84494131697686,35.87051534742226],[127.84433770893025,35.87259919716162],[127.8446174120718,35.873712727140514],[127.84437563177524,35.875341240668575],[127.84488108195269,35.87576928148835],[127.84675616079494,35.87813596929624],[127.84978017656422,35.87726895270337],[127.85099564766472,35.87791675203543],[127.85200922275153,35.87922119430245],[127.85352856043856,35.88162656920727],[127.85268494445374,35.88383456571068],[127.85269299980301,35.88438874062283],[127.85201119044284,35.885369672428524],[127.85124472754498,35.88746459372909],[127.85110453435314,35.88847285300331],[127.85124856456473,35.889448591459036],[127.85054122191508,35.890296873485525],[127.85150854816264,35.890548605688465],[127.85272308509764,35.891138515110605],[127.85376933458178,35.89223037899562],[127.85491611445616,35.893256468208705],[127.85710686256729,35.89501112414709],[127.85757923523276,35.895957645021696],[127.85825662790229,35.89695747380218],[127.85870117076408,35.89821279119675],[127.85896482132542,35.89992080365396],[127.85832641522104,35.90110485346352],[127.85830095895825,35.902785102035594],[127.85844809977816,35.90365529177992],[127.85814781200905,35.904030938252184],[127.858218903989,35.90431187136057],[127.85856839346975,35.90471023405728],[127.85849912810195,35.90472875331955],[127.85912692417054,35.90507139359382],[127.85917506465793,35.90530390559556],[127.85903444859504,35.90566773253811],[127.85914743550029,35.90569107618046],[127.85931059678748,35.90603653497128],[127.85917034448892,35.90628750820361],[127.85932407374199,35.906627293412186],[127.85963354410588,35.90667222071701],[127.85984979757183,35.90680212407071],[127.86067295949321,35.90641866240518],[127.86136146574349,35.906728105309284],[127.86213647198824,35.906846721551155],[127.86213588703376,35.90678255083592],[127.8623472700335,35.906731655142465],[127.86290539211514,35.90674014523464],[127.86306120819728,35.906632032790874],[127.86410854875115,35.90648387497455],[127.86451824522001,35.90635930720355],[127.86492961121084,35.905941389278865],[127.8654828581211,35.905770254090065],[127.86576255610665,35.90556322035557],[127.86631421132556,35.90509913467323],[127.8670581204824,35.90404738196428],[127.86768656270365,35.90399085204774],[127.86801765965946,35.904103598496846],[127.8683155736415,35.90434951338792],[127.86850798374806,35.904367669229075],[127.86908746477589,35.90425734021302],[127.86928281866795,35.90412842170294],[127.8699543216159,35.90439921418498],[127.87063479409771,35.90445294226842],[127.8709720644421,35.90464527572659],[127.8710388147464,35.904839282862326],[127.87146402080559,35.904852924114365],[127.87170106249857,35.90495596151177],[127.87165991472405,35.90520879819717],[127.87202760398729,35.90536433746947],[127.87234685198251,35.90526850842715],[127.87249139216385,35.905498863238805],[127.87283610093462,35.90568080981707],[127.8731008093052,35.90564084459495],[127.87345383994312,35.90578350775805],[127.87397083177366,35.906223766134794],[127.87510601356892,35.90667442401154],[127.87542473219595,35.90671232223553],[127.8760982895966,35.90698880428344],[127.87646033355722,35.90730596788826],[127.87700231051268,35.907438967846176],[127.87737646038813,35.90761899211556],[127.87740887397392,35.90813775505994],[127.87763875990116,35.908426771165644],[127.87769088882553,35.90882068032451],[127.87796292138043,35.90920426656097],[127.87896323651664,35.909546556271266],[127.8795436322088,35.90989606929066],[127.88116500055686,35.910041037648384],[127.88204246614268,35.910042327076084],[127.88500130452528,35.90956027893894],[127.88515066384628,35.9099617222393],[127.88571172712749,35.91086407975951],[127.88782016475142,35.91208209766822],[127.88778477369354,35.91316115617176],[127.88810810784524,35.914390262994694],[127.88807200956406,35.914950804782116],[127.88565534640361,35.91643734419619],[127.88468960627495,35.917160909368356],[127.88390731172515,35.91786300196926],[127.88236098429898,35.91946478224203],[127.88221283940024,35.92046600035383],[127.88279805158089,35.9211276856434],[127.88367162317935,35.92480430297],[127.88269148267862,35.926491921599805],[127.88249969357287,35.92707713597558],[127.88243552059194,35.92893020018496],[127.88372293098435,35.93005933772819],[127.88609372989784,35.931411394745155],[127.88780870058368,35.9318689386576],[127.88997466074319,35.93172475757741],[127.89190121541802,35.932036994082736],[127.89464505319359,35.93371482376268],[127.89541261218834,35.93428321668396],[127.89563166079748,35.93425795258837],[127.89602650048434,35.934607666946434],[127.89599073491011,35.934684689393556],[127.89631715054763,35.93507453134752],[127.89667062220285,35.93585226645428],[127.89730240630429,35.93643981001307],[127.897886648179,35.9371351936034],[127.89895623525098,35.937651926414006],[127.89956233494982,35.93768740794331],[127.89982584464818,35.93779164954178],[127.90091552145104,35.938609207578516],[127.90203790351573,35.93886019990479],[127.90285027030912,35.939414967815544],[127.90466650801586,35.94033794490693],[127.90573419989329,35.94042170819877],[127.9060595153613,35.94069345374674],[127.90671362283167,35.940941925391776],[127.90735481815416,35.940963152093815],[127.90816087083105,35.94114879619092],[127.908559337453,35.9414124575794],[127.90885906564823,35.94145953809456],[127.90798327376861,35.943816433340146],[127.9081707855966,35.94431470644131],[127.90946248412057,35.94510653944421],[127.91010373880077,35.945869254736515],[127.9107756135449,35.94754513245898],[127.91161764013748,35.94928116741457],[127.91283787307728,35.94974124911763],[127.9115425151611,35.94937754494366],[127.91051889720366,35.95025285186465],[127.91006468260002,35.9512046717346],[127.90764614648036,35.95207676148523],[127.90708490947046,35.95249380193861],[127.90645843034773,35.95346124876103],[127.90602186082995,35.953912209970646],[127.90560331520274,35.95383356629498],[127.90390688793872,35.95396662129754],[127.90342521697583,35.95457286668436],[127.90351342550169,35.95489608650543],[127.90340024151024,35.9556092700323],[127.90341199084966,35.95628279612957],[127.90255254789545,35.95668780274105],[127.90241268497248,35.956678184748114],[127.90220785831225,35.95683047798791],[127.901718476884,35.95811256969631],[127.90191569245911,35.95863394930875],[127.9017689156558,35.95902555300191],[127.90199708176681,35.959685241417475],[127.90195701763423,35.9600582719841],[127.90165132232043,35.96023613311069],[127.90139450069894,35.961287154830664],[127.90101300892111,35.961703915942266],[127.89998173860195,35.96221133643502],[127.89991762620957,35.96269435866803],[127.89972117965941,35.96288838324417],[127.89993600094955,35.96381838294633],[127.90019099791269,35.96432113654098],[127.90008323515666,35.96484757169122],[127.90016947772037,35.965439150950715],[127.90007832130081,35.96608779200023],[127.90024372579965,35.96630009113748],[127.89988707064582,35.96682841158273],[127.89943528203534,35.96794304665289],[127.89945835380281,35.9680457820398],[127.89832046460508,35.968570669515735],[127.89797846993886,35.969127730547825],[127.89763613581671,35.969938311297874],[127.8976582982392,35.97011174475616],[127.89744544644121,35.97074104354209],[127.89659755149474,35.97130328943888],[127.89600590168749,35.97186380579808],[127.89596368582593,35.97262916128897],[127.89627974852968,35.972909959110005],[127.8963421325388,35.97326382797744],[127.89694813864718,35.974037281043614],[127.89680312808133,35.974497492106984],[127.89674461980793,35.97527247719782],[127.89690910218687,35.97558562391253],[127.89674612296787,35.97639135424629],[127.89655314598836,35.976863512642375],[127.89637781411496,35.97797163530144],[127.89512025741074,35.97854722223679],[127.89398003598602,35.97859111404774],[127.89347254692525,35.97886535462886],[127.8922452596448,35.97874183034465],[127.89165826685317,35.97898261626324],[127.89145668123297,35.979200303290064],[127.88985211564409,35.97984421996057],[127.8900805331139,35.98091940813979],[127.89095633965593,35.98175385583288],[127.89115762224884,35.9822284209703],[127.89171574611468,35.98289823811969],[127.89181185983921,35.98326497074759],[127.89305003750935,35.984269071911825],[127.89357468311839,35.984526847698895],[127.8939580941579,35.984536509412905],[127.89352728671221,35.985783277791384],[127.89356222705298,35.98592194671876],[127.89245210124241,35.98726818836142],[127.89246749856204,35.9875798896837],[127.89229046484196,35.987727462054885],[127.8913285912531,35.987868666458],[127.89097650542443,35.98804865640065],[127.88898619675565,35.98953872508693],[127.88751378597847,35.990434164917545],[127.88673813583583,35.9915671148224],[127.88653761731995,35.99230138150885],[127.88612111406928,35.992476300315566],[127.88476502662974,35.99273054443457],[127.88433743434824,35.99303521236377],[127.88299268293497,35.99375067748246],[127.88134201577184,35.99442307304098],[127.88020855332219,35.994208375249336],[127.87919955533813,35.99502575605947],[127.87788086955759,35.99571984905322],[127.87556433210845,35.99716915024727],[127.87589688274373,35.99924130543266],[127.87588327989438,35.99965792159208],[127.87618091716926,36.0004069892903],[127.87730738681125,36.00099555778202],[127.87840380568379,36.0013921180365],[127.87868561751785,36.00309813575316],[127.87815434879597,36.00421230522245],[127.8780606780275,36.00636126203015],[127.87762367074147,36.00675815866134],[127.87645010676302,36.007437809909604],[127.87575546078389,36.008603890164764],[127.87561090548142,36.009854909903154],[127.87583237974624,36.01031825749033],[127.87567153509374,36.012140466872744],[127.875875133958,36.012478435149184],[127.87579016882299,36.01410991908152],[127.87512672789823,36.01590710262424],[127.87531406109274,36.0164777983824],[127.8751830921806,36.01723563494369],[127.87595791928975,36.018720740211776],[127.8764024332455,36.02002712269015],[127.87634360377821,36.02094870312724],[127.8764930636059,36.02289557661532],[127.8755714764718,36.02270240489031],[127.87266185499851,36.02323714347689],[127.87144124829153,36.02383441113476],[127.8677387802363,36.023770013507075],[127.86614713826064,36.02429065240034],[127.86432404132916,36.02570498893326],[127.86362358038745,36.02784983108137],[127.86302121420294,36.028616301636404],[127.86184619685507,36.02974146270777],[127.86092794580601,36.03085606371994],[127.86059499513624,36.03145846259923],[127.85934965748628,36.03202879428432],[127.85814402150795,36.03243039644058],[127.85566383542722,36.03292799028634],[127.85471497302952,36.034909525164345],[127.85358964982997,36.03691135052692],[127.85280782193743,36.039106236630964],[127.84897693723637,36.039312049615006],[127.84857335070595,36.03972880926693],[127.84768694369103,36.03944793948852],[127.84589085458158,36.03911717891054],[127.84320145807537,36.03800632650736],[127.8430706267946,36.037735760579395],[127.84195857475213,36.03688176805946],[127.8406435806406,36.03659633064358],[127.83908660531526,36.03587725672706],[127.8385002692395,36.03629484656132],[127.8370368359682,36.03619686445518],[127.83619456437775,36.036128599719476],[127.83485067059611,36.03580572876829],[127.83400359587974,36.03592742764274],[127.83345888329188,36.035773037216956],[127.8330509662255,36.03550233150975],[127.83213777242864,36.03543515211878],[127.83158503744998,36.03548055926132],[127.83039548077066,36.03522880801123],[127.83039165765912,36.03507381904501],[127.8300368276658,36.034605867648594],[127.82980530475717,36.034519612636664],[127.8295698587146,36.034009513188],[127.8286228055323,36.03382426897798],[127.82842435682204,36.03358186533029],[127.82603017812133,36.03279941549047],[127.82575570519853,36.03293967629073],[127.82523050955245,36.03213834952106],[127.8248965831878,36.032000168093255],[127.82395644514581,36.03184705653747],[127.82329363569177,36.03129779463292],[127.8225878019407,36.0311339516502],[127.82241380238995,36.031028605943774],[127.82204343779729,36.030467507759376],[127.82183054380981,36.030308859321536],[127.82134829634508,36.030262967214945],[127.82079392013948,36.030061875178355],[127.82019884673511,36.02970299726576],[127.81979277449672,36.029796714257884],[127.8191186985914,36.029271388007466],[127.81850387541353,36.02813030406435],[127.81758911891531,36.02789073275661],[127.81698358329186,36.02810151453464],[127.8162745068663,36.02809375328063],[127.81603796667198,36.028180337698444],[127.81596967452383,36.02845092850951],[127.81461011417272,36.02901371706393],[127.81437956235378,36.02893027316198],[127.81434630583418,36.02880133889874],[127.81357312627067,36.02815125145293],[127.81286749958942,36.02790580025331],[127.81249055512261,36.027981703087285],[127.81202004972594,36.027840283773365],[127.81154077682628,36.027811985752706],[127.811090460637,36.027374516895016],[127.81066821733836,36.02733662871677],[127.81036252587492,36.02719836861011],[127.80923429048262,36.026936771337645],[127.8089560623353,36.02700265241274],[127.80842320005257,36.02741968145743],[127.80764966879826,36.027309476798216],[127.80696673390351,36.02666588489763],[127.80613957654951,36.02618921545571],[127.80550020272857,36.025957099723705],[127.80463978081163,36.02599774299603],[127.80394857916224,36.026263349760534],[127.80349694867895,36.026306587754156],[127.80311756601591,36.0266648703578],[127.80157434373461,36.02607565237247],[127.8010758755065,36.02659153317349],[127.80073456575145,36.026559296839864],[127.79944058873768,36.026066095970435],[127.79865327524689,36.02545518042984],[127.79804832439734,36.02543784047622],[127.79726575625877,36.02500870261638],[127.79737470077832,36.02447809745649],[127.79703021249973,36.02374049099999],[127.79681673602269,36.02288486607734],[127.79621170070655,36.022470131612934],[127.7955031094297,36.022323323329445],[127.79497925226372,36.021936855566175],[127.79499169803863,36.021695971284935],[127.79419419178954,36.02138472599307],[127.79363677322853,36.020787493834575],[127.79362731296384,36.01997016466552],[127.79328452936743,36.019927317876736],[127.79288807492851,36.02000934487104],[127.7923001727025,36.01993885409651],[127.79145831867535,36.01912930977542],[127.79081394161769,36.01879832147878],[127.7908023079566,36.01862985551487],[127.79036873217274,36.01834239965406],[127.79009115987105,36.01785686653322],[127.79001183393358,36.01725567291348],[127.78950061963559,36.0163912326386],[127.78908963734413,36.01606839594192],[127.78875035750255,36.01565157672993],[127.7887920629815,36.01560225860013],[127.78861992052754,36.015297890967275],[127.78843019833961,36.01511491376194],[127.7880709834333,36.01493670985411],[127.78761859814513,36.01450394837977],[127.78461470032231,36.01603390468556],[127.78361981427668,36.01642045718575],[127.78286359719142,36.016522401436674],[127.78153370957976,36.016508815082695],[127.78000319784722,36.016342395334114],[127.77527406854885,36.01537866029513],[127.77521009495992,36.01505788383606],[127.77431618446559,36.014929469043466],[127.77174311008758,36.01368387836724],[127.7698185493316,36.01286784015765],[127.76883316439506,36.01254796901688],[127.7679087878691,36.01235204827024],[127.76618260706742,36.01220671002279],[127.76505227714607,36.012297576179314],[127.76426750775165,36.01243005453909],[127.76348865451028,36.01265644236942],[127.76155585434526,36.013324835930874],[127.7606521258547,36.013839663448366],[127.75992547283622,36.01438156022585],[127.75935857650123,36.01497060203783],[127.7592834601581,36.01521151042215],[127.75928868587954,36.01592401605509],[127.75999880022668,36.01706015793358],[127.76069184941645,36.01798151899993],[127.76264450504617,36.021573941412655],[127.76225226745558,36.024107921364134],[127.76160457827623,36.02517892922787],[127.7607636376612,36.02546481222762],[127.7597598927641,36.025602634437305],[127.75824271126086,36.025284009119616],[127.75714036748722,36.02476649071453],[127.75622435107547,36.02444283472204],[127.7552044896229,36.024195725677174],[127.75449768410783,36.02444651946962],[127.75427285022157,36.024213530173384],[127.75440268205911,36.02414238279724],[127.7543067912158,36.02399868551193],[127.75398097434835,36.02411664733106],[127.75385811922487,36.02405609263373],[127.75422125747828,36.0245516890658],[127.75235019549086,36.025243637144115],[127.75162093701404,36.02568108629818],[127.75074166800877,36.02661470989921],[127.74969395802411,36.028051017133215],[127.74882648474829,36.0288704428544],[127.74826267797928,36.02935937739103],[127.74777685562114,36.02965956492724],[127.74730474393634,36.029701154183066],[127.74547607345878,36.02889127747322],[127.74415439757257,36.028870489304495],[127.74358621197224,36.02846996226523],[127.74351821487525,36.028267890490156],[127.74359603664726,36.02795136713129],[127.74355796247261,36.027362397536905],[127.74299894083799,36.02609008019202],[127.74252913483498,36.025304723845],[127.74223337521056,36.025029637597825],[127.74148530878938,36.02480150454114],[127.7406259369945,36.024994630075646],[127.73996622843276,36.025320532701926],[127.73944883180769,36.02573449244117],[127.73910471129774,36.02687698256313],[127.73731505215805,36.029816823034736],[127.7368015139072,36.03047296593701],[127.73483502476634,36.032319380026784],[127.73261055217425,36.03241033295423],[127.73082577625131,36.03231151652204],[127.72936199853217,36.03154079932362],[127.728576811794,36.030922247999904],[127.72753034146315,36.0297038112297],[127.72797726395116,36.030906639617776],[127.72661523108624,36.031729858844955],[127.72586965875533,36.031979869216066],[127.7250399751679,36.032416192590595],[127.7242071417297,36.031942479025545],[127.72355207155093,36.03130594425234],[127.72239371309851,36.03198330602587],[127.72116630565044,36.03177172311363],[127.71918237113174,36.03186402787422],[127.71829967661945,36.0335361677804],[127.71802284620432,36.033920588937754],[127.71734064413198,36.0344496760403],[127.71665782941514,36.03472678836145],[127.71570214101983,36.03485569639556],[127.714372133641,36.03546235946081],[127.71339147460615,36.035726245083374],[127.71247447511912,36.03588631296091],[127.71163905853034,36.0359006542022],[127.7108092682473,36.03578289361224],[127.70967954874621,36.03541131977562],[127.70876653970575,36.035245174303405],[127.70721564446649,36.035121591678184],[127.70673101801805,36.03498506412545],[127.70571844762433,36.03399468071676],[127.70605814452851,36.034703753163726],[127.70573636385141,36.03492794082257],[127.70472080849734,36.03476754828172],[127.70361644159462,36.034413692881344],[127.7019252887515,36.03527110962279],[127.70175415622066,36.03577803386189],[127.70021487363657,36.03659090460631],[127.69957834711745,36.038885608562886],[127.69902801013622,36.03908635462346],[127.69845100867771,36.039501388165604],[127.6979641260401,36.04007014396513],[127.69784371777536,36.040178257218614],[127.69766299835331,36.04021034521701],[127.6974383155556,36.04063333955581],[127.69646105899083,36.04110272936388],[127.6962173771187,36.042232498914636],[127.69626783564306,36.04297186680874],[127.6960797134241,36.04324840981981],[127.6961526850298,36.04381671893882],[127.69583713603188,36.043934206541515],[127.6954304490821,36.04472818294291],[127.69537839382316,36.0453402823943],[127.69501864036462,36.04590831725196],[127.6950695336603,36.04647913123686],[127.69537633590836,36.046643455988836],[127.69546469325344,36.04727202736534],[127.6953220760126,36.047396518127485],[127.69527024108456,36.04876506337242],[127.69508316782529,36.049020139726906],[127.6951143705259,36.04970167125701],[127.69603903159401,36.05038105809413],[127.69595716392132,36.050817101144204],[127.69599722821805,36.051426115881775],[127.69534038464286,36.05230144403355],[127.69519593537177,36.05272282222702],[127.69578687174754,36.05371497409798],[127.69588567241657,36.054315576424386],[127.69570184558307,36.054463859132895],[127.69552347479195,36.055735537575146],[127.69492943242487,36.05742472150947],[127.69509377821457,36.058728254699204],[127.69460815429166,36.05898469716489],[127.69314235582596,36.057922729746444],[127.69274485999983,36.0579145321705],[127.69153743619762,36.05837820826849],[127.69073564841874,36.058034711853416],[127.69043898854797,36.05864812362208],[127.6900709833951,36.05983422384791],[127.68930802554797,36.06174820772356],[127.68891790913666,36.062057132284565],[127.68901523592339,36.062671669480686],[127.68808963679905,36.06274476338248],[127.68768136226491,36.06251798065892],[127.68664729843208,36.0624246385896],[127.68554655793086,36.06219080869414],[127.68487887574616,36.061724596376],[127.68465748154807,36.06138336542036],[127.68413065213741,36.06116825910275],[127.68391172043606,36.060990869577054],[127.68376522592203,36.060587588590565],[127.68359983039001,36.06046848132938],[127.6833372145047,36.06047757271802],[127.68286230742332,36.05991891574518],[127.68238750480478,36.05956620731752],[127.68214138202303,36.059269397779744],[127.68177850122939,36.059255184239454],[127.68127185060695,36.0586272533612],[127.68084015622931,36.05823790345661],[127.68054771482839,36.0582082710024],[127.68026936474944,36.05809035695419],[127.68017427856493,36.05795292174336],[127.67919899052595,36.05758184711699],[127.67900802848241,36.05729719207335],[127.6779198521941,36.05667913855483],[127.67761733933047,36.0562132659566],[127.67740154435799,36.05613853937958],[127.67716826645405,36.05550393973925],[127.6765328892095,36.05579840957056],[127.67596297042724,36.05591267220013],[127.67552150269326,36.05581971684009],[127.67448262542052,36.055067986321454],[127.67434769994384,36.05471826851938],[127.67409259682694,36.05445118588065],[127.67307376465452,36.053624135084284],[127.67212064018129,36.05320103918887],[127.67156453601486,36.05307144723834],[127.67135492322981,36.05284575026595],[127.67105939623526,36.05227208427705],[127.67076472512929,36.0519919237903],[127.6701737330677,36.05168555250363],[127.66977577580599,36.05137445846271],[127.66916816005151,36.051153958294],[127.66919456531845,36.05060771887708],[127.66931628671715,36.05027417314008],[127.66945496939455,36.050257694569744],[127.6702912844646,36.049459433939184],[127.67129751726888,36.04924540297784],[127.67181424250505,36.04848369452156],[127.67161169878636,36.04744618345602],[127.67162561572222,36.04678099316945],[127.670882114718,36.04603367009457],[127.67088123151542,36.04552838814222],[127.67053192384907,36.045023854661714],[127.6709186532173,36.043836442925645],[127.67176628469932,36.043247712715186],[127.67225068544181,36.042471454890105],[127.67272567619881,36.04192393034037],[127.67273547602962,36.04162999349863],[127.67232315788578,36.04147222845646],[127.67223177191076,36.04130656874428],[127.6714908058414,36.04072722695566],[127.67126194439375,36.04064337828897],[127.67103539094126,36.040319617175534],[127.67052736977907,36.03989081021455],[127.66974060075341,36.03980913380922],[127.6693969132622,36.03962045242375],[127.66930800090296,36.03902791239417],[127.66905879889869,36.038655309778036],[127.66850852728024,36.0387203116324],[127.66802824632603,36.03866247440302],[127.6675612792083,36.038326379550945],[127.66717736959619,36.03819320458833],[127.66652283027635,36.03812100924723],[127.66611731466979,36.03816959748624],[127.66441287528077,36.03751054021595],[127.66334939698552,36.03815728696823],[127.66293088133611,36.03822794398934],[127.66225057265031,36.03861283996171],[127.66190792608168,36.03860363449431],[127.66133793976462,36.0382796798043],[127.66089799874186,36.03819391688911],[127.6602286628444,36.038541206708416],[127.66010223454926,36.03892099260425],[127.65979332713404,36.03934717392326],[127.6594212480153,36.039634772488455],[127.65924060286979,36.040504901826075],[127.65948683407751,36.04080275830551],[127.65976087905024,36.04184648003623],[127.65994741868681,36.04220056404897],[127.65935634812563,36.04276333004104],[127.65846500403217,36.04441083048059],[127.65858039151138,36.044499282253234],[127.65834885142021,36.04485935558926],[127.65837136678186,36.045826692124706],[127.6581046655309,36.04605176993876],[127.65791573793179,36.04690725111719],[127.65805290440927,36.04731702345125],[127.65801010030786,36.04768296699179],[127.65771150325574,36.047987631043206],[127.65743190939783,36.04861946939504],[127.65714316382403,36.048883136560534],[127.65688213078974,36.049005190715974],[127.65685445769162,36.04927734179741],[127.65632445483405,36.05005663278296],[127.65635765723034,36.05093107719658],[127.65607860524324,36.051105756987056],[127.65585584278742,36.05165704904528],[127.65566658028064,36.05187319042405],[127.6553865510184,36.05198920728503],[127.65471507290212,36.052577819298506],[127.65494315660443,36.053161359011234],[127.65487303260014,36.05320628726348],[127.6550750478444,36.05347307571047],[127.65525728593792,36.054001141783246],[127.65521162162824,36.05420577601261],[127.65506123306335,36.05430031790682],[127.65487483294771,36.05503537239807],[127.65465322282066,36.05519013607284],[127.65460671252836,36.055264252261274],[127.65467253293858,36.05531476611702],[127.65444508699785,36.05534624878001],[127.65421631471294,36.05565409197491],[127.65442651080826,36.055902886059826],[127.65443928347469,36.05661755056995],[127.65382883644641,36.05648947910643],[127.65355441172596,36.05650534539438],[127.6528389130877,36.05710237861489],[127.65242128308444,36.05712145592578],[127.65221944297032,36.057222574476704],[127.652232634914,36.05734191312835],[127.65211619962346,36.05725857237134],[127.65159432946278,36.057473103764956],[127.65127240404499,36.05750596025608],[127.65057968756251,36.05727749802974],[127.6501062676644,36.057438986763344],[127.65006820156657,36.05756226122756],[127.64905015735457,36.05799282448632],[127.64890592343352,36.05816403975958],[127.64894427142431,36.05839075509738],[127.64866929072791,36.05896866597278],[127.64864229073842,36.05935931096714],[127.6488273449571,36.05993132245639],[127.64846026212999,36.060863586718526],[127.6485367801395,36.06191573269265],[127.64842367213181,36.0625767772146],[127.6480911083568,36.06312716198079],[127.64769592205761,36.06352742267904],[127.64691153816021,36.064219174704654],[127.64664609145771,36.06436342496579],[127.64610807503112,36.06508555991772],[127.6459323055687,36.065582984800905],[127.64513005570403,36.06604954737607],[127.64455009061504,36.066813750549194],[127.64374580886681,36.06711480978137],[127.6434999660032,36.06738956256019],[127.64224839004466,36.067394337905654],[127.64152296487786,36.06777231988687],[127.64074309286356,36.06796752571403],[127.64013003955161,36.068249047498036],[127.63970286339533,36.06834447202474],[127.63909699724795,36.068217238338036],[127.63806309394275,36.06866709755331]]]}}
