{"type":"Feature","bbox":[127.36181161000125,35.46803227728433,127.69978916292844,35.838940046367796],"properties":{"regionCode":"52740","version":"vworld-20260909-3f8952dfda77-p2","name":"전북특별자치도 장수군","attribution":"국토교통부/K-Geo플랫폼 · VWorld 법정구역정보, CC BY 2.0 KR; 두꺼비집 가공"},"geometry":{"type":"Polygon","coordinates":[[[127.619960251973,35.838940046367796],[127.6197389089229,35.83886178305759],[127.61931207104865,35.838894187967426],[127.61884133156246,35.83882302985195],[127.61838365377558,35.83893623070605],[127.61784846740417,35.83879100293389],[127.61757786355264,35.8385565912211],[127.61700843750306,35.83835112542546],[127.61652664450673,35.837888268181096],[127.61603629258019,35.83759662913165],[127.61594811733293,35.837440689189414],[127.61508222346306,35.83678092012403],[127.6142965518215,35.836512367283845],[127.61384237756316,35.83605669300468],[127.6136665368087,35.83552994994201],[127.61367430816387,35.83530845997651],[127.61350966808686,35.83517771678727],[127.61318911557959,35.83512431149008],[127.61313260759421,35.83519830103334],[127.61296017750446,35.835039002943894],[127.61290778395362,35.83476763609321],[127.61305032107012,35.834794830165194],[127.61314143495866,35.834555999388705],[127.61306334362047,35.83420743853207],[127.61239470461153,35.833945496250955],[127.61220674938728,35.83398631324696],[127.61221204816827,35.83407568938273],[127.6125198121294,35.834141870786006],[127.61193410232686,35.83428709146821],[127.61120412000766,35.834141270484665],[127.61166086424309,35.83416119654106],[127.6117693245159,35.83409881009207],[127.61113062782668,35.83409584277553],[127.61037149951572,35.83387929364012],[127.60974560862482,35.83342935666528],[127.60951787013417,35.83300540496024],[127.60911859978643,35.83264940860083],[127.60903080085183,35.83241956819733],[127.60872845238714,35.83239928518286],[127.60846210484213,35.832165173385285],[127.60852924127823,35.832110256466706],[127.60822254882228,35.831722560863774],[127.60790607473592,35.83144658566591],[127.60779404070759,35.83151036396108],[127.60772116018785,35.83130641990772],[127.60751008935772,35.83111143897023],[127.60726885004063,35.83043189661471],[127.6068971602439,35.83006119693288],[127.60646217647748,35.82926699111006],[127.60606839247258,35.82809070390422],[127.60524028236368,35.827561703132936],[127.6052975944783,35.82648912189011],[127.60456146795315,35.82480606817539],[127.60432200540683,35.82366022836638],[127.60447232102834,35.82204396812999],[127.60444490110446,35.82152479183953],[127.60421232067544,35.82126000554202],[127.60423651384563,35.82076703056178],[127.60397137425711,35.819706077518845],[127.60360032251421,35.8187297870969],[127.60326252101768,35.8181041884948],[127.60284911169103,35.81776264268992],[127.60284532089571,35.81754600254068],[127.60255832040116,35.8173330864053],[127.60244161409868,35.81711532712434],[127.60228019054314,35.81597219941484],[127.60230544546265,35.81522530515404],[127.60220891861213,35.815050928859215],[127.60245218374105,35.81486478933011],[127.602291705285,35.81435319067074],[127.60245686054773,35.81382471579725],[127.6021394772141,35.81356452712193],[127.60230570590201,35.81306563730251],[127.60227324303372,35.81257798292536],[127.60246179852264,35.8121952929192],[127.60250625303713,35.81172210169409],[127.60217602699258,35.8111700670079],[127.60203495520834,35.81057031759202],[127.60131052115189,35.80943441519994],[127.60133175883335,35.80887761283273],[127.60138806869965,35.808611952704716],[127.60148461452313,35.80860173880727],[127.60146808222525,35.808371930916785],[127.60121367547116,35.808212895338556],[127.60108823163087,35.80792577449802],[127.6009892669411,35.80762120650739],[127.60110111736151,35.80746439059699],[127.60078670144439,35.80720775516316],[127.60074548968059,35.80671747628633],[127.60018225947002,35.80626088534641],[127.60023169994166,35.805824175415964],[127.60014848826275,35.80574115296988],[127.59974357957839,35.80578219246028],[127.59948160776783,35.80567332753492],[127.59889101966728,35.80517680396412],[127.59872395826132,35.80527696915627],[127.59837887761654,35.80530398155132],[127.59828681270896,35.805539878222675],[127.59785110074081,35.80602280763426],[127.59737380063561,35.80624910767032],[127.59734049616607,35.80642346347552],[127.59697570706508,35.80669525503069],[127.59694849922704,35.80686694240272],[127.59651277933582,35.80717302434039],[127.59630495991208,35.80752353644838],[127.59631412470613,35.807743593632004],[127.59660275600761,35.80775509577312],[127.59647356053117,35.807803771748056],[127.5964552436665,35.80806692689576],[127.59600244708805,35.80784661351357],[127.59568625461304,35.80818562876055],[127.59542847102533,35.80808233095747],[127.59517219471752,35.808119269833114],[127.59492535879345,35.80848657155677],[127.59459254304106,35.80851212440569],[127.59440844945173,35.808020720548804],[127.59398301699109,35.80768673570142],[127.59345261211055,35.80695594551883],[127.59314275414329,35.80682250232422],[127.59307049970992,35.806619779634616],[127.59286421141768,35.80649078885181],[127.59267294404324,35.80647462607731],[127.5925710071685,35.806290282999576],[127.59221393349397,35.806264107394156],[127.59215267594679,35.80607753458822],[127.59225676858172,35.805879797301756],[127.59206111147789,35.805781657725646],[127.5917167777236,35.80575748150338],[127.59152189932963,35.80585874706426],[127.59140010663974,35.806071949193196],[127.59108250165276,35.80595064781218],[127.59156697205466,35.80503744930059],[127.59172726206693,35.80482988159994],[127.5919218716929,35.80477057023767],[127.59190344099893,35.80450154169476],[127.592098002851,35.8038455464561],[127.59190782669734,35.80285325501109],[127.59147126730548,35.80276276918874],[127.59014205808839,35.80226205554994],[127.58966672867852,35.80104459478371],[127.58953247364347,35.80079000227691],[127.58935233082049,35.80066166207387],[127.58880899557018,35.800595301176706],[127.58832079423763,35.80062585798875],[127.58556069529824,35.800903658847886],[127.5854206569441,35.800794315686915],[127.58552938424101,35.80038462515021],[127.58531337793283,35.80006077456474],[127.58516625477402,35.80008509288812],[127.58549705526033,35.79884698208211],[127.58560743499704,35.79886626502326],[127.58574607642308,35.79844066984283],[127.58537005450795,35.79777028929461],[127.5849490376951,35.79747399268253],[127.58432768057317,35.797230001452334],[127.58335163929571,35.797077939610645],[127.58238321945406,35.79600736686576],[127.58150734816952,35.79520743270111],[127.58134577013921,35.79527685183485],[127.57973223760973,35.79453877864049],[127.57934183328412,35.794150624012964],[127.57866311277138,35.79386921652828],[127.57839779798618,35.793906720696],[127.57758754903386,35.79429872647726],[127.57718307684152,35.79483701171453],[127.57672303578971,35.79525437261885],[127.57645381633075,35.79533430184738],[127.57633064963755,35.79514990222063],[127.5762027046078,35.795139086335446],[127.57621214648493,35.794946354400246],[127.57588498135253,35.795025866457316],[127.5747985894206,35.795031782023614],[127.5741133274459,35.794768747916514],[127.57357219616962,35.79435888590545],[127.57342955986996,35.79431839635944],[127.57324367537944,35.794442283027045],[127.5728651542744,35.794423742973756],[127.57244688914344,35.79371117806381],[127.57201934325691,35.79353936333452],[127.57160947622772,35.79316444364969],[127.57095667180805,35.79288092325828],[127.57077011294216,35.79317088952249],[127.57010842763016,35.79364623892191],[127.57011632653371,35.794290697979164],[127.56995324823194,35.79493035171943],[127.56955691271058,35.79519907476545],[127.56934916070969,35.7950399858193],[127.56942209657447,35.79557821566285],[127.56894189630333,35.795750684291036],[127.56898804991069,35.79578673183263],[127.56877380548279,35.7960075561185],[127.56863152625772,35.79596593185347],[127.56850138428304,35.796049370306605],[127.56846998520724,35.7962713231563],[127.56814111308596,35.79664049273812],[127.56803251931919,35.79666949278162],[127.56780037871272,35.79704385409322],[127.56692037883535,35.79748945217645],[127.56622582566322,35.7976482738379],[127.56608429813811,35.797602188524415],[127.5655605684282,35.79767436718283],[127.56524473864617,35.797997556830474],[127.56493166837889,35.79812449472956],[127.56466454123249,35.798605929496674],[127.56448820194028,35.79865584617489],[127.56409928263976,35.7989994270191],[127.56340521410075,35.799151073199795],[127.5632636243185,35.79903335595602],[127.56308244789095,35.79900629962966],[127.56287009038468,35.79917024504222],[127.56257579473912,35.79918352441799],[127.56253732397556,35.799267574030225],[127.56204512284043,35.79917827608452],[127.56187212628178,35.79888700708206],[127.56151314530955,35.79877709751291],[127.56096402991966,35.79879312676987],[127.56036623109999,35.79857770750744],[127.55982069428622,35.79868296533198],[127.55937764830293,35.79934143394981],[127.5593935745679,35.7996510727661],[127.55918532721991,35.79983610042457],[127.5590543333474,35.80028876222722],[127.55848711490653,35.80108235162707],[127.55857330030342,35.80123532611502],[127.5582845512596,35.80165325382343],[127.55819114671283,35.80166598852509],[127.55833535884821,35.80228007790603],[127.55828679448673,35.80244535832103],[127.55797548499412,35.80279873445689],[127.55757091240082,35.80288255628901],[127.5574843424217,35.803015926251],[127.5575828380781,35.80310494513335],[127.55729826449618,35.803207471304695],[127.55725937692385,35.803347319071975],[127.55707337375546,35.80348429204735],[127.5568897850575,35.80378900348725],[127.55681172829973,35.804126968988676],[127.55633759302083,35.804567189885965],[127.55622700823845,35.80526010876365],[127.55575217803587,35.80536953814908],[127.55550732373754,35.80552485151617],[127.55522677015061,35.8062192831058],[127.55502397947092,35.80626656525764],[127.55457791474039,35.807055115610844],[127.55408403094098,35.80741503601109],[127.55363963233864,35.80758046478539],[127.55350702304754,35.80801399546879],[127.55344189410827,35.807985715273354],[127.55290785345717,35.80825559271197],[127.55252759457892,35.8080168311214],[127.55197192461156,35.80791961076153],[127.55127648343007,35.80729437219258],[127.55078189165691,35.806477457098936],[127.55025725677025,35.80583521132329],[127.55001520293712,35.805755933329266],[127.54896210614123,35.80622608201307],[127.54783833719272,35.806557794487134],[127.54602254596776,35.80752287784413],[127.54453604214216,35.80778716612104],[127.54391046933046,35.80695275270907],[127.54301659524067,35.80673841015379],[127.54173859962654,35.808403423143396],[127.54175545526577,35.809317434106035],[127.541190523707,35.81020416420686],[127.54070356863309,35.81030334989966],[127.54003891128512,35.81088272873701],[127.53980940801709,35.81093909326655],[127.53851095484129,35.81164992463133],[127.53747984506316,35.812423575868685],[127.53634857654039,35.813612452840914],[127.53493269000445,35.814570267515144],[127.53319622796852,35.81534256622424],[127.53260434829697,35.815023240196346],[127.53130518762899,35.81401656180407],[127.52864508832451,35.81366823592189],[127.52737887716336,35.81335032496776],[127.52628604334542,35.81317944094607],[127.52576680202753,35.81322348942629],[127.52455636117398,35.812755211022775],[127.52386225844899,35.812807825237044],[127.52272164018785,35.813063807699216],[127.52136796759709,35.81215579919787],[127.52038901710499,35.811010654062834],[127.51940750347136,35.809606051906144],[127.51910727983035,35.808500084306566],[127.51899210214603,35.80735037415678],[127.51955258009589,35.80718417642605],[127.51985075969495,35.80657413601184],[127.51948381973016,35.8054684394577],[127.51895689721155,35.80442349668534],[127.5183712863792,35.80297552364516],[127.51778413938003,35.8024253958268],[127.51678415774555,35.80212882048353],[127.51605777768764,35.801091649670084],[127.51564655531341,35.80082399178119],[127.51460772739539,35.80046393795895],[127.5138601286345,35.8003348597473],[127.51343970181465,35.79964125709027],[127.51325749182087,35.79953515430497],[127.51288243618706,35.798533232224266],[127.51302467265165,35.79824580417643],[127.51305635832081,35.79785416738608],[127.51293498419481,35.79755301796908],[127.51272761785654,35.797352767572086],[127.51275420998806,35.797200579484894],[127.51259102456439,35.797068862068066],[127.51212927898655,35.79698229403211],[127.51211710751143,35.796662250848655],[127.5118565713626,35.796585146408944],[127.51163876190382,35.79631667817894],[127.51155125441323,35.79550061850719],[127.51122619555566,35.79401892189361],[127.51132484311634,35.79357693945934],[127.51090525939597,35.792978529717956],[127.51083850826384,35.79257062230252],[127.5110376510434,35.792022421192726],[127.51081107828954,35.79160193074624],[127.51086422661278,35.79113874274784],[127.51104708326787,35.79089743658224],[127.51172241440324,35.790691185227224],[127.5122605633533,35.790613918120535],[127.51265600694205,35.79022070873022],[127.51246337678788,35.79008169091045],[127.51258710986005,35.78929897824708],[127.51299714871612,35.78843457806799],[127.51335937010724,35.786379858040426],[127.51323955981907,35.78564165008061],[127.51326300686283,35.785037526947335],[127.51293141608504,35.7845058016118],[127.51213071570093,35.78199736932976],[127.51205240687852,35.7811498241227],[127.51121385680196,35.779449003054765],[127.51108925440212,35.77770369054099],[127.51141235889449,35.77593415948278],[127.51165612874617,35.77552316317179],[127.51227161862982,35.775121495098475],[127.51343086676742,35.77416732404445],[127.51361246487167,35.77373510443865],[127.51340936234143,35.772318537153325],[127.51313299774489,35.77196298152208],[127.51312985436957,35.77145694272614],[127.51284918179513,35.77118607325203],[127.51323021500542,35.77020727228679],[127.51395773622669,35.77013470630107],[127.51493759652546,35.76872960341984],[127.51585505554715,35.768459552614836],[127.51687919426325,35.767949035178546],[127.5174069336767,35.76745406823128],[127.5171062137703,35.76694164504524],[127.51681901922991,35.766158308340536],[127.51709631443816,35.76590659016166],[127.51711574894419,35.76555273923551],[127.51737214576528,35.76519861987061],[127.51730479990195,35.7649706020061],[127.51712852448794,35.764842056635324],[127.51730215617192,35.764614123213356],[127.51782285614821,35.76339982399324],[127.51943049473267,35.761980793353885],[127.51924884956222,35.76136080208807],[127.51936268764493,35.760884991684975],[127.5192405859563,35.76047793597009],[127.51947483027583,35.7600848396859],[127.51938236930472,35.75943469424593],[127.51918590999564,35.75916605604854],[127.51911366277423,35.75839779885936],[127.5196439633522,35.7580777408967],[127.52063751093897,35.757802620423405],[127.52124462095217,35.757394921682355],[127.5214154344315,35.75699149630869],[127.52275856693313,35.7564024017041],[127.52278154221204,35.7555819022331],[127.52219601253233,35.75540029153943],[127.5222583770571,35.75495830038977],[127.52244984460782,35.754617347202085],[127.52245772592062,35.75431492415634],[127.52155373975327,35.75394222888007],[127.5210854705653,35.7530908922496],[127.5203181835209,35.75279151851447],[127.5200024718513,35.75180659293116],[127.51980922667828,35.75146120977934],[127.51998433188423,35.75054920544159],[127.51954302944965,35.750231604153136],[127.51868191178356,35.75057815697089],[127.51784537184855,35.750208854705186],[127.51754195610833,35.750394489451345],[127.51569872921233,35.74921286498606],[127.5151013321712,35.74867827718716],[127.51434631651861,35.74819638764717],[127.51368318509519,35.748294827569985],[127.51296637264298,35.74760783247644],[127.51242590327296,35.74742567862384],[127.51216407884803,35.74719094013495],[127.51140663218597,35.74716874040782],[127.51074817462363,35.74726230933674],[127.50988667039893,35.74719800846669],[127.50876410031671,35.746926341654216],[127.50873693874101,35.74674358272279],[127.50808323360691,35.74629628523684],[127.50767947456079,35.74560069309658],[127.50703811703673,35.74541101798694],[127.50682919949602,35.74520710234371],[127.50659249384248,35.745109066592214],[127.50646723050906,35.74476665670252],[127.50652497607605,35.744168856576565],[127.50608340795966,35.74361272186139],[127.50553542074407,35.743300700351654],[127.50532047844158,35.74296410518394],[127.50448496586795,35.74222226286406],[127.50209682646134,35.740530472770395],[127.50092722245685,35.74047903124803],[127.50000001437691,35.739764967229924],[127.49928563739482,35.7389791869007],[127.49949248747441,35.73872357299415],[127.49745401489459,35.7382351122866],[127.49637343429136,35.73764745373313],[127.49624396799229,35.73741549001522],[127.49560905621857,35.736969415780116],[127.49515991149771,35.736922250306485],[127.49338529762748,35.73503079529805],[127.49199754497234,35.73446772332644],[127.4915413529807,35.73351489715522],[127.49050734106991,35.73257902071941],[127.49042182862746,35.73207744719641],[127.49018101227428,35.73187758044894],[127.49009439887621,35.73157378554867],[127.48900873658009,35.73108095686248],[127.48861876093413,35.72956666434222],[127.48843935274132,35.72943346311272],[127.48801032906248,35.72829219622098],[127.48768998371277,35.72780910013357],[127.4877021144343,35.72721504987761],[127.48675730247979,35.726463176754336],[127.48429525204656,35.72542175475075],[127.48401304737281,35.72473066427462],[127.4837941764272,35.723291707027315],[127.48345910461282,35.722295220106915],[127.48239332151968,35.72197047265121],[127.4813838405638,35.72110542431538],[127.48091790872517,35.72123011436341],[127.47991897428598,35.721246779961284],[127.4796560327975,35.72135158708516],[127.4792467160924,35.72123571463152],[127.47859429044047,35.7213274644683],[127.47816201302483,35.72079845265649],[127.47806053167915,35.72023394487486],[127.47780160274343,35.71994678387302],[127.4768673211169,35.71944533946313],[127.47628371504378,35.718471534010455],[127.47605471441767,35.718448985614295],[127.47613909385917,35.717252652926796],[127.47636365947812,35.71668483005427],[127.47617533258641,35.71624498158693],[127.47608105772476,35.71545705646379],[127.47680336933455,35.714721337435535],[127.47711062003482,35.713887520555986],[127.47711381891196,35.71351842325048],[127.47691015095218,35.71310713485759],[127.47743880111157,35.71193985963348],[127.4776591810121,35.71066825421415],[127.47703849621384,35.70829649743396],[127.47803390093996,35.707422671082156],[127.47813655896913,35.70690531881965],[127.47844980085681,35.7062053467654],[127.47832265300532,35.705563746738044],[127.47831640978576,35.704942053091195],[127.47794545151305,35.704560170513574],[127.47803684411478,35.70347957299433],[127.47775870381784,35.70245392912417],[127.47740867989476,35.701533187518315],[127.47688971786884,35.700714303101655],[127.4754321754816,35.69979864480708],[127.47491020598027,35.69906188136748],[127.47329557081459,35.698037651766086],[127.47300072698454,35.69768706990859],[127.47201855510163,35.69692254169185],[127.47114897469297,35.696713797910675],[127.47028229958518,35.69600938636491],[127.46942600582645,35.69569726756061],[127.4688679901307,35.69538817393351],[127.46862525534485,35.69542577062004],[127.4683235726751,35.6953114087198],[127.46786456922587,35.69527934555673],[127.46651531475511,35.69491972467171],[127.46607476393619,35.69420372958112],[127.46534314432239,35.693630544934464],[127.46488365461002,35.693043121034954],[127.4656047410265,35.6921543007806],[127.46554977001655,35.691639998225455],[127.46537614430426,35.69129131278423],[127.46610600556787,35.69035917515247],[127.46671272238713,35.68920179786871],[127.46652705379839,35.68815635294578],[127.46661777266776,35.687579517045485],[127.46638146470362,35.686967415308295],[127.46659062792206,35.6862622600519],[127.46641980599395,35.685985996436266],[127.46686044717025,35.685361035637115],[127.46687033085036,35.68483929796629],[127.46633941066763,35.68430363497784],[127.46595118413506,35.683675734204286],[127.46572800474385,35.68271054606721],[127.46514864350276,35.68159786693726],[127.46464989024875,35.68086741832204],[127.46433224722654,35.67889845300569],[127.46295229599951,35.6776589555797],[127.4617032027023,35.67713543337386],[127.46074837987865,35.676506271410666],[127.45978017577158,35.67455773550309],[127.45972582147066,35.673529944893204],[127.45953371224145,35.67331608459236],[127.45973041903298,35.672925681201356],[127.46055871265743,35.672081634668395],[127.46332678155954,35.6703034094534],[127.46393303137931,35.669591506607375],[127.46388539293173,35.66936528967189],[127.46419663812709,35.66759310355364],[127.46554318773504,35.66701775136855],[127.46731494352254,35.66678116872148],[127.46878172328215,35.66593346565301],[127.47141085829425,35.66320503445061],[127.4730989665053,35.66218173160507],[127.47523054077786,35.661490455695045],[127.47658487761178,35.661154497695875],[127.47694610614823,35.660886513634566],[127.47696407352026,35.66017635949131],[127.47749685879361,35.659623697419185],[127.47768841872964,35.65858599302035],[127.47633400189571,35.658224913880474],[127.47559360293364,35.65694463815246],[127.47488457343461,35.65539066404305],[127.47407196510564,35.65467161289091],[127.47454925636607,35.65239808687895],[127.47452545091353,35.651023932527],[127.47383358235702,35.64973121559595],[127.47367468518098,35.649006812117186],[127.47331375352957,35.64863638832133],[127.47389160693375,35.647108669970365],[127.47357506854877,35.64656562341863],[127.47277402917736,35.645795261261945],[127.47217980642705,35.64493329274104],[127.47176352783153,35.644589830363856],[127.47099697121304,35.64483410116994],[127.4701657105782,35.64450238208372],[127.46996782101947,35.643977501719796],[127.47022645025818,35.64342492787088],[127.47007742320477,35.643065196501496],[127.46933988952584,35.64247549367598],[127.46919318354819,35.64208655195356],[127.46887368777432,35.64199389759703],[127.46854677951656,35.64106533316612],[127.46781145667464,35.64044046249192],[127.4673542302713,35.63938615726119],[127.46755297083291,35.63882853767956],[127.46641935935293,35.63752799357874],[127.4675405985707,35.63602446405191],[127.46780552586375,35.63520637149831],[127.46851738303005,35.634565079475266],[127.46839802213736,35.634254350682575],[127.46874823556468,35.633306519973445],[127.46891143615079,35.632568536796924],[127.4687456977272,35.63243219694846],[127.46875468989009,35.63075810798865],[127.46905786301964,35.62998198105449],[127.47011192881254,35.628847145458074],[127.4701034286579,35.62797124965539],[127.47019265621164,35.62771928574711],[127.47003556382406,35.62723413543311],[127.47028275042064,35.62683684652402],[127.46986208800027,35.625992654666305],[127.46938400492397,35.6253618998265],[127.46914871927872,35.62461961353551],[127.4693350615306,35.62408700185846],[127.46936944106956,35.62368785695924],[127.46907220686619,35.62288787592988],[127.4687244462304,35.62136726866862],[127.46752707205292,35.62090805826234],[127.46652328972218,35.62069377117729],[127.46575874686195,35.620675370012314],[127.4633811346455,35.6217180364709],[127.46207387494219,35.622207288152616],[127.4609986036967,35.62178793855686],[127.46024543771449,35.62133954828958],[127.45910682464695,35.62028598074158],[127.45740076638509,35.6200426235724],[127.45486165569892,35.6201904625412],[127.45384613809824,35.61869616746275],[127.45229842353243,35.618871877212605],[127.45020385714135,35.619467924875345],[127.44973226172692,35.61966613925641],[127.44833228936884,35.619880066146905],[127.44774244496257,35.619758283570626],[127.44739806337022,35.61998781318283],[127.44612410157934,35.619350388582745],[127.44450772500034,35.61930658487639],[127.44328971771091,35.61893887425471],[127.44173481354403,35.61896807079663],[127.4411568841524,35.6190919798068],[127.44042758391559,35.61940079591431],[127.44005347543572,35.619382743234645],[127.43984291817026,35.61967466876587],[127.43786941306934,35.62032941664429],[127.43609954877466,35.62201971447507],[127.43499105345808,35.621329760504665],[127.43347891287026,35.62055387573783],[127.43263975762025,35.620329048011655],[127.43256801523714,35.61999259636744],[127.43207542720452,35.61965839850186],[127.43185772671751,35.61900768718292],[127.43112786680692,35.61863026825496],[127.43077989084657,35.61854001188784],[127.43043132701528,35.61861689692781],[127.42920636552122,35.61814599015625],[127.42911536891852,35.617693774596404],[127.42860485847666,35.61725083973767],[127.42851854632376,35.61689003950204],[127.42791866407117,35.61663483204602],[127.42748592739325,35.61669387402758],[127.42684697813894,35.61649709180019],[127.42676585007995,35.61567724259248],[127.42645291982336,35.615026804013944],[127.42575406339682,35.614608432627655],[127.42520995139607,35.61479137854763],[127.42480481083285,35.61509238817621],[127.42437524141073,35.615206663395945],[127.42392870438513,35.61515921147894],[127.42374344001506,35.61524284882489],[127.42348818458895,35.61521270527605],[127.42277401034266,35.61485286198587],[127.42237601628273,35.61498168494555],[127.42200914106353,35.61497687305316],[127.42111954788828,35.614743550521126],[127.42048163692796,35.615099974432404],[127.41965930532707,35.6152289818892],[127.41879147274965,35.61491314831766],[127.41743039582263,35.61472910678883],[127.417136761284,35.61459329674625],[127.41670099173818,35.61457513274593],[127.41639234714675,35.61438348742677],[127.41602135315539,35.614396586502366],[127.41573110052406,35.61417071476918],[127.41439607213826,35.61382391617475],[127.41267554891456,35.61440709636047],[127.41229261952525,35.61447337638031],[127.4118908337987,35.6148482804758],[127.41125322928222,35.61504545104095],[127.41079801788213,35.614940025563236],[127.41013100373259,35.61498055688043],[127.40876589083003,35.61454774427992],[127.40806249044574,35.614409682451864],[127.40782926281616,35.61408926271882],[127.40738504571719,35.61384016711352],[127.40710054757831,35.613555330799066],[127.4066875249166,35.613463383962156],[127.40625910993101,35.613512447537445],[127.4058869764066,35.61330326629358],[127.40530819093179,35.61345744256967],[127.40441860179475,35.61411665932971],[127.40416521906474,35.613891970154846],[127.40366274360777,35.61363283679579],[127.40315240615222,35.613688084866745],[127.4028667981259,35.613850112664004],[127.40257742024488,35.61377821753896],[127.40139429178444,35.61295870470314],[127.40020238940902,35.61285581689203],[127.39920122220227,35.612986278509666],[127.39898779373777,35.61292089229559],[127.39802568471505,35.61323761672676],[127.39768692449684,35.613153082792046],[127.39693907784181,35.61332280180395],[127.39645288502695,35.61319376250069],[127.39565966510276,35.61351470292623],[127.39480339458042,35.61373448264506],[127.39436021459152,35.61399357772154],[127.39363782692612,35.614264826333105],[127.39290147513925,35.614312491804334],[127.39263198020559,35.61448987377459],[127.39166858999141,35.61447463913506],[127.39046126427662,35.61468686400199],[127.38995954342528,35.614571388533854],[127.38961801419367,35.61461895024882],[127.38933433791983,35.61457002248282],[127.38804247795817,35.61565124750056],[127.38694263393921,35.614693521196855],[127.38666156664814,35.61464024362658],[127.38609589503947,35.61427689815364],[127.38465730487671,35.613691080711604],[127.38434873717968,35.6137071210672],[127.38314449935717,35.61347482434733],[127.38274237882004,35.61328582795232],[127.38165843984078,35.613199118529266],[127.38127516544354,35.61325539408484],[127.38008395406591,35.61363618306037],[127.38000468915125,35.61303027702915],[127.37942973978443,35.612285831181325],[127.37930589408684,35.61137510708875],[127.37948248603756,35.6107703797892],[127.37938730497235,35.610289332394515],[127.3794276659017,35.610019641679465],[127.37806145368708,35.60971787237207],[127.37768987095812,35.609546138536814],[127.377442405257,35.60957607622413],[127.3767511935624,35.60892909378061],[127.37574362809801,35.60871038567158],[127.37545822915489,35.60844118398316],[127.37494182867111,35.608124517134804],[127.3746537116177,35.60743070261185],[127.37393548531013,35.606815367016004],[127.37321378693976,35.60642869342202],[127.37267118347862,35.60624772942203],[127.37278257509777,35.60522144863018],[127.37425683793538,35.602865968077076],[127.37449967554309,35.60014926660817],[127.37494929234067,35.59809757497699],[127.37482757872311,35.598046218437304],[127.37408158156633,35.59694761960734],[127.37367162601326,35.59674557527013],[127.3734455799689,35.59545110518477],[127.37208247159396,35.59252573695004],[127.37209351978355,35.590879319346804],[127.37170466425489,35.58986483062961],[127.37194471741344,35.58899480453134],[127.37193696260817,35.58741941286231],[127.37173421502563,35.58649529045882],[127.37212104513192,35.58662163395461],[127.37276959246527,35.58658534338681],[127.37305460264281,35.58676780362042],[127.37335120880307,35.58677064749516],[127.37351099991152,35.58664740024969],[127.37387870450269,35.58666679607946],[127.37399746607385,35.586573220216465],[127.3739153310923,35.58654421641931],[127.37379091732402,35.58624431088181],[127.37393432606092,35.58597617865501],[127.37411009849207,35.58595252438899],[127.37521941033022,35.58517618534277],[127.37542365518595,35.58487660497963],[127.37592911389177,35.58472792748809],[127.37593908927282,35.58447926820178],[127.37615153553769,35.58441596860496],[127.37664271905204,35.583885308410274],[127.37704723071204,35.58360035831585],[127.37720100437411,35.58311483427293],[127.37724235455221,35.58251952527076],[127.37744299371882,35.58238353422551],[127.3776780732028,35.58188625696707],[127.3773934998395,35.58144626237763],[127.3770780516256,35.580551252402074],[127.37728988261394,35.579850664479345],[127.37638744750349,35.579307781704635],[127.37618899837989,35.57935562733558],[127.37597888080357,35.57912272072515],[127.37636240191826,35.57898768943174],[127.37668606675726,35.57868365041398],[127.37737368927358,35.57844622785631],[127.3785932559592,35.57857404957623],[127.37886442605698,35.57834460900681],[127.37908036778587,35.57766900490925],[127.37927970759235,35.57752529299622],[127.37889494247901,35.57679505153641],[127.3789287737699,35.57643461912788],[127.37853144883852,35.57598640223281],[127.37782314561144,35.5755801785959],[127.3768907715421,35.57481323583616],[127.37533227333525,35.57394109268162],[127.37499115562946,35.57380945264959],[127.37437520187747,35.57376031938055],[127.37331694052648,35.57315927587594],[127.37285639246365,35.57199044793185],[127.37232176148441,35.57157366310883],[127.37136741812618,35.57140783810948],[127.36957397779717,35.57052074072802],[127.36850662884478,35.570340995225514],[127.36778664916466,35.57049058451613],[127.36748536808457,35.57109808130034],[127.36669312554373,35.57082777257575],[127.3665878200245,35.57118258477229],[127.36538817395329,35.57076461844492],[127.36598835076929,35.569818517169196],[127.36551638246716,35.56961402748052],[127.36581441149347,35.56920460095248],[127.36600836862476,35.56920401420529],[127.36581724410884,35.56880695292607],[127.36485649794245,35.5680114753878],[127.3643000341092,35.56724897588193],[127.36349308249676,35.56682190314175],[127.36325669272483,35.566252728276744],[127.36336590541501,35.565839899588404],[127.3631081277702,35.56542453032205],[127.36384996263553,35.56503853704293],[127.36307797978957,35.564258138903796],[127.3634973889299,35.56395859825273],[127.36272304283156,35.5632481367447],[127.36292618151366,35.5631014208622],[127.36217889321536,35.56233903292194],[127.36203735341665,35.56259509015754],[127.36208534533401,35.562947006771964],[127.36204303470444,35.563053179232256],[127.36189243296994,35.5631012167264],[127.36181161000125,35.56190532371782],[127.36271512856695,35.561287669655535],[127.36331671219698,35.5609896225319],[127.36363370665629,35.55964450691902],[127.36436121323328,35.55876900977222],[127.36406813877647,35.55863099084018],[127.36365318536444,35.55823406243671],[127.36372805661415,35.558129707806174],[127.36365608077512,35.55795125464758],[127.36470116790548,35.557670538719194],[127.36456515920577,35.55710274049713],[127.3655983743956,35.55680920162984],[127.36545868107623,35.55646917042463],[127.36653913346714,35.55617071341389],[127.3664689697118,35.55603326417566],[127.36699215343671,35.55587682730942],[127.36719305567415,35.55566653630902],[127.36781063903555,35.55551646996285],[127.36811951261812,35.55525213117831],[127.36868048905048,35.555592622543294],[127.3703073961562,35.55413458960765],[127.36968491745338,35.55367416709543],[127.37024442342044,35.553056579237115],[127.37149300473202,35.552895543485704],[127.37188164516272,35.552714461734126],[127.37227315348828,35.55241869049089],[127.37258140089169,35.55212051453978],[127.37262213464713,35.551870200579685],[127.3728707423588,35.55168766198938],[127.37319206259046,35.551577860628356],[127.37378716579013,35.55154777802311],[127.3737891525157,35.55115447552594],[127.37401991527636,35.55082066580384],[127.3739255847971,35.55046502776886],[127.37471800583175,35.550167162145826],[127.37523792214887,35.550211868177236],[127.37579508898864,35.54971280937253],[127.37638843630499,35.54936797095024],[127.37719831764373,35.54854066202008],[127.37802717804949,35.548268752432875],[127.37825254040713,35.54795059623565],[127.37892473456174,35.54781728429735],[127.37926497504074,35.5475818571266],[127.37996924817467,35.547317787230085],[127.38305654993349,35.54658329560978],[127.38409146923301,35.54610887549671],[127.3841783314227,35.54627228240349],[127.38409227135081,35.54633807153252],[127.38453177341354,35.546686493209656],[127.38486513183813,35.54628187196004],[127.38529848882492,35.546300799665424],[127.38593007156136,35.54646950101278],[127.38641030626614,35.54682699082349],[127.38685490571993,35.54703501284927],[127.38696555719753,35.5471884802909],[127.38738894256953,35.54719885059713],[127.38931365656282,35.546707412736694],[127.38967899966731,35.54682560376207],[127.39061694293399,35.54614938936962],[127.39143517308747,35.545771198074476],[127.3929776699596,35.547203503730294],[127.39312498733163,35.54707499788246],[127.39337626891866,35.54701320221432],[127.39451133860365,35.54751164919448],[127.39489998119639,35.547448634176845],[127.39581813951536,35.547579378433376],[127.39683902700803,35.54824030325344],[127.39821093991094,35.54704027330578],[127.39928900458504,35.547101678205834],[127.39970801402414,35.54737557543874],[127.40060175051038,35.5475351413949],[127.40158533443018,35.548258076536435],[127.40264460488113,35.54837058917954],[127.40256973690985,35.54895554131563],[127.40188298227457,35.54927724018223],[127.4014254901358,35.550371940509386],[127.40063668196551,35.55068673215799],[127.400140308993,35.55137299319143],[127.39963849262287,35.55134385504703],[127.39915164611583,35.55160575296367],[127.39916224452173,35.551974173422686],[127.39862228619332,35.552420748076585],[127.39846856344988,35.55242718463327],[127.39812669312967,35.5526533809514],[127.39864323906787,35.55299538533259],[127.39909705622865,35.55312698288703],[127.39937770810099,35.55294835129228],[127.39973714708576,35.55292136283182],[127.3999641308007,35.553083401333],[127.40019797775452,35.55300369531306],[127.40024621726691,35.55304362291564],[127.39986814345048,35.553540040049135],[127.40005494425249,35.55341822733755],[127.40030834913179,35.553011295649405],[127.40137376753573,35.55363452173052],[127.40143467559582,35.55414408935107],[127.40208810848063,35.55535375618618],[127.40227978433025,35.555499666950666],[127.40229034376294,35.55584873723749],[127.40270008469336,35.55609934975578],[127.40310220220408,35.55698386723767],[127.40363936853736,35.557414678334716],[127.40430317444874,35.55766743391146],[127.40460010487725,35.55826068767117],[127.40487786547237,35.558468225891914],[127.40501878993967,35.55941835150998],[127.40524995352493,35.55957304008031],[127.40561059554895,35.56000793757622],[127.40651461231181,35.560314901586274],[127.40825850691701,35.55981374593747],[127.40837015645376,35.55993071665472],[127.40877597050904,35.56004959629771],[127.4094378083481,35.560082518933484],[127.40986745086573,35.56063848171209],[127.41049637256853,35.560785549336586],[127.41110834445465,35.56073953592977],[127.41188212709086,35.560490491962064],[127.41197801237612,35.56060541366213],[127.412058665523,35.56047421605215],[127.41245684153083,35.56056205340903],[127.41250488973164,35.56049536363528],[127.41345379772999,35.560244234670584],[127.41349525469013,35.5601143081419],[127.41467952795975,35.559129655373994],[127.41469141291672,35.55892874500475],[127.41482658723982,35.55880960860873],[127.41481838593681,35.55872470968596],[127.41471550725983,35.55868714411734],[127.41489039834858,35.558473426305966],[127.41500885309695,35.55849390361877],[127.41531288502782,35.558300850237586],[127.41610038081912,35.55743030474071],[127.41634578182814,35.557354553624414],[127.41674424039539,35.55696455642808],[127.41695916566512,35.55694664618155],[127.41708871561215,35.55679672243905],[127.41724926888962,35.556777160301415],[127.41763997606195,35.55632730434398],[127.41751857404698,35.556243687896306],[127.4177473986629,35.556179483663364],[127.41777294493451,35.55610323681334],[127.41799784056133,35.55625170596138],[127.4178114782145,35.55610678136572],[127.41784868099106,35.556038776410276],[127.41817323175975,35.55598375775035],[127.41878408396714,35.555657425083844],[127.4192862303251,35.55445996697141],[127.41994262633813,35.55402494012823],[127.41975798721143,35.55384645619762],[127.41998038873855,35.553617506315774],[127.41995746749528,35.552969450933894],[127.42053875819079,35.55258661130445],[127.42131567310567,35.55227393050263],[127.42159200978287,35.552237782569954],[127.42315805552816,35.55139864960039],[127.4237435302028,35.550989886922885],[127.42425491829096,35.550419129202076],[127.425401411514,35.55030195706814],[127.42745914000925,35.55049541253773],[127.42879384294304,35.55033102726314],[127.43047912189776,35.5502568066662],[127.43176716296152,35.55005292467303],[127.43312961232671,35.550142177014486],[127.43350712102342,35.550169556450285],[127.43611282038188,35.55078473352942],[127.43775289476494,35.55096490659131],[127.43871862790155,35.55133333332353],[127.44028233044551,35.55157180490734],[127.44055444491813,35.54911262429421],[127.44093055627506,35.547744686549684],[127.44124691517395,35.54718832073362],[127.44184216790018,35.5470976784448],[127.44226420349162,35.54688271395959],[127.44248061139733,35.54636213981011],[127.44280412533958,35.545995194443144],[127.44580639519822,35.545465649692],[127.44616762199729,35.54524590139054],[127.44686909848163,35.545052052069906],[127.44716927429492,35.54488267858393],[127.44729279021708,35.54443741945657],[127.44821921900225,35.54331826936311],[127.44945626564127,35.54258079747116],[127.44993319893958,35.54244366953383],[127.45108465324043,35.54186573963182],[127.45224357189184,35.540407257090145],[127.45278018774889,35.540061390149056],[127.45340305366311,35.540519444792764],[127.45365990453998,35.54175646345555],[127.45418654734193,35.54270812482118],[127.45402125302209,35.543027366028646],[127.45438405214267,35.543389261803775],[127.45489454805377,35.54352815843477],[127.45528530549909,35.54396781591878],[127.45510359230741,35.544608123746876],[127.45525241422968,35.54581841592486],[127.45623923175799,35.54653123031164],[127.456826022814,35.54651072883592],[127.4582456154646,35.54584650148007],[127.45873030126135,35.54582347576443],[127.45900293098885,35.545520303559506],[127.45950624009915,35.545285491317664],[127.46011858125573,35.54551422719203],[127.46040635280248,35.545523991450075],[127.46054697733175,35.54537813590119],[127.46108284597832,35.5452766619899],[127.4614905194385,35.54529943361535],[127.4627979178029,35.54580558660453],[127.46427980675159,35.54617952133399],[127.46475188696502,35.54657023880854],[127.46663019620556,35.54647126393356],[127.46691770840391,35.54660162436666],[127.46752484457797,35.546397959573945],[127.46847865676436,35.5453206122461],[127.46813310862142,35.544495748874155],[127.46833790214059,35.54387513237186],[127.4693712029065,35.54257913424881],[127.46957456173632,35.541886704820406],[127.46998363658022,35.541620318964455],[127.47044113717426,35.54110514041897],[127.47094813749642,35.54081771957443],[127.47271977428652,35.5405143142623],[127.47324125359341,35.53999563017527],[127.47459356328636,35.53950810824961],[127.47548422690906,35.53897610368142],[127.47621465718954,35.53871558078816],[127.47650237498648,35.53841704043033],[127.47994105242196,35.53833897860872],[127.4816310060735,35.53867404100568],[127.48205625512307,35.538879100071604],[127.4825894443987,35.53890583320659],[127.48324485433865,35.53853006572558],[127.48446125566504,35.53747179428759],[127.48623272726944,35.536541876415065],[127.48793582255117,35.53671827821813],[127.48857786000924,35.53626251890142],[127.48947972662945,35.53584830071032],[127.48961487680418,35.53492905493876],[127.4912331303902,35.53413095621434],[127.49173075954046,35.53440712607738],[127.49242121457588,35.53412648872887],[127.49202973741669,35.53205804679877],[127.49212163459231,35.53098307724873],[127.4918771026763,35.53008983206343],[127.49146387374459,35.530072258928],[127.49110878863516,35.52994848696414],[127.4911322014002,35.52858630169745],[127.49099667328768,35.52830076492755],[127.49131315192416,35.52707699920884],[127.49192997823265,35.5268004561695],[127.49237130973854,35.525725594922704],[127.49314775835434,35.52540480002638],[127.49376789440882,35.524299598780715],[127.49444651956361,35.52431921431373],[127.49499570131023,35.52357689318114],[127.4953057868581,35.52361488742514],[127.49594345373141,35.523033159243404],[127.49584817735392,35.52282811893761],[127.4959809898647,35.522613658543854],[127.49768604414864,35.522803599597594],[127.49869206717234,35.52229207785938],[127.49978812289112,35.522213271926375],[127.50053225335289,35.52240212311567],[127.50089472644949,35.522082837368124],[127.50163534635219,35.52171631489837],[127.50172143832822,35.5208103608451],[127.50153717946544,35.52029197365737],[127.50157428668761,35.51934441180129],[127.50108230400153,35.518247923784294],[127.5018812566782,35.51744592459125],[127.5022029528734,35.516523643670595],[127.50359216930424,35.514576932480914],[127.50477817169256,35.514129601203855],[127.50618747753111,35.512279466841306],[127.50824676853883,35.51153069433659],[127.50940524621328,35.51078499880202],[127.50964095297572,35.51051923341334],[127.51130318700676,35.51002354142267],[127.51309163652883,35.509213650051116],[127.51337730011274,35.50889166186916],[127.51354957743601,35.5081592355708],[127.51295825623235,35.50596750682435],[127.51355293915717,35.505183123185475],[127.5140672362166,35.50404479038612],[127.51399911575453,35.50188766868086],[127.51320967415846,35.50177783519905],[127.51328759917104,35.50169115278387],[127.5140599470728,35.501777055645654],[127.51436244419607,35.501714977958194],[127.51433974085091,35.50155411384518],[127.51456049627448,35.50148129744849],[127.51460392340265,35.501351460837846],[127.51524536449428,35.501439402449584],[127.51541722844222,35.50073521111611],[127.515521122498,35.50071160832096],[127.51594079290423,35.49887406649951],[127.51700318305305,35.499052044501155],[127.5171483106131,35.49846179999899],[127.51501265891656,35.498072617385574],[127.51515018841022,35.4978655641831],[127.51528388611733,35.497841137315994],[127.51558929942874,35.49745427285609],[127.51833180234824,35.49788823614825],[127.5188121297031,35.49805459242825],[127.51906124502297,35.49827796365812],[127.5190330947601,35.49775026224514],[127.51938197812675,35.4981356976004],[127.51989253773347,35.49839080868852],[127.52136843047846,35.4967320374126],[127.5220328351413,35.4962700807321],[127.52250651635401,35.49621490848029],[127.5230109995587,35.496527826276235],[127.52385980767787,35.49651865733882],[127.52414947756334,35.4963710684614],[127.5249899764523,35.49645224778666],[127.52552135899123,35.4963284905509],[127.52581889455638,35.49610971635953],[127.52592849544337,35.49586003303314],[127.52664942706986,35.49566908797349],[127.52725267054643,35.49576570063393],[127.52709408559743,35.493502525889475],[127.52790292686089,35.49269353409093],[127.52826836024126,35.49103429199139],[127.52730702196885,35.49025747864753],[127.52688954305304,35.49005794064539],[127.52684325869801,35.489289213278425],[127.52715015806473,35.48818628896827],[127.52699670699714,35.487876732759176],[127.52690777888162,35.48704401042687],[127.52710383978724,35.48653267374671],[127.52672152769883,35.485771465087986],[127.52526777900519,35.48491114523875],[127.52479642900266,35.48440913264938],[127.5242169718068,35.48423553242291],[127.5240235494235,35.48388348624733],[127.52348227753409,35.48357154757317],[127.52250000827877,35.483208382541044],[127.52108568678831,35.48313696042997],[127.52079496787402,35.48315795671655],[127.52032519456516,35.48333792933375],[127.5200558921428,35.4830754579929],[127.519885755674,35.48274246799961],[127.51929451572856,35.482315737642445],[127.51900876103811,35.48168559707866],[127.51761673863118,35.48131783946142],[127.51637534664277,35.48129872391296],[127.51603972344316,35.48112324945301],[127.51532903772363,35.48106706483917],[127.51393255254136,35.48009069045151],[127.5145466958766,35.4794729218072],[127.51495195793638,35.47887887559929],[127.51536645960809,35.478756075225654],[127.51626867891747,35.47874542544034],[127.51718895370497,35.4784945228606],[127.51807522243018,35.47844908432362],[127.51850115834083,35.47823565515435],[127.5189658954846,35.47823655501906],[127.51952452578425,35.47756986824599],[127.52000342975647,35.47746118151986],[127.5202348326601,35.47702602264924],[127.52166445065862,35.47673833197071],[127.52192722878836,35.47614695291834],[127.52250250192881,35.47602531772965],[127.52253271924346,35.47510546120697],[127.52365275300599,35.474761777923135],[127.52393384575457,35.47419438605241],[127.52447267873505,35.47386189053193],[127.52484858384729,35.473182685902174],[127.52523093489178,35.47309533179528],[127.52653005302321,35.47322046518948],[127.52806464336483,35.47302183289368],[127.52841812534916,35.473049831902124],[127.52993201076289,35.472818195711135],[127.5307933199144,35.47261315306551],[127.53172860880814,35.472159599821886],[127.53260695094407,35.47194260698605],[127.53316390750092,35.47162794784382],[127.53361881276264,35.47157692070671],[127.5340846563084,35.47126546014081],[127.53484574974293,35.47093078314652],[127.5353326158138,35.47080728000203],[127.53582948881689,35.470391180553335],[127.53610588131578,35.47034407228877],[127.53669762768438,35.47057780425668],[127.53745802727867,35.47019608686969],[127.53777115250418,35.46983746569365],[127.53812723553122,35.46974275370996],[127.5381958266948,35.46982847580851],[127.53779057806878,35.469903976101506],[127.53747614369112,35.47023505700264],[127.53729339533493,35.47032271663661],[127.5378359687666,35.47051949318515],[127.53790497900538,35.471159259601016],[127.53913572517224,35.47110642906935],[127.53947389463895,35.470822672205784],[127.53920997534766,35.471119818270125],[127.53949526011289,35.471395260522854],[127.5397475060548,35.471849397645066],[127.53993321326028,35.47183686078844],[127.54014615921146,35.47150575147162],[127.54117970272021,35.47158279752883],[127.54118329023073,35.471450436014734],[127.54123085754864,35.47157467401826],[127.54163513445098,35.471596938221495],[127.54169162634976,35.4714096410921],[127.541558235978,35.470893949541086],[127.5413000764647,35.47091267034125],[127.54114149336526,35.47072706445317],[127.54105879142176,35.47020197037977],[127.5411453292715,35.469957114800636],[127.5424396268199,35.46960800735678],[127.54272074810363,35.469357152642154],[127.5426634286474,35.468316785270574],[127.54347109676254,35.46833079944281],[127.54382817385103,35.468061374493544],[127.54387199622234,35.468121438929025],[127.54399649616362,35.46804344928674],[127.54428813433769,35.46803227728433],[127.54500679680172,35.46816969890523],[127.54574657358025,35.46810185113121],[127.54615327438142,35.46815078705367],[127.5465544751311,35.468393686463486],[127.5471298274742,35.469227262847376],[127.54758008501956,35.46926142194142],[127.5477327573818,35.46943310350878],[127.54954352961859,35.46991036741365],[127.55031620610423,35.469902549457636],[127.55154879064492,35.46974039346155],[127.55208278851345,35.47016918967315],[127.55255310335541,35.47104131733637],[127.55323465293814,35.4710317855175],[127.5536592495616,35.47131732166485],[127.55442749920307,35.47130933328256],[127.55460275530164,35.471207774357794],[127.5557857821467,35.47110662100591],[127.55615002399624,35.471183566846044],[127.55851396672631,35.47113597890608],[127.55907999465957,35.472139480491165],[127.55961729844404,35.47213014725469],[127.56025513443842,35.472362235055364],[127.56135155444007,35.47331697683476],[127.56153754855085,35.47345530883947],[127.56177272383256,35.47350422169746],[127.5622064627256,35.47437496478555],[127.56210548975568,35.47478403556391],[127.56238250702707,35.47525507278802],[127.56226833878762,35.47557747263775],[127.56233722864052,35.47614761537977],[127.56193474027803,35.47634434400942],[127.5614036892161,35.47643143203479],[127.56110635729397,35.476704811459676],[127.56098377991597,35.47726629100982],[127.56102087447674,35.47749923744515],[127.56088233949882,35.47773796574769],[127.56054027458569,35.47790425297866],[127.56018390639133,35.47825047874875],[127.56012512571716,35.478510456648735],[127.55969198733713,35.47902745805894],[127.55978985016378,35.47949180339394],[127.55961934585926,35.48010247683906],[127.55991565643811,35.481210020029934],[127.56032370554742,35.4814529039592],[127.560407444512,35.48189924205783],[127.5612993099167,35.48264837210929],[127.5617183403989,35.48286975162592],[127.5619556968763,35.483331857663515],[127.56226888827321,35.48355440940763],[127.56205605571117,35.48413120846221],[127.56202904717453,35.4852278083445],[127.56248269090443,35.4855054857109],[127.56286118116685,35.48599855213218],[127.56282647697644,35.48643232644736],[127.5631120366936,35.48718891049958],[127.56322191942073,35.48801924526408],[127.5634505188822,35.488396184299646],[127.56385990977338,35.48865085452016],[127.56394314827715,35.48902133771429],[127.56370491493779,35.48957640070318],[127.56398932315159,35.49019662320862],[127.56357626498294,35.49085328129342],[127.56269812578945,35.49154290748201],[127.5634470202111,35.49184427452362],[127.56358824621907,35.4926212075232],[127.56481146823882,35.492821158544366],[127.56519301745224,35.492659649578044],[127.56568215314239,35.49262817750457],[127.5663458519399,35.4928027078108],[127.566670712804,35.49304124598719],[127.5677134010501,35.49330938657312],[127.56786115058262,35.493555591204384],[127.56807909761837,35.493668977901756],[127.56871920543409,35.495118235555935],[127.56899930502989,35.495330274731764],[127.56973883570863,35.49558323506721],[127.5708319435981,35.49537966488271],[127.5712712961282,35.495778330203954],[127.57145642562845,35.49630690222229],[127.57180511160726,35.496828152508556],[127.57210224604133,35.496861582352224],[127.57278175755432,35.497252987749405],[127.57348101709647,35.497153598467335],[127.57383794374674,35.49736729449174],[127.5747844059667,35.49769584805481],[127.57552194233273,35.49839547016302],[127.57635010802245,35.498750042623215],[127.57691861534897,35.498883119599455],[127.57737563129942,35.49887598191287],[127.57783988993923,35.49936120881329],[127.5776944153227,35.50005680698661],[127.57845098452597,35.50075737784233],[127.57926409073218,35.50106325160344],[127.57929004838908,35.50144191931743],[127.5796853970734,35.501783182217586],[127.58013226797149,35.50201436450797],[127.58020444010839,35.50258617299218],[127.57990457720963,35.50366347841012],[127.57978740731562,35.5038795290419],[127.57943057775057,35.50407625972692],[127.57935121110633,35.50427529218113],[127.57941858260219,35.506428111074925],[127.5795276738506,35.507215942143354],[127.58026320049488,35.50786807520771],[127.58006432675121,35.508751010639756],[127.58009611560817,35.510437995551776],[127.5803431740536,35.5113302910386],[127.58004479905223,35.51273292486506],[127.58000757569674,35.51392710141185],[127.57863320560969,35.5144382693309],[127.57870773846383,35.51549367965293],[127.57849191294804,35.51603375283078],[127.57721749593047,35.516322917555684],[127.57664975680106,35.51665916493783],[127.576284188054,35.51674629750634],[127.57394487476449,35.51709999025712],[127.57342361655844,35.517941560033485],[127.57291577553917,35.518355664496745],[127.57188961801666,35.51833768263221],[127.57111832163005,35.51888063829691],[127.57029302935344,35.520024029261],[127.5705181654542,35.520289173485146],[127.57052983722457,35.522022441258414],[127.57041878188805,35.5231309871668],[127.57013326335235,35.52382139309543],[127.56982235934842,35.52410246577686],[127.56868845604534,35.524624102839795],[127.56849665162704,35.52478984968777],[127.56843558276685,35.52538976244189],[127.56853863314424,35.52711524800832],[127.56837530818676,35.527564214894596],[127.56859858338335,35.528095626928994],[127.5684378399029,35.52942256698076],[127.56878702443059,35.52994316635875],[127.5687901722702,35.53092765984068],[127.56855043758986,35.53149631752492],[127.56863168068372,35.532280097314775],[127.56886353657201,35.53309485879254],[127.56862919099791,35.533278650574424],[127.56896029420189,35.53366525766039],[127.56925407018538,35.53430624651984],[127.57149675723518,35.534706223497196],[127.57163445065832,35.535516157082],[127.57189871381186,35.53632833408924],[127.57177134683873,35.537426753632666],[127.57223708857063,35.53803666741205],[127.57174704924724,35.53948065842185],[127.5717539973264,35.53992947344533],[127.57162196046347,35.54052627087647],[127.57182787529592,35.54183875170635],[127.57210674896973,35.54287161871138],[127.57257680918671,35.54403445285595],[127.57243694475396,35.54434832818038],[127.57268136955493,35.54467915801402],[127.57295899023069,35.54532880413486],[127.57281455201444,35.546139289397395],[127.57342141356561,35.546571109829486],[127.57414065826237,35.54640422110104],[127.5751046769369,35.54693610120431],[127.5755039518441,35.546875041962494],[127.57713773048815,35.54731463041551],[127.57852312797976,35.54753990737048],[127.57883795109001,35.54828221886044],[127.57956020630021,35.54845157072718],[127.58044376167285,35.54940430264691],[127.58115283280756,35.549716128914355],[127.58155324826167,35.550397525852304],[127.58424385088954,35.552777553751106],[127.58472937434813,35.553746685110575],[127.58728858516287,35.55703963125678],[127.58761327193965,35.558041744752934],[127.5872077688471,35.558664444106775],[127.58801756889223,35.55987221390641],[127.58825355600904,35.562011296568315],[127.58877145524595,35.56476675979068],[127.58974591809925,35.56557330121516],[127.59143057822841,35.56615655043758],[127.59233589904439,35.56686074694768],[127.59251696436876,35.56765336300931],[127.59288147917948,35.56847044917659],[127.59472038040101,35.570338917924175],[127.59529459087268,35.571736008974206],[127.59556087925976,35.57200959395301],[127.59590026226942,35.57292095143261],[127.596074661418,35.57368720394031],[127.59816445176763,35.57443626601681],[127.59882079223222,35.575137298937776],[127.5992169891695,35.57583229229688],[127.59971352892549,35.576069063650095],[127.60025803157119,35.57608372921194],[127.60087468756284,35.576568623951694],[127.6027707845929,35.577389966970266],[127.60347082016064,35.57787117957588],[127.60452520940628,35.57737931926235],[127.60484554291222,35.57758906413534],[127.60678905079226,35.58009169830719],[127.6064215208412,35.58107676977573],[127.60632546432208,35.58158526456536],[127.60799210242538,35.582745040998276],[127.60875407693669,35.58241790212366],[127.60926388057236,35.58293487114373],[127.60976411450127,35.58290180373724],[127.610302870212,35.58296136045039],[127.61119331825837,35.58389251788044],[127.61020739016796,35.58515676828202],[127.61023800152142,35.58547653970741],[127.6099987556998,35.58601447353726],[127.6097150366469,35.58620449827229],[127.60972528416437,35.5865441914631],[127.60995149680899,35.586829274684426],[127.60975842070671,35.58737589923419],[127.60991306860195,35.587900074790035],[127.60967260717013,35.58843735787717],[127.6098073023309,35.588781135740625],[127.60975009877515,35.58926921797448],[127.6093703906105,35.589856935828124],[127.60908158357907,35.590073255854925],[127.60846428095489,35.59081838559482],[127.60808276225184,35.59106030524692],[127.60768104847818,35.592435894658315],[127.60765364535733,35.593108488923676],[127.60785478885353,35.593474395453896],[127.6079642923618,35.593996436776],[127.60745579227564,35.594912570413136],[127.60823716405191,35.595809747979615],[127.60817383109594,35.59643957270529],[127.60890566645007,35.59690106744022],[127.60887404257262,35.597732379900144],[127.60953803645593,35.59803757247602],[127.61017365960745,35.59854779282774],[127.61079077452187,35.59875491230761],[127.6110981250386,35.59882064848123],[127.61140883833367,35.59871879030259],[127.61208440380638,35.59890335643565],[127.61291359076733,35.59884274321756],[127.61301521509598,35.59910130727967],[127.61304537496778,35.599717813803515],[127.61285798868346,35.59983557593406],[127.6127861910601,35.60039828062359],[127.61265149792222,35.600546961299244],[127.61283032214807,35.60094256775192],[127.61226302062579,35.601174045365056],[127.61210381379685,35.60151094322115],[127.61221250078344,35.60183636430649],[127.61217591445822,35.60226722291559],[127.61203043203467,35.60259107353537],[127.61229419399902,35.60288149049357],[127.61270575634202,35.6031211066117],[127.61308040344582,35.60439116724654],[127.61287443482878,35.604504808168166],[127.61305608012827,35.60514543022421],[127.61238776533924,35.60684536124414],[127.61301704916096,35.60824801680189],[127.61371890373476,35.60894472171559],[127.61432623030282,35.60932416113839],[127.61495335443469,35.609397487394595],[127.61593330132602,35.60971138217465],[127.61648549286188,35.609687060440365],[127.61695397982118,35.609860966395004],[127.61748163842115,35.60980642789143],[127.61773599046468,35.61026878503164],[127.61822275086199,35.61040555977088],[127.61876316209481,35.61129788951889],[127.61872463175334,35.61219453398749],[127.61922121103024,35.61254007609736],[127.61946924456223,35.61314548628921],[127.61997097913,35.61339983608008],[127.62038488326183,35.614278575253316],[127.62089567565312,35.614575567424765],[127.62095242660352,35.61491152178528],[127.62139682347298,35.61511815900054],[127.62262691478757,35.61483514364616],[127.62560396683457,35.61490903842847],[127.62658954765317,35.6159613992375],[127.62724205058856,35.6163601038281],[127.62736528177838,35.616566870151054],[127.6274508280781,35.61719078909951],[127.62835282850477,35.617946120366206],[127.62912140043426,35.61824966952223],[127.63059155947401,35.618037033768125],[127.63099916574578,35.617757694377964],[127.63134155387175,35.61783388443307],[127.63162053251037,35.61764149946148],[127.63289405295379,35.617557187504474],[127.63300735963426,35.61745947497341],[127.6339897837594,35.61753673994378],[127.63465256967326,35.61776646307706],[127.63533495975864,35.618483960927904],[127.6348630338676,35.61909620432684],[127.63460579614474,35.61976823446493],[127.63420838808169,35.6201355703014],[127.63391003841,35.62075999240051],[127.63344483102772,35.62144930647827],[127.63259170507878,35.62233723800335],[127.63213066018568,35.62305864823052],[127.6308437706827,35.623865168664686],[127.63024015243646,35.624531960029046],[127.6292719720714,35.62481313283163],[127.6285036823039,35.625679417946614],[127.62857929812309,35.626396354509886],[127.62749890005637,35.62715599759741],[127.62743815523432,35.62744518667051],[127.6270336828546,35.628045225293214],[127.62567419156196,35.62913477985336],[127.62570945575901,35.62982114531396],[127.62510695034014,35.63023747794087],[127.62511594068685,35.6307240165812],[127.62497983899493,35.631069826718466],[127.62467132121742,35.63122255395742],[127.6242567416635,35.63178574478437],[127.62428339173644,35.63277482805571],[127.62448113770874,35.63291336601037],[127.6245080830129,35.633036737832285],[127.6244617415216,35.63471300667574],[127.625152432377,35.63573593809365],[127.62444352371966,35.6367346476371],[127.62448177270119,35.638035480949334],[127.62414693323429,35.638289649470266],[127.62330873482793,35.639595710843544],[127.62256103754892,35.63971933788019],[127.62121525419552,35.6402208473499],[127.62079739430786,35.641142217380235],[127.62026354813489,35.64163644514673],[127.61991572387515,35.64273940591085],[127.61997383134565,35.64292274134032],[127.61977112522611,35.643455394725294],[127.6199356665576,35.64376579982494],[127.62009794742164,35.64613884375925],[127.62035992537751,35.64669783056693],[127.6203892190583,35.646988654536344],[127.62071401861974,35.647328931945886],[127.62108990877768,35.64746293967319],[127.62147657235825,35.64771349303423],[127.62169858688966,35.64797039691317],[127.62203845435803,35.64813473157816],[127.62216247254679,35.648327118231656],[127.62239869454879,35.64948483600173],[127.62281303265524,35.649999330056275],[127.62211079046223,35.65075171054506],[127.62215762597884,35.651016620814985],[127.62263275611178,35.65147379013147],[127.62347719162904,35.65208455177234],[127.62486266901612,35.65335545037901],[127.6253707450423,35.65348608137278],[127.62725056791027,35.655001392006014],[127.62747999044315,35.655500615920126],[127.62798352010417,35.65554854893001],[127.62886356877785,35.656085267075795],[127.62908662470653,35.656395861420386],[127.6294810599223,35.656640263551665],[127.62948279914642,35.65740702079142],[127.62905780748737,35.6591092400521],[127.62886086743703,35.659543674108996],[127.62816724569093,35.660326877902044],[127.62811184563563,35.66178354197595],[127.6279142279674,35.662214669595585],[127.62880327677141,35.66323301111859],[127.62894494370123,35.66402448152435],[127.63029624491152,35.664645709652646],[127.63122848262543,35.66464652408937],[127.6316625219776,35.66490034819887],[127.63168361987928,35.66547575432224],[127.63235747724227,35.6664508989648],[127.6325423679047,35.66652214546114],[127.63305810817411,35.666436851028564],[127.63453615397299,35.666809529776216],[127.63513903061296,35.66704114517062],[127.63544622287478,35.66751372654164],[127.63571153107479,35.66755411179028],[127.63640981544458,35.667961000919426],[127.63673803704773,35.668400086081824],[127.63721253487627,35.66874820823301],[127.6378516310651,35.668951247887954],[127.63801243076377,35.669169737450204],[127.63908029169285,35.66992284877936],[127.639035953536,35.670155538347224],[127.63965360601651,35.67138678357423],[127.63947890431578,35.671739119109496],[127.64021414039014,35.67216035308017],[127.64046214254479,35.672813821776295],[127.64014486722377,35.673577734955586],[127.6397738204154,35.67395883614994],[127.6399147327505,35.67466145775384],[127.63990881019457,35.675116245866036],[127.63924986503302,35.6760294086706],[127.63900601974069,35.67758327036191],[127.63919054149312,35.67829824321758],[127.63904976496009,35.67898622519214],[127.63981370300817,35.680836939238446],[127.63969644828694,35.68101879398179],[127.63990495417656,35.68119316376747],[127.63985748025294,35.68179939426929],[127.63999510370344,35.68210257713599],[127.63992796107061,35.68268611990264],[127.6403799443647,35.68334593051938],[127.64029123549729,35.683722387945835],[127.64063652114918,35.684417541661226],[127.64028646458429,35.68504999135917],[127.64029078802466,35.685284854755906],[127.63963799548047,35.68590530240045],[127.63951509630984,35.686299000255076],[127.64030238627429,35.68673826089972],[127.640799901843,35.68680998082747],[127.64095699591407,35.68730315309284],[127.64093473296353,35.68794783228601],[127.64236544834856,35.689897114562804],[127.6418466424762,35.69062650463635],[127.64147501978937,35.690981818436086],[127.64196700587412,35.69131190849585],[127.6420097587115,35.69176069622094],[127.64179497826377,35.692892720123886],[127.64299169836629,35.693279572261076],[127.64297909568656,35.693940746916375],[127.6434587770231,35.694218553820164],[127.64357408197402,35.69502851773985],[127.64529408534844,35.69594520100152],[127.64512048289231,35.696418431962854],[127.64521662579335,35.696755150358314],[127.64500128321085,35.69859561898024],[127.64520145976972,35.698788633138314],[127.645615749256,35.69879737628478],[127.64735978512697,35.69986022801005],[127.64748495694481,35.700106589907755],[127.64826671788622,35.70063515820365],[127.64850769940807,35.700907601351545],[127.64929931179093,35.70113320021192],[127.64974968324269,35.70140604455348],[127.64907470613011,35.7029995812213],[127.64903819045799,35.703280104407476],[127.64943804528933,35.70379616427462],[127.64985440152066,35.703639401790255],[127.65126615310021,35.70397125817119],[127.65151420832166,35.70453391264212],[127.65259695859761,35.70505211178791],[127.65315557648603,35.70509468449812],[127.65349366596483,35.704926751174234],[127.65391410050174,35.70483280822032],[127.65472404156044,35.70539803253984],[127.65544585587271,35.706379633206474],[127.65674657986993,35.706222211882135],[127.65749954558618,35.70579449472529],[127.65824162450592,35.70667171992376],[127.6591043993783,35.70743879739209],[127.65963049655556,35.7077596156305],[127.65992526365497,35.70827522228153],[127.66006314064012,35.708814618325086],[127.66044159127405,35.70908629341609],[127.66069841941744,35.70957347311692],[127.66098648242557,35.709855653959536],[127.66056925123488,35.71117321778121],[127.66045055514185,35.71213142993217],[127.66052628638286,35.71258795014946],[127.66099123245824,35.71301596708837],[127.66098304083938,35.71390348396802],[127.66070629761975,35.71452124925026],[127.66073001471045,35.71476155591874],[127.66064649474613,35.71489884055493],[127.66033438579586,35.71497184929011],[127.65987258013338,35.71582565301692],[127.66008824360512,35.71642461524698],[127.66015291176153,35.716987049021185],[127.66053828304803,35.717329442098496],[127.6608809833221,35.71796114472268],[127.66082745591108,35.71829444277787],[127.66050165606848,35.71903499071526],[127.6606947623073,35.719887137389286],[127.66145621780716,35.72027917352424],[127.66155324110585,35.720604876284455],[127.66150847805099,35.721382962817614],[127.66210092999371,35.722147912310774],[127.66196785247556,35.722869507688195],[127.66231245301765,35.72379383043588],[127.66310367652741,35.724862573651805],[127.66345099812536,35.725047060109404],[127.66345721511334,35.725342924852725],[127.663224464043,35.72555309802464],[127.66321253813854,35.7259793456759],[127.66240849347761,35.72741968180411],[127.66229675117859,35.72850102898833],[127.66263847432087,35.72977577019884],[127.6621959651559,35.7313052697003],[127.66249616052536,35.732066375408564],[127.66206434165056,35.73304405078465],[127.66145905910442,35.733606093419525],[127.66136191464062,35.73407444731978],[127.6614555486492,35.734690575398304],[127.66059676039731,35.736433964682135],[127.66038911326154,35.737459459522064],[127.66103749972542,35.738334282576325],[127.66134478520082,35.73905646990456],[127.66191848557416,35.739581489788904],[127.66238773875385,35.74015846110273],[127.66259603807961,35.74075210300875],[127.66313471929895,35.741582229672055],[127.66275937133888,35.74303036232335],[127.66298948714916,35.74392394663223],[127.66267852810225,35.7446775924395],[127.66315656137142,35.74605483827571],[127.66275969360261,35.746989765293115],[127.66232606133731,35.74765789010369],[127.66183396599708,35.74918065245412],[127.6621027536603,35.750736855297745],[127.66254301228257,35.75239052083347],[127.66333862618231,35.753636401643696],[127.66365763837702,35.754627213123904],[127.663649737443,35.755944878655484],[127.6627115279659,35.76009866083754],[127.6622872357828,35.76082976473505],[127.66281779755441,35.76192482650523],[127.66350205868,35.76403505700441],[127.66412677239713,35.76507814250724],[127.66423403090016,35.765597784952924],[127.66550894858801,35.76694098741776],[127.66573899443688,35.76769686983467],[127.66587850578769,35.768904289292095],[127.66753819618458,35.77043380226997],[127.66841351009131,35.771062859000814],[127.6695131267788,35.771373722760615],[127.67300126623849,35.77103385180217],[127.67576715564128,35.77087498157007],[127.6770389290899,35.76997911104551],[127.6779815215054,35.76919832946822],[127.67879836750302,35.76894930734804],[127.67942765506882,35.7685112123726],[127.68123283107037,35.772142319065146],[127.68255493538268,35.77358072839864],[127.68434197115128,35.77496842125383],[127.68462342649691,35.77586160257017],[127.68481084400477,35.77767938505406],[127.68779229909192,35.77930121533891],[127.69085629198275,35.781723563114724],[127.69374086030284,35.783168641713544],[127.69485510060882,35.78460954103316],[127.69978916292844,35.78811884007669],[127.69345197721424,35.791490245125985],[127.6899035996247,35.794093310793954],[127.68820817075017,35.795458595105515],[127.68790351386963,35.7963903117075],[127.6879887534273,35.798250512389714],[127.68829067112179,35.80045077381369],[127.68750680407288,35.80247994136924],[127.68674856506006,35.80392026070559],[127.68489840633444,35.804699213421664],[127.68234463154043,35.805468244926466],[127.68046004595396,35.807353720585105],[127.67865027317326,35.808988865866446],[127.67794779040796,35.809772192596654],[127.67730651464606,35.8102958768827],[127.67575824855815,35.81026982687159],[127.67081733143979,35.80982852557102],[127.67039955105443,35.811591209918205],[127.66984698631624,35.81270043443961],[127.66908445878144,35.81394920893482],[127.66565153841361,35.81547191807983],[127.66492250587157,35.8161357290906],[127.66359490287763,35.81776539246862],[127.66279924501252,35.818048084872636],[127.65975875372902,35.81602851772734],[127.65829841157374,35.81427437116691],[127.65668773880496,35.8132427453934],[127.65576381731397,35.81231300382487],[127.65478475500092,35.811782120496595],[127.65482205250534,35.81232789618469],[127.65370873382994,35.812089634139056],[127.65243743922703,35.81277830120986],[127.65203870106315,35.812389747424795],[127.6511035956418,35.81202698143523],[127.64949618848419,35.811982321355806],[127.64857531163366,35.812149352383024],[127.64850264265874,35.81207333628312],[127.6472614676804,35.81214726873851],[127.64713378641707,35.8122201715257],[127.6464793189382,35.812286599804764],[127.64434804333443,35.81315274205671],[127.64420782783624,35.81336918411885],[127.64365218477151,35.81353408876977],[127.64337035072943,35.81393606696944],[127.64264887204509,35.81406216229791],[127.64186794298529,35.81474544258319],[127.64153453050136,35.81489622063861],[127.64073654257938,35.81501465321708],[127.6399659478842,35.81479156490834],[127.64014908297938,35.81503630584839],[127.64025544012013,35.81505304392773],[127.64036471910289,35.815641783311044],[127.64018794410825,35.81563344042024],[127.64020136761182,35.81570672838003],[127.64037713226773,35.81571327459779],[127.64049428458857,35.816331442534235],[127.64036115885095,35.81644038946625],[127.6400333613863,35.81636507525908],[127.64006268082169,35.81657184234473],[127.63923806746146,35.81636872196944],[127.63850902742033,35.81632603573171],[127.63797575020723,35.81648179277151],[127.63667829125932,35.81654040170499],[127.63627046691633,35.81673593766968],[127.63608638628922,35.817078019310536],[127.63572425821154,35.817119791495855],[127.63523276013471,35.817794474894214],[127.6350361574404,35.81825586423559],[127.63478819018036,35.81834175144799],[127.6346134039953,35.818525847327614],[127.63442339254635,35.81839815962034],[127.63425869976948,35.818539268835636],[127.63344137683188,35.8179331679993],[127.63357707366463,35.81783994294634],[127.63229705009292,35.81667420993359],[127.63142634877465,35.81560267023161],[127.63105942354726,35.81245463145822],[127.63027713338771,35.81280586285065],[127.62989350027095,35.81325922032572],[127.62977629928373,35.8141646490422],[127.62950811556007,35.81480431420561],[127.62831936189684,35.81592043135301],[127.62782354576711,35.81687497594617],[127.62739616745435,35.81732484634697],[127.62520773139246,35.81885919653493],[127.62455852916472,35.81958762876778],[127.62398148045544,35.82049988660757],[127.62356945683293,35.82089485109046],[127.62286493493532,35.82182161521593],[127.62145636230284,35.8232826566893],[127.62103015532615,35.8241200859746],[127.62091272590077,35.8247004472516],[127.62105777498961,35.82629423204501],[127.62102884603475,35.82821344182235],[127.62115752644146,35.82926792755274],[127.62146265515901,35.82994434446631],[127.62260622888323,35.8308849192871],[127.62271476643798,35.83132128957668],[127.62125006815506,35.834933794052894],[127.62104162852722,35.834934869714296],[127.62094521574552,35.83519508374357],[127.62080589643766,35.83519654203117],[127.62070688725402,35.83543340113859],[127.62060926816177,35.836236489588316],[127.62016202611122,35.83697618531661],[127.61998307764219,35.837744355331914],[127.619960251973,35.838940046367796]]]}}
