{"type":"Feature","bbox":[126.94889839880024,37.56549354980666,127.02336155262597,37.632374809893264],"properties":{"regionCode":"11110","version":"vworld-20260909-3f8952dfda77-p3","name":"서울특별시 종로구","attribution":"국토교통부/K-Geo플랫폼 · VWorld 법정구역정보, CC BY 2.0 KR; 공공주택 복덕방 가공"},"geometry":{"type":"Polygon","coordinates":[[[126.97507658986945,37.63123259279445],[126.97538814842747,37.63173315776577],[126.97445311398809,37.63198009276464],[126.97367181329615,37.6320312571848],[126.97302950748906,37.632374809893264],[126.9713272505716,37.631618645472415],[126.97058245848046,37.631485125831745],[126.96938847510877,37.63101602820062],[126.96823167289882,37.630730118715846],[126.96679670157155,37.63068898622887],[126.96604731308358,37.63081558803147],[126.96522847811879,37.63076804216042],[126.96433141800559,37.63036006595414],[126.96376690155934,37.6297932415378],[126.96143934751731,37.62995934380719],[126.95881365227586,37.62958927367595],[126.95747902504338,37.629100641084015],[126.95674818920624,37.62862264811238],[126.95641594742061,37.62823452565835],[126.95556525634628,37.628282905306],[126.95517903714253,37.6281622020279],[126.95401494119754,37.62736157721231],[126.9535057021659,37.62737788818331],[126.95275419844691,37.62705630717383],[126.95202436076488,37.6268733862914],[126.9516053392534,37.62654518811461],[126.95045373026518,37.626418009089505],[126.94900386253582,37.62433576814743],[126.94889839880024,37.62326157054016],[126.94922703360996,37.622358172383095],[126.94991582921652,37.62093235833406],[126.94985364934598,37.61876237570584],[126.950469543568,37.616099155263576],[126.95072415774007,37.61553794527392],[126.95059186704586,37.615137365940605],[126.95079659193767,37.6138493670386],[126.95073165226617,37.61352828378884],[126.9504779450277,37.6128699978873],[126.94982876569487,37.6116562488515],[126.95037949174394,37.6106331977334],[126.95033842279183,37.60911199660735],[126.95057516165268,37.60887523198277],[126.95062123081698,37.60836371824274],[126.95147745868051,37.60802087290596],[126.95177136290482,37.60740274433333],[126.95226119306797,37.60690720262208],[126.95260643014693,37.60667727103134],[126.95273981618621,37.6063108686041],[126.95272042225612,37.60592169099487],[126.95311257789689,37.60550643731711],[126.95407696834647,37.605074466370844],[126.95398823941117,37.60475184033821],[126.9536536429827,37.604271006019964],[126.95327394901956,37.60320206083789],[126.95293727897564,37.60294747465278],[126.95274431842769,37.60262325934701],[126.95252079018404,37.60244554458913],[126.9527077557424,37.60180302684899],[126.95262777058822,37.60156486155052],[126.9527491622196,37.60117174058168],[126.95299195393879,37.60087243670003],[126.95306063992588,37.600639615158784],[126.95337476711386,37.60037741121472],[126.95351119292943,37.6000889271454],[126.95346601092528,37.59970014359501],[126.95353255250116,37.59946866290453],[126.95312478178325,37.59888772298763],[126.95317583984892,37.5987135572985],[126.9532944040351,37.5985853536199],[126.95364334964007,37.59861185462053],[126.95384091143683,37.5986733544593],[126.95414106276785,37.599098279577106],[126.95488088703092,37.59930949594289],[126.9554111960678,37.59927397966505],[126.9567065569485,37.5987934923817],[126.95677432939499,37.598743664537494],[126.9567468575622,37.59857518559503],[126.9573078412818,37.598531033714075],[126.95771416600866,37.59836708164317],[126.95804189561123,37.598155875905725],[126.95826849259745,37.597788691263226],[126.95852992309106,37.596722019518786],[126.95871253162998,37.596374667116535],[126.95865482448693,37.59584715728223],[126.95906748892936,37.59501719205904],[126.95904592787195,37.594781515849256],[126.9588739098634,37.59455597502679],[126.95866133215776,37.59445285925837],[126.95855578555901,37.594180696260985],[126.9575291541053,37.593507021553876],[126.95752762149637,37.5930310789128],[126.95782244235417,37.592559909514485],[126.95782691295025,37.59145980858715],[126.957490365674,37.59007828361253],[126.95732987798135,37.58872296321178],[126.95748635142516,37.58795662364201],[126.9573739657861,37.58707685070988],[126.95747216773319,37.58604690845861],[126.95785365680177,37.58500572703309],[126.95777658962957,37.58495282743069],[126.95799718035092,37.58444209929154],[126.95799890631699,37.584124690144414],[126.95766187585345,37.58317288997787],[126.95760382231501,37.5828814712488],[126.95769645703834,37.58262256230253],[126.95757284626946,37.582302781698665],[126.95764190054365,37.582045064144666],[126.95816049052284,37.581170360773484],[126.95817317730187,37.580984574527776],[126.95803118440833,37.58073559703172],[126.95779146825834,37.58058714266988],[126.95730283561683,37.58044409105324],[126.95722362009298,37.580351468877105],[126.95720179101623,37.57981923846764],[126.95567990355579,37.57968450197737],[126.95519199923754,37.57932380737651],[126.95398041610699,37.578955155162795],[126.95355820393311,37.57874885683323],[126.95544907589206,37.576544876693376],[126.95563369196438,37.576594739693675],[126.95637316460686,37.57568129798886],[126.95833757372536,37.57409832064697],[126.96400034484613,37.568635496711316],[126.9653860982027,37.567102147692154],[126.96699495513236,37.56549354980666],[126.96669882711568,37.5658200935022],[126.9690993036286,37.56824566476803],[126.96927468255359,37.568133616496965],[126.9694251074717,37.56827660890428],[126.96950639824503,37.5681566553164],[126.97034281060705,37.56852106652401],[126.97077316993352,37.56860120637036],[126.97117754008879,37.568818745723746],[126.97151261177737,37.56870858652146],[126.97166983340749,37.568345728621665],[126.9719150758336,37.56828933262066],[126.97254776809109,37.56847406538895],[126.97241840913222,37.56883098833092],[126.9725920036595,37.56906143061408],[126.97280784187768,37.568996234058126],[126.97287983392157,37.569191313010776],[126.9731885817415,37.569164720610374],[126.97320373640325,37.56932051562281],[126.9741726508213,37.56934480909121],[126.97429571018854,37.56932824959672],[126.9742828581039,37.569246499749724],[126.97470664799219,37.569202468018425],[126.97637674067406,37.569486546668195],[126.9764459195794,37.569234463902696],[126.97757166217895,37.569258458635524],[126.97757736215374,37.56931364445424],[126.97800995050531,37.56918196222641],[126.98058290949254,37.56898615613512],[126.98232837303944,37.56904761168473],[126.98663890178153,37.568232506883156],[126.98891994130624,37.56810301958945],[126.98990982045859,37.56812316988367],[126.99734224211505,37.56876642982531],[127.00225748996226,37.569615772367264],[127.00644755249417,37.569610942313595],[127.00983515644725,37.56976501938472],[127.01306451723406,37.56969901997664],[127.01525734593767,37.569735724703044],[127.01526814976447,37.56966710620296],[127.01711069292837,37.56996458121267],[127.01901743864312,37.57101660709156],[127.02075417923066,37.5717151589408],[127.02220377660488,37.572023350416885],[127.02336155262597,37.571911134887095],[127.02321708197687,37.575880252579296],[127.0233204426232,37.57589502665215],[127.02320721644809,37.57592916669001],[127.0231385054679,37.578020880847426],[127.02297809244604,37.57782681454909],[127.02289049344913,37.577820971328066],[127.02252985286768,37.578091653148505],[127.02276084665952,37.578333574882485],[127.02180384724927,37.578862633938634],[127.02148146340586,37.5788544808991],[127.01907197779192,37.578016666122],[127.01911961739357,37.577744558904854],[127.0187686959625,37.577520842356904],[127.01843889554229,37.57768295120657],[127.01812103632213,37.57758897763764],[127.01769167782736,37.578135848529044],[127.01817620499787,37.57861262676766],[127.01830027149067,37.579032703529656],[127.01797393199467,37.579517220478],[127.01754569850688,37.57973268465217],[127.01730312261212,37.58026471303494],[127.01727779659909,37.580553078075475],[127.01688516094131,37.580861725902395],[127.01695164857048,37.58101746215728],[127.01682485837229,37.58121545387526],[127.01684862114655,37.581431481177866],[127.01673363946408,37.58169269824921],[127.01638581072173,37.581937757548815],[127.01549338451944,37.58184525585571],[127.01482867690162,37.58234179188186],[127.0142227948173,37.58207684257694],[127.01409764785627,37.58179093799046],[127.01343367437866,37.581615411368944],[127.01324533773338,37.581414855208024],[127.01284505358116,37.581334597557095],[127.01212077977125,37.5815631908438],[127.01177685978647,37.58156544817411],[127.01112607870948,37.58104393110622],[127.01058890856173,37.58025461755885],[127.00864298653897,37.58046825028114],[127.00832686569944,37.58105689361349],[127.00802021520701,37.58123518562938],[127.00780860145574,37.581510187332434],[127.00749029476174,37.58165805760612],[127.00733885657701,37.58187250022169],[127.0070490070157,37.582003508509345],[127.00677917900002,37.58234864134119],[127.00730884552752,37.583053855851944],[127.00732603798264,37.583312725485825],[127.00722176915151,37.58346318806219],[127.00691288606805,37.58474526766921],[127.00690135435131,37.58528055174553],[127.00656013382611,37.58553460302605],[127.00667281186824,37.58609109925753],[127.00586603344811,37.58697201593482],[127.0051170262016,37.5869907986803],[127.0042513169004,37.58717658705731],[127.00399577808126,37.58780921101508],[127.0040117496123,37.58807159461222],[127.00355452292054,37.5882918880828],[127.00359186652463,37.588447179133134],[127.00347884066869,37.58871532778986],[127.0025332568024,37.58900439316141],[127.00231480077167,37.58926293860999],[127.00185053654631,37.59014164383218],[127.00174432293402,37.59068130789707],[127.00191580733788,37.59121241310147],[127.00171581329552,37.591720963454975],[127.00161517662413,37.591891292735546],[127.00093565015398,37.592400676743715],[127.00062721344192,37.59245183939452],[126.99991340409673,37.59234960987968],[126.99844277779461,37.592463352994045],[126.99743892915423,37.59220716282545],[126.99677371440283,37.592218075814046],[126.99642734995064,37.592061390803686],[126.99535430570761,37.59227349259048],[126.99475545158234,37.5916644228597],[126.99431980703379,37.59144364519942],[126.9938585905905,37.59142374057771],[126.99366159136116,37.591493625870505],[126.99357121081972,37.59173979523441],[126.99215634547316,37.591999427581925],[126.99187044171018,37.59185694124593],[126.9916466900589,37.591449238406526],[126.9913600299779,37.591392367995915],[126.99096191819372,37.59151336241022],[126.98979205377225,37.59145235405468],[126.98919741746538,37.59126842192123],[126.98891354081614,37.59163872589731],[126.98853083333192,37.591961982550544],[126.98777376916395,37.59227316912588],[126.98719248054566,37.592737007188724],[126.98671393595573,37.592764321661996],[126.98627684969767,37.59332547103909],[126.98613654859396,37.59380929969877],[126.98579315440938,37.594289568325706],[126.9854414283752,37.59447740216909],[126.98517648048815,37.59451747060381],[126.98443740436761,37.594386846915214],[126.98388768614615,37.594438699802915],[126.98347313907406,37.59470489609055],[126.98294485846644,37.59478890365744],[126.98250638561376,37.595208321797145],[126.98155810918881,37.595324193806015],[126.98093620348803,37.59584785702041],[126.9802883519389,37.59596085380202],[126.97980086688533,37.59623649091811],[126.97912325805683,37.596403838967575],[126.97866086249019,37.59670958233163],[126.97857113516443,37.59700202212391],[126.97864420679842,37.59707408816271],[126.97860448369066,37.597265026067035],[126.97796666875595,37.59770086823237],[126.97729084543992,37.59768385667109],[126.97688828107228,37.5977467524891],[126.97672045885174,37.59790077436636],[126.9771452670463,37.59844996092195],[126.977412678822,37.59911687819707],[126.97741298806866,37.59939156979108],[126.97768478861575,37.60022440404034],[126.97794135436897,37.60030682221465],[126.97821410506164,37.60074214427626],[126.9785217033221,37.6009924877137],[126.97923773777197,37.60103608716838],[126.97953543034096,37.60121829420905],[126.97983240873447,37.60125010850711],[126.98016290581685,37.60144974627697],[126.98049979715482,37.60145881718333],[126.98068437410356,37.60161031399459],[126.9825960394541,37.602242712711984],[126.982867306288,37.60212796028796],[126.98399356362565,37.60320083632133],[126.98435784621552,37.60311313440649],[126.98475326416268,37.60336466187756],[126.9857760281154,37.60345129978003],[126.98596600013803,37.60365443165932],[126.98666962228815,37.604024086937024],[126.98678717812267,37.60450355028633],[126.98667228652778,37.60509246292251],[126.9867559963194,37.606087050495546],[126.98631624513034,37.6065015198226],[126.98638408870299,37.60685373108516],[126.98612994663999,37.60738864588594],[126.98626598429033,37.607723921349304],[126.98671186153464,37.60825834120755],[126.98684531294974,37.60886444768724],[126.98587882511767,37.60946000397606],[126.98581236825324,37.61072619513719],[126.98565841890668,37.61136355422268],[126.98619933110946,37.6129809697105],[126.98614562267791,37.613214757974355],[126.98644496477324,37.613563808845186],[126.98658779258777,37.61398645031027],[126.98542281091959,37.615144915566084],[126.98516214718815,37.6155158317955],[126.98454753298591,37.61601705882308],[126.98440848262231,37.616890638857726],[126.98373134078311,37.61777429329041],[126.98316369795033,37.61927405949052],[126.98318000182937,37.62018285357647],[126.98365101983678,37.62115092906885],[126.981847758333,37.624314632354974],[126.98091440969154,37.62539059261431],[126.97960480663696,37.62637902134124],[126.97987729241146,37.6274529462496],[126.9801901307114,37.627933263212846],[126.97993255071516,37.62855138488047],[126.97952794140215,37.62889302476304],[126.97842203812844,37.629288771292856],[126.97491620062053,37.62897010904451],[126.97464297623546,37.62974239510417],[126.97507658986945,37.63123259279445]]]}}
