{"type":"Feature","bbox":[126.94459000637694,37.506543111445446,127.01776004536973,37.55566241169798],"properties":{"regionCode":"11170","version":"vworld-20260909-3f8952dfda77-p3","name":"서울특별시 용산구","attribution":"국토교통부/K-Geo플랫폼 · VWorld 법정구역정보, CC BY 2.0 KR; 두꺼비집 가공"},"geometry":{"type":"Polygon","coordinates":[[[126.9724121964291,37.554651226018585],[126.97240847483299,37.554876879980796],[126.96916959828425,37.55487522496536],[126.96918577369418,37.55566241169798],[126.96686237799305,37.5544695323183],[126.96570544727352,37.554149072304746],[126.9646393798313,37.553371144309175],[126.96338307615991,37.552261851116256],[126.96235081003343,37.55151341380645],[126.96314820601076,37.5507188122822],[126.96323503597864,37.550460552426834],[126.96360439922324,37.54993619663954],[126.96389643036888,37.549779010828075],[126.96372603231781,37.54923192770191],[126.96374225073568,37.548759112256356],[126.96333831255218,37.54863785190116],[126.96293086891848,37.548684886715634],[126.96224154379253,37.548619042471394],[126.96222527892544,37.5481288950531],[126.9617063817726,37.5475899287149],[126.9610779341282,37.54741822046201],[126.96013066747079,37.546358166447966],[126.96005158279374,37.54606571091214],[126.95953340652125,37.54597259964873],[126.95931480602447,37.54605423367237],[126.95896589181672,37.54574121932629],[126.95841483677313,37.545504059312776],[126.95790510171754,37.54545385861537],[126.95781979523571,37.54514244377109],[126.95810844552402,37.54442251626134],[126.95758010161647,37.544221940481734],[126.95745796446404,37.5440055503475],[126.95754404611927,37.54372748833726],[126.95741534157341,37.543213459484654],[126.95758556190245,37.54297802123082],[126.95807797445798,37.54291682709863],[126.95834999657717,37.54275916364173],[126.95817599915205,37.542312208103006],[126.95699333318954,37.54163629661859],[126.95694784593165,37.5412939458699],[126.95672907633096,37.54086467671765],[126.95652058973883,37.54070516630193],[126.95665908565022,37.5405941696512],[126.95606599717611,37.53996460259464],[126.95573375277131,37.53947063896968],[126.95518527391322,37.53918490193319],[126.95409548153427,37.538932459167434],[126.95365130609325,37.53833546160523],[126.95335584589574,37.537493376073385],[126.95211422036347,37.53677737413709],[126.95154752712735,37.53653701961466],[126.95128384439874,37.53628562128281],[126.95060307764238,37.5360949499545],[126.94990338852031,37.536043688557164],[126.94899273047375,37.535743398028075],[126.94878613369083,37.53558103807423],[126.94828135361179,37.5356543311538],[126.94784336814291,37.53562120370879],[126.94758708841526,37.535841072117975],[126.94748254085799,37.535832265348965],[126.94738666954207,37.53538303803374],[126.94747872166215,37.53530855483009],[126.94737935813767,37.53521639912009],[126.94718418953289,37.53537137148225],[126.94651989609112,37.535579265971705],[126.94641785436171,37.53573989140758],[126.94627654344745,37.53569102647815],[126.94544247561387,37.53518205900771],[126.94556628657224,37.53498398906117],[126.94509688719928,37.53496258284639],[126.94481999320618,37.53452021643807],[126.94493071505818,37.534234609543596],[126.94459000637694,37.53378572777691],[126.94717240985405,37.53063168806804],[126.94741121204494,37.5301722657647],[126.94988000559373,37.527028926428635],[126.94988655414423,37.51752621636128],[126.95344247550887,37.51639620712382],[126.95470372972521,37.51606497746279],[126.96017136139338,37.51382411700815],[126.96120023185911,37.5135025246588],[126.96257926520941,37.512617865425106],[126.96496363932476,37.51081663387308],[126.96685735506759,37.50989170844473],[126.97012029879016,37.50900812215093],[126.97525894161244,37.50701278277567],[126.97818922680088,37.50655485227376],[126.98553273612227,37.506543111445446],[126.99067159426374,37.513102402537115],[127.00078834960485,37.519496755792765],[127.00644451488674,37.52343613282986],[127.01000287760088,37.52703990950048],[127.01340176933671,37.530643593201845],[127.01775926582084,37.53425950047573],[127.01775943431078,37.535029590179064],[127.0175146002914,37.5348412276724],[127.01775948232142,37.53525696567934],[127.01776004536973,37.53785102339833],[127.01675904450525,37.537851156902775],[127.01567490368322,37.53827148678838],[127.01548214160923,37.53823459777677],[127.01544974967167,37.53830752579184],[127.0151695317704,37.53837894442835],[127.01507631602867,37.53828072167773],[127.01479228187465,37.53878208324611],[127.01397414069133,37.53880687701847],[127.01385937012775,37.53904245613183],[127.01346300040329,37.53881760651416],[127.01337592461607,37.53890594979505],[127.01321740105735,37.53888499888157],[127.01281804956939,37.539267959885905],[127.01261213168199,37.53934366291068],[127.01148343741848,37.53902571421934],[127.01072594786324,37.5393010274331],[127.00994636726725,37.5393925359163],[127.00958969535286,37.539638964879174],[127.009312429507,37.540022456022044],[127.00916883916643,37.54064012177518],[127.00925735258461,37.541046770383524],[127.00915965959383,37.541269933838336],[127.00879174315605,37.541571124735896],[127.00867428543582,37.54198000296166],[127.00895044196155,37.54273550362951],[127.00898804630857,37.54413288630163],[127.00726391156438,37.54385704219057],[127.00501124615609,37.546198061214334],[127.00543362882497,37.54706372896564],[127.00532931004037,37.547348174696914],[127.00556172497146,37.547510318651646],[127.00614008649487,37.54819305328798],[127.00608091497402,37.5483918312069],[127.00569757519173,37.54829751054366],[127.00495770815601,37.54844658686081],[127.0046987253934,37.54869624927871],[127.0045710345083,37.549851746818156],[127.00433205732715,37.55024692695668],[127.0042250570057,37.55014560402221],[127.00340876517103,37.55002397609274],[127.00284314436712,37.549636362415356],[127.00220598417299,37.549736942031814],[127.00201138017732,37.54997518475361],[127.00168477612237,37.55006869016343],[127.00135219797919,37.55003174046603],[127.00116386925754,37.54990389967502],[127.00081385202515,37.55002620645139],[127.00051851622939,37.55003822536762],[127.0001247096191,37.549814125452926],[126.99908481514223,37.54972237853686],[126.99890859460696,37.549787257220814],[126.9983267200164,37.549692807246615],[126.99767027455104,37.54935200646302],[126.99743676502091,37.54913186845948],[126.9973896272454,37.54898202476526],[126.99677661056745,37.548515782677725],[126.99671935071889,37.54781682722802],[126.99636796571144,37.547447908861514],[126.99522369506306,37.547228915062384],[126.99452298809813,37.54745646759964],[126.99405331165043,37.548414269625404],[126.99341614298213,37.5488160167572],[126.99314058720626,37.549086144180535],[126.99298129381556,37.549516121689216],[126.99238395958383,37.55007194326348],[126.99165830318829,37.550266506306976],[126.99099823347854,37.55076870786874],[126.99079844386382,37.55106397043722],[126.99024471245737,37.55128323922548],[126.98939418074673,37.551330183988036],[126.98915454999597,37.551474970497395],[126.98864721550302,37.55159691909048],[126.9877728709629,37.55145857850319],[126.9875613064371,37.55149653931106],[126.98706670072201,37.552284576725356],[126.98660381581408,37.55260394733234],[126.98610650076174,37.55335631047208],[126.98542332163319,37.55372660710771],[126.9846212378639,37.55313995936355],[126.98401650623002,37.55304756364905],[126.98367229632638,37.55312784553285],[126.98331588058882,37.5533672836798],[126.98247965288459,37.5534870827361],[126.98201845039863,37.55380418291093],[126.981718147688,37.55386892494941],[126.98109927057808,37.55382035330001],[126.98087105147845,37.55389907079625],[126.98038619987004,37.55332200725829],[126.97966940891479,37.55332494191753],[126.9787319166604,37.55320455258242],[126.97871282607181,37.553795273594055],[126.97879719601578,37.55408757128295],[126.97810590525353,37.554413230519664],[126.9772628848529,37.555009258528244],[126.97654847274735,37.55522205109339],[126.97643039157803,37.55308631738732],[126.9758315021139,37.553388849662944],[126.97435034140516,37.553548200461584],[126.9724121964291,37.554651226018585]]]}}
