{"type":"Feature","bbox":[127.00800824780953,37.528329920215924,127.07373576820471,37.573021298863594],"properties":{"regionCode":"11200","version":"vworld-20260909-3f8952dfda77-p3","name":"서울특별시 성동구","attribution":"국토교통부/K-Geo플랫폼 · VWorld 법정구역정보, CC BY 2.0 KR; 공공주택 복덕방 가공","displayAdjustmentId":"seongdong-junggu-shared-tip-v1"},"geometry":{"type":"Polygon","coordinates":[[[127.04191055903941,37.572969479153855],[127.03817731652516,37.573021298863594],[127.03812997784154,37.572264040855366],[127.03673677389074,37.572240028465785],[127.03565816097323,37.57200357472496],[127.03418229960704,37.5713854711043],[127.03306865428358,37.570523614661106],[127.03253629846118,37.570222643354306],[127.03155317933572,37.5698582864159],[127.03096501278844,37.5697803910526],[127.03029585272563,37.5698055209211],[127.02767576859753,37.570412145457475],[127.02771742747413,37.57084271747923],[127.02616051121431,37.57125621827759],[127.02572195507206,37.570909222054404],[127.02519192032554,37.57085229761654],[127.02458811900273,37.57104657052031],[127.02418921352208,37.57142493735875],[127.02339125207482,37.57190715366424],[127.02356363290436,37.56624115555935],[127.02356509060745,37.565807825535956],[127.02357319833902,37.56577863202911],[127.02358209358974,37.565199781311215],[127.02679452534116,37.5650620694982],[127.02667275993583,37.56479470823118],[127.02679767513771,37.56419786707898],[127.02669709096689,37.56415295166779],[127.0267523211351,37.56389473110374],[127.0265260304124,37.56339123342403],[127.02592921184295,37.56260371655146],[127.02541140906936,37.562280094342334],[127.02449607670896,37.561860492791155],[127.02376529010942,37.56116094494166],[127.02345908219225,37.56072752864385],[127.02346234153914,37.56079905845735],[127.02338928228708,37.56072961563645],[127.02322009512143,37.559999483124656],[127.02275903936331,37.55933112292006],[127.02238704968585,37.559027554841954],[127.02284709958884,37.558956926656855],[127.02289730868199,37.55786196813356],[127.0225495411202,37.55785955820891],[127.02190169629476,37.5574791989849],[127.02094550215514,37.557756335123976],[127.0209171132824,37.55782668744938],[127.01958533779786,37.5575044362571],[127.01966438019366,37.55726797239277],[127.01941815010572,37.55743731827357],[127.01896606024212,37.5572379338274],[127.0187500027433,37.55721949507293],[127.01804540512002,37.55683847777],[127.01763630363179,37.556396944840394],[127.01733894187817,37.55585083662485],[127.01723361190156,37.554889226296766],[127.01711559413782,37.55482299831822],[127.01691067307438,37.55442856484706],[127.01709908116368,37.554048068101885],[127.01707070550873,37.553599523147206],[127.01687601713746,37.553366921053865],[127.01679280024125,37.55330147689692],[127.01672062588115,37.553373566232224],[127.0168196123034,37.55352741269777],[127.01661328014404,37.55340481467416],[127.01632032040307,37.5530543201025],[127.01613386052442,37.552594282124865],[127.01595156462413,37.552563804792165],[127.01428644953735,37.55100664420486],[127.01322028959538,37.5501256650293],[127.01346597488177,37.549797859538074],[127.01341555331754,37.549760672953894],[127.01313427413197,37.55005099944407],[127.0124270200647,37.549492566094656],[127.01216662836278,37.54941589249016],[127.0118327051837,37.548753694382405],[127.01159502821153,37.548487921708954],[127.01092733498639,37.548181638981404],[127.01058786136649,37.54826906232534],[127.01002201239274,37.54790690540904],[127.00969384485597,37.54788890785264],[127.00933168447004,37.54747447754112],[127.00910531849667,37.54701498614587],[127.00922972138,37.54632121607377],[127.00871835179062,37.54601778416266],[127.00819420215214,37.54512972555441],[127.00800824780953,37.545089037278366],[127.00825920533534,37.54492493528149],[127.00854010446284,37.54457963254124],[127.00891697375333,37.54447607588968],[127.00898329295747,37.54413583017912],[127.00864344818241,37.54407529508764],[127.00898804630857,37.54413288630163],[127.0090181405975,37.54398566032456],[127.00895044196155,37.54273550362951],[127.00868894532712,37.541919842852195],[127.00879174315605,37.541571124735896],[127.00915965959383,37.541269933838336],[127.00925735258461,37.541046770383524],[127.00916883916643,37.54064012177518],[127.009312429507,37.540022456022044],[127.00958969535286,37.539638964879174],[127.00994636726725,37.5393925359163],[127.01072594786324,37.5393010274331],[127.01148343741848,37.53902571421934],[127.01261213168199,37.53934366291068],[127.01281804956939,37.539267959885905],[127.01321740105735,37.53888499888157],[127.01337592461607,37.53890594979505],[127.01346300040329,37.53881760651416],[127.01385937012775,37.53904245613183],[127.01397414069133,37.53880687701847],[127.01479228187465,37.53878208324611],[127.01507631602867,37.53828072167773],[127.0151695317704,37.53837894442835],[127.01544974967167,37.53830752579184],[127.01548214160923,37.53823459777677],[127.01567490368322,37.53827148678838],[127.01675904450525,37.537851156902775],[127.01776004536973,37.53785102339833],[127.01775948232142,37.53525696567934],[127.0175146002914,37.5348412276724],[127.01775943431078,37.535029590179064],[127.01775926582084,37.53425950047573],[127.02117227622111,37.53582383839494],[127.04038816149539,37.53582315965662],[127.0403881231542,37.53575047344775],[127.04600231160991,37.53427258533416],[127.04946735824953,37.532270330832766],[127.05513350084149,37.52867573926275],[127.05622486284537,37.528329920215924],[127.07373576820471,37.55941397576612],[127.07099364335465,37.56046866454251],[127.07105822397499,37.560554930423756],[127.05876084932817,37.56231431760665],[127.04795065309627,37.57038424332289],[127.04191055903941,37.572969479153855]]]}}
