{"type":"Feature","bbox":[127.06943435335009,37.56969862850745,127.11847694258546,37.621054571243114],"properties":{"regionCode":"11260","version":"vworld-20260909-3f8952dfda77-p3","name":"서울특별시 중랑구","attribution":"국토교통부/K-Geo플랫폼 · VWorld 법정구역정보, CC BY 2.0 KR; 공공주택 복덕방 가공"},"geometry":{"type":"Polygon","coordinates":[[[127.11051903147428,37.621054571243114],[127.11001820972557,37.620703947839786],[127.10912786364216,37.62051471963694],[127.10708529023107,37.62046549358932],[127.10696588648463,37.62054102685985],[127.10658576054306,37.62058054589043],[127.10581066282299,37.62025999248303],[127.1056539536441,37.620379433998195],[127.10483998242343,37.62008196469309],[127.10405010075607,37.62006394720915],[127.10398226218267,37.6200940245048],[127.10406756273504,37.62011779252856],[127.10381205418697,37.62028804764221],[127.10169245237333,37.62002459902277],[127.10178972361751,37.61968321747461],[127.10167487852898,37.61947168310677],[127.10087078102218,37.6194042487523],[127.10080173942832,37.61948689908044],[127.09966104339601,37.619912413530045],[127.09958443312105,37.6200034487858],[127.09964424080394,37.61989215563158],[127.09881686747006,37.62039396586737],[127.09848615301274,37.620202987638535],[127.09665084063795,37.61956183807908],[127.09661549360125,37.61943255755641],[127.09619474261537,37.61902009541376],[127.09554725632027,37.619174394278254],[127.09492829654232,37.61900998712454],[127.09444918729123,37.61898864985653],[127.09366581690661,37.618066662926466],[127.09349841221217,37.61809763155688],[127.09321565903416,37.61800262729972],[127.09233089727232,37.61834802768686],[127.091384487544,37.6189591652971],[127.08945248220238,37.619646898663554],[127.08870740851694,37.62024038879597],[127.08823136098498,37.619875477703424],[127.08696088240283,37.62023427752057],[127.08607256742205,37.62029248851676],[127.08494802428754,37.62009588285584],[127.083786654265,37.619778472111165],[127.08383861675492,37.619650495332785],[127.08277574971758,37.619337259911624],[127.08242679044868,37.61933663396873],[127.08194704685117,37.619187050296595],[127.081403380951,37.619140794048796],[127.08061562796549,37.61841888085832],[127.08007465554616,37.6182413962326],[127.08007499249435,37.61856126399085],[127.07968526619717,37.618415400305686],[127.07911999039578,37.61838988389028],[127.07769831009904,37.61790352208659],[127.07757108556025,37.61774441694473],[127.07751069879083,37.61783900844977],[127.0755335973453,37.61716046367338],[127.07441009817707,37.61702907809367],[127.07415687969478,37.616830757974505],[127.07368995214412,37.61674534995629],[127.07197714656789,37.61647409198732],[127.07195475103568,37.61653828818071],[127.07138547284916,37.61640266903082],[127.0710942932686,37.61620750336949],[127.07114300678603,37.61593812495623],[127.07041136660895,37.61553314053548],[127.07005321182923,37.61542808713759],[127.07113590251913,37.61480604629308],[127.07164746536729,37.613867425345866],[127.07175288441131,37.61351416070712],[127.07173715579633,37.61240844071761],[127.0713454273067,37.60991047637172],[127.0714135369074,37.6099104353173],[127.07143059951831,37.60974820590346],[127.0715548619943,37.607559482012746],[127.07106166364215,37.60761974435504],[127.07107949797847,37.60732690671961],[127.07153342870191,37.60464238482127],[127.07241237371441,37.6028779895174],[127.07287289986176,37.60133039901008],[127.07288007790153,37.60106840768245],[127.07249768461492,37.6002459954154],[127.07206161726022,37.59969460370925],[127.07151541578702,37.59909859418459],[127.07116184723047,37.59880278652421],[127.07079790461428,37.59862355068709],[127.07032453752689,37.59820624873757],[127.069493984422,37.5972430930505],[127.06943435335009,37.59512418208719],[127.07045038071149,37.59289309116441],[127.07072361318869,37.5918911809747],[127.07060504036555,37.59095861354259],[127.07022799479162,37.58995864873886],[127.07030273991641,37.589533791833716],[127.07060237716603,37.58915269154559],[127.07103867015711,37.5889589759769],[127.07189690211037,37.58763546821441],[127.07238417694774,37.586672869093945],[127.07264378270632,37.586511628135014],[127.07216130063934,37.58495693324066],[127.07536774430024,37.581151957333724],[127.07525747381436,37.58099412037527],[127.07581178436884,37.58094994836288],[127.0761814455868,37.58029600341385],[127.07645796022139,37.579335691918956],[127.07722685164885,37.5735009503386],[127.07723144859749,37.572920550249854],[127.07820163672137,37.571869535819076],[127.0833286176267,37.57136998622141],[127.0861723942013,37.570831732367616],[127.08817731719039,37.57084582262977],[127.08846847837499,37.57021791028834],[127.09049505266299,37.56969862850745],[127.09375972828332,37.570572036468924],[127.094799502743,37.57075227269428],[127.09561747961956,37.57060999702726],[127.09580846410852,37.5710065952091],[127.09585407770945,37.571339607297766],[127.09634164975373,37.571299800736],[127.09742427616764,37.57194824221213],[127.09833214206488,37.572359647970764],[127.09857464381597,37.57265210276386],[127.09947569238439,37.57274085999897],[127.10073988459841,37.57359706394493],[127.1009490431116,37.573824803124744],[127.10090244472413,37.57439181446896],[127.10124834299904,37.57516614840498],[127.10114352458443,37.57607079781571],[127.10173318995551,37.57696689836641],[127.10195745537656,37.57755239426737],[127.10302537528409,37.57890697025301],[127.10291104193803,37.57991426315119],[127.10342895945493,37.58053429887544],[127.10454452770637,37.58105468548358],[127.10598779240901,37.58186738696522],[127.10732035124188,37.58228662622475],[127.10789710255492,37.58282648270095],[127.10851684949442,37.58319342543122],[127.10900199682636,37.583304418380465],[127.10934375817831,37.58407362950913],[127.1093138693971,37.58455198251645],[127.1097062313899,37.58521739030677],[127.1099363727754,37.585993392493485],[127.11011026586995,37.587481597720696],[127.11035414941206,37.58803819216413],[127.11064329859292,37.5891646772601],[127.11319721806838,37.593209113189],[127.11359328582577,37.59333507942413],[127.11544651060125,37.593519938511776],[127.1165490645616,37.593917492710005],[127.11666451942303,37.59401636334457],[127.11687746109321,37.5954971205458],[127.11572667624483,37.597314548611266],[127.11406389313328,37.59952095131645],[127.11402222388907,37.59996649015081],[127.11408197661991,37.600120825644474],[127.11496420143934,37.60076636413309],[127.11558436943407,37.60171824122697],[127.1157226581012,37.60210848399626],[127.11687186743352,37.6030526231435],[127.11737707324508,37.603937181558486],[127.11804699801678,37.60460242914993],[127.11809375601418,37.605566839804766],[127.1179978463258,37.60588599863041],[127.11806085883444,37.6065914060853],[127.11847694258546,37.60761297728195],[127.11803410113977,37.608153932769554],[127.11726454995747,37.60863404842025],[127.1166832687758,37.60883352043817],[127.11687820128438,37.609509046146705],[127.11677006213769,37.609844027701676],[127.116787976534,37.610282040218095],[127.11728694296369,37.61118040891494],[127.11749011295217,37.61182757134232],[127.1172438279959,37.61262821030073],[127.11706079121359,37.614144423632375],[127.11667678813106,37.61467599557106],[127.11679621750002,37.61495471845288],[127.11667165703227,37.6160154569454],[127.11725498351821,37.61673435485513],[127.11700962259953,37.61736856253615],[127.11714666469103,37.6178884460802],[127.11587303253297,37.6185832609244],[127.11620318044714,37.61893297295439],[127.11571504595294,37.619634316633146],[127.1150210101275,37.61953768196104],[127.11350524094516,37.62003732593413],[127.11214286252635,37.620306930767384],[127.11051903147428,37.621054571243114]]]}}
