{"type":"Feature","bbox":[126.90183297874603,37.55510176528386,126.96946478876113,37.610605218953296],"properties":{"regionCode":"11410","version":"vworld-20260909-3f8952dfda77-p3","name":"서울특별시 서대문구","attribution":"국토교통부/K-Geo플랫폼 · VWorld 법정구역정보, CC BY 2.0 KR; 공공주택 복덕방 가공"},"geometry":{"type":"Polygon","coordinates":[[[126.9532944040351,37.5985853536199],[126.95312478178325,37.59888772298763],[126.95353255250116,37.59946866290453],[126.95346601092528,37.59970014359501],[126.95351119292943,37.6000889271454],[126.95337476711386,37.60037741121472],[126.95306063992588,37.600639615158784],[126.95299195393879,37.60087243670003],[126.9527491622196,37.60117174058168],[126.95262777058822,37.60156486155052],[126.9527077557424,37.60180302684899],[126.95252079018404,37.60244554458913],[126.95274431842769,37.60262325934701],[126.95293727897564,37.60294747465278],[126.95327394901956,37.60320206083789],[126.9536536429827,37.604271006019964],[126.95398823941117,37.60475184033821],[126.95407696834647,37.605074466370844],[126.95311257789689,37.60550643731711],[126.95272042225612,37.60592169099487],[126.95273981618621,37.6063108686041],[126.95260643014693,37.60667727103134],[126.95226119306797,37.60690720262208],[126.95177136290482,37.60740274433333],[126.95147745868051,37.60802087290596],[126.95062123081698,37.60836371824274],[126.95057516165268,37.60887523198277],[126.95033842279183,37.60911199660735],[126.95037207023388,37.610605218953296],[126.94988878180676,37.610377131143515],[126.94936317055868,37.610011229232846],[126.94876564463594,37.60900667508738],[126.94821389495985,37.60860854562909],[126.94707788206021,37.60812377550784],[126.94623754567505,37.607378732457974],[126.94538927882243,37.60693406525532],[126.94410622815698,37.60640976104957],[126.94376953497127,37.606175179258734],[126.94367178076646,37.60506040050321],[126.94213781268164,37.604957558771375],[126.94124563507215,37.60312319934618],[126.93995327892509,37.603058488312364],[126.9398139292288,37.6027722446443],[126.9398461993878,37.6018670938217],[126.94009890391068,37.60179262186942],[126.9410781281039,37.60115855941393],[126.94137658810536,37.600677376941604],[126.94086623964503,37.59873291068603],[126.93965563908168,37.59798813310255],[126.93862989794248,37.59750571222516],[126.93754152105313,37.59786819442029],[126.93671034825512,37.597624835270324],[126.93453847650474,37.59661488012305],[126.93383946620706,37.59662781807706],[126.93279540583984,37.59629844511605],[126.93220672176194,37.5957872440496],[126.93158521370549,37.595391705125124],[126.93131527979851,37.59501556247224],[126.93027044037447,37.59455283983251],[126.930377700144,37.59432034474213],[126.92996455411787,37.594164853563065],[126.92932277960304,37.59332456708822],[126.92886819181314,37.59287532659934],[126.9285390449048,37.59223749758767],[126.92776822503625,37.5915762338319],[126.92797669798131,37.591030370080624],[126.92765780083751,37.59051039163356],[126.92794653659445,37.58992367252673],[126.92762131741658,37.58938945361371],[126.9277572392151,37.588876160583645],[126.92800896440322,37.58838536994644],[126.92773799956392,37.58806426866269],[126.92631379416734,37.58726626741094],[126.92571984526516,37.587148490514885],[126.92513436273693,37.587245707420415],[126.92388974539892,37.587099377795234],[126.92366221969687,37.58614026438609],[126.92285606141769,37.58563736873043],[126.92274712804505,37.58545483531418],[126.92243001923825,37.58533384727773],[126.92185322195208,37.58468560869999],[126.92200246203416,37.58407945076286],[126.92173191236262,37.58372626247493],[126.92175993772712,37.58345796930167],[126.92125357241494,37.58334209342357],[126.92085896741952,37.58293919959988],[126.92025415974794,37.58295689481254],[126.91985889226925,37.58330088695809],[126.91954584281042,37.58320849899028],[126.91886275355697,37.583392438579054],[126.91773381153594,37.58323876115856],[126.91702132130284,37.58326654619868],[126.91594004945948,37.58309512151916],[126.91589866929846,37.583430534991805],[126.91573558465139,37.583449959387096],[126.91576962128673,37.58396836691073],[126.91558230314065,37.584197892863614],[126.91567983912755,37.58435432767183],[126.91568958782932,37.58498967483584],[126.91603097233462,37.58531070868631],[126.91637751361668,37.58586438073688],[126.91601499034876,37.585614960359074],[126.91531021032107,37.58541542056036],[126.9156976830921,37.585981170698304],[126.91284404635192,37.587222469257284],[126.91244327616447,37.5864719481072],[126.91190448732902,37.585809514659445],[126.90416253572639,37.578526400481316],[126.90411811429158,37.578486544240896],[126.90417011830004,37.5787445085434],[126.90183297874603,37.57654584789021],[126.90263519216704,37.57639039964508],[126.90208038079862,37.57600616611201],[126.90670682903814,37.57292403622648],[126.90804497331443,37.57192070968381],[126.90908536081865,37.57128360137252],[126.91162923601289,37.57019180567118],[126.91573801170054,37.56824743116098],[126.91843753414813,37.56711572152715],[126.92013731270339,37.5666530058068],[126.9215516772242,37.56644678715453],[126.92358083076368,37.56599927962695],[126.92473368211647,37.56567447253969],[126.92601360805753,37.56510474927199],[126.9282829325467,37.56333143607287],[126.92816254050192,37.56316494055967],[126.92830391264279,37.563057187969],[126.92822657554505,37.56305713973313],[126.92735674141969,37.561780805467],[126.92718889904606,37.5617905072481],[126.92672118926565,37.56096736184272],[126.92659389049652,37.55885310848869],[126.93686375697784,37.55510176528386],[126.94137159208323,37.556544299144804],[126.9561921672889,37.55740738200764],[126.95913425455814,37.557241167716676],[126.95967854471675,37.55769077507693],[126.95971910052216,37.55758036353481],[126.96011016077233,37.55771549955128],[126.96077726028747,37.55842967611967],[126.96085574936663,37.55863783929683],[126.96164617655899,37.559089556360966],[126.96167997051964,37.55902750486654],[126.96330372817197,37.559214018406685],[126.96396405773953,37.55945500100973],[126.96558969610129,37.5603742473918],[126.96683356893953,37.56127281515549],[126.96744147055563,37.561508339868716],[126.96946478876113,37.561975159766995],[126.96887543156193,37.56307537563386],[126.9675636335771,37.56487698360496],[126.9666927800512,37.565825075869434],[126.9653860982027,37.567102147692154],[126.96400034484613,37.568635496711316],[126.95833757372536,37.57409832064697],[126.95637316460686,37.57568129798886],[126.95563369196438,37.576594739693675],[126.95544907589206,37.576544876693376],[126.95355820393311,37.57874885683323],[126.95398041610699,37.578955155162795],[126.95519199923754,37.57932380737651],[126.95567990355579,37.57968450197737],[126.95720179101623,37.57981923846764],[126.95722362009298,37.580351468877105],[126.95730283561683,37.58044409105324],[126.95779146825834,37.58058714266988],[126.95803118440833,37.58073559703172],[126.95817317730187,37.580984574527776],[126.95816049052284,37.581170360773484],[126.95764190054365,37.582045064144666],[126.95757284626946,37.582302781698665],[126.95769645703834,37.58262256230253],[126.95760382231501,37.5828814712488],[126.95766187585345,37.58317288997787],[126.95799890631699,37.584124690144414],[126.95799718035092,37.58444209929154],[126.95777658962957,37.58495282743069],[126.95785365680177,37.58500572703309],[126.95747216773319,37.58604690845861],[126.9573739657861,37.58707685070988],[126.95748635142516,37.58795662364201],[126.95732987798135,37.58872296321178],[126.957490365674,37.59007828361253],[126.95782691295025,37.59145980858715],[126.95782244235417,37.592559909514485],[126.95752762149637,37.5930310789128],[126.9575291541053,37.593507021553876],[126.95855578555901,37.594180696260985],[126.95866133215776,37.59445285925837],[126.9588739098634,37.59455597502679],[126.95904592787195,37.594781515849256],[126.95906748892936,37.59501719205904],[126.95865482448693,37.59584715728223],[126.95871253162998,37.596374667116535],[126.95852992309106,37.596722019518786],[126.95826849259745,37.597788691263226],[126.95804189561123,37.598155875905725],[126.95771416600866,37.59836708164317],[126.9573078412818,37.598531033714075],[126.9567468575622,37.59857518559503],[126.95677432939499,37.598743664537494],[126.9567065569485,37.5987934923817],[126.95544039338986,37.59926471159795],[126.95488088703092,37.59930949594289],[126.95414106276785,37.599098279577106],[126.95384091143683,37.5986733544593],[126.9532944040351,37.5985853536199]]]}}
