{"type":"Feature","bbox":[126.8536282861577,37.53378745530345,126.96389643036888,37.59079470247146],"properties":{"regionCode":"11440","version":"vworld-20260909-3f8952dfda77-p3","name":"서울특별시 마포구","attribution":"국토교통부/K-Geo플랫폼 · VWorld 법정구역정보, CC BY 2.0 KR; 공공주택 복덕방 가공"},"geometry":{"type":"Polygon","coordinates":[[[126.88888665065262,37.58464985346529],[126.88573637194781,37.587175509520954],[126.8820581712738,37.59079470247146],[126.88188711102164,37.590639021581374],[126.88198615905723,37.59054012072302],[126.88095882136572,37.589954905486074],[126.88034198972413,37.58949606335298],[126.87960148048883,37.588235266389795],[126.87934031099162,37.58759928360873],[126.87914793170475,37.586779727461575],[126.8784648731832,37.586369403091986],[126.87755361632034,37.5862494658289],[126.87727691878517,37.585587663220885],[126.87720396902726,37.58492869634162],[126.87653920634423,37.58444185876113],[126.8766269318952,37.584165943310865],[126.8771740950128,37.58423950036916],[126.8772995282527,37.58417674387253],[126.8773348287485,37.58405469847067],[126.876990063859,37.58338832573907],[126.87710152135452,37.58288046977678],[126.87705667307156,37.58220945567782],[126.87667600876587,37.581625126191874],[126.87663387687151,37.58136370606909],[126.87667073646062,37.58125634736994],[126.87747115201178,37.580622195154035],[126.87751196942449,37.58031201935661],[126.87742371216926,37.58010613296215],[126.87768312231061,37.57977098532162],[126.87749667965807,37.579408047244854],[126.87725774891925,37.57798715531277],[126.87626027087484,37.578191785928475],[126.8751941347499,37.57827899117149],[126.87383212824784,37.57828132117408],[126.87060025313903,37.578008511217014],[126.86837910503469,37.57752117030329],[126.86494091553833,37.57746805965139],[126.85929381167865,37.57524098911665],[126.85928548846591,37.5749157952376],[126.8536282861577,37.57379911677255],[126.85363157782882,37.57179044301395],[126.85607074144524,37.56944269209148],[126.8638016117862,37.56451598876245],[126.86676919447237,37.562880020258824],[126.86894248832981,37.56204369704674],[126.87382480291836,37.5596946495931],[126.88758595761256,37.55270964468741],[126.88758925182874,37.55263247777807],[126.88810843317343,37.55229997182871],[126.8890592729398,37.5518584105705],[126.89464162872505,37.54943409481884],[126.8989430186839,37.548007865356894],[126.90182003522685,37.545019281755266],[126.90219479910932,37.54409787576369],[126.90483070323994,37.54141652988106],[126.92241403332534,37.54142961710266],[126.92283432483295,37.54061912268793],[126.92307591468393,37.540454511010935],[126.92482277050524,37.53974353014475],[126.92536965817236,37.539626800925234],[126.92618520990882,37.53928869494545],[126.9271133229171,37.539041859212475],[126.9272902309219,37.53913365803913],[126.92766530366028,37.53907615874202],[126.93033770471034,37.54136254254779],[126.93289821684384,37.54053064041628],[126.93855797725094,37.53783535812983],[126.94421801670391,37.53423881710833],[126.9445885878137,37.53378745530345],[126.94493071505818,37.534234609543596],[126.94481999320618,37.53452021643807],[126.94509688719928,37.53496258284639],[126.94556628657224,37.53498398906117],[126.94544247561387,37.53518205900771],[126.94627654344745,37.53569102647815],[126.94641785436171,37.53573989140758],[126.94651989609112,37.535579265971705],[126.94718418953289,37.53537137148225],[126.94737935813767,37.53521639912009],[126.94747872166215,37.53530855483009],[126.94738666954207,37.53538303803374],[126.94748254085799,37.535832265348965],[126.94758708841526,37.535841072117975],[126.94784336814291,37.53562120370879],[126.94828135361179,37.5356543311538],[126.94878613369083,37.53558103807423],[126.94899273047375,37.535743398028075],[126.94990338852031,37.536043688557164],[126.95060307764238,37.5360949499545],[126.95128384439874,37.53628562128281],[126.95154752712735,37.53653701961466],[126.95211422036347,37.53677737413709],[126.95335584589574,37.537493376073385],[126.95365130609325,37.53833546160523],[126.95409548153427,37.538932459167434],[126.95518527391322,37.53918490193319],[126.95573375277131,37.53947063896968],[126.95606599717611,37.53996460259464],[126.95665908565022,37.5405941696512],[126.95652058973883,37.54070516630193],[126.95672907633096,37.54086467671765],[126.95694784593165,37.5412939458699],[126.95699333318954,37.54163629661859],[126.95817599915205,37.542312208103006],[126.95834999657717,37.54275916364173],[126.95807797445798,37.54291682709863],[126.95758556190245,37.54297802123082],[126.95741534157341,37.543213459484654],[126.95754404611927,37.54372748833726],[126.95745796446404,37.5440055503475],[126.95758010161647,37.544221940481734],[126.95810844552402,37.54442251626134],[126.95781979523571,37.54514244377109],[126.95790510171754,37.54545385861537],[126.95841483677313,37.545504059312776],[126.95896589181672,37.54574121932629],[126.95931480602447,37.54605423367237],[126.95953340652125,37.54597259964873],[126.96005158279374,37.54606571091214],[126.96013066747079,37.546358166447966],[126.9610779341282,37.54741822046201],[126.9617063817726,37.5475899287149],[126.96222527892544,37.5481288950531],[126.96224154379253,37.548619042471394],[126.96293086891848,37.548684886715634],[126.96333831255218,37.54863785190116],[126.96374225073568,37.548759112256356],[126.96372603231781,37.54923192770191],[126.96389643036888,37.549779010828075],[126.96360439922324,37.54993619663954],[126.96323503597864,37.550460552426834],[126.96314820601076,37.5507188122822],[126.96235081003343,37.55151341380645],[126.96243567102712,37.55154651553682],[126.9622880478628,37.55189034503242],[126.96231091724187,37.5527760374606],[126.96200781044026,37.55403496504504],[126.96208400133742,37.55402529370263],[126.96172655008588,37.55478827187129],[126.96173651030382,37.55498793880903],[126.96199904786548,37.55524124330705],[126.96202026984913,37.555129346626764],[126.96214287971353,37.55553851687852],[126.96247213552475,37.555904963058644],[126.96275033782386,37.556012107019406],[126.96344216011201,37.55684990285446],[126.96322103769769,37.55731743630358],[126.96305276834391,37.55741357865356],[126.9630957437512,37.55821622038445],[126.96281466940289,37.55806854861204],[126.96207860902608,37.55846158471251],[126.96157156426706,37.55842015859691],[126.96156360938355,37.558628466965615],[126.96174704029494,37.55881234717774],[126.96164617655899,37.559089556360966],[126.96085574936663,37.55863783929683],[126.96077726028747,37.55842967611967],[126.96011016077233,37.55771549955128],[126.95971910052216,37.55758036353481],[126.95967854471675,37.55769077507693],[126.95913425455814,37.557241167716676],[126.9561921672889,37.55740738200764],[126.94137159208323,37.556544299144804],[126.93686375697784,37.55510176528386],[126.92659389049652,37.55885310848869],[126.92672118926565,37.56096736184272],[126.92718889904606,37.5617905072481],[126.92735674141969,37.561780805467],[126.92822657554505,37.56305713973313],[126.92830391264279,37.563057187969],[126.92816254050192,37.56316494055967],[126.9282829325467,37.56333143607287],[126.92601360805753,37.56510474927199],[126.92473368211647,37.56567447253969],[126.92358083076368,37.56599927962695],[126.9215516772242,37.56644678715453],[126.92013731270339,37.5666530058068],[126.91843753414813,37.56711572152715],[126.91573801170054,37.56824743116098],[126.91162923601289,37.57019180567118],[126.90908536081865,37.57128360137252],[126.90804497331443,37.57192070968381],[126.90670682903814,37.57292403622648],[126.89769927954623,37.57899199279193],[126.89451528946431,37.581051147009774],[126.89409308160435,37.58140575123062],[126.8932359683076,37.581866651426836],[126.88888665065262,37.58464985346529]]]}}
