{"type":"Feature","bbox":[126.8129810982255,37.47318790488718,126.9031945803985,37.51792558472242],"properties":{"regionCode":"11530","version":"vworld-20260909-3f8952dfda77-p3","name":"서울특별시 구로구","attribution":"국토교통부/K-Geo플랫폼 · VWorld 법정구역정보, CC BY 2.0 KR; 두꺼비집 가공"},"geometry":{"type":"Polygon","coordinates":[[[126.87935740506236,37.51792558472242],[126.87913381712099,37.517856930012904],[126.87953536355077,37.51771834029473],[126.87942160866723,37.517527835375034],[126.87874282616596,37.51765399102628],[126.87847788343184,37.517530999577545],[126.87850645346317,37.51733349464086],[126.87889329175759,37.51709363960828],[126.87897325007043,37.516963897873396],[126.87848934796418,37.51640602698345],[126.87806988598744,37.51622349933937],[126.87749161810278,37.51617495910385],[126.87733576164113,37.516052667975735],[126.87739537344429,37.515850347852464],[126.87778968441123,37.51559093137923],[126.87752846102907,37.5147093772123],[126.87767288205137,37.513840158242516],[126.87785803131715,37.513593181067044],[126.87791231939833,37.51336179913569],[126.87773223635459,37.513314865413115],[126.87727923169946,37.5137411486213],[126.87665128747193,37.51367056848013],[126.87650105746056,37.51354805534171],[126.87638724550592,37.513291150920224],[126.87645154469547,37.51291973638927],[126.87610436497718,37.51240976473669],[126.87559782761545,37.512166587829334],[126.87532374992905,37.51224477477478],[126.87518091808316,37.5124472180102],[126.87510209996407,37.512414363228764],[126.87399669339237,37.51129738759239],[126.87405551302346,37.51077443805533],[126.8743298847892,37.51062081429959],[126.87469190995051,37.51069378852056],[126.87492305475449,37.510905976785004],[126.87498213541893,37.51115637286369],[126.87488374776086,37.51164319641768],[126.87508508810029,37.511805913696435],[126.87519885524847,37.51178954491788],[126.87583749078289,37.51129531080165],[126.87656612857631,37.51115282457655],[126.87684726358307,37.510839486015726],[126.87674021478838,37.51067936583443],[126.87653657309647,37.51062987593848],[126.87613505268352,37.51105624014829],[126.87577594256169,37.51114995997313],[126.8755216121153,37.511077563906866],[126.87522339522212,37.510697654686226],[126.87518789893976,37.51050588565761],[126.87534671746481,37.51002222059993],[126.875610948185,37.50974048883906],[126.87551411909337,37.50954784311635],[126.87529554830233,37.50937858352672],[126.87504301053183,37.50931288213704],[126.87479277092189,37.50933281533213],[126.8745172449375,37.50947154198098],[126.87424313018967,37.50947606787192],[126.87401511139402,37.50937792836177],[126.8738405934576,37.50914057351864],[126.87379336568125,37.50881907075066],[126.87390580605461,37.50867629245879],[126.87476578426627,37.5083032157231],[126.87504082175734,37.50771344779533],[126.87487801047868,37.50750130586917],[126.8744467371055,37.50736160442067],[126.8742390314032,37.50718079999225],[126.87420385161491,37.507030891914624],[126.87431681591826,37.5067765250195],[126.87448761478275,37.506653138635336],[126.8747060707162,37.50662936929533],[126.8744218610209,37.506090539868225],[126.87411006704997,37.50514812030291],[126.87374154093058,37.50471920928394],[126.87378708434338,37.50427398459073],[126.87359052600853,37.50354396315991],[126.87317879581707,37.5037814701814],[126.87267490393108,37.50388165299861],[126.87244461822152,37.50402727353716],[126.87186427093472,37.504126107463705],[126.8714549142085,37.50468635005602],[126.87143988370563,37.5050713284465],[126.87118949473349,37.50513250273535],[126.87100536324644,37.505268078973046],[126.87062586891469,37.50575392495808],[126.87021829888381,37.50586348598935],[126.86900983101286,37.504858802447544],[126.86796470472852,37.50488801793488],[126.86713749511087,37.5052995031527],[126.86678998109227,37.505294692446974],[126.86656746503334,37.505205961055665],[126.86645416680165,37.50525563623115],[126.86651721202867,37.505383813034086],[126.86581368323529,37.505571179430206],[126.86524579548738,37.50558683306582],[126.86484059312318,37.5055104115153],[126.86481629387117,37.50506772362846],[126.86466104986133,37.50486175556281],[126.86353085391254,37.505060103141055],[126.86331957949349,37.50518959921305],[126.86278381098947,37.505939412409056],[126.86266047585234,37.50646031474991],[126.8629233653251,37.5065746875369],[126.86299764603494,37.50650810152937],[126.86291557118892,37.506611532392164],[126.86265419271969,37.50679917173226],[126.86331032259275,37.50751127848442],[126.86371592603975,37.507804394933984],[126.86409693967869,37.50835462766749],[126.86318391921296,37.507857384645455],[126.86270499766206,37.507396050092055],[126.86044390904532,37.50673510344369],[126.86033526476301,37.50659225672382],[126.85831406379515,37.50997514047774],[126.8556110193755,37.509209318863014],[126.85519575033003,37.50976643244939],[126.85284445007213,37.51073395731353],[126.85249934326244,37.51057449917683],[126.85215329168685,37.51055135502886],[126.85135346462958,37.510188139775885],[126.85071560252428,37.510054071930725],[126.85004540501822,37.510193768220596],[126.84896823994671,37.50911974710769],[126.84865917652907,37.508931038328456],[126.84726985496296,37.509524430617894],[126.84698274280305,37.509387373461095],[126.84662514727442,37.50904218440704],[126.84625805849552,37.50896764236402],[126.84619395017332,37.508461151554805],[126.84595410001684,37.508028605204956],[126.84614028742172,37.508159050057344],[126.84639169977463,37.50873763995228],[126.8464092128957,37.508615100076504],[126.84616181270188,37.508146796378234],[126.84607953091013,37.5080655087088],[126.84535723139837,37.50777455394498],[126.84515879893176,37.50778354373413],[126.84483511414905,37.50740118076581],[126.844362771074,37.50654197798194],[126.84468021897624,37.505754944467384],[126.844505210801,37.50572254693567],[126.84448708083882,37.5057933429405],[126.84439861942876,37.505694292933306],[126.84343778032289,37.50583852261149],[126.84263731598543,37.505500475460636],[126.8423880174741,37.50551527787175],[126.84206125168402,37.50568908994279],[126.84117209725135,37.50584051464326],[126.84072384144213,37.50607551758688],[126.84047874020803,37.50555702129849],[126.84015133053508,37.50544971497594],[126.83997987233487,37.50487329539156],[126.83957995870362,37.50445756569976],[126.8392932773771,37.50439878987401],[126.83880380928774,37.50449902493753],[126.83842016506871,37.50435939929794],[126.83817551273162,37.50379619189861],[126.8375020055854,37.50324150567123],[126.83689833183948,37.50328409450664],[126.83645409701465,37.5030292145891],[126.83530429556798,37.50281649954749],[126.83398250514806,37.50335577194858],[126.83363493191432,37.50387740423599],[126.83305019451298,37.504069475367096],[126.83292007400222,37.50427462698779],[126.83200759105641,37.50467926912619],[126.83164909283187,37.505082170882844],[126.83153844777564,37.50544790744045],[126.83126187989325,37.50571744907517],[126.83123032832377,37.50586543521538],[126.83061519029886,37.50631324402672],[126.83066028829508,37.50687111771201],[126.83107153904449,37.50790524289384],[126.83106301890392,37.508071375530875],[126.83066127706088,37.50827297769077],[126.82985244930144,37.50839046669805],[126.82950189493543,37.50836391913405],[126.82929622482274,37.508485434115784],[126.82809268232616,37.50884073623561],[126.82692071265848,37.508514546282974],[126.82654589155747,37.50874312274085],[126.82640116220307,37.50873579153336],[126.82473782817084,37.508281303601805],[126.82469433957043,37.50832062149612],[126.82349945535337,37.50803979288659],[126.82259933376272,37.50763466777012],[126.8222152089326,37.50763464909663],[126.82234969790255,37.506307682081946],[126.82251337227383,37.505998153908045],[126.82255030469486,37.50568520002146],[126.82237852652337,37.50534787619849],[126.82208467603857,37.50512890452242],[126.82186155456449,37.50455946718602],[126.82205609184125,37.50398276653441],[126.82159007052142,37.50289876795813],[126.82161098638637,37.50223641673322],[126.82134094726582,37.50202081303866],[126.82061210614081,37.5017676877135],[126.82000008208362,37.50143445776093],[126.81943233628006,37.50080209457904],[126.8196714276496,37.499355490833764],[126.81890701756498,37.4988451905342],[126.8182082536622,37.49895964478751],[126.81755569184222,37.4983133203406],[126.81687182235376,37.49811345550216],[126.81651195487316,37.49786994091784],[126.81613006743036,37.49774346788441],[126.81576029939839,37.49774770371612],[126.81516504861867,37.498114896749804],[126.81467061401194,37.498095372360204],[126.81428506127173,37.49834928330249],[126.81412142133084,37.49821339758449],[126.81398923904894,37.497354558247885],[126.81325633718869,37.496820835913994],[126.8129810982255,37.49648184749922],[126.81381795719145,37.494982139520395],[126.81435251778055,37.494425078287136],[126.81431742706826,37.49375872868537],[126.81457302049964,37.49319685778506],[126.81549907780949,37.49320338906174],[126.81588747873467,37.49262875718623],[126.81790395998749,37.491553089423775],[126.81857727186042,37.49157314531535],[126.81926063372984,37.49132210987448],[126.81943422802087,37.491125414851055],[126.820030469107,37.490799358265946],[126.82032517851044,37.4907377369368],[126.82096164320038,37.49080078251364],[126.82093858937726,37.49058189288725],[126.82160202103596,37.49029783620451],[126.82276202807,37.489979418374936],[126.82283373722287,37.4896357924829],[126.82304680195537,37.48929103508539],[126.82301043763997,37.48815029654491],[126.82350612526237,37.487735133969146],[126.82359091613816,37.48774525221578],[126.82247618605481,37.486907854030015],[126.82237911009537,37.48670950455186],[126.82162894268872,37.48649888085435],[126.82128137752059,37.48615794645302],[126.81929694751237,37.48548093849216],[126.8194912553095,37.48480840880338],[126.81946744747054,37.48451991462566],[126.81930734274076,37.484183252034484],[126.81957294503583,37.48365221609578],[126.81939042415733,37.48330939262069],[126.81951872389186,37.4829682414075],[126.81955515403475,37.48251694655674],[126.81995383161515,37.481944018507335],[126.81998623169177,37.48164426632461],[126.81957776266317,37.480792650912434],[126.81954261037244,37.480323532192],[126.81936712926053,37.47986347942755],[126.81899710450038,37.47916246955469],[126.81825607478191,37.47816427654288],[126.8172101570762,37.47813553357362],[126.81641120228211,37.477537187860705],[126.81609168619387,37.47710759438796],[126.81610847071329,37.47674500137001],[126.81529520579437,37.47636206532027],[126.81496454044684,37.475860136333736],[126.81464594318987,37.47472054621084],[126.81556478228902,37.47404572344549],[126.81656215048183,37.47399405698059],[126.8169527209315,37.47367895869715],[126.81707599983685,37.47328811503606],[126.81764024270142,37.47318790488718],[126.81794870242076,37.47366550701631],[126.81872392786794,37.47411918539984],[126.81844768211978,37.47519713562229],[126.81888797535521,37.4751544635524],[126.81895825098225,37.47523791487107],[126.8194746248474,37.47514045858047],[126.81908989484688,37.47546071037162],[126.81908408514698,37.47610253535453],[126.81935220659858,37.476303095506736],[126.81959887750897,37.47635529851616],[126.82006806243463,37.47619947297687],[126.82018031396296,37.4762698232763],[126.82106929847671,37.47630380705752],[126.82132297096707,37.47618871759725],[126.82164283243488,37.47624167563994],[126.82165496179877,37.475352704866864],[126.82174966841555,37.475194612976686],[126.82194258895804,37.47525768563231],[126.82214691458655,37.47572230084114],[126.82299779612158,37.47594771356898],[126.82320768775325,37.475934513296814],[126.8232180240054,37.47611556796114],[126.82370099591417,37.47610728824446],[126.82386130432519,37.476363188814474],[126.82400667086222,37.476444496168114],[126.82416346549418,37.47632394021593],[126.82417285712441,37.47619470463959],[126.82433450157562,37.47625279028034],[126.8243331254489,37.47614020691721],[126.82622375119671,37.47614631820429],[126.82787185408918,37.47598972976874],[126.82920415900898,37.47619566040205],[126.82955790926069,37.476606725253056],[126.82963020696911,37.47690044960168],[126.83045722803259,37.477339592572314],[126.8317474517224,37.477651194970925],[126.83198903002892,37.4774889878375],[126.83283056921648,37.47719529900148],[126.83322237433055,37.47718966266223],[126.83363882577413,37.47696953897515],[126.8339281374221,37.47675319038692],[126.83425610294121,37.476243364291186],[126.83487179203902,37.47575104093417],[126.83464437091557,37.47480898162869],[126.83463996201743,37.474362541097555],[126.8348334805715,37.474423449988436],[126.83558601699274,37.4743899713827],[126.83572381740038,37.47447946472362],[126.83592943063414,37.47448090534195],[126.83619705948247,37.474811318929056],[126.83720438084009,37.47488114488124],[126.83830054577321,37.475392000549114],[126.83884517138421,37.47530941074566],[126.83923404017936,37.47516559817088],[126.83956748844602,37.47519182969461],[126.84010834207656,37.474763331576575],[126.84082508171703,37.47465763206589],[126.84278143453575,37.474971479151534],[126.84311175761475,37.474869752177355],[126.84353537368908,37.474540370926405],[126.84404797221514,37.47447284989215],[126.84424949999615,37.4745997985923],[126.84434055126384,37.47452459456256],[126.84432022460805,37.47430053107675],[126.84449069032789,37.47398005006402],[126.84470155584,37.47376087983631],[126.84481970082214,37.47374523490496],[126.84491472458657,37.47349821447167],[126.84499023983007,37.47348840363909],[126.84536027534341,37.473812443717726],[126.84565989253225,37.47639407898849],[126.84600393117066,37.48069520347393],[126.84623210711055,37.48125920785786],[126.84651685801303,37.48159897845936],[126.84701549327991,37.48191002283833],[126.84813384225265,37.48209727153812],[126.84850967378385,37.48208024666363],[126.85075769398013,37.48150522859905],[126.85178671433542,37.481591582419505],[126.85274239070867,37.4818269971],[126.85310410600714,37.48232954890848],[126.85363688055902,37.48262172926345],[126.85386382259361,37.48283843394728],[126.85486582270869,37.48478629357715],[126.85516469468355,37.48517093937093],[126.85572950396792,37.48549807105484],[126.85642277298511,37.48570209891878],[126.85744890615668,37.485794444975284],[126.85797083459413,37.48608457281951],[126.86176788526211,37.49032616551707],[126.86217471135646,37.49057757518564],[126.86281085706882,37.49082826009094],[126.86402979244583,37.49101943627539],[126.86451782791889,37.491203085840276],[126.86449350451345,37.49108764394166],[126.86462140954603,37.49102640172278],[126.86480148793805,37.491203119615875],[126.8648246455275,37.49135209725049],[126.86515756605536,37.49162429460638],[126.86538259149651,37.49152287642188],[126.86546232571516,37.49156991280467],[126.86579193438536,37.492104942377445],[126.86620462078685,37.49255526858964],[126.86630365200942,37.49263133596379],[126.86667695983304,37.49264195117705],[126.86660307837292,37.49288846641059],[126.86710114935867,37.49285936311355],[126.86736592444856,37.4930051546945],[126.86774735387402,37.49345274466391],[126.86781964588745,37.493838245552816],[126.86777123019647,37.49412097711768],[126.86765047200176,37.4942613619145],[126.86755159724905,37.49425969150273],[126.86719009833124,37.49398547664591],[126.86685605043967,37.494123172990584],[126.86680884468672,37.49425999596647],[126.86758868674787,37.49464653270727],[126.86758827051106,37.494815828028734],[126.86822922291094,37.495128389204496],[126.86835653034257,37.4951278206941],[126.8687089098368,37.49481123640644],[126.8695024033933,37.494328400814396],[126.8697092361935,37.49409561236251],[126.86979277303044,37.49383803843179],[126.87005436694757,37.4935862200545],[126.8700666188147,37.49348567271345],[126.86959383057683,37.49311755275211],[126.8693732918684,37.4927727689297],[126.86946436249394,37.49260504985975],[126.87001319774772,37.49248136118128],[126.87002915577541,37.492260490265934],[126.86946259444169,37.49211268776058],[126.86929856249938,37.491853791567735],[126.86941745810746,37.491584282458646],[126.86990871913312,37.49125388499668],[126.86999272850927,37.49087008231397],[126.86968077445654,37.490439370285245],[126.87023309361442,37.490112878211896],[126.87012516548427,37.48975722345014],[126.87021320143552,37.4896137501653],[126.87041010680593,37.489540210832445],[126.8706578565585,37.48956094785177],[126.87134204050476,37.489833533010305],[126.87157703445278,37.49020932829598],[126.87147261323922,37.49056592167704],[126.87154697808445,37.490771214866975],[126.87180739982455,37.49079769903231],[126.87224571099343,37.49063480172523],[126.87271667664344,37.490819381373015],[126.87329738300248,37.490845421736466],[126.87376815217726,37.49122228289459],[126.87412979649629,37.49133763836656],[126.87437242778006,37.49122139959696],[126.87483921441019,37.49074545178352],[126.87446381596335,37.49042019403253],[126.87443705853524,37.49027862989476],[126.87465156270812,37.48989221029647],[126.87458132676937,37.489762093969496],[126.8743299652073,37.48968892508878],[126.87410957968795,37.48976548689147],[126.87409031927392,37.490214590901644],[126.87393300598362,37.4904289484094],[126.87375246215365,37.490475784888275],[126.87336816140896,37.49038644014598],[126.8728389326774,37.49001438312564],[126.87244015620983,37.489535517672664],[126.87241337037055,37.48933078061368],[126.87263966419668,37.488981441375685],[126.87274814063478,37.48843059497442],[126.87308428007016,37.48825837633542],[126.87325577007272,37.488301125290256],[126.87373409898301,37.48865640149642],[126.87436626165554,37.488867666318455],[126.87449355965022,37.48886749671263],[126.87471566980601,37.48857715646895],[126.8751820580777,37.48850882622674],[126.8758149218731,37.489025784959885],[126.87605247711028,37.48904533551867],[126.87638196180855,37.48894113361892],[126.87679008925741,37.488570802548374],[126.87668838872486,37.487852598545395],[126.87598175859499,37.486918097054506],[126.87536277035869,37.48690126600935],[126.87513435343438,37.48678207439501],[126.8749980231672,37.486490920554935],[126.87502234449835,37.48601422896026],[126.87486259025404,37.48567302858128],[126.87456384975273,37.48536714106841],[126.87767606605095,37.486114960283665],[126.87845810057492,37.48667232599979],[126.87943894907326,37.48623336562922],[126.88135374214455,37.48556321821509],[126.8827236479585,37.48474960412705],[126.88615495127188,37.482349602694775],[126.88772952622384,37.48044143963973],[126.88878500528998,37.47978966624187],[126.8898815149792,37.47938969439039],[126.89508403507813,37.47850539159569],[126.89585056367744,37.47850662034085],[126.89587135451048,37.4783390787848],[126.89621197316914,37.47830401842684],[126.89723969210662,37.47846165196954],[126.89805494908829,37.47834101087192],[126.89886542445079,37.47834171744187],[126.89909314709823,37.47949744912118],[126.89961942187955,37.48056973215639],[126.9031945803985,37.48499875589173],[126.90274036232654,37.48501576399239],[126.90171096056106,37.48522167658437],[126.89979174436293,37.48607607913319],[126.8981441822751,37.486935106346266],[126.89612399805885,37.48933866698531],[126.8960157546892,37.49021211805151],[126.8956838414865,37.490851368813544],[126.89460095627462,37.49515972015547],[126.89432051871854,37.496445668755584],[126.89427973792598,37.497254711486804],[126.89403309058768,37.49820012225081],[126.89362436957877,37.499587495838966],[126.8929310656217,37.50035050181184],[126.89276213299723,37.500833460179855],[126.89293346544791,37.50157469704179],[126.89273359033251,37.50207235324149],[126.89313741449335,37.50267845409479],[126.8926737467747,37.50333261302245],[126.89272839047433,37.50347366725395],[126.89315424909883,37.50374472036001],[126.89330381992184,37.50395428525449],[126.8931078746909,37.50445430287225],[126.89316873486075,37.50459996047929],[126.89377564971333,37.50472764556079],[126.89393118013982,37.50482046276554],[126.8939766648262,37.50501166032881],[126.89326098721162,37.50669828928858],[126.89301612151216,37.50692896726476],[126.89297743738783,37.50709024935874],[126.89307788234197,37.507135210287494],[126.8922835293978,37.50906434988975],[126.89242589791678,37.50912489510685],[126.89214911937754,37.50936970964997],[126.89204807209389,37.50986633568101],[126.89171189869849,37.51035030918291],[126.89149520049523,37.51042056565704],[126.89110856515454,37.5103744339923],[126.89069129300178,37.51070119539269],[126.89065225666377,37.51094028576869],[126.89025989164894,37.51139987557703],[126.88994306237312,37.51156463812434],[126.88995631068836,37.511706916390054],[126.88967769934503,37.511878383349966],[126.88982723573943,37.5121004404316],[126.88972981964936,37.5122732499083],[126.88840319125366,37.51234469931227],[126.8880048134102,37.512950505370384],[126.88751972492844,37.51322637687497],[126.88679718756728,37.51330135916367],[126.8856892522549,37.51361607735832],[126.88461608910505,37.513750258027166],[126.88443314930332,37.513849367325626],[126.88429871185892,37.51417926951329],[126.88433751976281,37.51438969027233],[126.8841040051791,37.514424416915226],[126.8827272845978,37.51517185707956],[126.88268065244067,37.51615534563174],[126.88248702484185,37.51623338550222],[126.88247254977338,37.516352023093496],[126.8817904915694,37.516352078484424],[126.87935740506236,37.51792558472242]]]}}
