{"type":"Feature","bbox":[126.87795385808711,37.48499875589173,126.94988655414423,37.556255377483836],"properties":{"regionCode":"11560","version":"vworld-20260909-3f8952dfda77-p3","name":"서울특별시 영등포구","attribution":"국토교통부/K-Geo플랫폼 · VWorld 법정구역정보, CC BY 2.0 KR; 공공주택 복덕방 가공"},"geometry":{"type":"Polygon","coordinates":[[[126.88045260666391,37.556255377483836],[126.87923699470593,37.554746981192736],[126.87921711408386,37.55315121716237],[126.87824433968115,37.55358146429045],[126.87795385808711,37.553450057698576],[126.87804773200699,37.551700955372574],[126.8796585604694,37.54976139184422],[126.88044368515376,37.54846263730285],[126.88086386412382,37.54812787322935],[126.88066399727958,37.54819623947798],[126.88213463830414,37.54672459148025],[126.88273688228442,37.54578445568613],[126.88418324299366,37.544555653692456],[126.88427015742164,37.54356700094957],[126.88443631582855,37.54338467129077],[126.88474807733131,37.543296951037796],[126.88508795563466,37.543320982012155],[126.8854496616195,37.54232916734246],[126.88550944076259,37.541576716883114],[126.88658313191384,37.53929312122608],[126.88690480162339,37.538783111333885],[126.88712957976564,37.53858898683117],[126.88771592757983,37.537533319329306],[126.88832278897038,37.53666912907281],[126.88942642584196,37.535589980122666],[126.88994376187065,37.53487354940323],[126.89015539550365,37.53437667293646],[126.89017130102829,37.53410386831863],[126.89004925338811,37.53370398220949],[126.88979574039419,37.53339321444053],[126.88868982759595,37.53276286405758],[126.88857225931883,37.53239974212016],[126.88866108636967,37.532165750461395],[126.889068060462,37.53192575437426],[126.89033173521707,37.53189352247516],[126.89072944219664,37.53168077553287],[126.88975307735438,37.53027659329877],[126.88977418687892,37.53007884641488],[126.88966714542391,37.530152385027755],[126.88958890504632,37.52998238917393],[126.88937148608397,37.53019379059515],[126.88894280524053,37.53035448122368],[126.88846673363823,37.53043042886334],[126.8876874327614,37.53037508065903],[126.88718279099753,37.530192775609],[126.88596227009319,37.52942032552664],[126.88514615926395,37.52914548908227],[126.88417694113679,37.52866813589076],[126.8839176661615,37.52840794689281],[126.88388737408636,37.52790866336604],[126.88374714615502,37.5275863809258],[126.88341783963149,37.527331676904986],[126.88312703358223,37.52724259943903],[126.88272961440265,37.527260832093525],[126.88189545923672,37.527645338149846],[126.88118146399383,37.527805592257394],[126.8808837301333,37.52771899134426],[126.8806754428114,37.52756705311893],[126.88059795641665,37.527420895045836],[126.880674149405,37.52713351019715],[126.88117294439044,37.52654518525454],[126.88112385299958,37.526132190415574],[126.88071105681975,37.525776416502616],[126.87940732614923,37.525737322585044],[126.879172179331,37.52564067350616],[126.87885629457209,37.52538509803382],[126.87870128581345,37.52512310508129],[126.87869123447219,37.52463043069348],[126.87892780013509,37.524064582155766],[126.87892606338731,37.52319016599885],[126.87911779260364,37.52250740865726],[126.87903235866462,37.522495066186124],[126.87930763681138,37.52178483650938],[126.879493434833,37.5205791021303],[126.87946192059204,37.520356273421605],[126.87916501210493,37.51999917834839],[126.87866631351953,37.51970320794614],[126.87835347239657,37.51938158525057],[126.8782525409963,37.51875405423224],[126.87849801110073,37.51824593381121],[126.87878100958503,37.51793942231206],[126.87919558754342,37.517871852073064],[126.87935740506236,37.51792558472242],[126.8817904915694,37.516352078484424],[126.88247254977338,37.516352023093496],[126.88248702484185,37.51623338550222],[126.88268065244067,37.51615534563174],[126.8827272845978,37.51517185707956],[126.8841040051791,37.514424416915226],[126.88433751976281,37.51438969027233],[126.88429871185892,37.51417926951329],[126.88443314930332,37.513849367325626],[126.88461608910505,37.513750258027166],[126.8856892522549,37.51361607735832],[126.88679718756728,37.51330135916367],[126.88751972492844,37.51322637687497],[126.8880048134102,37.512950505370384],[126.88840319125366,37.51234469931227],[126.88972981964936,37.5122732499083],[126.88982723573943,37.5121004404316],[126.88967769934503,37.511878383349966],[126.88995631068836,37.511706916390054],[126.89001350176517,37.51150614005342],[126.89025989164894,37.51139987557703],[126.89065225666377,37.51094028576869],[126.89069129300178,37.51070119539269],[126.89110856515454,37.5103744339923],[126.89149520049523,37.51042056565704],[126.89171189869849,37.51035030918291],[126.89190797379119,37.51015065082047],[126.89214911937754,37.50936970964997],[126.89242589791678,37.50912489510685],[126.8922835293978,37.50906434988975],[126.89307788234197,37.507135210287494],[126.89297743738783,37.50709024935874],[126.89301612151216,37.50692896726476],[126.89326098721162,37.50669828928858],[126.8939766648262,37.50501166032881],[126.89393118013982,37.50482046276554],[126.89377564971333,37.50472764556079],[126.89316873486075,37.50459996047929],[126.8931078746909,37.50445430287225],[126.89330381992184,37.50395428525449],[126.89315424909883,37.50374472036001],[126.89272839047433,37.50347366725395],[126.8926737467747,37.50333261302245],[126.89313741449335,37.50267845409479],[126.89273359033251,37.50207235324149],[126.89293346544791,37.50157469704179],[126.89276213299723,37.500833460179855],[126.8929310656217,37.50035050181184],[126.89362436957877,37.499587495838966],[126.89403309058768,37.49820012225081],[126.89427973792598,37.497254711486804],[126.89432051871854,37.496445668755584],[126.89460095627462,37.49515972015547],[126.8956838414865,37.490851368813544],[126.8960157546892,37.49021211805151],[126.89612399805885,37.48933866698531],[126.8981441822751,37.486935106346266],[126.89979174436293,37.48607607913319],[126.90171096056106,37.48522167658437],[126.90274036232654,37.48501576399239],[126.9031945803985,37.48499875589173],[126.90669805042702,37.48928132157784],[126.90681364678998,37.489207117469235],[126.90752090323484,37.490002066680034],[126.90842293409267,37.49135228104224],[126.91023408543747,37.49348277544099],[126.91160530419467,37.49561287022348],[126.91195937343994,37.49604184299819],[126.91252985555813,37.4963533250928],[126.91486829201172,37.49660755944415],[126.9194077364641,37.49759970316162],[126.91982231437363,37.497800560874914],[126.92022120364761,37.498339236449574],[126.9202939870925,37.50003300483497],[126.9253894070912,37.51252651578533],[126.92679062702268,37.51279687797859],[126.92676332160363,37.51313766056972],[126.92697045942937,37.51321689950069],[126.9270237013761,37.513873623877835],[126.92667094266595,37.51439961806924],[126.9267665276282,37.51446123518113],[126.92686644038349,37.514413135328546],[126.92689393528958,37.51451635825203],[126.92679768675539,37.51470140760294],[126.92685877694008,37.51555428265684],[126.9289958560129,37.51541907051872],[126.92970769792696,37.51544757093102],[126.9323856989975,37.51557517989041],[126.93413765078235,37.515913336312195],[126.93927920998547,37.51607868815434],[126.94956351712251,37.51762840840348],[126.94988655414423,37.51752621636128],[126.94988000559373,37.527028926428635],[126.94741121204494,37.5301722657647],[126.94717240985405,37.53063168806804],[126.94459000637694,37.53378572777691],[126.94467913992267,37.53390560473584],[126.9445885878137,37.53378745530345],[126.94421801670391,37.53423881710833],[126.93855797725094,37.53783535812983],[126.93289821684384,37.54053064041628],[126.93033770471034,37.54136254254779],[126.92766530366028,37.53907615874202],[126.9272902309219,37.53913365803913],[126.9271133229171,37.539041859212475],[126.92618520990882,37.53928869494545],[126.92536965817236,37.539626800925234],[126.92482277050524,37.53974353014475],[126.92307591468393,37.540454511010935],[126.92283432483295,37.54061912268793],[126.92241403332534,37.54142961710266],[126.90483070323994,37.54141652988106],[126.90219479910932,37.54409787576369],[126.90182003522685,37.545019281755266],[126.8989430186839,37.548007865356894],[126.89464162872505,37.54943409481884],[126.88810843317343,37.55229997182871],[126.88758925182874,37.55263247777807],[126.88758595761256,37.55270964468741],[126.88045260666391,37.556255377483836]]]}}
