{"type":"Feature","bbox":[126.65648097776035,34.44657589456949,126.88584834166944,34.78644237619749],"properties":{"regionCode":"12780","version":"vworld-20260909-3f8952dfda77-p3","name":"전남광주통합특별시 강진군","attribution":"국토교통부/K-Geo플랫폼 · VWorld 법정구역정보, CC BY 2.0 KR; 공공주택 복덕방 가공"},"geometry":{"type":"MultiPolygon","coordinates":[[[[126.81455170301228,34.44944544627596],[126.81450891491825,34.4491330345103],[126.81498380060626,34.44869571365034],[126.81515773795488,34.44867954511562],[126.81520095209171,34.44903633613722],[126.81505052422878,34.44905982434822],[126.81455170301228,34.44944544627596]]],[[[126.81222685703247,34.449195250509085],[126.81214163546561,34.44877332617529],[126.8122421156493,34.44843152235065],[126.81235619798737,34.44835982548417],[126.81275617211628,34.44867678307444],[126.81309314695788,34.44913288162851],[126.8130068797168,34.450178079980326],[126.81270893920869,34.450189294445124],[126.81248508204366,34.45008009768204],[126.81222685703247,34.449195250509085]]],[[[126.75148224753657,34.451096999479205],[126.75024441816414,34.45129901270583],[126.75006017833078,34.44992421880449],[126.75093293065905,34.44892838511768],[126.75241037512077,34.44971921305559],[126.75301334899274,34.449929415215536],[126.75268933508467,34.451025180715405],[126.75148224753657,34.451096999479205]]],[[[126.78888296351462,34.46202137503559],[126.78861029323791,34.46131176121175],[126.789247829715,34.46078325463056],[126.78999561570906,34.461926073080804],[126.79086270013603,34.46225201249422],[126.79093168939104,34.462868402736824],[126.791404233941,34.46383747826033],[126.7908610932625,34.4638242391941],[126.79045646594642,34.46320242950662],[126.7900644239586,34.462952878434315],[126.78960186254068,34.46246478684379],[126.78888296351462,34.46202137503559]]],[[[126.79810181535346,34.46592985568989],[126.7982005733154,34.46572015196841],[126.79819916911434,34.46529799787404],[126.79909118081717,34.465235329733986],[126.79939214546367,34.46540582398294],[126.7994340193197,34.46624950254956],[126.79923788793832,34.466444064068234],[126.79874863478119,34.4663104695654],[126.79810181535346,34.46592985568989]]],[[[126.77427553548273,34.499816472328135],[126.7745015793312,34.49995682439834],[126.77476576131423,34.4999621374381],[126.77502099933308,34.50027530561645],[126.7751734244567,34.50034871355355],[126.774738427961,34.50078414615982],[126.77430929255135,34.50095577872175],[126.773743506322,34.50068592249416],[126.77349987860815,34.50029685320291],[126.77369085573558,34.50010695820016],[126.77392045452338,34.49966400758162],[126.77427553548273,34.499816472328135]]],[[[126.78044592456527,34.536266210524936],[126.77998447172432,34.53643409825344],[126.77994213543468,34.53689281185537],[126.77973860319332,34.53714069150503],[126.77951605790346,34.53780852836809],[126.77916629080899,34.53801085267057],[126.77857929693428,34.53811903657545],[126.77812321046886,34.5383362736882],[126.77712091797942,34.537914291861405],[126.77705265896353,34.537589907839404],[126.77711846029825,34.53716936953144],[126.77689808217141,34.53683945051191],[126.77693030594651,34.53664401341208],[126.77715172177756,34.53635925710867],[126.77776863994691,34.53590050717061],[126.77882648729097,34.53421071564178],[126.7786192527102,34.53346145314899],[126.7784530344614,34.53315326282116],[126.77794739499909,34.533009809626115],[126.77835482224943,34.53310106848025],[126.77870592747439,34.53238502400198],[126.77822115727753,34.53210096808222],[126.77799024653376,34.53218612014647],[126.77796086001082,34.53213654097491],[126.7782247953877,34.532051981166816],[126.7788207798247,34.53240919495296],[126.77917681642974,34.53208139141097],[126.7801619145745,34.53200126542019],[126.78030411685026,34.53179946389416],[126.78048743315615,34.531727256271054],[126.78115822386437,34.53186478389488],[126.7822778857544,34.53107799714067],[126.78247082456053,34.5312858469212],[126.78337187064312,34.53140373617514],[126.78363354123147,34.53161295078341],[126.78379193867046,34.532212387963625],[126.784312969588,34.532542126453],[126.78463974930807,34.53326085242979],[126.78492396844942,34.53351962965638],[126.78464985476472,34.53427927829995],[126.78462313358399,34.534771392956166],[126.78433978602756,34.53514929837768],[126.78391744642428,34.535323923198476],[126.78303703258428,34.53593190040903],[126.78185314083028,34.53624229089268],[126.78133725515752,34.53614209530658],[126.78044592456527,34.536266210524936]]],[[[126.7817661425182,34.5638528441525],[126.78181554332342,34.56324940029835],[126.78151844420405,34.5628857471213],[126.78195757340495,34.56238939247624],[126.78273227245788,34.562593940252405],[126.78269221396327,34.56376472314784],[126.78244547848715,34.56391481250134],[126.7817661425182,34.5638528441525]]],[[[126.78938507507128,34.51881890216427],[126.78913785327799,34.518513675335946],[126.78916852430622,34.518139059881754],[126.78954443379057,34.51803015942438],[126.78972285468981,34.51812156903749],[126.78958693586867,34.517902867559144],[126.78946347997032,34.51789792985095],[126.7894577723693,34.51758861515203],[126.78926091389741,34.5170120859601],[126.7890136239309,34.51657290350474],[126.7877928211782,34.515353252114615],[126.78740904714583,34.51452520422631],[126.78724710041004,34.51375356009264],[126.78660607407714,34.51293717374204],[126.78658249834038,34.51272447156247],[126.78671029764676,34.51243829698239],[126.78685850901965,34.512345599964085],[126.7877699628907,34.512340373197084],[126.78797359377458,34.5122812244775],[126.78896178094786,34.5116139546642],[126.79012689213509,34.511550151284084],[126.79052814195637,34.51143782987608],[126.79096927687625,34.51123159079226],[126.79156201101598,34.51076752574802],[126.79188247089562,34.51030858013698],[126.79180464769165,34.50986689886928],[126.79202104070676,34.50926451593773],[126.79177680663172,34.50872584179883],[126.79099107940264,34.50826747439866],[126.79067936009079,34.50779885959186],[126.79032770340213,34.507502487030926],[126.79020478829526,34.50745758076044],[126.7893589833095,34.507553914027206],[126.78919035135479,34.50733428057839],[126.78950569723224,34.50687796429154],[126.78955809570209,34.50637475785143],[126.78918422273817,34.50636677123713],[126.7891908181564,34.50630369023733],[126.78964782304679,34.50632741601488],[126.7900018108337,34.50621514948823],[126.79078792665867,34.505517856575835],[126.79095774128017,34.50526714049779],[126.79124105562167,34.50393018302918],[126.79197898635249,34.50382180669968],[126.79207946426727,34.50358422143307],[126.79171432242305,34.50290430605783],[126.79130728038344,34.50298471188453],[126.79098972456737,34.50284823578326],[126.79132345155497,34.50261090831636],[126.79171167084458,34.502619417578444],[126.791835397905,34.50217124872713],[126.79224984467135,34.501904895193995],[126.79233261100532,34.50157278028091],[126.79202362297646,34.50059781936572],[126.79226789051695,34.499692847793106],[126.79215399598267,34.498926050852745],[126.79112873515027,34.49765968086287],[126.79112704315713,34.497045537452124],[126.79088509506391,34.49642794289852],[126.78998383409994,34.49613025074003],[126.79089984066138,34.496397865359626],[126.79154395741072,34.49594584381969],[126.79251996681013,34.49575932011925],[126.79281539821403,34.49547949145886],[126.79349337521313,34.495294208695235],[126.7936944065616,34.49515854860422],[126.79361587108359,34.493298179854925],[126.79338587401314,34.492814898954485],[126.7933529498454,34.492503797000964],[126.79298274353454,34.492293939227],[126.79232460462683,34.4923702587118],[126.791814417737,34.49191846960063],[126.79278983279589,34.49107773293945],[126.7928628827978,34.49092975699085],[126.79277930177864,34.489762233970005],[126.79230069765977,34.48904552777752],[126.79225372388244,34.48871261320494],[126.79194453149283,34.48846990851513],[126.79238785740823,34.488753741574556],[126.79281302959687,34.48882217608221],[126.79318195529557,34.48912483678339],[126.79358700829663,34.48929963272137],[126.79456263923997,34.489109711253214],[126.79503719036309,34.488796898266195],[126.79548593378152,34.48837864212195],[126.79566244652295,34.48794723385063],[126.79555067355251,34.487461350467925],[126.7961882392661,34.486550920515214],[126.79661390258254,34.48540836707756],[126.79699896828521,34.48476184965823],[126.79707280237574,34.4843144467938],[126.79693145998543,34.48368717769673],[126.7970413654158,34.48359452086384],[126.79702688978526,34.4832629061372],[126.79692502444045,34.48323726068832],[126.79687522806405,34.483113470948254],[126.79555575623452,34.48300100803877],[126.79699113529391,34.48308604433242],[126.79683773435103,34.482342548493996],[126.79659096541751,34.481964822919124],[126.79646286766257,34.48131538146207],[126.79683136070611,34.48088633000331],[126.79731328304548,34.480751430859065],[126.79752959465044,34.48007669327114],[126.79737086337529,34.47985961076714],[126.79691877290988,34.479695764249435],[126.79534846820933,34.47853922116134],[126.79507410401614,34.47860666483686],[126.79460279146208,34.47854808512566],[126.7939713306481,34.47836618346962],[126.79292105146875,34.478923207717074],[126.79253881690863,34.47893421093726],[126.79244140598917,34.478718227404016],[126.79141103672127,34.478091961395016],[126.79090631399964,34.477919474443624],[126.790488070195,34.477862917394454],[126.7902831610981,34.47797514620145],[126.7899109028866,34.47781742432108],[126.78936498547385,34.47793667834816],[126.78894604757502,34.47777641157568],[126.78836184266113,34.47720686581219],[126.78761691271984,34.47698707076606],[126.78709004528314,34.476323588487034],[126.78688086701469,34.475743009681395],[126.78689773059885,34.47515080195806],[126.78665326922439,34.474922043385476],[126.78676482640758,34.474145906937636],[126.7866790327032,34.47401485533593],[126.78637707523843,34.47392238594446],[126.78629530236282,34.473784157294375],[126.78639198255675,34.473576379901694],[126.78632236290899,34.47347003003738],[126.78633435004919,34.472997959447966],[126.78652094395454,34.47261812622106],[126.78631120184247,34.47192723412127],[126.78592484793177,34.47141437419076],[126.78618970297711,34.47070717176476],[126.78600247907687,34.46968517812633],[126.7856968262616,34.46922200345241],[126.78572109905573,34.46906522916664],[126.78564852386472,34.469051768575476],[126.78562517677676,34.46892490165721],[126.78517487109647,34.46859454301259],[126.78573949468418,34.46894635068809],[126.78687089993568,34.46860784388209],[126.7874813676606,34.468275952225234],[126.7876960050831,34.468054236124175],[126.78731419779777,34.467273313445176],[126.78775615383978,34.468078969017604],[126.788229382399,34.468048136056936],[126.79034635461907,34.46693955768705],[126.79055816975053,34.46703944388039],[126.79107695701268,34.466954708308634],[126.7911500564396,34.46654166094665],[126.79154950873065,34.466852087425075],[126.79157272410195,34.46700015527828],[126.79184386280956,34.46716838123544],[126.79204549653707,34.467510874122965],[126.79223602556654,34.46762823622802],[126.79307530926594,34.46756174473538],[126.79364256031388,34.46725468279176],[126.79417928403667,34.467477802563494],[126.79481298443068,34.467212413911426],[126.79504154921224,34.467527489055136],[126.79665751100904,34.46747596569289],[126.79674005145887,34.46780367479971],[126.79714567172718,34.46783295521907],[126.79765568515057,34.46773317803786],[126.79797360843929,34.46786985433206],[126.79846009500848,34.46829982784159],[126.79928010911235,34.46858363945758],[126.79965700048537,34.468692490779326],[126.80049912488742,34.46876892385212],[126.80120183116956,34.46895092669325],[126.80139781431589,34.46891033945928],[126.80263243140202,34.46816127855735],[126.80332835930345,34.46798262187068],[126.8041273032414,34.46801692510466],[126.8046960847094,34.46818762181167],[126.80517685667948,34.468586765721064],[126.80549702729863,34.46854619991457],[126.80615817675248,34.468634076858265],[126.80634041890269,34.46876575627415],[126.80817057847446,34.46824442913628],[126.80831603071417,34.46783113235007],[126.80806099675667,34.46760654810831],[126.80787181415265,34.46672049205033],[126.80715377404469,34.46600030219753],[126.80699398158046,34.46567354084175],[126.80694060995114,34.46365378858857],[126.80665040352538,34.46316781127123],[126.80635281526828,34.46294185556358],[126.80640369900223,34.46271125404782],[126.80657407513823,34.46253593099147],[126.80677671730113,34.46253784079266],[126.80695414917241,34.46224554595999],[126.80692807450838,34.460911529039706],[126.80680482232835,34.46075129731264],[126.80601871974798,34.460246706153924],[126.8057266058192,34.45996056731421],[126.805142347384,34.45903644883624],[126.8049248738556,34.45835794959412],[126.80421026701245,34.458178745204584],[126.80492451952792,34.4583281364111],[126.80482037099438,34.4566075774133],[126.80510590974791,34.45616737680879],[126.80569901062813,34.45587687741938],[126.80685465158362,34.45560133427733],[126.80704559658666,34.455447227308845],[126.80722242544881,34.45510064545029],[126.80737983588676,34.454425748676876],[126.80727173174098,34.45293371857862],[126.80712902296314,34.45272612955528],[126.80630464998123,34.45223787640935],[126.80613521962576,34.452020282457624],[126.8063580498922,34.45147914129487],[126.80636477891512,34.450948463641645],[126.80678541509532,34.45058196094704],[126.80676395089348,34.45050900782664],[126.80714304209813,34.450468828719394],[126.8071829724731,34.45019427190937],[126.80717448914405,34.4504884583491],[126.80754745502378,34.45080088265331],[126.80747049403321,34.45092940770943],[126.80814199462391,34.451542804378825],[126.80873372302797,34.4510871406642],[126.80890927096549,34.45081748451384],[126.80877538951039,34.45110652456114],[126.80817870930183,34.45156241503009],[126.80834365264634,34.45197264067445],[126.80834755468793,34.45220641292796],[126.80826880877902,34.452424829027244],[126.80829404751921,34.453459057437755],[126.80820637809394,34.453549272058105],[126.80847724938523,34.45405665256498],[126.80889922884022,34.45436437220335],[126.80882052321228,34.45448911817702],[126.80908239596197,34.45464754688602],[126.80927719195725,34.45464339092225],[126.8099728470973,34.45491521684949],[126.8104249312862,34.455005826204626],[126.81049274299806,34.454875671478995],[126.81077010837566,34.45498996736614],[126.81085417531018,34.45512455983064],[126.81149089932029,34.45495406620884],[126.81175218887638,34.45439609987075],[126.81231056883004,34.453580649591295],[126.81223936578277,34.45354665365094],[126.81245778657687,34.453164773226476],[126.81255689008312,34.453107638681274],[126.81316798525073,34.45281281263578],[126.81348798968169,34.452847001366905],[126.81375469193482,34.4530545252799],[126.81467718191887,34.45331817636115],[126.81559869913133,34.45266520281653],[126.81578468772533,34.45200133603722],[126.81572171127772,34.451552159082176],[126.81545880025372,34.451470314693786],[126.81531137290447,34.45133328328051],[126.81511086548466,34.451397082471196],[126.8147391481831,34.4507003103077],[126.81510682625351,34.451348956475556],[126.81575146130912,34.45113712969951],[126.81533905230663,34.45024395087632],[126.81800123224075,34.449141261281156],[126.81809508068311,34.44927410573367],[126.81838271517681,34.44913677569135],[126.81784485391667,34.44818414624254],[126.81854016501079,34.44692424538664],[126.81858431674961,34.446966743079344],[126.8178996426721,34.44819436988838],[126.81850648816005,34.44926513929389],[126.8203656115568,34.448864431110714],[126.8203124460018,34.448268100513445],[126.82041558200083,34.4488789734974],[126.82219568242014,34.44888775232776],[126.82270910827783,34.44874409003005],[126.823641777459,34.44829556742685],[126.82362689821349,34.44780432281036],[126.8230195929844,34.44657589456949],[126.82373280734157,34.44780011368138],[126.82372289564958,34.448698781659736],[126.82580398568041,34.449069997858004],[126.82567705453489,34.44949360028299],[126.82635632278173,34.44979605845052],[126.82674979761136,34.44974052333644],[126.82723113490627,34.44930628311482],[126.82795655874772,34.448871017217954],[126.82833040105574,34.448755700456026],[126.82875065602856,34.44842208769551],[126.82877844253709,34.44830835379275],[126.82946271355358,34.44799694432942],[126.82988183981495,34.44813163400758],[126.83019627601203,34.44859625392408],[126.83037477174287,34.4491503780933],[126.83060200656902,34.44920892094594],[126.83060863183839,34.44911890150393],[126.83163924852666,34.44899013901726],[126.83164072009623,34.44890820746003],[126.8318399359106,34.44886912618345],[126.8330391139328,34.449295199104164],[126.83233612298268,34.449123357585805],[126.83191396098587,34.44935585435136],[126.8318187350133,34.44949529519131],[126.83920510743633,34.45350475485301],[126.83923246131907,34.45332689734132],[126.8393355605309,34.453248210521274],[126.83936025562646,34.452891671371184],[126.83925345087331,34.45247232453823],[126.83892113658953,34.452490606677586],[126.83906705685595,34.452468092761066],[126.8389749145838,34.451255021784874],[126.83883631992622,34.450216050600964],[126.83877278781263,34.45002132639739],[126.83859524884394,34.44995955327342],[126.83882091519325,34.449966803787625],[126.8389165310414,34.449738311895],[126.83913307630571,34.44958314287064],[126.84044811219624,34.44900819961959],[126.84212514847931,34.44840204596228],[126.84232736184775,34.44823654888447],[126.84280828746053,34.44812843958715],[126.84300552870019,34.44817475981821],[126.84334258303964,34.44840923281139],[126.8434598521355,34.448619135862415],[126.8436371308498,34.45026075936525],[126.84416237764864,34.45017592355337],[126.84370501693788,34.450287326672196],[126.84382899976322,34.45088186854576],[126.84378002494122,34.4510122825703],[126.84418799376017,34.45166855595602],[126.84480205290504,34.45132990868775],[126.84460759483221,34.45092528308977],[126.84484409916111,34.45132070679144],[126.84497493113263,34.451251342483815],[126.84556248634605,34.453537416584766],[126.8468818472184,34.45449423135468],[126.84714155032317,34.45517936109809],[126.84752135772275,34.455497414426006],[126.84932877933208,34.456344991224675],[126.85026686989441,34.45695104182599],[126.85082233637858,34.45714763206794],[126.85081595780149,34.45791217774028],[126.8516021138246,34.459165782239566],[126.85173733957403,34.460048592085364],[126.85202993825914,34.459998197868345],[126.85254625897574,34.46020773139759],[126.85260918082088,34.460989804361574],[126.85249394914861,34.461485555789764],[126.85215483719979,34.462216765038775],[126.85243675367539,34.463307177963216],[126.85226024473529,34.46469511640223],[126.85207499005472,34.46487278375586],[126.85233441192429,34.46577014004041],[126.85233777953997,34.4665391227609],[126.85242689242627,34.466793694564394],[126.85227433041796,34.46693407267303],[126.85319988502683,34.4676360086011],[126.85346222839082,34.46812292354868],[126.85415418319876,34.46887469920088],[126.85422567648499,34.46908910653297],[126.8542520452316,34.46920313643799],[126.85406599359942,34.4695832817912],[126.85398441904357,34.47041020635181],[126.85363019741183,34.47109824766532],[126.8536691975284,34.472290280909604],[126.85399761841761,34.47359443475193],[126.85406415268781,34.47447717516524],[126.85399212428926,34.47481854161778],[126.85385986223953,34.47501443957707],[126.85265035125366,34.47562370961324],[126.85233445304206,34.47591580192331],[126.85238157673527,34.47644783514198],[126.85202637574945,34.4769428503161],[126.85169593983775,34.47719749472183],[126.8513318186699,34.47766081975287],[126.85114151161785,34.478125790775636],[126.85109172798786,34.47887456809579],[126.85131090420657,34.47942564431557],[126.85159252841541,34.47984049671428],[126.85185038230202,34.480803502880775],[126.8519001771414,34.48149777387557],[126.85169712179294,34.4819782529105],[126.85165788722584,34.48250283321364],[126.85185967089116,34.48318123525703],[126.85183864171671,34.48372240651508],[126.8513462934593,34.48486135803007],[126.85093765119252,34.48531443113759],[126.85052445738741,34.48634601414939],[126.85005425252615,34.48711106433797],[126.84985027953788,34.487724304754444],[126.84984051502929,34.48801265858136],[126.85012650697183,34.488854285246575],[126.84995910215409,34.489339771903836],[126.85008821078611,34.489581377053405],[126.8501814043462,34.490214637027286],[126.85015121471358,34.490799354222865],[126.85043231489914,34.49117852840747],[126.85048805099197,34.49211911909118],[126.85013154797338,34.49256848521044],[126.85003225982335,34.49289682458661],[126.85015153147647,34.49342201434654],[126.8499695712616,34.4937692088182],[126.85004133132786,34.494341792182574],[126.85047301001151,34.494623984931856],[126.85048539692832,34.49492799702624],[126.8501353169623,34.49561229834684],[126.84967653237929,34.495980486630906],[126.84924245223989,34.49620278586696],[126.84894195793099,34.49657261968739],[126.8488560276821,34.496992354738786],[126.84870154503942,34.497274766999624],[126.8487451075687,34.49739461538627],[126.84822592369002,34.49836290928682],[126.84753689174741,34.49882721075647],[126.84724587918834,34.49911199117778],[126.8471297289016,34.499445525944786],[126.84734107908955,34.49967842121468],[126.8473835101982,34.49984472041331],[126.8468749148412,34.50023884195234],[126.8467984176909,34.50062532365241],[126.84651877689271,34.501079760776214],[126.84643536261878,34.50144881738359],[126.8465980264122,34.50193254403593],[126.84656583377486,34.502241863289356],[126.84644762308623,34.5024316401922],[126.84592561687542,34.502683644829254],[126.84471948691929,34.503918245923444],[126.8437407519516,34.50464925350816],[126.8436963642822,34.50461088456269],[126.84329753162353,34.50493391784847],[126.84332709716774,34.504984924130184],[126.84263346049919,34.50531350500454],[126.84136190943761,34.50627407250185],[126.84112151222259,34.506903059973766],[126.84083649218088,34.508579599699296],[126.83962219727044,34.510755711775445],[126.84187802772647,34.51180028534092],[126.84293226948353,34.51356893133343],[126.84602973651369,34.5130518991258],[126.84708703015326,34.51250640179699],[126.84802276267138,34.51218311233216],[126.84883196627193,34.51219551989916],[126.8491223167293,34.51236869007796],[126.84936517001714,34.5126475405186],[126.84956308267503,34.514516680980925],[126.85004927137473,34.515178497441326],[126.85014825753673,34.51566485279429],[126.85068055291471,34.516915694537126],[126.85068715179366,34.51720646508566],[126.85084999689438,34.51746247008492],[126.8524783891955,34.518360281015724],[126.85305490847632,34.518801087871445],[126.85397977083804,34.51924114098172],[126.85433259856563,34.519269294836114],[126.85534680738148,34.520367051960456],[126.8555215067653,34.520881933801626],[126.85609620034926,34.52170344175453],[126.85629190283753,34.522138253680396],[126.85695213315653,34.522826597935655],[126.85673392350913,34.52391037629472],[126.85696491128304,34.52439626877262],[126.85682594207638,34.525791176273955],[126.85749249106208,34.526523299022784],[126.8583163108646,34.52787273345949],[126.86101219753083,34.52808467314636],[126.86139540150072,34.5280074442677],[126.86270636457037,34.52823531145159],[126.863607192914,34.528753212070924],[126.86482006276938,34.529190883972866],[126.86577923456449,34.53205189350691],[126.86656866984018,34.53252206991737],[126.86724770710165,34.53280774703624],[126.86917207691366,34.53393129068665],[126.86981943928316,34.534748177816184],[126.86969755799005,34.53556445965822],[126.8695080612683,34.535993361763374],[126.8725248551798,34.53554157730535],[126.87690191763586,34.53967474229265],[126.88112125887257,34.54027347457732],[126.88185443199461,34.540223010387045],[126.88215435829126,34.54102391389588],[126.88288259583035,34.54152386161875],[126.883266707224,34.54230651752221],[126.88425751331556,34.5436037058421],[126.88584834166944,34.54442013734648],[126.88538258561421,34.54587714362202],[126.8850373160585,34.54636527221173],[126.88470562586359,34.54713587156996],[126.88410240621165,34.547794475285386],[126.88353834505827,34.54780298264703],[126.882646540516,34.547964315584615],[126.88212430190336,34.548240676363335],[126.88134170203585,34.54822529697877],[126.87993477483361,34.549338848519035],[126.8792754857292,34.549635496372616],[126.87800757758512,34.54989620852446],[126.877186171883,34.55093276704625],[126.87642044381045,34.551377930217],[126.87637470179156,34.55239326121063],[126.87647020527616,34.55281165610487],[126.87638386950557,34.553278732131524],[126.87673202787344,34.5540551863404],[126.87672452413388,34.55552107962794],[126.87683360415404,34.5563081963748],[126.8767163912833,34.557225827403805],[126.87678761997635,34.55800614448654],[126.8766697194195,34.55847733472911],[126.87692895695851,34.55964128136367],[126.87647265373612,34.560189884286444],[126.87699265933739,34.561227254990655],[126.87726131204018,34.56206216536707],[126.8789050435354,34.56372514848444],[126.87886480474994,34.564287851617024],[126.87915702863603,34.56519355332852],[126.87899903612512,34.565593797663695],[126.87867602031645,34.5674830493141],[126.87743186555113,34.56861173158682],[126.87720643953045,34.569383334904565],[126.87657537811641,34.57022173507391],[126.87670357016849,34.57135062405873],[126.87653337827238,34.5718331088272],[126.875950890536,34.572856638978756],[126.87592101240529,34.573216670898574],[126.87670313465652,34.573817489585984],[126.87750861323174,34.57424847741964],[126.87845928989704,34.5750169885273],[126.87881096324615,34.5755224555789],[126.87797924962672,34.57631213588409],[126.87690171591537,34.577606231379875],[126.87605340199192,34.57824045496942],[126.87586029478425,34.5783092347215],[126.87456077675874,34.579412353828594],[126.87407303155832,34.57969304122989],[126.87365029927103,34.57980692915595],[126.87328110902995,34.58007182698037],[126.87286748450602,34.58020033408736],[126.87155220711314,34.582106659101875],[126.87090917047952,34.58253821362441],[126.8696734645031,34.58319423398821],[126.86970515009165,34.583663187995725],[126.86953137345564,34.584455221368174],[126.86891518419799,34.58484009963405],[126.86867411810684,34.58538300894052],[126.868622699048,34.58574987481039],[126.86810905361823,34.58635149426035],[126.86818336053838,34.586649654233554],[126.86811148802363,34.58731162858376],[126.86780231303277,34.58795976760915],[126.86668376802498,34.58971429714417],[126.86641763257234,34.58990853350387],[126.86580822768978,34.59125675231482],[126.86619400394889,34.59149723334122],[126.86716533278745,34.592955561535106],[126.86766534821011,34.593488391635546],[126.86824447349203,34.593940996891284],[126.86841777202645,34.59459112256763],[126.8682081389133,34.594769054110515],[126.86807979193306,34.59510410457692],[126.86723933921027,34.59568650380343],[126.86652882969723,34.59583455695992],[126.8660357511041,34.59608141955676],[126.8644733034308,34.59697996000665],[126.86412091731994,34.59733656934823],[126.86346300277582,34.5976460751129],[126.86281110028499,34.59741114305921],[126.86201492884649,34.59765708582258],[126.86145337122983,34.597686731384066],[126.86060371464289,34.59790520889225],[126.85812325527576,34.59890305209829],[126.85781795606934,34.59883781682314],[126.85666561711119,34.599695164323606],[126.8563966134017,34.600234679432695],[126.85614588676383,34.6004055370345],[126.8562612497286,34.60171975265515],[126.85548371623064,34.6020892887124],[126.85511182231143,34.60246397621677],[126.85516052808858,34.60265871783023],[126.85506100440317,34.603150286994264],[126.85471639261802,34.60363586457123],[126.85446477890979,34.603894075725016],[126.85354087235093,34.604550485220635],[126.85358765662102,34.6050837774106],[126.85347301107812,34.60621426453288],[126.85370772852521,34.60793085551444],[126.85343473520953,34.60827201560272],[126.85362763931278,34.60949358630389],[126.85323255565983,34.609746500634145],[126.85324589787005,34.61132540769448],[126.85375052515036,34.61196235146982],[126.85417953397636,34.61288462321565],[126.85387668469112,34.61342276555951],[126.8538896769465,34.614417622678324],[126.85367788910531,34.61510763096202],[126.85366912383707,34.61563013686937],[126.8525296857126,34.61626511939887],[126.85224076996718,34.61649858054107],[126.85063614970076,34.6171677890066],[126.8499965739654,34.61787464076844],[126.84930908216646,34.6182910053452],[126.84988424466984,34.618911763401776],[126.85082233181689,34.62025226630848],[126.85175119475531,34.62077685384057],[126.85199265598952,34.62134932580521],[126.85301114367394,34.62153454254533],[126.85415582183636,34.62150910291788],[126.85467803522202,34.621684493063924],[126.85605984869146,34.62267970727587],[126.85682154767792,34.622847918473184],[126.85773909353132,34.62345445026204],[126.85822652661643,34.62361289136194],[126.85877610299467,34.6230596854603],[126.85982432272253,34.62274231288367],[126.86058887610572,34.62307184244667],[126.86146031019837,34.62285608655474],[126.86250659784164,34.622859508891025],[126.86332968027529,34.62275221716808],[126.86377404470645,34.62260839979982],[126.86441966254817,34.62161979401619],[126.86605881595764,34.62090222534325],[126.8666784737302,34.62048089595295],[126.86832496518912,34.61990132331852],[126.86908676197152,34.61984958934021],[126.8703159653044,34.61952412847697],[126.87136805328723,34.61999083616203],[126.87282165978738,34.62013595736291],[126.87428089561145,34.61981059062205],[126.87494096161635,34.62046494258476],[126.87512548428037,34.6213270218157],[126.87536991005054,34.62186345648196],[126.87562383604342,34.62201726880294],[126.87648220973733,34.62311983810165],[126.87695137950679,34.62387678272724],[126.87900293605617,34.62523612889696],[126.87964558987505,34.625980562739635],[126.87708435526461,34.627207398963165],[126.87674629355098,34.62757591134091],[126.87673223617229,34.62812319299352],[126.87465755858068,34.629303365163764],[126.87451586899317,34.62967387796774],[126.87424540633475,34.62985198082602],[126.87370623560325,34.63110347131445],[126.87292182451488,34.6314132361199],[126.87296978200865,34.63184120558676],[126.87254990152891,34.6324001735953],[126.87241660864989,34.63323373128062],[126.87196620814561,34.63338902160926],[126.87150308480739,34.63386229490075],[126.87149296261596,34.63424102077037],[126.87137227577188,34.6345565736303],[126.87143912036973,34.63480714378438],[126.87130007130413,34.63502893707825],[126.8713823741863,34.63515799269524],[126.87119275605154,34.63606165602917],[126.87119826332639,34.63645271197577],[126.87111097643668,34.63658796871832],[126.8713126745488,34.63768600142036],[126.87150413342485,34.63796069135654],[126.8715089269329,34.63809002482452],[126.87138375572948,34.63817952077118],[126.87150207086468,34.6384021832041],[126.87134199999693,34.63866530266892],[126.87145309654443,34.638964254576116],[126.87123748035472,34.63919738716491],[126.871195890882,34.63963173344525],[126.87067582946823,34.639812166451954],[126.87037143623887,34.64055341107464],[126.87014816202365,34.640748312766775],[126.86998414477895,34.64107378708131],[126.86963571628502,34.641121159921326],[126.86993000336861,34.64137086739588],[126.87032613441703,34.641305867937135],[126.87035993629512,34.64210921435021],[126.87068781971792,34.64249978658063],[126.87084351989229,34.64244956338714],[126.87058165298586,34.64265808116037],[126.87043538469169,34.642577877124616],[126.87023246339463,34.64275534905687],[126.86987885261206,34.64290978892946],[126.869979141221,34.643021665431306],[126.87051224371561,34.64285041706421],[126.87074000656695,34.642960807115195],[126.87082034970578,34.64290416613746],[126.87103417849272,34.643046433334476],[126.87142517938153,34.64306533902814],[126.87181227970267,34.6442314629585],[126.87251366965023,34.645310587456],[126.87267495993838,34.64519596066291],[126.87253462367124,34.64488700043221],[126.87284012560576,34.64469732839197],[126.8732396414371,34.64461050847401],[126.8741388407095,34.6445383621764],[126.87484456711131,34.64470173268547],[126.87459844830731,34.64482756009595],[126.87468847346396,34.64504525897137],[126.8748281341282,34.64500751688755],[126.87478808040781,34.64506617645611],[126.8746665415445,34.64511511506451],[126.87456585556255,34.64537300877001],[126.87436225018502,34.6454996821696],[126.873583059446,34.645426888754635],[126.87351486289123,34.64582693512046],[126.87370505405893,34.64626950229634],[126.8736579575107,34.646545470890906],[126.87354956899168,34.64663792516446],[126.87374781444494,34.646886756290975],[126.87355318329213,34.64706883958907],[126.87351716065044,34.64732826043136],[126.87374217657599,34.647419585702075],[126.87383560763826,34.647792541966304],[126.87430164611267,34.64801010194418],[126.87417979689666,34.64808783138709],[126.87397713320277,34.64799353754239],[126.8737528225462,34.648088502961784],[126.87336690927025,34.64788772854032],[126.87253444587829,34.64775834381184],[126.87224428210651,34.64779842990945],[126.87195902792854,34.64764812950644],[126.87113231354095,34.646761134436225],[126.87063917809333,34.64679812417084],[126.87129358119799,34.648430520535385],[126.87240165469713,34.65065299179328],[126.87278648496785,34.651236866560616],[126.87386228032325,34.65247691201248],[126.87338898949845,34.65288138314722],[126.87295112568489,34.65359634192654],[126.87260721989874,34.653916951011205],[126.87228575282734,34.6546650945676],[126.87153928153667,34.654668502505345],[126.87119280513258,34.65490362229468],[126.870690548114,34.655717183308504],[126.86952592680117,34.65684125478346],[126.86818989689925,34.65711053751309],[126.86706393524481,34.6576891189889],[126.86634938531462,34.65838085196066],[126.8664394661952,34.65905106445044],[126.86620663128097,34.65970937187827],[126.86551299244363,34.660287173359805],[126.86656972614126,34.661897566599976],[126.8667066202002,34.66282745045141],[126.86769693257807,34.66392323413999],[126.86785243198207,34.664486616442645],[126.86756229899044,34.66525691049819],[126.86752631044642,34.6657837371846],[126.86773195761289,34.666895828125526],[126.86803190989598,34.66740796886035],[126.86793201227077,34.66898809687277],[126.86751941160982,34.66924481248327],[126.86723616148166,34.670308418864],[126.86615960774631,34.670951641081125],[126.86580173202408,34.671294948406825],[126.864463177925,34.671875647358256],[126.86331432181099,34.67212282055701],[126.86262538807692,34.67352768603152],[126.86125948268422,34.674765259501925],[126.86096428572655,34.67570488144192],[126.8610084908964,34.67615561812367],[126.86085507970843,34.676489356409284],[126.86065415844843,34.677519688243166],[126.85932154651655,34.677991498743935],[126.85881935735279,34.67773112160304],[126.85888255387808,34.67792436193403],[126.85815964970416,34.678289204785855],[126.85580116501013,34.67869101518142],[126.85574166529646,34.679387745678056],[126.85523493674191,34.68155711210841],[126.8556590716086,34.68161219222289],[126.85581218411372,34.68199636407648],[126.85637318041725,34.68253454332731],[126.85658961258135,34.68299312995468],[126.85677936235696,34.68434514929692],[126.85682752239752,34.685824858177796],[126.85606650904838,34.68600887125417],[126.85531087219107,34.68633584284426],[126.85495433661713,34.68660485961222],[126.85482984724749,34.68723420131266],[126.8541381371736,34.68831078524545],[126.85411854491815,34.68899046202159],[126.85423918422215,34.689499064702375],[126.85420574214591,34.69008088414025],[126.85388849894598,34.691006803199166],[126.85385422821452,34.69143884091182],[126.8537119423356,34.69178092092175],[126.85369535798705,34.69224548528031],[126.85482511520661,34.69263666064529],[126.85577911240067,34.69281961228569],[126.85592469184121,34.693747458536286],[126.85616807192068,34.694101503200265],[126.855056357067,34.694946753501696],[126.85386678045285,34.69535559272126],[126.85373499146844,34.69548017196668],[126.85350012888742,34.69704110581703],[126.85368816857724,34.69777852605881],[126.85411906100683,34.69808822639402],[126.85465872428531,34.69936513790562],[126.85468239280397,34.699708058319985],[126.8545357577974,34.7000963044042],[126.85405516066943,34.70102970544785],[126.8535823616914,34.70135277931189],[126.85304050522507,34.701960995098496],[126.85268839356839,34.70264396964358],[126.85196942151246,34.70361914922457],[126.85082051100834,34.70419396846602],[126.85090841219753,34.70477164466937],[126.85073225141376,34.70518134824057],[126.85019773558089,34.70567730605714],[126.84959922518678,34.70647327381038],[126.84888192131896,34.70690609672947],[126.8487755893229,34.70747309246961],[126.8482519855511,34.707832246581],[126.8482999944274,34.708370229675005],[126.84821804950228,34.70904582250791],[126.84818884903434,34.70924163742122],[126.84802056910907,34.70939073699051],[126.84802886652807,34.70963243627748],[126.84862410140796,34.71040108603465],[126.84858344390787,34.71156793252145],[126.84869959171978,34.711751670373694],[126.84863332511898,34.71263349159049],[126.84875229440372,34.71299356866541],[126.84861934127223,34.71356555123948],[126.84877062283128,34.713956154773435],[126.84827676028236,34.715386124148864],[126.84792458643525,34.71592056533366],[126.84781414826465,34.716389894416125],[126.84725351072571,34.71680102685542],[126.8472148261047,34.71771615281407],[126.84796524444027,34.71854821764837],[126.8483320010063,34.71865484812876],[126.84811010225647,34.71930531253065],[126.84805264321673,34.71993338497546],[126.84841902770589,34.72041729454576],[126.8490106458444,34.72079714570645],[126.84867253814768,34.72156252255914],[126.84892203563942,34.722209458695566],[126.84947662300775,34.722668333577644],[126.8460371844484,34.72531708601079],[126.84373656684348,34.72506425714148],[126.8417952391875,34.72578116886281],[126.84060981796166,34.727170849174826],[126.8408188986911,34.728368486958175],[126.84041634394299,34.729183738407926],[126.84032184142242,34.72984980595003],[126.84001524949636,34.73019293927103],[126.84046681568941,34.730616580793715],[126.84102766330828,34.73143430183294],[126.84082569139785,34.73191310283684],[126.84015869899092,34.73255884416546],[126.8402960702371,34.73277196763071],[126.84015176745999,34.73380582790416],[126.83942184472622,34.73407917856029],[126.83810118850099,34.734738973822495],[126.8371080885335,34.73533763017624],[126.83627022904197,34.73547846124627],[126.8357554398893,34.73585177792613],[126.83561103635427,34.736156025795204],[126.83531602245505,34.736415961910936],[126.83438010260565,34.736845153438416],[126.83380390076141,34.73694049799789],[126.83372481082671,34.73709216057477],[126.83351434094045,34.73719904902754],[126.83253679083515,34.73734809896915],[126.83206915895865,34.737184960506426],[126.83196497189864,34.737251421250754],[126.83145835630786,34.73724442357821],[126.83092431848864,34.73818553076548],[126.83060639457499,34.73827064776957],[126.83024962318154,34.738671024611236],[126.82977746206751,34.73889610177742],[126.82971725445786,34.739211178905336],[126.82923327133288,34.739321568183975],[126.82915197633027,34.73981503238902],[126.82894963452894,34.74001381468474],[126.82888695378969,34.740660473524954],[126.82861028928534,34.74100562092351],[126.82836131753763,34.741056530953145],[126.82819950178373,34.74178570821766],[126.82803854046031,34.741947661850254],[126.82784811950398,34.742358634313845],[126.82759454516425,34.74249851489133],[126.82748444130176,34.742809282845236],[126.82700738989526,34.74297187402239],[126.82688266535519,34.74327537309064],[126.82651621906695,34.74326810487375],[126.82624498633027,34.743498892001355],[126.82620068635575,34.743642027068624],[126.8258308358475,34.74362748648604],[126.82539954643687,34.74379386013451],[126.82534000847686,34.74414921099678],[126.82512378012628,34.74431617378639],[126.82510817701949,34.74465958123889],[126.82493135877012,34.744790598203366],[126.82493158917697,34.74518549932696],[126.82466569139126,34.745577779016294],[126.82438696061666,34.74635342007505],[126.82433352031397,34.74699572641465],[126.82389963979244,34.74776135113078],[126.82381240995508,34.748243372437166],[126.82400275728645,34.748755995664794],[126.82374974585663,34.74899824247257],[126.82379928743295,34.749491289087544],[126.82371675745982,34.749715431503624],[126.82393242115923,34.75066789150868],[126.82356871606038,34.751195805803576],[126.82373735800658,34.751611026794485],[126.82347231451843,34.75259583990737],[126.82365157223363,34.75377669197339],[126.82322973095556,34.75359057364139],[126.82251975289209,34.75309810021659],[126.82230701669396,34.75326298959039],[126.82191537004229,34.75338392351604],[126.82093454168172,34.75426997850381],[126.8218103690884,34.75491795617822],[126.82085158152522,34.75732532133624],[126.82047264916025,34.75800183709411],[126.8200351972402,34.75957366457981],[126.81948869581349,34.76066404514445],[126.81962264104699,34.76096701154166],[126.81912468224552,34.76113041431677],[126.81887181476975,34.7617202802324],[126.81914339312044,34.76291937578915],[126.81771387265046,34.765067085768784],[126.8174450483196,34.76503556319202],[126.816225883946,34.76543820557618],[126.81613596499776,34.76594641079893],[126.81554357964737,34.76638846157085],[126.81460495662773,34.766692134901625],[126.81407064993786,34.767554099799156],[126.81402177680575,34.76820250878749],[126.81538176426994,34.769245426493924],[126.81596435324049,34.770677584401554],[126.81687890643119,34.77194495113714],[126.81697803609254,34.77230110442774],[126.81726059453173,34.77526799237269],[126.8168487251871,34.776046087828796],[126.81676003897928,34.77648773436916],[126.81603157408466,34.77710342605743],[126.81532101564062,34.77729062851756],[126.81492536244956,34.777564069706536],[126.81478841606484,34.77757093592688],[126.81409096688246,34.77954869316254],[126.8133092123616,34.780089487220614],[126.81263903517431,34.78030503150465],[126.81233172020768,34.78050715533885],[126.81193150229785,34.780133133324775],[126.81138436895291,34.77927266053757],[126.81058932370924,34.77863270529172],[126.8098419356513,34.77824248320724],[126.8091595422808,34.77822134215554],[126.80853760809309,34.778350107334425],[126.80772174525197,34.778660861998816],[126.80708667374367,34.778519392360266],[126.80609512095135,34.77850064280816],[126.80555194971281,34.778647366957685],[126.80415504189878,34.77773201994991],[126.80345321179911,34.7774440523017],[126.80253418736037,34.77715370684669],[126.80118903083857,34.777017210076366],[126.80031968582824,34.77709025172736],[126.79935831080289,34.77731069519845],[126.79947588074963,34.77775092228965],[126.79928940748324,34.77808618051702],[126.79842198528871,34.778765075986186],[126.79807704960814,34.77914052321738],[126.79799559287143,34.77935427350468],[126.7976802603566,34.7794449958673],[126.7972497191066,34.77939976303792],[126.7969937191564,34.77962786770753],[126.79684511753719,34.77988877433049],[126.79674810549433,34.78050713107959],[126.7960107715887,34.78101247207356],[126.79538863028857,34.78130025923697],[126.7948120865718,34.78116742410552],[126.79405181330714,34.78134982059544],[126.79353974170634,34.78128212588216],[126.7923678479889,34.78137640772018],[126.78977668099292,34.78102221126794],[126.78810615515079,34.78103761239314],[126.78776937255047,34.78115284384267],[126.78731968247016,34.78163798520738],[126.78673579426383,34.78090720361551],[126.78598599847237,34.78049104184814],[126.78543086064613,34.78039416639568],[126.78410844199365,34.78063919573316],[126.78386379873359,34.781907148811925],[126.78339657970076,34.78220108257025],[126.78260319231124,34.78313566352942],[126.78283688409357,34.786045017203165],[126.78274868599804,34.78622474375089],[126.78147583184867,34.78644237619749],[126.78036446852198,34.78630741459138],[126.77839167000084,34.78627739607189],[126.77806258527653,34.78607754557419],[126.77851866428568,34.785935264999864],[126.77799723100658,34.78607190001941],[126.77776311234582,34.78592583869197],[126.77746337737179,34.78588766289343],[126.77727280184814,34.785700378215054],[126.77672911021797,34.78565637879791],[126.77571592934775,34.785238171374466],[126.77508836756486,34.785257080612254],[126.77491288366876,34.78530695363306],[126.77479412455699,34.7855132270972],[126.77438996305156,34.78555904978663],[126.77402406096905,34.785386738840195],[126.77290698898265,34.78513656170985],[126.77288615805114,34.784905167293424],[126.77276331827008,34.78471977846069],[126.77137154861744,34.78475142795754],[126.77044542296419,34.78444894670754],[126.77005159137832,34.78481872252036],[126.76977883572147,34.7848210072172],[126.76970987342392,34.784945775030494],[126.76949603598904,34.784738602942284],[126.76917700579406,34.78460214359053],[126.76951641501974,34.784663491402256],[126.76954935432636,34.784605503485956],[126.76880202219091,34.78446327791096],[126.76855649296314,34.78433777424538],[126.76804280556526,34.783874900229726],[126.7672679870907,34.78361908924399],[126.76695673203949,34.783444329185684],[126.76683774169801,34.78332871074407],[126.7669166294999,34.78325721882757],[126.76662819834382,34.78270508238589],[126.76667883790748,34.782647147393234],[126.76684439333278,34.782719570121564],[126.76694832213087,34.78267878330758],[126.76708364529526,34.78277119479409],[126.76713737358838,34.782505590171304],[126.76696079279829,34.782615312147264],[126.76683091605403,34.782393703195325],[126.76655628586347,34.78226221714298],[126.76652990288305,34.78208427336803],[126.76616212757594,34.78189025628053],[126.76607585019802,34.781797974637755],[126.76613592391968,34.78165718263863],[126.76606591801738,34.781429027128354],[126.76600633304928,34.78155162061375],[126.76579705878419,34.781621029826326],[126.76571295705043,34.781474676661745],[126.76555735774542,34.781467605736665],[126.7653032821292,34.78128274823605],[126.76532309061376,34.7811596633129],[126.76521652100958,34.781077085922355],[126.76500976881879,34.781001723516546],[126.76469456650533,34.78098621076193],[126.76464306043033,34.78104521593471],[126.76445004654187,34.78030334200823],[126.76427668888796,34.77993992621622],[126.7641287862637,34.779939638037895],[126.76403055530801,34.77941456547612],[126.76415406749494,34.77901585189008],[126.76426644532948,34.7790450240805],[126.76435649034202,34.778570806188135],[126.76409116587705,34.77815592078299],[126.76362282577385,34.777753609698394],[126.7626114830557,34.77713310161871],[126.76233909541787,34.77599383537251],[126.76239030845265,34.77545248664348],[126.76264985540514,34.77460550017685],[126.7630102790523,34.774188917133735],[126.76270357166199,34.77366804084396],[126.76272060841207,34.77351803467976],[126.76290813423778,34.773460802118315],[126.76278305730666,34.77305671667218],[126.76278815863623,34.77282529884124],[126.76292244796886,34.772753458223136],[126.76278782008427,34.77276833812139],[126.7627311719609,34.77215215883688],[126.76256350544197,34.77179350175282],[126.76217382770824,34.77132317445962],[126.76197805215897,34.770569418526826],[126.76026957766784,34.77041149119026],[126.75909033824392,34.77018489731774],[126.7583249299089,34.77035306197775],[126.75788405343091,34.770528902334085],[126.75748976001059,34.770312955623766],[126.75688475402117,34.769828739789226],[126.7566873272353,34.76982952398831],[126.75570342410181,34.76935881846368],[126.75560313247496,34.7688729545083],[126.75568837495139,34.76843980084949],[126.75594922447725,34.767943235496816],[126.75560805345445,34.76763307519572],[126.75510404223137,34.76646501918389],[126.75439407580208,34.76547759151096],[126.75338958020238,34.765617269342954],[126.75312135373908,34.76559807252861],[126.75303176494272,34.765494957788185],[126.75227878882761,34.76539300244121],[126.75138688069082,34.76510354336499],[126.750871448103,34.76525318169091],[126.74967977918158,34.76460197903374],[126.74916358762403,34.76381613399682],[126.74872255886245,34.76344122443356],[126.74858972253114,34.76207358109838],[126.74832179367104,34.76153506266756],[126.74944535792922,34.760443070973075],[126.7485642824402,34.760164349346155],[126.74825307412294,34.759826331714635],[126.74780267920595,34.75909003250506],[126.74757738937357,34.75899930482833],[126.74687879172953,34.758012324898566],[126.74670481992007,34.75761511487634],[126.74489850248406,34.75763168635917],[126.74473522066569,34.75745398065305],[126.74400871902097,34.7571151031002],[126.74360329499483,34.75683673702967],[126.74068985611216,34.75678586952189],[126.74051029113878,34.7567291467568],[126.73988980756927,34.75700790233221],[126.73924412820864,34.75679417762286],[126.73828718757169,34.75614637886587],[126.73788037403574,34.75628887767894],[126.73695761443452,34.756435583154754],[126.73646209908279,34.756342381890356],[126.73618994450271,34.75662300270691],[126.73576869535384,34.75682061132932],[126.73464406641575,34.756990746119136],[126.73400270055421,34.7576759261536],[126.73359306098949,34.758384643593516],[126.73283834732332,34.75918404710777],[126.73265040657522,34.75971002920436],[126.73192247453316,34.76001221383773],[126.73152003021892,34.760038049382686],[126.7311538030543,34.759923524229976],[126.73074242246528,34.760057055921706],[126.73000673221026,34.76047401544158],[126.72940440532751,34.76055926099412],[126.7286153130175,34.760896966957525],[126.7277512811013,34.76027929296516],[126.7271418642161,34.76005750005271],[126.7265072100115,34.75949266046909],[126.72595730277094,34.75920638284803],[126.72472748245852,34.75920648835693],[126.72392300879258,34.75896533342378],[126.72310303612615,34.75904467929951],[126.72283103520353,34.759178917370804],[126.72214041213014,34.75912536019881],[126.72178716035329,34.75892851084944],[126.720805867618,34.759110060231954],[126.72028314898498,34.75953839464911],[126.7202025648626,34.759956886584476],[126.71945338494254,34.76025590071678],[126.71920702282658,34.76058194696589],[126.7184462617042,34.76066793383968],[126.71725538820448,34.76117589066094],[126.7163946508353,34.76075171278535],[126.71602141339129,34.76040057776878],[126.71554541819533,34.76013897184063],[126.7144177664301,34.76015725922065],[126.7140653122981,34.76022604395517],[126.7133045663375,34.76059638455314],[126.71294940152647,34.76096325586631],[126.71233420656112,34.76206136363402],[126.7112085427415,34.762995953801195],[126.70993441276372,34.76328359714255],[126.70966027651937,34.763427995438875],[126.70936851995242,34.763888979886154],[126.70943532635947,34.7642762683239],[126.70917200421178,34.76541743356591],[126.70922306436057,34.76557708747062],[126.7090237727088,34.76568207394565],[126.70718408317106,34.76650698379864],[126.70577462087533,34.76671835756356],[126.70401905776464,34.766603578819094],[126.70243454585413,34.7659286628791],[126.7008723319061,34.763894483723895],[126.69947789095127,34.76233403015998],[126.69873539594518,34.76180168049435],[126.69859202687081,34.76137346111101],[126.69483889179025,34.760348578499475],[126.6939679062742,34.75966688220818],[126.69372398793905,34.75677845606636],[126.69232814723584,34.75560892960653],[126.69089987204941,34.7545745969849],[126.6895283731919,34.754259862497506],[126.68687776589589,34.75417894068033],[126.68648544257891,34.75334646611047],[126.68564025463299,34.75307479202582],[126.68542988943656,34.752442727414575],[126.68445176489837,34.75253498702348],[126.68335522001821,34.75318769680915],[126.68054628588979,34.75385097762778],[126.68038396921258,34.75332600139269],[126.67969066201836,34.75268895724521],[126.67961006616443,34.75252170401193],[126.67934559723959,34.75234339106971],[126.67931631384057,34.75150588556253],[126.67843556120114,34.749936216863226],[126.67810989571846,34.74982383030511],[126.6776083325128,34.74949424022285],[126.67697507267113,34.74927195277503],[126.67666160648237,34.74902386946356],[126.67628281215372,34.748893109825154],[126.67646519592955,34.74799132062674],[126.67632454554233,34.74734210987336],[126.6758904961191,34.74694801660563],[126.67523882680563,34.74659777873779],[126.67508607407508,34.74627433096652],[126.67466166407446,34.745773072337656],[126.67432184591105,34.74563280209825],[126.67352107541124,34.74480144104228],[126.67271905338045,34.74465406200405],[126.67228355328301,34.74434723551807],[126.67221888010708,34.74318893671848],[126.67202583524765,34.742918730610434],[126.67098306645902,34.74211868907146],[126.67079352744216,34.741504574997975],[126.67012452748097,34.74093531876596],[126.66956043747774,34.74063245941211],[126.66922949125157,34.74020911982033],[126.6678751658985,34.73987705268106],[126.6671555035842,34.739607649169216],[126.66634446996957,34.73961689586015],[126.66524752141008,34.739853576802076],[126.66486069441767,34.73969075032989],[126.66484939059099,34.73904488475886],[126.66462894750954,34.738115722294324],[126.66446265330605,34.73774739626978],[126.6645651202844,34.7372202996633],[126.6638228750667,34.737107290082086],[126.66336043929232,34.736847158181355],[126.66278312237682,34.736641033312495],[126.66210857610618,34.73682394569518],[126.66094696953351,34.73623448036748],[126.65982257078295,34.73446927940341],[126.65913465490159,34.73410252893522],[126.65880230185276,34.73404189411917],[126.65769169479738,34.73415121663559],[126.65720729623456,34.733479459670356],[126.65684586678566,34.73320125364227],[126.65672103379214,34.73180675818374],[126.65648097776035,34.731540784018684],[126.6568209865067,34.730543197525385],[126.65791034757302,34.73015555673823],[126.6586156342267,34.729788595140406],[126.65887421855663,34.729438402483524],[126.65945430889604,34.72938077328366],[126.66017612431693,34.72883823568584],[126.66128025796291,34.728233365362975],[126.66161443530372,34.72814713126129],[126.6624108892166,34.728124858730546],[126.66306361529455,34.72771141927768],[126.66320298281465,34.72719736069213],[126.66368067349478,34.72609866405857],[126.66370022203077,34.72593892467697],[126.66344046935163,34.72561542620925],[126.66352177188949,34.72497746892092],[126.66389315332916,34.72459820994541],[126.66416060447877,34.72405528991596],[126.66455535694284,34.72360518831832],[126.6650101175189,34.72344383877754],[126.66504721453937,34.723055882492915],[126.66542883541288,34.722270920456545],[126.66694576779088,34.722818935391274],[126.66817832428903,34.72315568280258],[126.66862851456456,34.72267486407162],[126.6692626337507,34.72272433336687],[126.66976743896609,34.72257617293122],[126.67127193537723,34.7226743846719],[126.67176471970646,34.722841777521566],[126.67249145396775,34.72286955817746],[126.67411500748733,34.72227421052753],[126.67437798576186,34.722199594515196],[126.67465649777373,34.722236308219806],[126.67551417584507,34.72168145916898],[126.67701673610121,34.721347826197196],[126.67859769857091,34.720804686283955],[126.67976532007896,34.72070034372843],[126.67990523686366,34.72036994785893],[126.67987130128856,34.72012586332432],[126.68001672154251,34.71990482344852],[126.67995143621772,34.71934085220419],[126.6801965178191,34.71898957712296],[126.68017267208322,34.71860924327687],[126.68049483233226,34.718219067347846],[126.68066669074085,34.717559125032466],[126.68115096623961,34.717014051044906],[126.6807071042693,34.716637389960425],[126.68020178423856,34.71573026249159],[126.6806653801805,34.71516717953087],[126.6814087934255,34.71379563794914],[126.68138367767862,34.71335848441963],[126.68153309528488,34.713005170141216],[126.68069069685133,34.71248596665259],[126.67947125809313,34.71200577560674],[126.67929903861123,34.711723240326336],[126.67901494303818,34.71158674474262],[126.67884156615317,34.710750961534444],[126.67865466359306,34.71047557071702],[126.67831309012907,34.71031667427436],[126.677372895351,34.71012635861397],[126.67714681851798,34.71023234969378],[126.67635390465571,34.7098632254678],[126.67555114784058,34.70934201884844],[126.67512427406271,34.70934275152661],[126.67470932739833,34.709458283014605],[126.67451776660874,34.70941116605577],[126.67368438904768,34.70849323276696],[126.67291615513027,34.707983134938786],[126.67278100620268,34.707434691267196],[126.6721046003027,34.706753016861526],[126.67209719057536,34.70620713495161],[126.67221546435995,34.7055524670568],[126.67244924096833,34.705192729920306],[126.67307994461584,34.70493251513848],[126.67346126704678,34.704652786593314],[126.67430349320968,34.70461562223763],[126.67447450518836,34.70447010567353],[126.67466469620358,34.70396595740601],[126.6747124807134,34.70286945738229],[126.674849556546,34.70242603899218],[126.67512043845794,34.702346006577116],[126.67526924798554,34.70220493646493],[126.6752675265834,34.70193430831428],[126.6748886378657,34.70069619732288],[126.67354179697969,34.699852360919664],[126.6734945104556,34.69923106671836],[126.67327623673849,34.699050430028876],[126.67327628083609,34.69890376946575],[126.67295804205907,34.698762291027634],[126.67209378146413,34.69729024186324],[126.67191390612992,34.696733761018166],[126.67207107956298,34.69393177538465],[126.6723331617493,34.693678021839666],[126.67243860454577,34.693362115879744],[126.67225698848766,34.69307318959924],[126.67198956875248,34.69292538262676],[126.67173939655643,34.6925400528149],[126.67120988632732,34.69223963686262],[126.67097625081671,34.691808332825936],[126.67020742045115,34.69094266875488],[126.67089649862582,34.69037975519337],[126.67203879231637,34.689709198817],[126.67304580322498,34.6888637163951],[126.67383384296006,34.68732115538769],[126.67420706319741,34.68684662291588],[126.67469582802107,34.686401388665445],[126.67631357238915,34.68608363674929],[126.67747998517581,34.68549819598418],[126.67799597975818,34.68544697729398],[126.67871689596787,34.68556028541311],[126.67998067811101,34.6859718505948],[126.68156124245684,34.687054385964835],[126.68194031012698,34.68768503985197],[126.68278178801144,34.687706235343946],[126.68441016349037,34.687060259910815],[126.6848647666551,34.68649333940224],[126.68611055962315,34.68604869767903],[126.68658322027133,34.685777834717726],[126.68724014880107,34.685622385074],[126.68790795325403,34.68596239845936],[126.68903599575941,34.686171782838414],[126.6897442754216,34.68606069299814],[126.69024920291447,34.6860818052245],[126.6907317289343,34.685889113480634],[126.69128639542053,34.685845887603094],[126.6919241238576,34.685930006450306],[126.69230079326742,34.68565488420637],[126.69378750142945,34.68550645845783],[126.6942264144776,34.68517052421788],[126.6943761318258,34.684745692324555],[126.69599857138343,34.68346799294972],[126.69707278577756,34.68344640438183],[126.6973435966648,34.68375410415564],[126.69896426239698,34.684032817039615],[126.69915390058408,34.68423044618506],[126.69955460238046,34.68428551535315],[126.6999300142807,34.68443563858508],[126.7004202788756,34.684254799198776],[126.70089403354157,34.68423328834177],[126.70188354519982,34.68384755393374],[126.70226140835665,34.68343507213745],[126.70287323637014,34.68332411981554],[126.7035247987256,34.68299869625203],[126.70501673470596,34.68205642661351],[126.70569433165436,34.68182456808967],[126.70554401993108,34.68078980421045],[126.70526823844781,34.68014066088734],[126.7051324322163,34.67987925214489],[126.70480337500588,34.67975334363547],[126.70465120419215,34.67959869496952],[126.70443866510102,34.67807894814432],[126.70419257032617,34.677698390036404],[126.70395916179221,34.67757591243936],[126.70389159435454,34.67726244933223],[126.70293284877079,34.676195760629305],[126.70273683085814,34.67563193676124],[126.70239690471777,34.67522969114818],[126.70244278618948,34.67475001264023],[126.70140708965971,34.674079451296315],[126.70083691702325,34.67333971879348],[126.7001609634336,34.67314513695153],[126.69981212740394,34.67283220200052],[126.69941929048039,34.672663519881596],[126.69888001202388,34.67252698750329],[126.69860871569156,34.67182435817044],[126.69929219126297,34.67069744545685],[126.69944996954337,34.66947689501976],[126.70008973363056,34.668252298997444],[126.699810726713,34.66771237773535],[126.69985828943,34.667292495206084],[126.70061208133374,34.66727929444112],[126.70086445978191,34.66702164098762],[126.70096370468644,34.66667851536201],[126.70150073613705,34.666057503728766],[126.70170651582681,34.66549864029753],[126.70187765788722,34.6653842825778],[126.70204210693693,34.66461602438308],[126.7018949083098,34.664265018013104],[126.70190460095968,34.66363606426369],[126.70210727016264,34.66343009076454],[126.70182762237538,34.662377865753896],[126.70187161619843,34.662273012008],[126.70173959089334,34.662002638941466],[126.70067859515075,34.661881723812456],[126.69977626587135,34.661689790256915],[126.69924918005526,34.66171204844874],[126.69861977156856,34.66128799857642],[126.69780866672079,34.661054306658805],[126.69685969108293,34.66127758461363],[126.6962496808883,34.661268081866716],[126.69564158594794,34.66142922947259],[126.69541412350581,34.66164000674841],[126.69522801289023,34.66166824089307],[126.69404837074447,34.66105037558426],[126.69381790115861,34.66051819754582],[126.69388289178997,34.660180525705044],[126.69332590974301,34.65913613570595],[126.6931523537404,34.65895699870396],[126.6923024408681,34.65878470329192],[126.69220903691486,34.65844399847227],[126.69198425250453,34.65813368079452],[126.69196890868399,34.65800020398849],[126.69275457012267,34.65775449277128],[126.6929353733452,34.65762847141],[126.69355406619293,34.65691099556584],[126.69381252290738,34.65631348035464],[126.69497127010315,34.65544373735945],[126.69526557673154,34.654793566585276],[126.69629763980888,34.65399237947475],[126.69637629589934,34.65295742448769],[126.69627039687663,34.652883206608266],[126.69660047105518,34.651673597923974],[126.6975207057993,34.650869848750446],[126.69733457067807,34.65011092511314],[126.69690541042212,34.649841535857654],[126.69501594963835,34.64947626907071],[126.69395398556838,34.64944195629907],[126.69317536863129,34.64911504483203],[126.69328732268588,34.648461595638544],[126.69301392609306,34.64795906269692],[126.69301798981147,34.647718806872795],[126.69275084429016,34.647526145311076],[126.69230331725919,34.64744025073587],[126.69212693098282,34.646611618267556],[126.69149883462762,34.646065760659184],[126.69103384040427,34.645866408602636],[126.69027845567061,34.64493548288121],[126.69020298301723,34.64471495465973],[126.69027853099688,34.64429038624948],[126.69023777326916,34.643948082730006],[126.68984984168837,34.643667136293054],[126.68965928989354,34.643417612239325],[126.6896283384517,34.64291267109868],[126.68976202564703,34.64258329793265],[126.68945453629847,34.64189868046007],[126.68947968236213,34.64175734696152],[126.68927488800755,34.64136906523342],[126.68858416472635,34.64100721157053],[126.68853597563123,34.64008152976181],[126.68823783281334,34.639555899647895],[126.68866185374165,34.638743837210924],[126.6879032195567,34.638541150754286],[126.68662076114373,34.637305749697425],[126.6860741612584,34.6372476019412],[126.68468889538686,34.63685256786294],[126.68454239724925,34.63621160596395],[126.68390375601649,34.63578192937857],[126.68374741410658,34.63486724032608],[126.6834747690624,34.63455737631974],[126.68303260856004,34.63376981741592],[126.68277401262229,34.632465488093715],[126.6838644081017,34.632367209370706],[126.68439452454128,34.63219135847935],[126.68466383832708,34.63219727737671],[126.68497565266199,34.632053506612024],[126.68561616038899,34.63210833273931],[126.68604381063368,34.63191305399018],[126.68641344957385,34.63198968399002],[126.68702859197785,34.63188822869987],[126.68725846852202,34.63193225176097],[126.68753198700989,34.63181478765327],[126.68786932456548,34.631824741617045],[126.68878489500446,34.63130637248949],[126.68910376935122,34.631347879793104],[126.68977730535882,34.63073242136278],[126.69039498640656,34.6304877455699],[126.69140759832075,34.62924425129706],[126.69168045128222,34.62902314784707],[126.69256678265094,34.62881150406034],[126.69340126324504,34.62837938662735],[126.6943190680001,34.6285876320397],[126.6951849152863,34.62898850169524],[126.69547469144374,34.62901743450315],[126.69615487329955,34.62941001609595],[126.69806565641399,34.62989387414341],[126.69856105447188,34.63020857696541],[126.69927014659929,34.62986181592967],[126.7000458847623,34.62996174725138],[126.70080665025834,34.63024955763305],[126.69908246768367,34.62784096896347],[126.69788080646231,34.62705025292698],[126.69658909914665,34.62552152513298],[126.69589013167447,34.6243595556504],[126.69448142981602,34.623326199245746],[126.69364408013406,34.62323336976892],[126.6927473694167,34.623299342484614],[126.69261918029329,34.62255054293647],[126.69198817431116,34.62138196203033],[126.6919885282987,34.62107797369781],[126.69168025312295,34.62068258142797],[126.69157247888255,34.62072895676697],[126.69161342784297,34.620874623678525],[126.69137590879856,34.62056510022899],[126.6915199766312,34.62014190229235],[126.6913567905504,34.61951919437523],[126.69114820699372,34.619250001835255],[126.69119375410455,34.61916757369049],[126.6909005038383,34.61908853846046],[126.69026079187574,34.61824728038367],[126.6903112602787,34.617518070747316],[126.68994849828245,34.6171724201461],[126.68974774051615,34.61672593372396],[126.68970163519556,34.616470548823635],[126.68993191496575,34.616205899993176],[126.68988070953884,34.61601099713083],[126.6899571323359,34.61528113250183],[126.68985448433293,34.614858820512545],[126.68996231505034,34.614500668870356],[126.68979531810623,34.61415390368809],[126.68980166247057,34.6134597639285],[126.68966956210024,34.613109058244504],[126.6894069544184,34.61283080029149],[126.68937558060836,34.612625392070264],[126.68886103624062,34.61160015736923],[126.6889536807525,34.610735182790386],[126.68881859071222,34.610302807715264],[126.68713051177895,34.6091434671071],[126.68730958104133,34.60886716164759],[126.68738630675524,34.60887471481543],[126.68759422704741,34.60839150542966],[126.68791681043167,34.608107283892764],[126.68811835054206,34.607774289780686],[126.68772925182111,34.60742683380093],[126.68773377387447,34.607195537997846],[126.68741977900245,34.60690773250799],[126.68711647352775,34.606335551935736],[126.68607581913072,34.60573912081162],[126.68432624460868,34.604134292481945],[126.68410086949434,34.60371552317515],[126.68368921595278,34.60336852737639],[126.68308187453792,34.60265678706297],[126.68250534809864,34.602157014937895],[126.68213627747778,34.601970165463],[126.6811621245945,34.601229141237766],[126.68086700245864,34.601199367291755],[126.68055519099335,34.60107017482183],[126.6806415821238,34.601142029775595],[126.68027437112224,34.60097277551647],[126.67977938603768,34.60067878574601],[126.67958762681548,34.60040790447238],[126.6792330256064,34.600263451699306],[126.67888311500107,34.5999577890531],[126.67862206464476,34.60017047695761],[126.6780774151245,34.59963948843463],[126.67773434860808,34.599763256134175],[126.67699647585658,34.599031857404306],[126.67627086026538,34.59880347733504],[126.67564338782863,34.59845620359302],[126.67533708981298,34.59805339157026],[126.67538418181712,34.5979113524065],[126.67514164533394,34.597436604569765],[126.67435932333795,34.597001453067406],[126.67258403597293,34.59758275810865],[126.67241049301607,34.59700700490431],[126.67232363493409,34.597017741150516],[126.67240810477507,34.59670308935329],[126.67215056856192,34.59646284797729],[126.6720646877283,34.59623162402276],[126.67181146987512,34.59612683389288],[126.67177902752306,34.59603883851586],[126.67198114894673,34.59590704489716],[126.67191308108679,34.59580559414133],[126.67201762696767,34.59569621702529],[126.67200635885675,34.59553242325193],[126.67214031453108,34.59547833818464],[126.67233095730414,34.59555617734087],[126.67292499149316,34.59459410951012],[126.67284089583698,34.59411149909529],[126.67166296422619,34.59241950448669],[126.672122802246,34.591324449418096],[126.67283339438576,34.590631476255666],[126.6731486127499,34.59011147594395],[126.6740836214316,34.589612113762904],[126.6745483020022,34.58903584631428],[126.6754144261877,34.58857235567573],[126.67555692153843,34.587714940266935],[126.67574040604063,34.58752849051942],[126.67657894753854,34.58729901137032],[126.6770751217184,34.58703646296051],[126.67709365305404,34.58659831582257],[126.67684968875855,34.585781724691145],[126.67714720175746,34.58556318735931],[126.67736504158951,34.58554867588013],[126.67759105724312,34.58539614898723],[126.67756875336876,34.585203164724135],[126.67798656140977,34.585133302580324],[126.67811715573285,34.58497650141186],[126.67834499003955,34.584998252333406],[126.67892034358137,34.58479689690637],[126.68026276043098,34.58482539711286],[126.68036857199766,34.584122493019144],[126.68084628222708,34.583230372211716],[126.68085656846067,34.5830067891894],[126.6803244142989,34.58252236537699],[126.68024740199147,34.5823662685354],[126.67946332574574,34.58226013225739],[126.6794217086383,34.58159142783332],[126.68023917958975,34.58117736169519],[126.68067946118398,34.58074134113678],[126.68113096132902,34.57935409925952],[126.68152393849232,34.57911175106162],[126.68152984657058,34.57902613914739],[126.682261983336,34.578656402525816],[126.68335380884199,34.57792367141743],[126.68276570883333,34.57608244148415],[126.68322393690126,34.57551076487558],[126.68384571329294,34.575040653231085],[126.68478980182536,34.57460870326109],[126.6855384762401,34.573626995000225],[126.68600492099905,34.573312292495736],[126.68783013496478,34.57255305382934],[126.68779800013722,34.571861487877264],[126.68815872559725,34.571097454391015],[126.68872520822423,34.57066045654849],[126.68889143547499,34.57023932498916],[126.6895174693894,34.57002539229699],[126.68981560717953,34.56918882628853],[126.69103243477429,34.568176303121376],[126.69165635060162,34.56731416599195],[126.69157151651694,34.56684985438119],[126.69202916330094,34.56627267934014],[126.69304452111314,34.56542953683259],[126.69356201229671,34.56524108101759],[126.69508963393211,34.5639486458486],[126.6948028616323,34.5636526327574],[126.69470676775434,34.56325971571486],[126.69444412178893,34.56293766571217],[126.69443158886492,34.56262971174659],[126.69364835262125,34.56227863073391],[126.69375228486761,34.56128681414278],[126.69369555516026,34.56059824223379],[126.69354592662471,34.56016961838536],[126.69324454035149,34.560044639766524],[126.69287772783376,34.55957905759113],[126.69284852673336,34.55921298146235],[126.69297952626187,34.55885691041783],[126.69294149166784,34.55870540859304],[126.69310479401582,34.55784202580129],[126.69300054890904,34.55754781214979],[126.69306238378535,34.55721685156866],[126.69278481454259,34.55679432166554],[126.69276890917617,34.55635403639192],[126.69260332165611,34.556146070258194],[126.6917364199444,34.556042183321466],[126.69163310344955,34.55484964100695],[126.69110297523362,34.554323080027864],[126.69073684033636,34.55416290065311],[126.69083554670064,34.55339634185587],[126.69029539186597,34.552836335399505],[126.68978252182224,34.55266900938452],[126.68943875172825,34.552442212665916],[126.68992173315694,34.55168293664031],[126.69030014745395,34.55132440696226],[126.69004871395485,34.55110717704662],[126.68936542493135,34.55079956515456],[126.68859502869576,34.55070637730314],[126.68827610746762,34.550457086885714],[126.68776124161403,34.55025461811991],[126.68809422032005,34.54970019463885],[126.6882500281091,34.549138753475845],[126.6874803161423,34.54905053632069],[126.68722414800565,34.549099655046],[126.68657619224845,34.54892891202822],[126.68632544332847,34.54870506861486],[126.685901798457,34.54792654535588],[126.68504951831362,34.54746711163238],[126.6846845090089,34.5465865395868],[126.68371217107118,34.545378832475805],[126.6828792661403,34.54490510101512],[126.68229672529215,34.54416700367418],[126.68143517302566,34.54352094910527],[126.68123067400711,34.54350566554988],[126.68086850516511,34.5432631382683],[126.68029601765413,34.54278555615515],[126.67953127434633,34.542694678870845],[126.67935418331089,34.54187700137176],[126.67837934868714,34.5419136574939],[126.67807210503763,34.542016311861914],[126.67711369241822,34.541497749569274],[126.67604834777353,34.54074127496148],[126.67573964698228,34.54064782905454],[126.67573323909261,34.540335156016745],[126.67554698437873,34.540071185878716],[126.67494281282431,34.539692138781994],[126.6739945328254,34.539791481151646],[126.6730898607954,34.5395847768226],[126.67267415651337,34.53937042259642],[126.67237838823957,34.539314728335505],[126.67159499751432,34.53876397994586],[126.67082904691495,34.539122557814764],[126.66944199929404,34.5388353552604],[126.66888776871097,34.53911342959498],[126.66712865716512,34.53861780160005],[126.66729084885527,34.53805887393717],[126.66706735543526,34.5367142038505],[126.66771860321671,34.53562740376152],[126.6686579420716,34.534860342414476],[126.66949660093263,34.53446168997883],[126.6733334104414,34.53352168372426],[126.6741416131359,34.532345540379964],[126.67412811773848,34.531549142732],[126.67475719560336,34.531294240059964],[126.67573146898624,34.53109612645428],[126.67684214008796,34.53066863484863],[126.67723919230848,34.5308139111252],[126.67778677583765,34.53074320267767],[126.67815187268873,34.53056970418792],[126.67843835306263,34.53058652574273],[126.6793401701058,34.52987206140966],[126.68035161400473,34.52978443561663],[126.68255572600437,34.52997071419712],[126.68328458742765,34.530445088105594],[126.68448565818926,34.528833743401265],[126.6849532249554,34.52861488625979],[126.68523334919782,34.528582916319806],[126.68493093902262,34.5277973003407],[126.68501629848355,34.527146661110706],[126.68542654084906,34.52616363485847],[126.68634591119353,34.52508618791087],[126.68612342335513,34.524295254696774],[126.68630981604198,34.52371817131112],[126.68572923264115,34.52174695321029],[126.68515435604554,34.52116916374666],[126.68478053042482,34.52056128876925],[126.68356376205607,34.519407804348745],[126.68295382514762,34.51925674731261],[126.68222680917683,34.518941219271674],[126.68191931276209,34.51788955606106],[126.68040698620928,34.51591284212935],[126.68099000781383,34.51361090914916],[126.68184454281395,34.51165792949191],[126.68194035724936,34.510914622357255],[126.68287137287105,34.51037868259114],[126.685028573189,34.510436751918995],[126.6859529857998,34.5110367920139],[126.68794968038972,34.511239771511526],[126.68932120887051,34.51058949974598],[126.68972360373644,34.51020438339837],[126.68880070068711,34.50957728709603],[126.68672015796531,34.50768598473052],[126.68669193480912,34.50704515470283],[126.68576991302177,34.50587597057913],[126.68591269602986,34.50450775349028],[126.68537783628685,34.50407899518885],[126.68502139202143,34.50356194014912],[126.68547429315734,34.50296992366051],[126.68539692848775,34.50259766923808],[126.68564254821031,34.502126207195786],[126.68584801391845,34.50175431397573],[126.68617619285034,34.501463173188014],[126.68608634005402,34.50062166535506],[126.6862573308088,34.5004485056822],[126.68621931284653,34.50027660971509],[126.68630231182625,34.500017062588704],[126.68588065196266,34.49921544376611],[126.68570166839332,34.49768206915154],[126.68559546116917,34.497261737907735],[126.68529521372453,34.49674508079654],[126.6854168122215,34.49582390778985],[126.68507681344272,34.49521952645272],[126.68500552951647,34.494908666703324],[126.68513034717814,34.49460566139925],[126.68494581109678,34.49410725050263],[126.68506613880817,34.49328324131529],[126.68525880858655,34.49331670589275],[126.68542848149063,34.492955393332245],[126.68559068393047,34.49298114333358],[126.68569103991847,34.49284083972978],[126.68549999289311,34.49250142828915],[126.68496902723238,34.49220099890207],[126.6848693884704,34.49192371659226],[126.68456865721085,34.4918031437243],[126.68414754139356,34.491307128669625],[126.68400890395337,34.491301152651594],[126.68367535498696,34.49099296390425],[126.68346330613916,34.490338474204044],[126.68302138450407,34.48969156156542],[126.6829486591512,34.48942514707738],[126.68313210806406,34.48921519065568],[126.68342133535145,34.48858597469214],[126.68337033802722,34.488168020186244],[126.683503845395,34.48789777043953],[126.68320914841928,34.48751123721027],[126.68333819390625,34.48568301851068],[126.68330775814168,34.48507997751685],[126.68352067213577,34.48456995925141],[126.68341244301092,34.484480163719795],[126.68357655971076,34.484295216434745],[126.68357067767552,34.484224356180306],[126.6833919577298,34.48418679661229],[126.6834754602884,34.48387572512148],[126.68363819106465,34.48380328411447],[126.68368443485222,34.4832809779225],[126.68384770941016,34.4828693133058],[126.68375053456873,34.48285626920601],[126.68366816242285,34.482729031736106],[126.68383442880582,34.48259625655645],[126.68390144151472,34.48204801532125],[126.68380102408331,34.481991747308186],[126.68364173793675,34.48162464129389],[126.68369753495936,34.481562676411265],[126.68351412951183,34.48082174809876],[126.6829771427494,34.48076354086667],[126.68314327527158,34.480275387363804],[126.68293641072349,34.48026426550422],[126.68286833265797,34.47982553236767],[126.68287465680739,34.479768369832904],[126.68302285408659,34.47979739504496],[126.68309038370872,34.479681355909406],[126.68340049180502,34.47969988565471],[126.68316957300564,34.477483419263756],[126.68327846762804,34.47652921025049],[126.68359628441569,34.475450251644816],[126.68361332191034,34.47507926757314],[126.68282643223172,34.474252102704234],[126.6825164391196,34.47402839247001],[126.68227573319597,34.4739641218006],[126.68241063306739,34.47379480271163],[126.68278441235734,34.47358859696394],[126.6827495552252,34.47317713766858],[126.68286253408948,34.47309287597212],[126.6829804809119,34.47278957434833],[126.68336140880898,34.47248497391713],[126.68329448841115,34.47247939107196],[126.68359308148624,34.47120993192743],[126.68336392326341,34.47030130329617],[126.68271476033625,34.470418423998574],[126.68213030753506,34.47143508889053],[126.68180627772675,34.47134761260931],[126.68179488424023,34.471024232018706],[126.68164157805462,34.47075213346872],[126.68212636492501,34.47029807722092],[126.68232516937005,34.470212642855635],[126.68434049645063,34.46960692751076],[126.68599042620986,34.46898153139975],[126.68814565420824,34.46833613450343],[126.68986501756568,34.46807928741571],[126.69104157140973,34.46844096818917],[126.69163775302236,34.46872229125514],[126.69196961859552,34.470314285530485],[126.69771264748617,34.47108924366995],[126.71541364605135,34.470652455398806],[126.71660353630051,34.470527948265655],[126.71710236087173,34.470275620812544],[126.7174509953397,34.46998553221718],[126.71780698427504,34.469483347721656],[126.71939195421156,34.46631804473688],[126.73486367803626,34.455606782717766],[126.74788410111687,34.47238557918277],[126.74859183855564,34.47239065078801],[126.74941537570189,34.472505700036926],[126.75100993950048,34.47249089361283],[126.75097251667859,34.47243284446147],[126.75106073129399,34.47235495926499],[126.7513881271256,34.47215342424298],[126.75147409213403,34.47218366352145],[126.75175642039274,34.471975815318444],[126.75218338462184,34.47111218328161],[126.7522786840836,34.47113271434024],[126.75263529609106,34.471665334459594],[126.75394743398402,34.47166338230558],[126.75447558809297,34.471975704341205],[126.75393419829062,34.471711276800086],[126.75303082944625,34.47171905411208],[126.75263083750733,34.47284880799466],[126.75366529997596,34.47464402630623],[126.75345584691684,34.47508623327154],[126.75340172454953,34.47507195262624],[126.75355560451369,34.474697656759886],[126.75235223616627,34.47262623967331],[126.75200205098221,34.47252668128953],[126.749375608889,34.472568755866604],[126.74890403021081,34.47317716528942],[126.7486327503007,34.47369537307671],[126.7486764907668,34.473932167166346],[126.74771023038878,34.47652459297944],[126.74801131310937,34.47672471808062],[126.74782774801677,34.47681371931024],[126.74791329328093,34.4769756866828],[126.7474994824323,34.47698346370828],[126.74717611023995,34.47788405511936],[126.74702833216108,34.478004722626196],[126.74665524593321,34.47799110464905],[126.74489605052658,34.47874061148883],[126.7426502999458,34.47931500705334],[126.74160948581672,34.47989737307212],[126.74085310342188,34.4806273095766],[126.74042566428646,34.48130356851152],[126.73930880696335,34.48354874167607],[126.7385404684422,34.4862963925734],[126.73967618015949,34.4877506533246],[126.74126725828815,34.48861579259071],[126.7424876675891,34.48902582209346],[126.74324955879592,34.48908280099284],[126.74489316856383,34.49005672796891],[126.74671184974302,34.490422139807634],[126.74796727162558,34.490896740458226],[126.74874294883041,34.49132795106323],[126.75006700661676,34.49186103194289],[126.75106695205535,34.49208072168031],[126.75203983939892,34.49205442323481],[126.75346350432439,34.49258817535142],[126.75380262850206,34.492624326002996],[126.75397364875663,34.492543163210335],[126.75473530164213,34.49263551512682],[126.75524956397646,34.49244502983452],[126.75560847227743,34.49246169110733],[126.75575195611789,34.49240326691578],[126.75795726554173,34.49123167411311],[126.75828529958919,34.49111891558126],[126.75865404656297,34.489970604805585],[126.75873150989182,34.489970064533004],[126.75839570060818,34.491076162988136],[126.7593635719734,34.49111941529952],[126.75991750616116,34.49167036929289],[126.76009358470739,34.49207936289875],[126.76009123745554,34.492425569533324],[126.75984590990922,34.492867760357946],[126.75850310385331,34.49335532567647],[126.75809109066849,34.49362001934013],[126.75794176018455,34.49381359693102],[126.75779000139562,34.494403915950855],[126.75792022289393,34.49506153127182],[126.75813563877966,34.495477204455504],[126.7600921668125,34.49721670025541],[126.7611420605464,34.497876223752485],[126.76190023571776,34.49822976448002],[126.76248528340084,34.49796882215085],[126.76312261628118,34.49814274841254],[126.76377021319647,34.498050213617226],[126.76462033527423,34.49869466999895],[126.76542442028045,34.49893455988253],[126.7658464302409,34.499909363890445],[126.76552951181218,34.50082200243913],[126.76500672272986,34.501018247392885],[126.76339014835614,34.50189412180581],[126.76208565884124,34.50237270449526],[126.76193146442111,34.502585685349665],[126.76144622929651,34.502671106100244],[126.75928840290965,34.518480195716],[126.75943681956397,34.518493460019414],[126.75942872818565,34.51860252810317],[126.75927285001322,34.51859295491302],[126.75917095676888,34.51933011181609],[126.75957303827838,34.51939552833812],[126.75959902167183,34.51950566447356],[126.75927110331028,34.5200298824021],[126.75903918131444,34.521149803627345],[126.75890067521183,34.5213249041446],[126.75824112655646,34.52619257585691],[126.75914489445661,34.52669749564346],[126.76003543232487,34.52692175348302],[126.76081228700879,34.52688391996058],[126.76125873267455,34.52705185444407],[126.76144140020085,34.527048418348336],[126.76191659279452,34.52726930374058],[126.7624567026822,34.52733433711928],[126.76297757655666,34.52716679358933],[126.76333695141209,34.527233588555085],[126.7651722317364,34.527061117385976],[126.76586319378812,34.52713525651267],[126.76624413238429,34.526959023635236],[126.76890284602914,34.526658667276536],[126.76951011773077,34.52664873387868],[126.76955685543741,34.526526649606225],[126.77029816478498,34.52635775320636],[126.77069220057612,34.526128070408305],[126.77231018061,34.52546728160756],[126.77249424653886,34.525496707344814],[126.77257687389248,34.525639101379014],[126.77263106311207,34.52561817213803],[126.77273441410229,34.525885482232184],[126.7723448460533,34.52644707449399],[126.77229096421645,34.527703904829195],[126.7726770065562,34.528047808819544],[126.77336004647132,34.52782852915218],[126.77338422418707,34.52787744167777],[126.77328437497789,34.527914079310904],[126.7732287018503,34.5281870774008],[126.77305249325124,34.528257628802564],[126.77283758860808,34.52823506029383],[126.7726425973505,34.52856609382494],[126.77266472861307,34.52883756062646],[126.7722969075179,34.528926357787995],[126.77170269118724,34.52935643935163],[126.77140531082695,34.52857614714426],[126.77150093917605,34.5283280960191],[126.77142809965555,34.527996722590764],[126.77124859821531,34.527775124582206],[126.77058952455758,34.527778018579134],[126.77058586498887,34.52785692424348],[126.77040868642086,34.527935024115884],[126.76902732957139,34.52845467466922],[126.76778945209726,34.52923463308034],[126.76673363798737,34.52957207555473],[126.76561159582064,34.53014325205845],[126.76490325986893,34.5308471284224],[126.76449814436425,34.53148332262799],[126.76405619826284,34.53331221794979],[126.76404674649547,34.5335875008771],[126.76463766825616,34.53542336750444],[126.76498703663539,34.535944862951006],[126.76543971252349,34.536322307840315],[126.76570144886837,34.53638170461737],[126.76560404246115,34.53648985220299],[126.76556821399447,34.536884201063486],[126.76477257839096,34.53843031587991],[126.76433252170389,34.53965841929485],[126.76418834844368,34.540502179382315],[126.76468225524243,34.54081071040652],[126.76527353684693,34.54085980288717],[126.76548336672391,34.54081528946493],[126.7659707219928,34.54086848666485],[126.76623828953514,34.54069181436843],[126.76671122780125,34.540610719787594],[126.76714024425308,34.54087484625577],[126.76758533586194,34.54165955878535],[126.76819830657385,34.5419577115111],[126.76843535648145,34.541938440358294],[126.7685387873172,34.54160042490811],[126.76950245497363,34.54140019095379],[126.76957601143944,34.54160004550569],[126.76942370666858,34.54145409197075],[126.76859988405981,34.54163414721903],[126.76853624548293,34.541875540724085],[126.76882643621691,34.54244346244413],[126.76908936816189,34.54241357523478],[126.76881549397228,34.542519577543246],[126.76855529949219,34.54205135859928],[126.76826037548184,34.54201007770448],[126.76766987324034,34.54221254905023],[126.76737781873969,34.54258224872647],[126.76707387214363,34.542809595920765],[126.7664170874441,34.543010212204074],[126.76579467216574,34.54331841544312],[126.76468581344608,34.544614133270464],[126.76454339941736,34.544831186097355],[126.76438882558118,34.54542523476601],[126.76445775806123,34.545931222383686],[126.76471335607216,34.54616429939758],[126.76531119478562,34.54649733197406],[126.76598975883836,34.54794738705081],[126.76588954241312,34.548680932199254],[126.76520142052524,34.549320546884815],[126.76512734781019,34.54967859180549],[126.7662718432647,34.55068590940041],[126.76647474869962,34.55072970439911],[126.7665180650684,34.55105231482035],[126.76678188474764,34.55164769285501],[126.76742887886681,34.55247770231104],[126.7673569462267,34.55283648268156],[126.7679606887633,34.554103695807385],[126.76878462138737,34.55402276828576],[126.76885186832992,34.55467664013379],[126.76878893814737,34.55468360559681],[126.76868999167297,34.554086374007895],[126.76795866918664,34.55415191007856],[126.76792654659369,34.5549173801937],[126.76803329097305,34.5550537560667],[126.76796289307987,34.55506211307891],[126.76801584116976,34.555286105406324],[126.76790307710064,34.555428434807816],[126.76785761788933,34.55612732579635],[126.76745870123808,34.55663035982884],[126.7672691478039,34.55671961781709],[126.76708990612562,34.55701704716897],[126.76630355724888,34.56148522358511],[126.76613091118611,34.562066852190846],[126.76591351534412,34.562314257158306],[126.76571906108288,34.56240901097461],[126.76577969752559,34.56249887545004],[126.76540351774715,34.56312320781529],[126.7657923252396,34.56323357394629],[126.76582637289471,34.5633703881843],[126.76578041918872,34.56359151301702],[126.76548329483317,34.56373580071292],[126.76962034736128,34.589060541405836],[126.76988423239011,34.589616237204936],[126.77004552781924,34.58958232453471],[126.77016130788729,34.589720265469865],[126.77080128129934,34.58952852382174],[126.77081400312152,34.58959508290856],[126.76998784900714,34.589836276115975],[126.77028729768696,34.59054071235873],[126.76965561025868,34.59072858180346],[126.76957405996988,34.590840493517085],[126.76981688852099,34.59144809008063],[126.76994738574464,34.59150366781311],[126.76989876462497,34.59187117236564],[126.77003573290833,34.59197948729256],[126.77000916460379,34.59207923494613],[126.76960112637563,34.59220595075849],[126.76958722107982,34.59214969274505],[126.76891021539525,34.59244793417011],[126.7684352039975,34.59241353095406],[126.76840602267632,34.59251143432899],[126.76875229710501,34.59264465114514],[126.76895937297333,34.592453102894176],[126.76919780837918,34.592453556795455],[126.76936004246731,34.592848631368646],[126.76918277981086,34.59293429121756],[126.77100413279196,34.59620131145075],[126.77122118186126,34.59705879714314],[126.77141105422012,34.60307105216381],[126.77002200188122,34.615495962726],[126.7698193014932,34.61642819154263],[126.76940839391081,34.617116060389705],[126.77102518193969,34.61825632646171],[126.77193668827002,34.61766978742772],[126.77222034489309,34.61763972599742],[126.77251699726081,34.61773328372076],[126.77746441538095,34.62244326410567],[126.77816713301581,34.6223919625042],[126.77864789234135,34.6225443450004],[126.77962219404064,34.62364512804914],[126.77996582001653,34.62473629552814],[126.77987147773483,34.624841086952244],[126.78020492824463,34.62796575625386],[126.78007176846735,34.62811677488428],[126.7802763568734,34.62839728371944],[126.78024858712678,34.629726727112974],[126.78049872835925,34.63012784842864],[126.78054740835108,34.630535888169966],[126.78053582504788,34.630655874693986],[126.78040260880528,34.630711630292765],[126.78055475046527,34.631115115874714],[126.78090669561647,34.63151819637294],[126.7810923140697,34.6320193486684],[126.7812300164941,34.632136080181894],[126.78172024960531,34.63322325110102],[126.78170218588723,34.63346458560439],[126.78185295496684,34.63357785139248],[126.78208250347589,34.634119771666796],[126.78240194454287,34.63456115411738],[126.78238930468422,34.63474781764713],[126.782548298326,34.63482855569158],[126.78272898178842,34.635138836571194],[126.78268980251733,34.63574728581978],[126.78342975269464,34.63495841666019],[126.7844594001223,34.63415868243566],[126.78423280126299,34.63387666329298],[126.7840237586838,34.63389287723952],[126.78390394253884,34.63382342476854],[126.78331550099607,34.63279992643346],[126.78312949797386,34.6317569809253],[126.78324637840984,34.63175920021429],[126.78303162077393,34.63115743535847],[126.78308622444932,34.630845313491726],[126.78282579802955,34.63045993608382],[126.7827244522964,34.630481307651834],[126.78257035468233,34.63013388120171],[126.78229668869041,34.62897471743257],[126.7823285651971,34.628816870981844],[126.78246722534574,34.628920541135216],[126.78255251507179,34.62889980802517],[126.78245591163436,34.628254074674196],[126.78267510100265,34.627582405753934],[126.78321389826381,34.62659498710581],[126.7836440456899,34.624928458648455],[126.78332493639812,34.624546808279334],[126.78300629199437,34.6246298099709],[126.78300543781458,34.6248517860316],[126.78254154585193,34.6248042604643],[126.78238793001421,34.624638788364834],[126.78242027921314,34.62439161072396],[126.78229645407504,34.6242392356934],[126.78189486796812,34.62405767748116],[126.78144333480049,34.62310551988827],[126.78118138615065,34.62317625140712],[126.77997320098812,34.62143203775184],[126.77984862158053,34.6211975293153],[126.77979909308084,34.62072223127473],[126.7801328170708,34.620265333041544],[126.77948511005658,34.61937360433396],[126.77902649725007,34.61853225543755],[126.77878415870815,34.617731800933626],[126.77872252465583,34.61698686153741],[126.77964766468423,34.60391117477502],[126.77991642498188,34.60299760788428],[126.78221192578788,34.597885836384066],[126.7810663110182,34.597192092537064],[126.78022486950775,34.5967429894109],[126.78005051683228,34.59679294636466],[126.77939229416226,34.596369662292624],[126.77789874775887,34.5949547102432],[126.7782693924906,34.59465855457881],[126.7786651289062,34.59409659198046],[126.77887638728045,34.594013612547144],[126.77962322891086,34.59333108834363],[126.7803196773774,34.59252057236874],[126.78052720826064,34.59216755795649],[126.78048508070137,34.59179594557346],[126.78093244076116,34.59102516076018],[126.78106870830742,34.590602777203884],[126.78265504984049,34.58995829093328],[126.78287536797353,34.589702587365664],[126.78327510561833,34.589665775637485],[126.7832826731154,34.587812623587574],[126.78487667921475,34.587812658468174],[126.78488424387992,34.58946432077745],[126.78661380849819,34.58852549269302],[126.78692136502777,34.588511412259216],[126.78771596087883,34.58765116714503],[126.78797594960011,34.58751248519406],[126.78826782057354,34.58750567557022],[126.78832575767122,34.58708540937442],[126.78852879536768,34.587052437529],[126.7885992248095,34.586703713017485],[126.78930639553404,34.58609990802825],[126.78954055140925,34.58598434474997],[126.7890778994358,34.58538270545568],[126.78892459293935,34.58503756657271],[126.7889692930082,34.58446310391437],[126.78908804391922,34.58414956505336],[126.78947437843976,34.583988356238216],[126.79064690213872,34.583991414158284],[126.79067224851435,34.584067016460175],[126.79110327690992,34.583871561889715],[126.79148746687312,34.583832974630695],[126.79121287490489,34.5837786321227],[126.79099111981249,34.58382078889996],[126.7906862909428,34.58400495866536],[126.79055259484379,34.58391611641462],[126.78986602534462,34.58388934561218],[126.78972562715462,34.58376183717554],[126.78971923121541,34.58335268135575],[126.78998979769783,34.58213775015403],[126.79027025968273,34.581570807205054],[126.78890600090959,34.57855291123238],[126.78874942984173,34.57846345020199],[126.78678208154085,34.57828624556377],[126.78657768528208,34.57818597954247],[126.7864639119261,34.57800501372222],[126.78632857560353,34.577513283808194],[126.7867496750735,34.576999213246424],[126.78667189912427,34.5766449821819],[126.7867478177868,34.57626746681418],[126.78729780088328,34.57591976507077],[126.78813852198682,34.574851291463276],[126.78847526469293,34.573158435073175],[126.78914904835766,34.57238369426488],[126.78911479530765,34.5720925688137],[126.78952323979131,34.5715834510915],[126.79043261019136,34.57111416792903],[126.79120892609528,34.57096346120751],[126.79182148734225,34.57100975767771],[126.79220287857753,34.570890051590325],[126.79316397391067,34.5703616390396],[126.79347667508645,34.570735755876555],[126.79354729728172,34.57100942714796],[126.79376790280344,34.57100342037515],[126.79374146610786,34.57084958071678],[126.79340719576298,34.57045844468189],[126.79337931846797,34.57022702453832],[126.7935379055445,34.569410193194734],[126.7937621684899,34.5689788931043],[126.7938465805891,34.56896540687177],[126.79461304698239,34.56765009068908],[126.79590839872714,34.56723446927025],[126.79588290573867,34.56693065887486],[126.79449819425268,34.56593248028535],[126.79405761692229,34.56551117459482],[126.79404299885303,34.56533328646449],[126.79437307459759,34.564806837227785],[126.79339473161588,34.56352490257931],[126.79334378584541,34.56318070862551],[126.7930011129599,34.56298653966856],[126.79220890084082,34.56196615050247],[126.79163553492636,34.56162470133157],[126.79015634471396,34.56048776718709],[126.7899094644038,34.560461415116755],[126.78975240505133,34.56030232697865],[126.78975029684563,34.55992581821486],[126.78930417644567,34.559018590343314],[126.78924577876805,34.558522885206905],[126.78834082440046,34.558251616013045],[126.78836518767305,34.55820894821095],[126.78936354443229,34.55850949604083],[126.78958873788548,34.558722437883446],[126.79098527037323,34.558421580559575],[126.79192015844171,34.558339714630975],[126.79211387219222,34.55828139902603],[126.79232259774813,34.558084764526264],[126.79247038800588,34.55714016204871],[126.79220393842017,34.55598321860843],[126.79204991424206,34.555644922774704],[126.7913518709034,34.55477422867821],[126.79077002745979,34.55427675692346],[126.7897299586187,34.55433140664998],[126.78981969710746,34.55424835904597],[126.78976136994474,34.553660310114964],[126.78982237827562,34.55355074634344],[126.79002845651759,34.55326527384315],[126.79038774316584,34.55321565009899],[126.79056930555774,34.55306942398042],[126.79181011980756,34.54809846109839],[126.79533369400568,34.54772484219372],[126.79795399562484,34.54940773267919],[126.80055656956782,34.54982462272934],[126.80086050623018,34.549982974009964],[126.80120698503431,34.550788900981146],[126.80127402867585,34.55264284659655],[126.80147964793191,34.55266865820882],[126.80165515574258,34.55409287356224],[126.80241980984775,34.55504039348607],[126.80196862842995,34.55423928447525],[126.80212342741362,34.553349867274065],[126.80193461595522,34.552813497936874],[126.80171900819683,34.55261313337426],[126.80190041499064,34.552517047620604],[126.80202521398338,34.5516928818062],[126.80243608332675,34.55139896939064],[126.8023027636926,34.551255548821146],[126.8021333690355,34.55080670535121],[126.80176374794712,34.549450168585935],[126.80143974602377,34.54948193715992],[126.80043436517097,34.548816968504546],[126.80035060897117,34.548693477103136],[126.79900235145304,34.54813930494775],[126.79671388746748,34.5468877253502],[126.79618741371715,34.54675506450835],[126.79601646294762,34.54655756826057],[126.79590374626065,34.546531948901574],[126.79484597760407,34.54513493657283],[126.79313370955778,34.543482079301945],[126.79207707235565,34.54229791143864],[126.79167742799333,34.54155547229594],[126.79102420923913,34.540933163408745],[126.7909839807392,34.54060762756846],[126.79119519177922,34.539882337430996],[126.7910187676913,34.53927261196746],[126.79064559271569,34.53858778999941],[126.79076216692478,34.53853449938117],[126.79112907665497,34.53855731621469],[126.79114889710777,34.5384728849583],[126.79086534902764,34.5382967048779],[126.7907681350605,34.53723319280871],[126.79064645765241,34.53714659741871],[126.79057209541219,34.53725657156563],[126.79025020474647,34.537116372622876],[126.7903364846213,34.53694159635367],[126.79035070585415,34.5364688580567],[126.79010909809551,34.53640313961814],[126.79020616865502,34.536113456844184],[126.7900694411497,34.535982970519036],[126.7900882555079,34.53589595952565],[126.790188177606,34.53596937479261],[126.79018561913296,34.53585235376698],[126.79010967159883,34.53582254682294],[126.79019416767157,34.53556433877174],[126.78951221149433,34.53532236348385],[126.78952805547846,34.535277174475794],[126.79008272800596,34.53547099065234],[126.79016260792059,34.535211692886094],[126.7891746049318,34.53472108119111],[126.78940296956115,34.534744852275615],[126.79036644415137,34.53511189494638],[126.79122864433066,34.53404405985836],[126.79187068722068,34.53231472092551],[126.7916851276238,34.530374067180624],[126.79193202888057,34.5290935719388],[126.7918777638375,34.528754372806766],[126.79104915387701,34.527809891495274],[126.79104081443742,34.527123903413546],[126.79083444197101,34.52649745712831],[126.79069046383465,34.52630658894029],[126.78977385428752,34.5254522808154],[126.78911089527263,34.52552573414569],[126.7884219082352,34.52570442746746],[126.78839861668118,34.52563792319009],[126.78982505311193,34.525367399138005],[126.78994232821309,34.5251503445289],[126.78964904447679,34.52405412779354],[126.78988900885405,34.523420024014484],[126.79005499738807,34.52334999844846],[126.79001473700241,34.52267530379635],[126.79022403096361,34.522228629121024],[126.79017218750738,34.5203088442053],[126.78938507507128,34.51881890216427]],[[126.78938027604306,34.53477690225491],[126.78938027604303,34.534776902254904],[126.78938027604303,34.53477690225491],[126.78938027604306,34.53477690225491]],[[126.7684894873605,34.541880048919275],[126.76848948868732,34.541880050820524],[126.76848948959174,34.541880041101166],[126.7684894873605,34.541880048919275]]]]}}
