{"type":"Feature","bbox":[126.36057486400566,34.65783654612694,126.8592404549218,34.946344579153504],"properties":{"regionCode":"12800","version":"vworld-20260909-3f8952dfda77-p3","name":"전남광주통합특별시 영암군","attribution":"국토교통부/K-Geo플랫폼 · VWorld 법정구역정보, CC BY 2.0 KR; 두꺼비집 가공"},"geometry":{"type":"MultiPolygon","coordinates":[[[[126.42303662846673,34.734663616747305],[126.42360116065767,34.73500853093878],[126.42368137570078,34.734973405203185],[126.42384651401747,34.735141371223676],[126.42365914441818,34.73534998639441],[126.42367891876341,34.73551473015412],[126.42353383228213,34.73560017084826],[126.42343537915266,34.73549765610204],[126.42348950349226,34.735449228212914],[126.42282831555269,34.73480170471844],[126.42303662846673,34.734663616747305]]],[[[126.37589505406775,34.761803324263816],[126.37600227261888,34.76154793297501],[126.37615730746967,34.76141441230141],[126.37651594927584,34.76142111180306],[126.37673246350384,34.76161989857542],[126.37684820576146,34.76194516564166],[126.37710187760054,34.762155950600416],[126.37716837803444,34.76247899081933],[126.37688171591205,34.762661675842054],[126.37639466808452,34.76266297176],[126.37582470348896,34.76241857031524],[126.3757326613393,34.76225468359269],[126.37589505406775,34.761803324263816]]],[[[126.37806188421567,34.769294087952865],[126.37780758028407,34.769161245380936],[126.37746171119764,34.76878822546012],[126.37741224900255,34.768634518712744],[126.37754521121676,34.76840911246582],[126.37786907179338,34.76843309894045],[126.37796764642965,34.768297682535504],[126.37839098840527,34.76836634525071],[126.37966882354317,34.768963425174995],[126.37966581272065,34.76926878399776],[126.37959595518895,34.7693680943685],[126.37933539973383,34.769444977376786],[126.37853171623024,34.769418721369405],[126.37806188421567,34.769294087952865]]],[[[126.44819414544459,34.78570505164836],[126.44825924802772,34.785864326574526],[126.44818606720774,34.786041136214074],[126.44797969526131,34.78605691003034],[126.44799534734561,34.78586782339838],[126.44819414544459,34.78570505164836]]],[[[126.44796125330558,34.7869764442854],[126.44751025528537,34.78683570760642],[126.44747891474337,34.786720465858494],[126.44780035207252,34.78620534756947],[126.44823789181801,34.78618947096007],[126.44848214794513,34.78539206161582],[126.44864655882668,34.785151008970644],[126.44872160520868,34.785169260441265],[126.44875922162268,34.78505465654285],[126.44905919880672,34.785127769092504],[126.44926453900172,34.78425807877481],[126.44950002523424,34.783664504954274],[126.44945638904922,34.78361367572095],[126.44951227718366,34.78362444839297],[126.4496404499981,34.78300481506896],[126.44977262369775,34.78275546603262],[126.44963592613541,34.78267184600389],[126.44971730397283,34.78238533658211],[126.4471628070598,34.7818711330723],[126.44669077374697,34.78168679299121],[126.44553721438362,34.78165193837427],[126.44408401207755,34.78208663557273],[126.44332085053037,34.78071315319654],[126.44283395640949,34.78050555518886],[126.44269948461728,34.780062578144516],[126.44278704532567,34.77986035518532],[126.44278877072067,34.77941797602885],[126.43361487880294,34.77697346058146],[126.43272990575161,34.7770594876747],[126.43019369200661,34.77794544053291],[126.42957811989888,34.77807235170644],[126.42946834072013,34.77849149866275],[126.42906325916712,34.77840985752711],[126.42910347233396,34.77807137431384],[126.42658036806668,34.777450937402286],[126.42627275487249,34.77827106129063],[126.42543918705212,34.77805312934042],[126.42532769895556,34.77834420316926],[126.41398505763479,34.77535570133805],[126.41441672879803,34.77424542414577],[126.40507958403545,34.77178397939623],[126.40472444189844,34.772847652091706],[126.40395975366755,34.773044841012556],[126.40402135281857,34.77326631847859],[126.40227212822366,34.773621102341046],[126.40213596356975,34.773182381505606],[126.40226776433141,34.77289178957934],[126.40224360239272,34.77271469987204],[126.40046673377884,34.772887104907774],[126.40033015426177,34.7731594360487],[126.40010402490788,34.77324567359212],[126.40033009065907,34.77401037907733],[126.39949985859586,34.77417747021661],[126.39130327688608,34.7721987923247],[126.39181502839322,34.770776828305],[126.38948079255012,34.77015251357984],[126.38943960022297,34.77029895437595],[126.3891918582822,34.77028048328499],[126.38908696144712,34.77038220094056],[126.38881845760446,34.770366139563876],[126.38881880491573,34.77029252444801],[126.38836278579583,34.77029287031989],[126.38835513306697,34.770078029554696],[126.38808193676701,34.77006739636673],[126.3868478686464,34.76960464463046],[126.38387413359152,34.76878578948194],[126.38139221843447,34.768660087538166],[126.3810301062529,34.768381542151026],[126.3810138243247,34.76766557202981],[126.38068387401269,34.767525859937216],[126.38039951163952,34.76758830076381],[126.38010880380929,34.76727445763898],[126.38023206997552,34.76703124141402],[126.37930024911888,34.76648218624105],[126.37911675081043,34.766176712543306],[126.37927078777443,34.76589717508497],[126.37924800808948,34.76567076365749],[126.37888528809268,34.765001544451856],[126.37899726007173,34.76471613145655],[126.37980799270672,34.76408737674683],[126.38012042424425,34.76415636854386],[126.38122841143009,34.76397503149727],[126.38185847134832,34.76400104417757],[126.38202202449435,34.763858311093784],[126.38030484874726,34.76001099204661],[126.37978128414541,34.76011103444373],[126.37941190814419,34.76010327118403],[126.37913527506973,34.7599365600267],[126.37872637895839,34.75985227160789],[126.37857948259705,34.75946293793439],[126.37812599698279,34.758807088120534],[126.37812497340605,34.758556684291854],[126.37836915412471,34.75842773630754],[126.37720560390703,34.757627233750654],[126.37708344961104,34.75771621525976],[126.37665337110356,34.757629945432996],[126.37662090881494,34.757453357789956],[126.37680937461383,34.75731734854807],[126.37681529004453,34.757219280028174],[126.37679246073814,34.75705573093308],[126.37662903217544,34.75688818849994],[126.37352849886024,34.75478042749284],[126.37414318515393,34.75415791841699],[126.37780048250391,34.75662996692955],[126.37814276919238,34.75653433247638],[126.38022685160726,34.7579607490707],[126.38028576682629,34.75721515377798],[126.38016131053122,34.75727369554616],[126.37987911240073,34.75720355120719],[126.37982760319605,34.75712798571425],[126.37988289266895,34.756445415640506],[126.38008724263153,34.75635889684149],[126.38035533320044,34.756415105280425],[126.3805088541414,34.75265274002671],[126.3798270680006,34.752522093139234],[126.37960276868107,34.7523252009042],[126.37850073053887,34.752087991442146],[126.37825945186881,34.75210791287664],[126.37782875667237,34.75161917069449],[126.37460718151354,34.74941827910198],[126.37449708892605,34.74921442952751],[126.37430868891913,34.74912840382521],[126.37271743450691,34.749237345459846],[126.37217701953375,34.749044179676034],[126.37218348444807,34.74910468775589],[126.37121340177781,34.74934614975398],[126.37118224418822,34.749271500180285],[126.37028269665058,34.74954851619161],[126.37005285685954,34.74970632217369],[126.36895934942225,34.74999290811693],[126.36926764489289,34.75020099149178],[126.36926487314896,34.75029100853381],[126.3705960048937,34.750141770725705],[126.37043408572077,34.75030188521863],[126.36921112246793,34.75063755963807],[126.36911625979536,34.751007658052394],[126.36776437492574,34.75149690425267],[126.36657996411331,34.7515105036789],[126.36568125604101,34.7512110863837],[126.3656958708307,34.75110672697721],[126.36698119539071,34.75111909924004],[126.36722187307717,34.75053768154836],[126.36805715742413,34.750121896794084],[126.36614269987395,34.75059117970004],[126.36559448936295,34.749676106390204],[126.36568453016652,34.749640700873165],[126.36598670767997,34.75018293503977],[126.36887969622892,34.74907557636542],[126.36882936885964,34.74898733871301],[126.36926583776233,34.74881987206476],[126.36912781804004,34.74857379556369],[126.36868181994053,34.748745088227295],[126.3681541397934,34.74780624808783],[126.3652755264824,34.74910454227571],[126.36057486400566,34.74200925770214],[126.36766473367804,34.73907183257064],[126.36779177418435,34.73907997508509],[126.36895984284135,34.73853375930459],[126.36922434719575,34.73887306637301],[126.36935007517823,34.738867138646086],[126.37021086277596,34.73846408037635],[126.3700352880701,34.73808963118869],[126.38561449246825,34.731624778896574],[126.38661735040179,34.731419277280985],[126.38730769000234,34.73143889439288],[126.38807213944729,34.731615886577956],[126.38822762214949,34.73153414615721],[126.38867279457095,34.7315543871175],[126.38906075662824,34.73143218811414],[126.38948449093441,34.73083383173986],[126.38933023538122,34.73029771527188],[126.38915327567685,34.73029412181565],[126.38912934227119,34.730193495412784],[126.38852044331558,34.72999906625909],[126.38729755178298,34.729694814640474],[126.38729369514898,34.72964053091307],[126.38834232829109,34.72985628963751],[126.38874288228398,34.72975779866672],[126.38900486524307,34.72952844765159],[126.38789999566548,34.72584129862595],[126.38828116718511,34.72577768574316],[126.38913305878182,34.72871224308647],[126.38952322464058,34.72962254450888],[126.38960464023211,34.72968650213503],[126.39031750611595,34.72956604750421],[126.3903994318399,34.72981299141678],[126.38960701519154,34.72997171708814],[126.38971722593617,34.7306473291027],[126.38986191227862,34.73055893410274],[126.39014827757637,34.7305784444254],[126.39078893223405,34.73102865270795],[126.39071901954152,34.73142972274022],[126.39127769602862,34.73142533802139],[126.39145246361429,34.73258223168223],[126.39128503664787,34.73303398610259],[126.39089891178433,34.733440295509645],[126.39104670906336,34.73358569278084],[126.3911163028088,34.73351027881743],[126.39292480292237,34.733590148982245],[126.3943592363687,34.73393634030604],[126.39461679218331,34.734127178923],[126.39647003637084,34.73469210046091],[126.39669986852648,34.73463365908689],[126.39690439301997,34.734781782691606],[126.39697348801413,34.735129705358304],[126.39719459682217,34.735564826330865],[126.39709104915461,34.73600464645486],[126.39670322079502,34.73645789255943],[126.39620054858476,34.737353262159466],[126.39637521901594,34.737535230058384],[126.3950323894845,34.738787410902326],[126.39488550139127,34.73912806648489],[126.39494107488858,34.739704364270516],[126.39524193627827,34.74003259200918],[126.39572018895996,34.74024573625041],[126.39569302843077,34.740322508552644],[126.39606051220127,34.7403533805713],[126.39597427473859,34.740222265075026],[126.39635376842439,34.740145422584895],[126.39689896572355,34.73969539286205],[126.39721351397952,34.73971353928397],[126.39888033221209,34.739313543118335],[126.39902575642057,34.73940572824643],[126.3989731053636,34.73929988608461],[126.39977958343623,34.73942114422166],[126.39981680334151,34.739310320718154],[126.40045211237835,34.73909465111709],[126.40092312018254,34.739188898750626],[126.40165429435469,34.73875316800762],[126.40174308617264,34.73840171678179],[126.40179122496359,34.73870622121231],[126.4018878675667,34.73879768419447],[126.40183923752059,34.73845833828964],[126.40199759374677,34.73829917330369],[126.40189070658798,34.73817481297676],[126.40215352082016,34.73821171151534],[126.40212823771974,34.73826530153607],[126.40247149031471,34.738414909517076],[126.40303620790154,34.73844088701076],[126.40311458172556,34.738544698599064],[126.40420452486359,34.738541880655625],[126.40453166996306,34.73861333029476],[126.40452308595268,34.73854524490567],[126.40487270519516,34.73861035270146],[126.40486862683451,34.73847901718072],[126.40465963451985,34.73841750954915],[126.40383623339602,34.738428255767964],[126.40241056717105,34.737161006205575],[126.40337796088559,34.736470960430694],[126.40365493003308,34.736159443937495],[126.40379712667959,34.73579128871073],[126.40390319323258,34.734829654412664],[126.40461820152622,34.734687943914906],[126.40384850847268,34.73235432068931],[126.40376028277274,34.731475022156566],[126.40362588894949,34.73138223957429],[126.40246489241491,34.73143233353556],[126.40125772036822,34.73175278941238],[126.40017805185357,34.73230164652449],[126.39935282491923,34.732979029471096],[126.39899173448194,34.73365744092685],[126.39892975728512,34.734358874423485],[126.39916201504239,34.73498920017144],[126.39971759726501,34.73552800831536],[126.39817013876866,34.73461327601214],[126.39768266960714,34.734469882047364],[126.39734305740555,34.734264572140674],[126.39516853245738,34.73365614124177],[126.39575351078024,34.73378272320884],[126.39635837712954,34.73378753187675],[126.39774694112852,34.73343935943635],[126.39845312192963,34.73314476386424],[126.39911462445048,34.73274700334365],[126.39906713658712,34.732700706982875],[126.39962937154809,34.73227432902445],[126.400451610267,34.73175206037379],[126.40122223809314,34.73142008790428],[126.40199403051645,34.73119817726939],[126.40347245424742,34.7310376922729],[126.40598815282459,34.73104045952908],[126.40943306662756,34.731188673019865],[126.40956750632799,34.730709149826005],[126.40997889321946,34.73080372170467],[126.41001659292971,34.73069204083248],[126.41017290707195,34.730727954235256],[126.41037882017235,34.73040697288556],[126.41053759245028,34.73037357998221],[126.41151461534785,34.73110448392023],[126.41147115062124,34.73130555634681],[126.41163443245217,34.73140604195377],[126.41157870017108,34.73175091865156],[126.41178414078779,34.732157183180526],[126.4122265722918,34.732432718830346],[126.41277738659399,34.732483246074324],[126.41328218144467,34.73229458719685],[126.41385560573165,34.73166502129637],[126.41384371892408,34.73118469730152],[126.41553840124045,34.730561968479776],[126.4238118245787,34.728048796042486],[126.42445516326559,34.72885923073542],[126.42546891816993,34.73043291841196],[126.42241802466619,34.732511240935786],[126.42187301513616,34.732038137356234],[126.42206711160712,34.732495393501985],[126.42203667388182,34.73303313314028],[126.42184138251514,34.73323165728286],[126.42144577787651,34.733301526016305],[126.42075720600477,34.73324257522063],[126.42096027105278,34.7334489723968],[126.42090837181892,34.73362576033737],[126.4198603579328,34.734409127211734],[126.41969221309849,34.73442382845977],[126.41956180475101,34.734335589424425],[126.42046291088053,34.73605615816385],[126.41942392707976,34.73690149009799],[126.41945285011458,34.737043508784296],[126.42132585754723,34.738646168711696],[126.4237690947618,34.73650395895621],[126.42418495508134,34.736322864729864],[126.42554022884933,34.735990812231606],[126.42607475810485,34.735778813548805],[126.42649421283934,34.7354716222782],[126.42682656087356,34.734828796443736],[126.42726483829777,34.734388103482615],[126.42790498621632,34.73267073943814],[126.42732795585631,34.732184428285606],[126.42642355866654,34.731025304510176],[126.42500015881146,34.72869977452862],[126.42402141780715,34.72732504394016],[126.42332019694078,34.72661665040289],[126.42244323549802,34.72589075081866],[126.42848344288441,34.7241404502309],[126.42913229904596,34.724040027765675],[126.42977082346368,34.72382255119539],[126.42975315720795,34.72361343284709],[126.43016851711268,34.72379376883836],[126.432113461131,34.723247355781524],[126.43299984241942,34.722752044678],[126.4330549807655,34.72281503961498],[126.43420786450598,34.722698731926684],[126.43467818095606,34.722729675400736],[126.43493377701252,34.72264505044733],[126.43491976305752,34.722428386945424],[126.4350273133184,34.72234460571066],[126.43567900830082,34.72244931195864],[126.43586312721868,34.7224095134563],[126.43627757528958,34.72198688433333],[126.4380671491487,34.72157756969799],[126.43853837590105,34.721763453844105],[126.43896975853701,34.721739485619096],[126.43900104804588,34.72184257042417],[126.43951956565722,34.72183252351815],[126.44032533913207,34.72167201017668],[126.44119072399418,34.72189899990476],[126.4422163580154,34.72188595401228],[126.4423358037508,34.721868122550184],[126.44283440366151,34.72142692753464],[126.4438091565634,34.72136523850519],[126.44506116106007,34.721163377641375],[126.44599857415815,34.72129574425141],[126.4465508894788,34.72125923002613],[126.44682406861924,34.7213199665401],[126.44840542501464,34.721183750032644],[126.4490177650186,34.721016982635824],[126.44948917961263,34.720801619084796],[126.45054271064424,34.72084181228285],[126.45190691727383,34.720557738349385],[126.45406050806386,34.719115214319245],[126.45427575389138,34.71915376971048],[126.45474660796886,34.71898507591781],[126.45495249862068,34.719050089460985],[126.45510872185415,34.718916931317224],[126.45600134163595,34.71874056813426],[126.45628332039242,34.718772748288586],[126.45722179854663,34.718676265570025],[126.45937653157957,34.71827349537779],[126.45959384339602,34.71831169000855],[126.46066932170369,34.71801513687454],[126.46079997737883,34.71806655596469],[126.4627360167416,34.71800032317677],[126.46314967953795,34.717927163364735],[126.46404913912426,34.717936361783885],[126.46439735989757,34.71804137849307],[126.46522638978163,34.71807026900447],[126.46607815351248,34.71824753508798],[126.4668090266453,34.718567498298995],[126.46999200256168,34.71731062900832],[126.46285938064236,34.70945300902193],[126.46594484094672,34.708683914397724],[126.49207924281028,34.690886105146795],[126.52074802605584,34.669700936149184],[126.54391495732477,34.65783654612694],[126.54976924437791,34.664007308009666],[126.55414650444503,34.66117441966912],[126.55757722713417,34.66476531790437],[126.55791445809784,34.66528391416084],[126.55981251572265,34.665379250625186],[126.56281296393769,34.66691087316246],[126.56281317103233,34.66756720564275],[126.56240299792432,34.668238097294676],[126.56250546627338,34.66841829914658],[126.56251044741964,34.668804024895515],[126.5629303266255,34.6691551867726],[126.56321100444076,34.67035351340244],[126.56343282261764,34.67053890282941],[126.56359436637993,34.67081236929659],[126.56357777224555,34.67132025865936],[126.56433142519265,34.67231180015745],[126.56492259801396,34.67252977163806],[126.56560511807608,34.67322099559834],[126.56593287077405,34.67389464232343],[126.56702386482584,34.67469732567571],[126.56723167742143,34.67531854763195],[126.56716409307764,34.676039855416455],[126.56812947286815,34.676249228136356],[126.56857550720866,34.67622400444725],[126.5688272829119,34.67638208726422],[126.56964588650966,34.67807039604648],[126.57002450753134,34.67851023078377],[126.5710301976921,34.67816497313541],[126.5716440384434,34.67809147377106],[126.57336299782604,34.67873369686438],[126.57508196270106,34.67874126204297],[126.57591919022674,34.680051918061224],[126.57681027858806,34.68051061027512],[126.57801045509935,34.68090348479124],[126.57897255828298,34.67997395513463],[126.5802940916826,34.679762656187044],[126.5828777849833,34.67969231966797],[126.58541144197088,34.67929063091661],[126.58755456344441,34.6794708625134],[126.58951789709398,34.68045180034491],[126.59330851267146,34.680482226298906],[126.59393969135877,34.68093875138953],[126.5962299438991,34.682981155277254],[126.59804434073686,34.68305622130472],[126.59993558848619,34.683282077244556],[126.60163658687948,34.68360630079312],[126.60245986952577,34.68337609879651],[126.60369110292912,34.68335583802896],[126.60434578544029,34.683360568418344],[126.60522310809118,34.683590571282046],[126.6061967711538,34.68319103261215],[126.60700405507136,34.68265614084519],[126.60797808323017,34.681088621580805],[126.60829891059001,34.680792296784766],[126.60910568516212,34.68062831373569],[126.61019059132462,34.680858606228256],[126.61310898078219,34.68182786674445],[126.61413898447,34.681909999462],[126.61451934307436,34.68176793583182],[126.6161963459074,34.68148292702422],[126.61873594696274,34.68039540483806],[126.62164243248515,34.679487444765755],[126.62216063655798,34.6791373694227],[126.62288642583523,34.67881731383629],[126.62313167896393,34.67916254340222],[126.62448631618189,34.679945862945885],[126.62486258388152,34.680031551846206],[126.6254753835434,34.67977320353056],[126.62569022871902,34.67977034135168],[126.62592912294107,34.67959355194989],[126.6263905294716,34.679467574720974],[126.62652173485634,34.67950346715724],[126.62695347030562,34.67933639999726],[126.62706370595322,34.67914860336869],[126.62791440861206,34.6784145188562],[126.6292584356914,34.67740836346776],[126.6307848620385,34.6774422828195],[126.63188648917462,34.67684068432161],[126.63208040274895,34.676841767735155],[126.63237881165425,34.67647959758078],[126.63309591663085,34.67597267135802],[126.63328566030337,34.675485405023224],[126.63423182367362,34.67495812430014],[126.63482374531955,34.674274718176235],[126.63541283923583,34.674346077788755],[126.63658705355576,34.67387026707414],[126.63685323763235,34.67401773343931],[126.63705392516273,34.67386077413768],[126.63813138138528,34.673933416938176],[126.63860575087806,34.67416124832557],[126.63912266549552,34.674263780681464],[126.6390203760384,34.674436116684284],[126.63919090251377,34.675003436538425],[126.63937495378495,34.67537688276604],[126.63970553158686,34.675668229500985],[126.63957946156289,34.67728923058589],[126.63979261756569,34.67754540659388],[126.6398358947495,34.677966750430215],[126.64022681529289,34.67883104575255],[126.64118526286167,34.67998892480139],[126.64234642059431,34.68076675104304],[126.64301342204917,34.68185420317635],[126.64313690044416,34.682665663239234],[126.64448811938507,34.6836926387902],[126.64615548953425,34.68450900312661],[126.64710991982591,34.68511007086437],[126.64740313213709,34.686314353106255],[126.64751222097496,34.6884544575733],[126.64907864722751,34.689134933244574],[126.65022815512911,34.6898686429595],[126.65044264764212,34.68987521013167],[126.65090856752155,34.69004779329578],[126.65185691972712,34.69003329963386],[126.65227352081534,34.689913541344254],[126.65292642367531,34.689871853252065],[126.65359527511383,34.69004812509994],[126.6546877621,34.68974723431003],[126.65607300931539,34.68965350724839],[126.65742570985371,34.68946496051983],[126.65810306659681,34.69022602703246],[126.66038657480641,34.691087351875844],[126.66180614836104,34.69105007555527],[126.66305818341057,34.69125586302086],[126.66350617020146,34.69121720902042],[126.66373799851225,34.69144127713263],[126.66440802346726,34.69161956622269],[126.66494751032046,34.691537576296305],[126.66532283941078,34.69178709688763],[126.6657121144054,34.69191590069164],[126.66597808738415,34.69181817099887],[126.66662240371224,34.691856603195426],[126.66686515056887,34.691707607180575],[126.66749364161261,34.6916401467455],[126.6685592018533,34.69190820463655],[126.66923025986591,34.69153094370832],[126.66967525806557,34.691015552532136],[126.67020742045115,34.69094266875488],[126.67097625081671,34.691808332825936],[126.67120988632735,34.69223963686262],[126.67173939655643,34.6925400528149],[126.67198956875248,34.69292538262676],[126.67225698848769,34.69307318959924],[126.67243860454577,34.69336211587966],[126.6723331726629,34.69367802186914],[126.67207107956298,34.69393177538465],[126.67191390612997,34.696733761018166],[126.67209378146408,34.69729024186324],[126.6729580420591,34.698762291027634],[126.67327628087169,34.69890376045169],[126.67327623673852,34.699050430028876],[126.67349449954128,34.69923106668906],[126.67354178606533,34.699852360890375],[126.67488863783032,34.70069620633695],[126.67526752658337,34.70193430831428],[126.67526924798551,34.70220493646493],[126.67512043849332,34.702345997563064],[126.674849556546,34.70242603899218],[126.67471249162817,34.702869457411595],[126.67466469620355,34.70396595740601],[126.67447450518836,34.70447010567353],[126.67430349320968,34.70461562223771],[126.67346126704678,34.704652786593314],[126.67307994461584,34.70493251513848],[126.67244924096833,34.705192729920306],[126.67221546435995,34.7055524670568],[126.67209719057536,34.70620713495161],[126.67210458938744,34.706753016832096],[126.67278100620271,34.707434691267196],[126.67291615513027,34.707983134938786],[126.67368438904771,34.70849323276696],[126.67451776660877,34.70941116605577],[126.67470932739832,34.709458283014605],[126.67512428497835,34.70934275155589],[126.67555114780527,34.7093420278625],[126.67635391557143,34.70986322549696],[126.67714681851801,34.71023234969378],[126.677372895351,34.71012635861397],[126.67831309012907,34.71031667427428],[126.67865466359306,34.71047557071702],[126.67884156618815,34.71075095252038],[126.67901494303818,34.71158674474262],[126.67929903864616,34.711723231312384],[126.67947125809313,34.71200577560674],[126.68069069685133,34.71248596665259],[126.6815331943975,34.71300494504747],[126.68138368859478,34.71335848444833],[126.6814087934255,34.71379563794914],[126.6806653802153,34.71516717051681],[126.68020178423856,34.71573026249159],[126.6807071042693,34.716637389960425],[126.68115096623964,34.717014051044906],[126.68066669074085,34.717559125032466],[126.68049483233223,34.718219067347846],[126.68017267208324,34.71860924327687],[126.68019651781913,34.71898957712296],[126.67995144713463,34.719340852232946],[126.68001672154251,34.71990482344852],[126.67987130128856,34.72012586332442],[126.67990524778074,34.72036994788769],[126.67976533099605,34.720700343757294],[126.67859769857091,34.720804686283955],[126.67701673610121,34.72134782619728],[126.67551417584507,34.72168145916889],[126.6746564868564,34.72223630819057],[126.67437798576186,34.722199594515104],[126.67411500748733,34.72227421052753],[126.67249145396781,34.72286955817746],[126.67176471970646,34.722841777521566],[126.67127193537723,34.7226743846719],[126.66976742804871,34.72257617290155],[126.6692626446681,34.72272433339668],[126.66862851456456,34.72267486407162],[126.66817832428903,34.72315568280258],[126.6669457677909,34.722818935391274],[126.66542883541288,34.722270920456545],[126.66504720362195,34.7230558824627],[126.6650101175189,34.72344383877754],[126.66455535690625,34.72360519733242],[126.66416060447877,34.72405528991596],[126.66389315332918,34.72459820994541],[126.6635217718528,34.72497747793492],[126.66344046935163,34.72561542620933],[126.66370022203077,34.72593892467697],[126.66368067349478,34.72609866405857],[126.66320298281465,34.72719736069213],[126.66306361529455,34.72771141927768],[126.66241088921664,34.728124858730546],[126.66161443530372,34.72814713126137],[126.66128025796291,34.728233365362975],[126.66017612431699,34.72883823568584],[126.65945430889604,34.72938077328366],[126.65887421855663,34.729438402483524],[126.65861563422673,34.729788595140406],[126.65791034757304,34.73015555673824],[126.65682098650674,34.730543197525385],[126.65648097776035,34.731540784018684],[126.65672103379217,34.73180675818383],[126.65684586678566,34.73320125364227],[126.65720729623456,34.733479459670455],[126.65769170575358,34.73415120765238],[126.65880230185276,34.73404189411917],[126.65913465490159,34.73410252893522],[126.65982257078295,34.73446927940352],[126.66094696953351,34.736234480367386],[126.66210857610618,34.73682394569518],[126.66278312237682,34.736641033312495],[126.66336043929232,34.736847158181355],[126.66382287506673,34.737107290082186],[126.6645651202844,34.7372202996633],[126.66446265326947,34.73774740528376],[126.6646289475096,34.738115722294324],[126.66484939059099,34.73904488475886],[126.66486069441767,34.73969075032998],[126.66524752141008,34.739853576802076],[126.6663444699696,34.73961689586015],[126.6671555035842,34.73960764916932],[126.66787516589855,34.73987705268106],[126.66922949125157,34.74020911982033],[126.6695604374417,34.740632468426206],[126.67012452748094,34.74093531876596],[126.67079352744221,34.741504574997975],[126.67098306649491,34.742118680057445],[126.67202583524765,34.742918730610434],[126.67221888010708,34.74318893671848],[126.67228355328304,34.74434723551807],[126.67271905338045,34.74465406200405],[126.67352107544687,34.74480143202826],[126.67432184591105,34.74563280209825],[126.67466166407446,34.745773072337656],[126.67508607407508,34.74627433096652],[126.67523882680563,34.74659777873779],[126.67589048519852,34.74694801657646],[126.67632454554233,34.74734210987336],[126.67646519592955,34.74799132062674],[126.67628281215372,34.748893109825154],[126.67666160648237,34.74902386946356],[126.67697507267113,34.74927195277503],[126.67760833251286,34.74949424022285],[126.67810989571848,34.74982383030511],[126.67843556120114,34.749936216863226],[126.67931631384054,34.75150588556253],[126.6793455972046,34.75234340008371],[126.67961006616441,34.752521704012025],[126.67969066201839,34.75268895724521],[126.68038396921258,34.75332600139269],[126.68054628588979,34.75385097762778],[126.68335522001821,34.75318769680915],[126.68445176489837,34.75253498702348],[126.68542988943659,34.752442727414575],[126.68564025463304,34.75307479202582],[126.68648544257894,34.75334646611047],[126.68687776589589,34.75417894068033],[126.6895283731919,34.754259862497506],[126.69089986112787,34.75457459695707],[126.69232814723584,34.75560892960653],[126.69372398793905,34.75677845606636],[126.69396790627417,34.75966688220818],[126.69483889179028,34.760348578499475],[126.69859202687087,34.76137346111101],[126.69873539594523,34.76180168049435],[126.69947789095126,34.76233403015998],[126.7008723319061,34.763894483723895],[126.70243453493104,34.76592866285236],[126.70401905776464,34.76660357881917],[126.70577462087533,34.76671835756356],[126.70718408313911,34.76650699281268],[126.7092230643606,34.765577087470696],[126.70917200421178,34.76541743356591],[126.70943532635947,34.7642762683239],[126.70936851995242,34.763888979886154],[126.70966027648764,34.76342800445292],[126.70993441273205,34.76328360615659],[126.71120853181881,34.76299595377526],[126.71233420656112,34.762061363634096],[126.71294940152647,34.76096325586631],[126.7133045663375,34.76059638455314],[126.71406531229813,34.76022604395517],[126.7144177664301,34.76015725922065],[126.71554541819536,34.76013897184063],[126.71602141339129,34.760400577768884],[126.7163946508353,34.76075171278535],[126.71725538817361,34.761175899675],[126.71844626170423,34.76066793383976],[126.7192070119042,34.760581946940576],[126.71945339586495,34.760255900742074],[126.7202025648932,34.759956877570424],[126.72028314898502,34.75953839464911],[126.720805867618,34.759110060231954],[126.72178716035332,34.75892851084944],[126.72214042305237,34.75912536022387],[126.72283103520353,34.759178917370804],[126.72310303612618,34.75904467929951],[126.72392300879258,34.75896533342378],[126.72472748245853,34.75920648835693],[126.72595730277096,34.75920638284803],[126.7265072100115,34.75949266046919],[126.7271418642161,34.76005750005271],[126.72775129202368,34.76027929298971],[126.7286153130175,34.760896966957525],[126.72940440532749,34.76055926099412],[126.73000673221023,34.76047401544159],[126.73074242246528,34.760057055921706],[126.7311538030543,34.75992352422988],[126.73152003021892,34.760038049382686],[126.73192247453316,34.76001221383773],[126.73265040657522,34.759710029204456],[126.73283834729413,34.75918405612188],[126.73359306098952,34.75838464359361],[126.73400270055424,34.7576759261536],[126.73464406641575,34.756990746119136],[126.73576869535384,34.75682061132932],[126.73618994450271,34.75662300270691],[126.73646209908281,34.756342381890356],[126.73695761443454,34.75643558315466],[126.73788037403574,34.75628887767894],[126.73828717664986,34.75614637884225],[126.73924412820864,34.75679417762286],[126.73988980756927,34.75700790233221],[126.74051029113875,34.7567291467568],[126.7406898560838,34.756785878536],[126.74360329499484,34.75683673702967],[126.744008719021,34.7571151031002],[126.74473522066572,34.75745398065305],[126.74489850248406,34.757631686359076],[126.7467048199201,34.75761511487634],[126.74687879172953,34.758012324898566],[126.74757738937357,34.75899930482842],[126.74780267920596,34.75909003250506],[126.74825307412294,34.759826331714635],[126.7485642933626,34.76016434936883],[126.74944535792922,34.760443070973075],[126.74832179367104,34.76153506266756],[126.74858972250362,34.76207359011248],[126.74872256978529,34.763441224456244],[126.74916358762403,34.763816133996905],[126.74967979010457,34.76460197905624],[126.75087145902603,34.76525318171348],[126.75138686976779,34.765103543342555],[126.75227878882761,34.76539300244121],[126.75303176494272,34.765494957788185],[126.75312135373906,34.76559807252861],[126.75338958020238,34.765617269342954],[126.75439407580208,34.76547759151096],[126.75510404223137,34.76646501918389],[126.75560805345445,34.76763307519572],[126.7559492244772,34.76794323549681],[126.75568837495139,34.76843980084959],[126.75560313244827,34.76887296352233],[126.75570342410178,34.76935881846367],[126.7566873272353,34.76982952398831],[126.75688475402117,34.769828739789325],[126.75748976001059,34.770312955623766],[126.75788405340445,34.7705289113481],[126.7583249299089,34.77035306197775],[126.75909033824392,34.77018489731774],[126.76026957766788,34.77041149119026],[126.76197805215897,34.770569418526826],[126.76217382770825,34.771323174459695],[126.76256351636589,34.771793501774255],[126.76273117196092,34.77215215883688],[126.76278782008427,34.77276833812139],[126.76292243704484,34.772753458201834],[126.76278815863623,34.77282529884124],[126.76278305728076,34.773056725686295],[126.7629081342378,34.773460802118315],[126.7627206084121,34.77351803467976],[126.76270357166202,34.77366804084387],[126.76301027905232,34.774188917133735],[126.76264985540516,34.77460550017685],[126.76239030845265,34.77545248664348],[126.76236504242243,34.77633055350457],[126.7626114830557,34.77713310161871],[126.7636228257997,34.77775360068427],[126.76409116585124,34.778155929797094],[126.7643564794172,34.77857080616684],[126.76426644532948,34.7790450240805],[126.76415406749494,34.77901585189008],[126.76403055530801,34.77941456547622],[126.7641287862637,34.779939638037895],[126.76427668888796,34.77993992621622],[126.76445004654187,34.78030334200823],[126.76464306043033,34.78104521593471],[126.76469456650533,34.78098621076193],[126.76500976881879,34.781001723516546],[126.7652165210096,34.781077085922355],[126.76532309061373,34.7811596633129],[126.7653032821292,34.78128274823605],[126.76555735774542,34.781467605736665],[126.7657129570504,34.781474676661745],[126.76579705878419,34.781621029826326],[126.76600633304928,34.78155162061375],[126.7660659180174,34.781429027128354],[126.76613592391969,34.78165718263863],[126.76607585019802,34.78179797463784],[126.76616212757594,34.78189025628053],[126.76652990288305,34.78208427336803],[126.76655628586347,34.78226221714307],[126.76683091605403,34.78239370319542],[126.76696079279826,34.782615312147364],[126.76713737358838,34.782505590171304],[126.76708364529527,34.78277119479409],[126.76694832213087,34.78267878330758],[126.76684439333278,34.782719570121564],[126.76667883790748,34.782647147393234],[126.76662819834382,34.78270508238589],[126.7669166294999,34.78325721882757],[126.76683774169801,34.78332871074407],[126.76695673203949,34.783444329185684],[126.76726798709073,34.783619089244084],[126.76804280556526,34.783874900229726],[126.76855649296314,34.78433777424538],[126.76880202219091,34.78446327791096],[126.76954935432636,34.784605503485956],[126.76951641501974,34.784663491402256],[126.76917700579409,34.78460214359053],[126.76949603598904,34.78473860294237],[126.76970987342392,34.784945775030494],[126.76977883572147,34.7848210072172],[126.77005159137832,34.78481872252036],[126.77044542296419,34.78444894670765],[126.77137154861747,34.78475142795754],[126.77276331827008,34.78471977846069],[126.77288615805116,34.784905167293424],[126.77290698898265,34.78513656170985],[126.77402406096905,34.785386738840195],[126.77438996305156,34.78555904978663],[126.77479412455699,34.7855132270972],[126.77491288366876,34.78530695363306],[126.77508836756486,34.785257080612254],[126.77571592934778,34.785238171374466],[126.776729110218,34.78565637879791],[126.77727280184814,34.785700378215054],[126.77746337737184,34.78588766289343],[126.77776311234582,34.78592583869197],[126.77799723100658,34.78607190001941],[126.77851866428568,34.785935264999864],[126.77806258527653,34.78607754557419],[126.77839167000084,34.78627739607189],[126.78036446852202,34.78630741459138],[126.78147583184864,34.786442376197584],[126.78192072700305,34.78640428343622],[126.78274868599804,34.78622474375089],[126.78283688409357,34.786045017203165],[126.78260319231129,34.78313566352942],[126.78339657970082,34.78220108257025],[126.78386379873359,34.781907148811925],[126.78410844199365,34.78063919573316],[126.78543086064613,34.78039416639568],[126.7859859984724,34.78049104184814],[126.78673579426386,34.780907203615605],[126.78731968247016,34.78163798520738],[126.78776937255049,34.78115284384267],[126.78810615515079,34.78103761239314],[126.78977668099292,34.78102221126794],[126.7923678479889,34.78137640772018],[126.79353974170634,34.78128212588216],[126.79405181330714,34.78134982059544],[126.7948120865718,34.78116742410552],[126.79538863028863,34.78130025923697],[126.79532546185085,34.781897218427495],[126.7955153899451,34.78282855068674],[126.7955515302336,34.78390649803916],[126.79492877713993,34.78499603923664],[126.79536416776435,34.78609442166079],[126.79512197975076,34.78675469849485],[126.79546275448331,34.78711761445375],[126.79522873065326,34.78821947782799],[126.79524384022488,34.78851858148983],[126.79429173618723,34.79047464212921],[126.7939338965868,34.790748772683294],[126.79362724188204,34.79112885983826],[126.79351342332669,34.791401873024505],[126.79342975013094,34.79293716895778],[126.79309847126791,34.79340238648856],[126.79293413223726,34.7941532204373],[126.79407786002061,34.79483229274581],[126.79446558998353,34.795665194331015],[126.7945327993838,34.79622218855714],[126.79483887399975,34.79704891955737],[126.79567946656753,34.79768349113888],[126.79742337196683,34.80016336437546],[126.79910011000389,34.80132301844919],[126.799168145575,34.80339082103962],[126.79893598244384,34.80344213964566],[126.80089824541464,34.80363123113753],[126.8010417360278,34.803891748311145],[126.80103914474135,34.804154215301665],[126.80084905062036,34.804748523299615],[126.7999502855955,34.80630110659977],[126.79965650681427,34.80711636448828],[126.79957969515212,34.80853058650773],[126.80010534067932,34.8087458652881],[126.80029378522532,34.80974087696571],[126.800520902292,34.8103257318542],[126.80106928943628,34.81071458237105],[126.80112922305364,34.810841779059096],[126.80105654147854,34.81123126445687],[126.80082551542154,34.81158952564801],[126.8010684627303,34.81214449684931],[126.80111985096909,34.81254708548929],[126.801026583745,34.813172975184884],[126.8014933023531,34.81403804512646],[126.8020638019506,34.81441098146497],[126.80236835812974,34.81444179421986],[126.80279738040726,34.815520493160385],[126.8032075811054,34.815937601536675],[126.80332003880284,34.816526365240875],[126.80363119545623,34.81707796253085],[126.80386945665919,34.817224998911634],[126.80411901987071,34.817991200194754],[126.80496228069885,34.81834851071933],[126.80421254067721,34.82028344015038],[126.80428687313628,34.82081327914639],[126.80490659362083,34.8213903141474],[126.80565522566096,34.82238395648432],[126.80553096303397,34.82315623166154],[126.80613739859092,34.824940965047695],[126.80639632724208,34.82626018612598],[126.80715938150166,34.82734830857843],[126.80728381128225,34.82820145890449],[126.80706355333648,34.82902987425603],[126.80682218709211,34.82930306392521],[126.80743569752865,34.82963063953903],[126.80777216200144,34.829467237567776],[126.8088459369346,34.82935625759216],[126.80957699199432,34.828868636299],[126.81076384360729,34.82932197805744],[126.81166108281163,34.829528521772794],[126.81220828136819,34.82940180756819],[126.81302905908441,34.82953601997402],[126.81358403063207,34.82954294445363],[126.81481561028455,34.829828132166824],[126.81526623253612,34.829625195755646],[126.8161182709601,34.830647667563056],[126.81698390388196,34.8309903797815],[126.81785987377506,34.830796469899425],[126.8181928295142,34.83083801260186],[126.81855710125048,34.83106925640759],[126.8192267398203,34.83118885845481],[126.81995068631933,34.83189805457654],[126.82051880302991,34.83262506980021],[126.82105843623519,34.833038226147536],[126.82122069752573,34.83330081950334],[126.82128298858724,34.83412914645176],[126.82189323201348,34.834584462930245],[126.82195627551361,34.83505945922082],[126.82241601089972,34.83571737519548],[126.8230451566383,34.83623168327705],[126.82392435694459,34.83605970184844],[126.82499584939168,34.83560872994779],[126.82541264535948,34.83569216340881],[126.8264828310548,34.835692706406775],[126.82672029673115,34.835852072840794],[126.82737669903686,34.83596833892214],[126.82766333262711,34.836116353087775],[126.82851434552394,34.835878153382495],[126.8288438365407,34.83612553304873],[126.82947507446491,34.83600131234499],[126.8296385549893,34.8360399429816],[126.83093009074793,34.83588355482399],[126.8314459991344,34.83590742469586],[126.83163383512948,34.836064584892576],[126.83181335801801,34.83685863626605],[126.83221230549766,34.837063918028775],[126.83329926629429,34.837157133531775],[126.83450862582501,34.8378002358004],[126.83517892553857,34.837966804075606],[126.83538550759395,34.838273210999304],[126.83632340212998,34.83856672162443],[126.83693574243763,34.83858108111278],[126.83808615409649,34.839297694450146],[126.83859219243419,34.83908238813336],[126.83890385331247,34.83906158589793],[126.83996270438355,34.83935760968215],[126.84073558251437,34.839679793114854],[126.84158136788318,34.839589099639205],[126.84260062202185,34.83937438677344],[126.84349554489644,34.839747830401976],[126.84401502812803,34.84019426443624],[126.84463896687383,34.840550988271694],[126.84517310074065,34.84141405460362],[126.84585689538487,34.84205337500719],[126.84591446727885,34.84232807833614],[126.84652651420984,34.84267828711254],[126.84666301158491,34.84286239161354],[126.84830425875968,34.843669184746716],[126.84924016671427,34.843716168335085],[126.84967690285987,34.84405709171347],[126.85001641440041,34.84471814204133],[126.85068558816553,34.84666571796362],[126.85145349638239,34.84712419970592],[126.85245924049693,34.847957959420604],[126.85349275069186,34.84965614170808],[126.85337670246088,34.850781028239915],[126.85319541797772,34.85117878430974],[126.85325338357134,34.851244837366316],[126.85299809812942,34.85151154765278],[126.85300835195495,34.85204901046742],[126.85308744623484,34.852064890449654],[126.85309767318107,34.85221550870285],[126.85345754670614,34.8523170479437],[126.8546108544201,34.853161190546494],[126.85541890454225,34.853034570132536],[126.85678578064706,34.85329603148154],[126.85626452259446,34.85508788743049],[126.85640858138892,34.855941107005016],[126.85652372089078,34.85628830074563],[126.85686765813435,34.85660457810732],[126.85687116789043,34.856692360474504],[126.85757588463134,34.85721570967433],[126.85704673174752,34.85776959600539],[126.85683694323068,34.858247241185914],[126.85688267590727,34.85874699471955],[126.85655232814536,34.85976862500033],[126.85650288690397,34.86064233631442],[126.8568343252181,34.86122474542725],[126.85703055379554,34.861276935129766],[126.8576101290068,34.86194386303305],[126.85865646622919,34.86238051600867],[126.85886256391377,34.864244893147806],[126.85908298528193,34.86459291047389],[126.85922393830215,34.86512289873392],[126.8592404549218,34.866830705261656],[126.85838142557846,34.86826819229537],[126.85794790341589,34.86880365216371],[126.85707600378734,34.86905711171898],[126.8563262409866,34.869634907123555],[126.85460023830524,34.86971607947127],[126.8542930057423,34.86980985902303],[126.85375094848735,34.86977316415825],[126.85363621803886,34.86946243956411],[126.85272251348066,34.86877126150524],[126.8524047602011,34.86837444727023],[126.85195908682167,34.86838671819741],[126.85161564517603,34.86818464413208],[126.84982154705214,34.86795983890244],[126.84946014103366,34.868068240509174],[126.8478635014322,34.86883237702077],[126.84710032016889,34.869054254208464],[126.84666948397349,34.86942248607665],[126.84540604135933,34.86949831068554],[126.84415888895208,34.8697655547717],[126.84344216933242,34.87020004532934],[126.842962135512,34.86992527006635],[126.84276669698303,34.8693873773294],[126.84241544997862,34.86896573203097],[126.84138274669813,34.86841982565624],[126.84098809853667,34.86834965473701],[126.83959747417452,34.86877642626021],[126.83939228388218,34.86865617716098],[126.83897369147367,34.86856033208483],[126.83841497635379,34.86857623324919],[126.83743195221491,34.867933631043485],[126.83716407845893,34.86788470227243],[126.83597292366412,34.86793169085666],[126.83558039959222,34.867771194355925],[126.83527266734775,34.867404861354785],[126.83379228486076,34.867997832668614],[126.83159333351323,34.86791553993271],[126.83128512297581,34.8678375709951],[126.8307248540196,34.86789260935417],[126.82961152117558,34.86764510450662],[126.82882117234216,34.867639911024476],[126.82859938366457,34.86825353717928],[126.82814242751648,34.86872145981141],[126.82811100936844,34.869204689661174],[126.82800093592245,34.86935805855105],[126.8267654629833,34.86974006885145],[126.8265148933454,34.86974214248531],[126.82603127865094,34.86997636780527],[126.82578084764495,34.8698717508789],[126.82501023488162,34.87017151241868],[126.8240088855032,34.87101259951709],[126.82300590251819,34.87144606463006],[126.82291276098731,34.87145142645304],[126.82269749123945,34.87125131586267],[126.82227339077063,34.871141316438084],[126.82169616184453,34.8711917721452],[126.82121178353187,34.8708284237248],[126.82014682902523,34.87100784116947],[126.81974743946434,34.871295944209216],[126.81910455142406,34.87224857761723],[126.81877112627532,34.87260087449979],[126.81843846633843,34.87267560485511],[126.81775044887574,34.8725942622673],[126.817295656471,34.872661611824626],[126.81665852908668,34.87262049727874],[126.81622727885599,34.87281684126657],[126.81528232551746,34.87239449181996],[126.8133157883554,34.87331265582171],[126.81137765293647,34.87442703889621],[126.81061333509669,34.872761217206914],[126.81074687212104,34.872494559529166],[126.81049469716407,34.871313660164276],[126.80991856602829,34.870802140622516],[126.80994027451595,34.87054806233439],[126.81022849453532,34.870077203006936],[126.81015667733558,34.869403909599775],[126.80862262505299,34.86842002918367],[126.80694861818306,34.86835697015029],[126.8067157333028,34.868574086333744],[126.80552939729984,34.8679383464817],[126.8046582673677,34.86800276907191],[126.80325189843279,34.86855748505283],[126.80305419853329,34.86852840819592],[126.80127956271645,34.86993323731261],[126.80165431566667,34.87082040314996],[126.80161828729801,34.871445038090094],[126.80122187611128,34.8720065684067],[126.80129929309297,34.87219933303908],[126.8012024347202,34.87301516168034],[126.80108593822477,34.87318758699299],[126.80049623807317,34.8734573030104],[126.79972729464039,34.874348059592165],[126.79857816377057,34.8746063087339],[126.79828266398731,34.87489950792946],[126.7978940507494,34.87495268038996],[126.79745373503947,34.87513420464396],[126.79692606669512,34.87551550076992],[126.79612770458472,34.87583581821797],[126.79547582509473,34.87623543990261],[126.79501359166557,34.87710724213116],[126.79498134309283,34.877327461152014],[126.79440311529753,34.87794020146675],[126.79385199017098,34.87824569090192],[126.79350282836339,34.87809686005986],[126.79248989225543,34.87850649306787],[126.79197200752645,34.878389637721035],[126.79136728089082,34.878541786493365],[126.7901000221522,34.87916303090495],[126.78978690639289,34.87896651422972],[126.78859661596518,34.878881950093074],[126.78659840851303,34.87918706447642],[126.78611772779247,34.879305450675865],[126.7859611294579,34.879467478281065],[126.7849743509359,34.879600339866776],[126.78453229467215,34.88034516710925],[126.78389874121991,34.88089522859541],[126.78386286965171,34.88134944879284],[126.78361518597248,34.881624642507475],[126.78342392773892,34.88169037189526],[126.78353397578023,34.882288887132844],[126.78345277957587,34.88259099685276],[126.7836957621862,34.883062797859],[126.78372749689137,34.88365544868169],[126.78421385853633,34.88444050359612],[126.78421334070325,34.88483273488349],[126.78219529222913,34.886028253993565],[126.78213437838292,34.88661079546581],[126.78180102151119,34.886913881990885],[126.78115105122976,34.8872115448777],[126.78043387100064,34.88796066178507],[126.7798935937182,34.88816638587911],[126.77957356821176,34.8886893401007],[126.77892835754201,34.88886890824196],[126.77791595183363,34.88888595345226],[126.77727759204059,34.88899010591413],[126.77636298390894,34.8894042014801],[126.77608050623695,34.8900002015727],[126.77574391003421,34.89028257829496],[126.77572524468711,34.89059547993866],[126.77519125500893,34.89173755161411],[126.77471505078226,34.89193414145368],[126.77458425643455,34.89238295285179],[126.77411671669807,34.89287158937177],[126.77375943641081,34.89362190624943],[126.77313727562917,34.89409575484403],[126.7724731633919,34.894368312609714],[126.77195597770614,34.894993642252174],[126.77163763923757,34.89513847142425],[126.7709062748545,34.89526595871709],[126.77031225311937,34.89560046390026],[126.76965496306644,34.89644355462908],[126.76822049938926,34.897688020887635],[126.7679899704905,34.898066658337264],[126.76743444063204,34.89860893962031],[126.76693195980475,34.89871466899417],[126.76624862300031,34.89919787342056],[126.76614621895965,34.899507933891904],[126.7656981158105,34.89962213728721],[126.76461663888895,34.89962717433075],[126.76360735015736,34.89987123850641],[126.76335891304473,34.89999698292993],[126.76303285601388,34.89899187046677],[126.7626223348576,34.89851193957441],[126.76186497762126,34.898201488792864],[126.76094293275754,34.89815509449508],[126.76098655787648,34.8979545132073],[126.76027474520293,34.89755101090137],[126.75852289204349,34.89752483508346],[126.75758359139704,34.89719740835907],[126.75713013181335,34.89721430040587],[126.75663321717806,34.89675876553329],[126.75537792625943,34.896971519472025],[126.75297042807199,34.89654710666541],[126.75223063771344,34.89649496132983],[126.75154108569976,34.89661301619673],[126.75038833757417,34.89623687958757],[126.75049884475268,34.89609724796197],[126.74979668838583,34.89672898745417],[126.74932213304588,34.89675778619082],[126.74890214703468,34.89720539232588],[126.74857316986748,34.897310748079285],[126.74784039600057,34.89737362606303],[126.74669669364225,34.89778702825441],[126.74601942910523,34.8978315420596],[126.74564124434725,34.89777143542405],[126.7449202801211,34.89819682373533],[126.74436917281244,34.898057305237586],[126.74369298488995,34.898064274459756],[126.74353437053689,34.897947640705986],[126.74348575647306,34.897606154036815],[126.74370876327446,34.89622101873933],[126.7440949353114,34.895800995588935],[126.74465061917307,34.89555116033988],[126.74421490438085,34.89555976694207],[126.7440353478633,34.89564513619324],[126.74386499844948,34.895458466979484],[126.74392448669039,34.895656493303356],[126.7438319155297,34.89570711758657],[126.74364881856862,34.89531457048916],[126.7434751875163,34.8953242617116],[126.742624570718,34.895759393904214],[126.74223104489406,34.89572486152475],[126.74192558691033,34.89536751160856],[126.74168959603952,34.8947861875827],[126.74018259377847,34.89454989492076],[126.73977745487534,34.894567565238354],[126.73910087768097,34.89433074508022],[126.73913262987482,34.89401974367044],[126.73896313992479,34.8939629688402],[126.73891181047067,34.89384552398384],[126.73841361906618,34.893821723129996],[126.73796271462602,34.89346439097442],[126.73788305221474,34.89351823865483],[126.73769786168293,34.89333930760433],[126.73717604180015,34.89308018743403],[126.73701927415696,34.89284032000338],[126.73664785564335,34.89252857687168],[126.73623710912182,34.89191439326144],[126.73601528410686,34.89181499956351],[126.73579562691872,34.89184440093512],[126.73485840461834,34.8914804320778],[126.73374139698578,34.89066074062411],[126.73316804243326,34.8904133971012],[126.73274166801943,34.89058860539533],[126.73244856858541,34.890539372309526],[126.73198203306268,34.89064400029331],[126.73117046779481,34.89066889813826],[126.7304733086084,34.89093728594057],[126.72998804548929,34.890654221344086],[126.72954380864222,34.89024185188191],[126.72901264479925,34.89003336998137],[126.72844468303784,34.889540378204245],[126.72762350657828,34.88928652069605],[126.72680749868792,34.88915430303387],[126.72584711493616,34.889326648259214],[126.7250908390514,34.88955717505504],[126.72452329185116,34.88990405500985],[126.72405592672658,34.89065083758126],[126.72344856675625,34.89098211766771],[126.7230342240227,34.89108286447958],[126.72264988431661,34.89127215918624],[126.72238001586611,34.89148761241751],[126.72195491309412,34.89154382918058],[126.72095165907184,34.89216776887786],[126.71989073253948,34.893331589597594],[126.71965094717454,34.89397294109409],[126.72041391851715,34.89454267305894],[126.72045849239394,34.89478907191829],[126.72032999074335,34.89534406718316],[126.72079026590144,34.89679651255892],[126.72061382164968,34.897599072097144],[126.72070318028736,34.89785758070197],[126.72042223584296,34.89823985993493],[126.72070412064467,34.899288818186754],[126.72057640701364,34.899948168948434],[126.71984540614142,34.900526918472885],[126.7183508779441,34.90220753056078],[126.71742982662137,34.903497505006044],[126.71634206764945,34.90378236651975],[126.71612226547514,34.90403863840339],[126.71609060311201,34.9042879152044],[126.71626811871946,34.90466432797245],[126.71630858897895,34.90501328728943],[126.7151658633846,34.90512928732257],[126.71514095869254,34.90556169678093],[126.71336667971579,34.90709767087965],[126.71253928985573,34.907144364163806],[126.71154293471632,34.90651229136357],[126.71168993635712,34.90669330707014],[126.71179635482248,34.90717053918617],[126.71196368982912,34.9073386230085],[126.71181513587878,34.90749951843854],[126.71155709692135,34.90757618834498],[126.71155091941414,34.907808380154805],[126.71170523290868,34.90807965118765],[126.71164566961387,34.90834300289338],[126.71178298049789,34.90834627771564],[126.71176525804259,34.90858828515116],[126.71116101002065,34.909096776728035],[126.71148731887232,34.90923265553695],[126.71190406718286,34.90884753049514],[126.71225583455087,34.90877231780273],[126.71251304604722,34.909054604120975],[126.71265892295389,34.90937124773182],[126.7127710112557,34.90932838257613],[126.71292786158531,34.909414404832965],[126.71294940018453,34.909478842077746],[126.71272554135959,34.909523704448915],[126.71267596685162,34.90965369298345],[126.71265017954082,34.910043373702266],[126.71277404633926,34.91040278074224],[126.71332823975496,34.911449371588255],[126.71499551205295,34.91352704378257],[126.71494334830001,34.914868896855744],[126.71580193904097,34.91749092450475],[126.71580601432599,34.9177171190119],[126.71507318563431,34.918149349047056],[126.71447087719125,34.91864582721117],[126.71281513836453,34.91907524792802],[126.71287791288836,34.91911819480803],[126.71222225260387,34.919522151943184],[126.71218249124375,34.91966667571302],[126.71185843421324,34.91991831917507],[126.7108418399948,34.9215462835511],[126.71083477342054,34.9218652039952],[126.71020033630265,34.92210437331035],[126.7092386822337,34.922600459156165],[126.70819042320507,34.92385164433308],[126.70754262062337,34.9240206666432],[126.70663669976996,34.92401481282143],[126.70624302318076,34.92452394213349],[126.70652887620818,34.92545025959492],[126.70648306164642,34.92595850255698],[126.70635548423003,34.92631288785167],[126.70641333887683,34.926673023449176],[126.70635047817792,34.92701119664038],[126.70577988826481,34.927675969214555],[126.70551642372367,34.928101520663304],[126.7055033422673,34.92825771680275],[126.70494546940384,34.92907051458039],[126.70447209071912,34.929458080744844],[126.70369339767382,34.92976457496881],[126.70341265844839,34.92995926184475],[126.70314180098039,34.93045943343462],[126.70336589987505,34.93188760462407],[126.70329601894525,34.93215884894297],[126.7022490636924,34.932883791691616],[126.70204698838432,34.93313485219022],[126.70265211573174,34.93408445316407],[126.70250147027328,34.9353798216187],[126.70225705899225,34.9357525100264],[126.70136356439427,34.93606225755259],[126.7011863628072,34.93623995119637],[126.70108441572938,34.93695427086011],[126.70036726629831,34.93770358257924],[126.69929997537362,34.939870282633265],[126.69917511730593,34.94036413714331],[126.6986418683845,34.94051939759949],[126.69802115503802,34.94123680089269],[126.69751349821139,34.9415058296605],[126.69704124080444,34.941584735256605],[126.69644006692617,34.94138256187777],[126.69619817834702,34.941369380148984],[126.69549731528633,34.94144247719601],[126.69443017364718,34.941797345783634],[126.69279020408622,34.94251719905863],[126.69137043425044,34.94184294670274],[126.69080806421769,34.941818524985415],[126.69033392962156,34.94220106632699],[126.68827992696438,34.942725045089695],[126.68750519092528,34.94326008913227],[126.68716187877614,34.94364258633005],[126.68689463470352,34.94405028381283],[126.68646414681817,34.94516001331503],[126.68623461940977,34.94550142024494],[126.685451178163,34.94582701930891],[126.68503211585589,34.94572171995448],[126.68431239580869,34.94536348228682],[126.68365256006679,34.94470198295397],[126.68292878108889,34.94440645360038],[126.68223049903705,34.94451292199477],[126.68096907524075,34.94499139870342],[126.67989198167442,34.94490100167821],[126.6787167712999,34.94502361939223],[126.67764452024237,34.94495781400752],[126.67675410708057,34.94559799638138],[126.67624791199077,34.94629320288016],[126.67590704773362,34.946344579153504],[126.67551865524095,34.94616245941081],[126.67519388306194,34.94613095880467],[126.67476488732409,34.94595521755892],[126.67401801968636,34.94587193854805],[126.67294015475457,34.94552662131571],[126.67184987812074,34.94567825535882],[126.6697705800852,34.9454957548868],[126.66909794648132,34.94509390191208],[126.66903791488896,34.944947128051766],[126.66841288252758,34.944448674284644],[126.66838725145391,34.94245970620165],[126.66826438792422,34.94201841353099],[126.66764370023779,34.94104861709515],[126.6670249116676,34.94029950789313],[126.66618505033193,34.93978018789096],[126.66509602698864,34.93869930577002],[126.66478230741431,34.93825343370103],[126.6645968881181,34.93744078363992],[126.66420625057407,34.93664947640794],[126.6638182931694,34.93626642933324],[126.66263283351515,34.9353974241159],[126.66235459744254,34.93501680547599],[126.66211011500238,34.93390370889492],[126.66209237649944,34.933530613179386],[126.66217836329251,34.933355101707235],[126.66213431703355,34.9324544433593],[126.66226381335599,34.93206528133635],[126.66217971597986,34.93166519315344],[126.66241906452069,34.930994412014805],[126.66238502188524,34.93052172193159],[126.6628541619224,34.93005916926408],[126.66293430178898,34.929818984636235],[126.66318225763271,34.92958692894694],[126.6630226573358,34.928953199763],[126.66305110516986,34.92874199473826],[126.66241758347509,34.92856854248473],[126.662130232221,34.9283873736786],[126.66209546122948,34.92828098546244],[126.6622669677095,34.928101854619236],[126.66281885550809,34.927983419586354],[126.66296870508177,34.92735538348239],[126.66295197185902,34.927011332859585],[126.66312530430456,34.92701019304305],[126.66333682880222,34.92720219053467],[126.66354087285849,34.92717946630842],[126.66389823452207,34.926871690491666],[126.66432117070418,34.92677041323519],[126.66441328866944,34.927164266918055],[126.66458605533188,34.927357894414456],[126.66474835602303,34.92753101323051],[126.66515757688579,34.92769902848722],[126.66505110958688,34.927315150043],[126.66529136702665,34.92726872658756],[126.66550144827889,34.92711266507424],[126.66564794049297,34.927126067902115],[126.6655642359233,34.926774459201425],[126.66607029363844,34.92666216530199],[126.6659449120935,34.92649057433957],[126.66604448050137,34.92643234937546],[126.66658630327237,34.92614185829953],[126.66678212636187,34.926323584880826],[126.66724480669409,34.926025120981905],[126.66796186777431,34.92580106878858],[126.6680208959194,34.92553455631775],[126.6681649460854,34.925656016329036],[126.66813930350347,34.92552069334175],[126.6689599656331,34.925343124260195],[126.66910324281356,34.925404116212405],[126.66938405543513,34.92504163507277],[126.66969857194567,34.924404890969264],[126.66974551625964,34.92426223083858],[126.66961331474154,34.92417708574048],[126.67052800197936,34.92314906319272],[126.67104810293655,34.92231897813555],[126.67132416019905,34.92164429379687],[126.67199603484849,34.92047391115896],[126.6723645592244,34.92015359290582],[126.6731261815228,34.92003986985947],[126.67366981936753,34.91976043863599],[126.67404921649279,34.91925153871937],[126.67435311171263,34.918993371000326],[126.67524026894984,34.9185877794036],[126.67654223847295,34.91688141992446],[126.67657123708446,34.91668160618536],[126.67646153156207,34.91642078543036],[126.6765111752659,34.9161471222837],[126.67681233780294,34.91541071975049],[126.67676840486246,34.91513478737267],[126.67685394258247,34.91472407404541],[126.67720589524312,34.91409288052702],[126.67640533783312,34.913777889256814],[126.67546348011716,34.91327275405429],[126.67517135700187,34.912884942121906],[126.67471690329516,34.91249171757233],[126.67483169873998,34.912241008085914],[126.67326992420493,34.91092431998669],[126.67674265105786,34.910491606535956],[126.67743895229826,34.909784253657136],[126.67687518365827,34.90901233442274],[126.67616145235299,34.90755557925204],[126.67617321964622,34.906630300971955],[126.67608717076233,34.9062952955344],[126.67619586867312,34.90541762633207],[126.67651953558908,34.904730724419906],[126.67665114720897,34.90320035801918],[126.67660362254553,34.90282406396687],[126.67719896116668,34.900905327858744],[126.67751824880173,34.90056361558193],[126.67771043053162,34.90019742484963],[126.67819066932402,34.89970370551572],[126.67844251274606,34.89926319949504],[126.67852833235969,34.89853630462152],[126.67904256603894,34.898195069772044],[126.6792725202048,34.89781871875685],[126.68082146351394,34.89627178533523],[126.68150508958216,34.895091243622765],[126.68257896471707,34.894130894693184],[126.6821404519626,34.89386215742272],[126.6820504396412,34.893734230201986],[126.68209941604074,34.893551043346676],[126.68174262641045,34.89322952659024],[126.68199227944073,34.893070709042654],[126.68185720692117,34.89276466592255],[126.681778920008,34.89273658915237],[126.68160007028095,34.892870191410964],[126.6811892408343,34.892929692290494],[126.68072276603365,34.89272277462407],[126.68062442820475,34.89255075544929],[126.68014660776515,34.89236748512652],[126.67985375035141,34.89263893940465],[126.68001799757945,34.89299133919138],[126.67994900032878,34.89306406111414],[126.6796751638812,34.89314765262633],[126.67926880620412,34.89262138207528],[126.67893163040482,34.89273523495804],[126.67880508184764,34.892946734662914],[126.67810469845344,34.893364506675454],[126.67705381936446,34.892919720168045],[126.67687181074916,34.892766818519156],[126.67692120934042,34.89245676435548],[126.67648294419494,34.892612795996214],[126.67642262763808,34.892322297320156],[126.6761294164517,34.89206148036424],[126.67489585785565,34.892731393907724],[126.67459656484658,34.8882441854121],[126.67392331371553,34.888390354847715],[126.67341409770921,34.88796629340851],[126.67366024835815,34.88781067430406],[126.67406379783282,34.88728676510093],[126.67539728933421,34.886297710636896],[126.6764970917114,34.88470580716857],[126.67740675251999,34.88358110918108],[126.67657510375071,34.88309439264162],[126.67544566812211,34.88209344029088],[126.67432600581847,34.8821086053333],[126.67250168977854,34.88182549665513],[126.6716132869448,34.882529338572205],[126.67136739132219,34.882834855623905],[126.67074808066377,34.8832304877208],[126.67074041865283,34.883532135180474],[126.67035176501564,34.88430707534316],[126.66987006279581,34.884764750565644],[126.66947279044484,34.88540531204154],[126.66916046781864,34.886893032154724],[126.66822647841218,34.88675301415002],[126.66791287938968,34.88697125510525],[126.66738809734457,34.88701920155824],[126.66723193284348,34.887272405419864],[126.66666634310828,34.88738830951301],[126.66637231539575,34.887345963544924],[126.66642006296084,34.887173974775195],[126.66624533298021,34.886901408732946],[126.66592421984676,34.886883784238876],[126.66559574623777,34.8869330306905],[126.66524511248433,34.88724746689382],[126.66462293938702,34.88753036768708],[126.66406012616608,34.88827447265575],[126.66399021480917,34.88869412776719],[126.66405415128398,34.88912878385116],[126.66476486955366,34.89026781137948],[126.66439092717427,34.89093873378556],[126.66409775898222,34.89200557979057],[126.6637254806844,34.89254191818526],[126.6621038759339,34.893053754360835],[126.66116456156226,34.89353597684557],[126.66061203265645,34.89326628407129],[126.65909806499563,34.89284221766714],[126.6572388074747,34.893207465723805],[126.6561489315654,34.89308998001165],[126.65292614689874,34.893195792287216],[126.65157624409969,34.89361278226026],[126.65159928454553,34.89345517774299],[126.65109676378931,34.89261536749476],[126.65074685914429,34.891452144567715],[126.65071842862982,34.89077971686788],[126.6505800695377,34.89034596608554],[126.65055972604418,34.88955233379865],[126.65037369993595,34.889104716976554],[126.6499500313292,34.88860506093727],[126.64930430618209,34.88953996974585],[126.64862392703368,34.889278108869405],[126.64797177108429,34.88920132726193],[126.64742573743871,34.88937766368731],[126.64678440344488,34.88991902544056],[126.64644737551161,34.89060377314128],[126.64514359124303,34.89084645296866],[126.64481900885976,34.891084964145016],[126.64385007765009,34.89131756077353],[126.64209158483155,34.89061292568445],[126.64166675682581,34.89036897049183],[126.64031592579961,34.89008317365782],[126.6401270385306,34.88989927909808],[126.63986305248045,34.889046024263735],[126.63957215478699,34.88915495692589],[126.63904299796988,34.889170966910115],[126.63860004805281,34.88894461419102],[126.63830859259163,34.88889158069512],[126.6372003769268,34.8888886983745],[126.63681459351174,34.88881057246408],[126.63682614747879,34.88874821301062],[126.6366341941601,34.88883479244885],[126.63656112618256,34.888749004389204],[126.63627917067956,34.88876958388866],[126.6360172890533,34.888676440816646],[126.63589742234582,34.88873166009644],[126.6356484831176,34.88867542192603],[126.63554107692313,34.88881684205238],[126.63548632043079,34.88868466892972],[126.63516875322333,34.88855821236039],[126.63479280141253,34.88851600294262],[126.63317421097652,34.88864400277156],[126.63275387530967,34.88874463081071],[126.63230373580869,34.888596600090374],[126.63148244795066,34.8888146103932],[126.63138257260162,34.8889289900612],[126.63182234707331,34.890368195013025],[126.63145230362598,34.890844165076466],[126.63152801449037,34.891379333084465],[126.63164118724234,34.8917111627272],[126.63251206574272,34.893139172880176],[126.63254735594407,34.893773595383564],[126.63219060305094,34.89378038147552],[126.63163267425892,34.89350129265187],[126.63041845641156,34.89322288631284],[126.630129298727,34.893661240606555],[126.62965975812415,34.89412132497534],[126.62874128740921,34.89460214307513],[126.62891522420699,34.89481078845919],[126.62878071540466,34.89533633562365],[126.62850065410541,34.895825687157696],[126.62914523732418,34.89603163769327],[126.62971608455175,34.89650255644239],[126.62967839536881,34.89659471617797],[126.6295442332871,34.89656063001736],[126.62900234314667,34.89746478378573],[126.62896505179187,34.898084183638666],[126.6287201024998,34.899045690151986],[126.62913420216559,34.899236601793056],[126.62950362143138,34.89908285637336],[126.63071248101701,34.89829301316344],[126.63063252970375,34.89839459897881],[126.63196359516914,34.897932463514714],[126.63258641220138,34.897579812322725],[126.6332679948857,34.89751194882473],[126.63436801529794,34.89760245743337],[126.63445742785386,34.89782000670714],[126.63466662802603,34.8978533403687],[126.63448229321571,34.898406136490486],[126.63451349343796,34.89884959580586],[126.63492781272062,34.89992249532157],[126.63517253968047,34.90018836678381],[126.63540247545205,34.901085740676514],[126.63506207365569,34.90154257446195],[126.63491331249728,34.901972492942434],[126.6350871477288,34.902615101464654],[126.635082942471,34.90312108194429],[126.63465891428366,34.903642408912965],[126.63447218076365,34.90421983209033],[126.63444853684986,34.904706716445965],[126.63492092715789,34.905334379565005],[126.63491500991252,34.905609717064536],[126.63454866043757,34.90659666581767],[126.63410866880896,34.9071891968416],[126.63385292829395,34.90728671982058],[126.6337674854276,34.907219975207724],[126.63380108333232,34.90700002157768],[126.63370597944154,34.906957765386686],[126.63355173111398,34.90701211189876],[126.6334917719152,34.90681788013089],[126.63325027744206,34.90689347820589],[126.63296901873211,34.90734169619967],[126.6328555635078,34.90794144957136],[126.6330576783269,34.90821446093931],[126.6331007983374,34.90844041568214],[126.63397474493554,34.90896410665917],[126.63372167778617,34.90932220082485],[126.63350624506373,34.910083579897474],[126.63328479951514,34.91022505779414],[126.63330228468436,34.91042620975675],[126.63307707362655,34.91045500273189],[126.6331460847569,34.910585281714106],[126.63302756328109,34.910601219572925],[126.63246515506768,34.91052945796635],[126.63236205651684,34.910879224841835],[126.63237652673872,34.91125482178501],[126.63222122379985,34.91159653383904],[126.63214695252256,34.912076656152216],[126.63196414145338,34.91243214753783],[126.63180018748406,34.91256198925789],[126.63160439871272,34.91361718542033],[126.63162921072902,34.91435549477305],[126.63151912159339,34.914649281475626],[126.63118795704368,34.91480322106258],[126.63112517516534,34.91501584662291],[126.63114592847779,34.916194109117136],[126.63158178423278,34.9162928758831],[126.63159323589213,34.91637466626828],[126.63133427328536,34.91648330598536],[126.63128444658862,34.916759428451186],[126.63093722011426,34.91666237304776],[126.63066923350576,34.91697658951211],[126.63082170960944,34.91706548033612],[126.63072715149866,34.917505698272784],[126.63009817479008,34.917594277074876],[126.62886912408126,34.91740447001534],[126.62870722791385,34.917487351619435],[126.62827961131103,34.918807648222874],[126.62812647941743,34.91982308224828],[126.62839233459098,34.92001077339937],[126.62849773093981,34.92034242738213],[126.62889491905551,34.92091121061225],[126.62889523174925,34.92119319130548],[126.62857909734414,34.921290842149055],[126.62840708141563,34.92121887965507],[126.62806542998158,34.920796001153484],[126.6275074719047,34.92063355102368],[126.62651176552755,34.92082390214989],[126.62631478224192,34.92092441146197],[126.62574885964379,34.920713966084286],[126.62492051682166,34.92056964206921],[126.62471581163031,34.92078388843788],[126.62464548217014,34.921295178300035],[126.62443831766103,34.92148427696858],[126.62412540193579,34.921475058210724],[126.62382276898292,34.92079537678253],[126.62296436433256,34.920200975555574],[126.62269229220801,34.919799282847215],[126.62212108257255,34.91948102571807],[126.62188665233738,34.91941431255558],[126.62143676768477,34.9194378750368],[126.62129094518586,34.92018574733389],[126.62175645879701,34.921341450619394],[126.62197129773493,34.92152152387947],[126.62237637708292,34.921541230326355],[126.62325684138993,34.92127235061483],[126.6237670070827,34.921374414261656],[126.62401525996084,34.921550098868465],[126.62401947150006,34.92194494474797],[126.62377064791566,34.92231166557888],[126.62344445158449,34.92245818077865],[126.62323107695529,34.922472966628106],[126.62252885939544,34.92234061955223],[126.62151381437613,34.92191151108607],[126.62079865385554,34.92187959972566],[126.62024824781136,34.922516179784],[126.62060285797561,34.92302403089448],[126.62122020358565,34.922984076670005],[126.62175924252375,34.923137104102416],[126.62198554514855,34.923352691537225],[126.62199873599862,34.923929761843944],[126.62211041766862,34.92417526853384],[126.62198460873155,34.92445013997618],[126.6214601615176,34.924826315767845],[126.6210105850419,34.924864416813406],[126.62047385119536,34.924788299246025],[126.61945905124703,34.924193500395305],[126.61888682445912,34.923630725027124],[126.61841812581497,34.92404750821994],[126.61821063542386,34.92440337787599],[126.61845232666788,34.92471874929873],[126.61925243819253,34.92521792088297],[126.6189422233827,34.92583368865256],[126.6185517390945,34.926001486158],[126.6180597360032,34.92585104468309],[126.61735493857694,34.92548116339408],[126.6165579421338,34.92548641173661],[126.61609871494552,34.92516694880413],[126.61590662780876,34.92485447934221],[126.61532217113401,34.92493262144521],[126.61493733339174,34.92519095110219],[126.61497127285956,34.92560383797509],[126.61461946412568,34.926213630330594],[126.61411370341217,34.92656537012889],[126.6137052333493,34.92645666787723],[126.61334599937263,34.92603493634333],[126.61315978440494,34.92538142544145],[126.61357749560806,34.9250808954916],[126.6143098956495,34.92522710044158],[126.61464003390236,34.925111593958974],[126.6148010414293,34.92473436408347],[126.61469812346238,34.92447989187784],[126.6140619720573,34.92393304324197],[126.61388749124383,34.92349766009838],[126.6134952375155,34.92296720695266],[126.61300890504197,34.92263872208314],[126.61230053603758,34.92258633905623],[126.61151734015039,34.923037043774045],[126.61083403725091,34.92326037532841],[126.6103298470686,34.92365292820493],[126.61031606447472,34.92376681855923],[126.61035608875193,34.92405016164972],[126.61076172018045,34.92429483951905],[126.61128274489386,34.92436925491846],[126.61185241229855,34.92478049026251],[126.61206336594272,34.925437489684484],[126.61209124796508,34.92595272783563],[126.61173072630302,34.9263264569591],[126.61123988371465,34.92652961275114],[126.61024064855039,34.926206932425714],[126.60982521303305,34.92623893648389],[126.60942120505165,34.92639020175407],[126.60891974939022,34.92679371811053],[126.60860247320767,34.926806898658576],[126.60824654760984,34.92671089516149],[126.60804279767223,34.926481086488195],[126.60768830669008,34.925649846920145],[126.60729233913536,34.92538050134978],[126.60681572433745,34.92543392084117],[126.60636117014052,34.92586690993511],[126.60664327854509,34.92652336561448],[126.60665576121082,34.927036265265606],[126.60566759896086,34.92770139836307],[126.60530764852444,34.928039712808186],[126.60519946913664,34.92833631118809],[126.60564577780833,34.92923485635912],[126.60570879022832,34.929516797285515],[126.60534572985097,34.92986975804403],[126.60486642649425,34.93008276853763],[126.60449993157654,34.92994540929608],[126.60419157509614,34.9297629896928],[126.60368321258765,34.929136498387656],[126.60316737373188,34.92893993023058],[126.6026309797978,34.92888431351122],[126.6014354849578,34.92910179040064],[126.60069992626482,34.92901317686188],[126.60030654195792,34.928599010345984],[126.60019759539755,34.9282826895403],[126.60030590408304,34.92732899818796],[126.60056650255332,34.92704339013148],[126.6013288648861,34.9265758141802],[126.60153864074255,34.926626756700884],[126.60203606453648,34.92647303949343],[126.6027960296517,34.92589184524425],[126.60314714240914,34.92502709322804],[126.60332826836313,34.92420908782108],[126.60325508766273,34.92383246703809],[126.60292663884171,34.923435539528285],[126.60209114359387,34.92327263934261],[126.60118370137728,34.923327135149336],[126.60039380407747,34.92412691407864],[126.60013993067612,34.92432328030792],[126.5998431132635,34.92442713950671],[126.59942120427651,34.92437604233395],[126.59825796114716,34.923614036484345],[126.5977469954636,34.92351816384349],[126.59696201965254,34.92392113043794],[126.59650425168152,34.92478348107784],[126.59636480530467,34.92527263775249],[126.59587051781547,34.92556457808011],[126.59532039877706,34.925612397982064],[126.59482059918955,34.925469750630945],[126.59441372163062,34.92524875795281],[126.59414240324533,34.924991865612],[126.59375843096845,34.92455501256708],[126.59293488568734,34.92315031932479],[126.5929600055375,34.92242734241706],[126.5931888247731,34.92198646127688],[126.59348224948818,34.921732130214124],[126.5938560201199,34.921599763484984],[126.59492060302918,34.921471366882045],[126.59529321244214,34.92130743444638],[126.59548892710473,34.92106120883428],[126.59548066485783,34.92073666566558],[126.59506778656242,34.92010999702223],[126.59463889783098,34.919846169822584],[126.59263369511424,34.91915154253139],[126.59230754305051,34.918918906955795],[126.5921159222519,34.91866364828892],[126.59288598046778,34.91767699026549],[126.59400452917913,34.91710354492383],[126.59459839719294,34.91582034289976],[126.5949766866493,34.9156001388486],[126.59525206207726,34.91553422193687],[126.59577302939633,34.91520574028613],[126.59394894887556,34.91441070291608],[126.59327916279275,34.914417424234564],[126.59338282632963,34.91480834153195],[126.59334437715088,34.91497118246053],[126.59286082216667,34.91513487147426],[126.59130839213789,34.9164060637138],[126.59136206366611,34.91683818732899],[126.59123269469386,34.91696130325451],[126.59111757603728,34.91683096234235],[126.59107168931342,34.91658294525199],[126.59032000606426,34.918508660054854],[126.58995930447043,34.918679459135014],[126.58944044879429,34.91873180228428],[126.58857090573726,34.91863471108143],[126.58825918152277,34.918329615515376],[126.58786108328444,34.91767566975773],[126.5872904129874,34.91703802661739],[126.586672254513,34.91685809390206],[126.58574695352232,34.91697455505668],[126.5846967761438,34.917424813534126],[126.58413074247164,34.91797579710482],[126.58403125443445,34.91841738502897],[126.58359506583975,34.91901111370954],[126.58329566364608,34.91898132086969],[126.58251312217361,34.9194792984828],[126.58229723311484,34.919534629073866],[126.5813754930485,34.9195572442195],[126.58060267758107,34.91933416475862],[126.57983672797164,34.91893127855572],[126.5786492507595,34.91729021696286],[126.57772563478207,34.91646232609933],[126.57565851678298,34.91537700399707],[126.57454102482589,34.91510915032454],[126.57432086026678,34.91392907148708],[126.57404030599436,34.91319949793462],[126.57430755872893,34.91271750378076],[126.57433530115694,34.91131175098609],[126.57409992965623,34.91110504787722],[126.57379720417745,34.91015437645855],[126.57345117436633,34.909733483697956],[126.57318873958906,34.90818622788882],[126.57323219576713,34.907814154842114],[126.57354337823055,34.9072097375402],[126.57388802680177,34.906829106336396],[126.57503505277461,34.906325151896965],[126.57576012682476,34.90632504320666],[126.57763111292614,34.90653386949768],[126.57808770317642,34.90649705264674],[126.57891376931003,34.90620246132585],[126.57951902932092,34.90584968899775],[126.57996545139481,34.905330778775294],[126.58014163514757,34.90447968097401],[126.57922593283469,34.90171546528186],[126.57912387121353,34.90102778718297],[126.57938564010662,34.89942677381585],[126.58008899840044,34.8966869126072],[126.5799840420017,34.89583742598741],[126.57968278626026,34.89525581704316],[126.57905208965946,34.89479900470212],[126.57814051323854,34.89462150618544],[126.57613065402325,34.894662057539506],[126.5750895600103,34.894568182228056],[126.5746370831249,34.89445677879896],[126.57385223551766,34.89400550966387],[126.57222414582311,34.89260038097295],[126.57175441051118,34.89173230103502],[126.57157290584423,34.89028351141992],[126.57165894911736,34.889364672593096],[126.5723248463567,34.88578253674057],[126.57226329574333,34.8837829090321],[126.57202569918616,34.88185367030703],[126.57150120870848,34.880093760619765],[126.57093178110857,34.878743739283074],[126.56912426951675,34.87675479688948],[126.56800107804241,34.87513802670387],[126.566170191113,34.87357624139157],[126.56308845337223,34.87120562633715],[126.56136597301577,34.869977158946384],[126.56026936646293,34.86934215981029],[126.55934368618362,34.86901136887526],[126.55856901274551,34.86892605515923],[126.55756851672942,34.86894303130257],[126.55699821480022,34.86904983610021],[126.5534853791782,34.8632320866402],[126.55327005706253,34.86246056074489],[126.55314781853231,34.85886798385669],[126.55265076633785,34.85444483361971],[126.54814054825344,34.82810620238738],[126.54706783365903,34.8235322229247],[126.54563506910866,34.819080644503494],[126.54366936620802,34.814125326186264],[126.54307073762446,34.81286589617087],[126.54258798445177,34.81217676254717],[126.53939564143808,34.80914635960925],[126.5343894354912,34.804736548947886],[126.5326614944285,34.80310946495725],[126.5316367382456,34.80267275317284],[126.52936070608811,34.80195778336994],[126.52778830484438,34.801306553845016],[126.52474689322622,34.79987948725955],[126.52296297947227,34.79891223854809],[126.52213872180637,34.79813982448292],[126.52106172646413,34.797496497282516],[126.52003166587166,34.79649087631743],[126.51927546816343,34.79561542079741],[126.51898258912671,34.7950210506829],[126.51889997914566,34.79449809296184],[126.51936569560705,34.79321715921512],[126.52021221776552,34.79023986488818],[126.52037427527598,34.78954010992369],[126.52042032711473,34.78808191933935],[126.51776057379422,34.77962608283847],[126.5165715161486,34.778111688959804],[126.51649643305664,34.77669583142701],[126.51510235178219,34.77474297617459],[126.51335810159222,34.772623033066104],[126.51060996701736,34.770498904955204],[126.50850921299602,34.769288950799634],[126.50565249750775,34.76857300737236],[126.50298363158146,34.76847214282936],[126.49967929111746,34.76867283458901],[126.49796508359542,34.76870704302268],[126.49460299386224,34.769363106021615],[126.49239893059594,34.770129575594915],[126.49139003525815,34.77094435652171],[126.48868087313085,34.77346401743765],[126.48414481237066,34.77811181287445],[126.4757099414479,34.78381678240274],[126.47296726851238,34.78588028346182],[126.46843322447931,34.789870917812614],[126.46342087502897,34.792215571666354],[126.45880727804865,34.79318266126307],[126.45833607400684,34.79337138510009],[126.45363419425844,34.79296082367798],[126.44796938993555,34.79211069355912],[126.44613592746008,34.79160315493037],[126.44549053295876,34.79135714453459],[126.44653214762452,34.78950716923528],[126.44612916235155,34.78933216529654],[126.44621928853911,34.789045743595196],[126.44636959123464,34.78898330435134],[126.446731844966,34.78915320991232],[126.44796125330558,34.7869764442854]]]]}}
