{"type":"Feature","bbox":[129.0105178619009,35.135512763328556,129.08284398290047,35.20380071581009],"properties":{"regionCode":"26230","version":"vworld-20260909-3f8952dfda77-p3","name":"부산광역시 부산진구","attribution":"국토교통부/K-Geo플랫폼 · VWorld 법정구역정보, CC BY 2.0 KR; 두꺼비집 가공"},"geometry":{"type":"Polygon","coordinates":[[[129.04413167308428,35.19945225764092],[129.0442196075285,35.20172736297674],[129.0465789805707,35.20184959504646],[129.0468469766685,35.20354134666348],[129.0468227273635,35.20380071581009],[129.04655853634327,35.201877165775144],[129.04420418068312,35.2017365099699],[129.0441264441701,35.19944846005953],[129.04397542400238,35.19924558415712],[129.04149123998593,35.199403575279966],[129.04033385524517,35.199306893271434],[129.03984102935448,35.20008003101835],[129.03856722604118,35.19901414194931],[129.03761047594827,35.19863320271505],[129.03684532467585,35.19877128314128],[129.0363407864363,35.19913436164504],[129.0342627607707,35.19808650554467],[129.03397924586,35.197502264956796],[129.03243562692168,35.19590097044826],[129.03040724375313,35.19546739233102],[129.0295888141824,35.1946066965837],[129.0287789267678,35.19434260641368],[129.0255407570504,35.19406432880582],[129.02585743759957,35.19299183735501],[129.02556148473482,35.19173703745887],[129.0250891103117,35.1913102510396],[129.0246305496012,35.19112403780934],[129.02383868184253,35.19040228863051],[129.02326827265153,35.189500591189685],[129.0225932757691,35.18877161072448],[129.02110597142192,35.187482259572384],[129.02071932305188,35.18669379246628],[129.0206390696907,35.185035111498976],[129.02075423317098,35.18445115365371],[129.02079384125608,35.18323108739336],[129.02106629795722,35.18202035636706],[129.01993944017008,35.18071834327138],[129.01690022843965,35.17955706902422],[129.0163999675277,35.17852969758755],[129.01449454282834,35.17675071376365],[129.01314040978716,35.176320833167644],[129.01258453415048,35.17551778779385],[129.0118059372387,35.174730869440864],[129.01152873184034,35.17403694013948],[129.0105724132482,35.17357093860624],[129.0105178619009,35.1731445650663],[129.01115647361672,35.17128970890686],[129.01104388058644,35.17081385249479],[129.01253946377705,35.16900836468648],[129.01266642103903,35.16706971426215],[129.01323154246106,35.16592977953916],[129.01290840857675,35.165094553657745],[129.01201765622156,35.16416422698027],[129.01218338052638,35.163873546259005],[129.01162953305263,35.1634251703197],[129.01134883949715,35.16284459358804],[129.01142027917072,35.16132169473959],[129.0107628499329,35.16037206085788],[129.01070602240466,35.159082677340685],[129.0106000024752,35.15874759475701],[129.0119451481508,35.15828419198943],[129.01243969582944,35.15774819357493],[129.0148999872865,35.15614293128143],[129.01529389768913,35.15633472832062],[129.01550258418098,35.156284573685014],[129.01622833721507,35.1548321287308],[129.0162507019136,35.154397798365046],[129.01642428252848,35.154150599326904],[129.01638540711878,35.153726174279385],[129.01649365592777,35.15351261350107],[129.01624274853174,35.153259296548136],[129.0164742173676,35.15314487843014],[129.01652765732626,35.152869398365226],[129.01659512248267,35.15288351512365],[129.0163899638383,35.152593772978456],[129.01603049273237,35.152296377606284],[129.01660109128034,35.15211135940671],[129.01688213423904,35.15178742850738],[129.01633389381584,35.151567161229366],[129.0162811975232,35.149838024969576],[129.0161595777428,35.14983716331056],[129.01615587713508,35.149734027057036],[129.016165621933,35.148279303169076],[129.0163100274818,35.1473096420766],[129.01627335782945,35.14739498718181],[129.01482776269035,35.14630748710906],[129.01403998512032,35.14581735051432],[129.01501849505627,35.144496487901606],[129.01524703076572,35.144421413973504],[129.0160301365139,35.143868186334096],[129.01625186178643,35.14335238518669],[129.01393085706883,35.14010256581123],[129.01216676817134,35.13746585357014],[129.01271195125,35.137030435680614],[129.01575486320579,35.136143572180075],[129.01649197863847,35.135512763328556],[129.0180061544443,35.13641862598008],[129.02154149073607,35.136803121699764],[129.02243883700478,35.13679583279167],[129.02562968050992,35.13565786100203],[129.02689210025613,35.135936523311585],[129.0276517736267,35.136369212939876],[129.0283190886805,35.13690221867882],[129.0308610825508,35.137211274579634],[129.031168252973,35.1373132137156],[129.03200339737273,35.13778826587393],[129.03240882479264,35.13746800844577],[129.03313616322285,35.13708516737044],[129.03339842534783,35.13707544339918],[129.03406576623627,35.137339636466045],[129.0345191208698,35.137664280929435],[129.03516639591473,35.13770942249224],[129.03542851472955,35.13785643600363],[129.03598084592574,35.138474770658156],[129.03727969828262,35.13905456298379],[129.03771275795143,35.13973349074836],[129.03835731441018,35.139718955528764],[129.03874762386525,35.14030307844243],[129.03937954188373,35.14215465721784],[129.0393533443734,35.14240685456608],[129.0394964830874,35.142513670111605],[129.03931638666808,35.14276263689638],[129.03930202595706,35.14290088503593],[129.0394661443957,35.14295370696795],[129.0394767195076,35.143052571404546],[129.0393648359221,35.143086019237714],[129.03929912901935,35.1432582929487],[129.0392545412426,35.143735560708585],[129.04015396290146,35.14456532922163],[129.040264650755,35.144829192416005],[129.04019964264538,35.14493063427205],[129.04029954697216,35.14526436064796],[129.04087810522572,35.145924396035824],[129.04120128629827,35.14613417790652],[129.04152043432885,35.1460619482924],[129.04204517138876,35.14617817239181],[129.04237374586432,35.145974257427845],[129.0432699422103,35.14586860957063],[129.04370500127288,35.146001970624454],[129.04466670820628,35.146080151028265],[129.04588997626658,35.14564736867118],[129.04638603431997,35.145670087600756],[129.0466314758927,35.14549348628204],[129.04680636512396,35.14524025580003],[129.0476169935587,35.1448303974778],[129.04809179891794,35.14444787797105],[129.04819465696306,35.14416455956544],[129.04837742315087,35.144071316198996],[129.04845643304188,35.1437286013126],[129.0489016552234,35.14370151110342],[129.04989632685604,35.14348167209416],[129.05019335091603,35.14354453149798],[129.05075351497788,35.14342189145042],[129.05087721817063,35.14331422536417],[129.05095621643954,35.14303887924037],[129.05149807261043,35.14266815043297],[129.0517872328533,35.14229588488638],[129.05258003835766,35.14204829292039],[129.05386736357218,35.14203654205355],[129.05456690226734,35.141843040748675],[129.05490355681897,35.14191356673403],[129.0554346149647,35.14187392757153],[129.05566544397956,35.141924362549865],[129.0558882355289,35.142214589686944],[129.0560233464089,35.14218775723365],[129.0560053745211,35.14205823016839],[129.0562873308643,35.14203918199622],[129.05639092429453,35.142128129401854],[129.05641576740973,35.14278106077961],[129.05655799321755,35.1431405013052],[129.05658863030482,35.14305960835397],[129.05668007854922,35.1432446788511],[129.0566338814162,35.14342512372116],[129.05715366858652,35.14428955012765],[129.05764540227952,35.14441513416459],[129.05733758709263,35.14416526048735],[129.0573849050001,35.14208206494401],[129.0581497542662,35.14198536221045],[129.05910584475367,35.14130411644337],[129.06412514704442,35.141334207174665],[129.06406957335136,35.1414134313254],[129.0645389622771,35.14141544903315],[129.063522604932,35.142833339425025],[129.0632788235766,35.143374705147025],[129.0631625604814,35.14822995958323],[129.06301094933156,35.14870523745649],[129.0652296867965,35.149481772543695],[129.0655517575741,35.149468517076876],[129.06657285056286,35.14817749014759],[129.06678839263049,35.14775489795033],[129.0677307429973,35.147859781973445],[129.06772703425278,35.14836124806554],[129.06853131668515,35.14860404249565],[129.06979727982386,35.14857209511279],[129.0707335202449,35.148151668436306],[129.07138714999738,35.14889651022766],[129.07182005804088,35.14914861458362],[129.07257812014132,35.1495034922273],[129.0731673294186,35.149634200656074],[129.07346558314023,35.14958738804026],[129.0734682836977,35.14990227050597],[129.07505252432492,35.15056587070911],[129.07688338903907,35.150619043414125],[129.07867839580197,35.1505357992209],[129.0797981779614,35.15243474414889],[129.08011923734776,35.15329513071994],[129.07997863790962,35.1543347099334],[129.0820490797029,35.155483807707014],[129.08239155149138,35.15661886086807],[129.08196394230941,35.157271763711755],[129.08284398290047,35.15817410725744],[129.0824728280747,35.15860683633712],[129.0810414800149,35.15973082945697],[129.07970363462536,35.16128503279758],[129.07950969765085,35.161693397315865],[129.0786030292072,35.163002619974655],[129.07811491331472,35.16438503087586],[129.07865817317392,35.165520279968646],[129.0793692500773,35.16674512563961],[129.08018200057046,35.167260147982375],[129.08062296977639,35.167682604587526],[129.08130696383685,35.16763930681333],[129.08170649411645,35.16899460421383],[129.0815698784922,35.16946586893775],[129.0819192526425,35.17071460875944],[129.0819801473249,35.171497788783945],[129.08179187542325,35.17197638761089],[129.08056497556262,35.17221228538307],[129.08057462701888,35.172394126166736],[129.080186170757,35.172558472428115],[129.08004654984202,35.17298058678217],[129.07897800722415,35.17473635645043],[129.07863914222904,35.17543242561342],[129.07734430529078,35.1752311471368],[129.07700777595625,35.17576904225637],[129.07567787534262,35.17648494369927],[129.07597235649436,35.17685724570984],[129.07546158281463,35.17718078336503],[129.0755328970569,35.177362695068666],[129.075183828816,35.1775798392963],[129.07507419495622,35.178097930233626],[129.07517693660125,35.178351850928884],[129.07516326144415,35.17870757647714],[129.07487654941468,35.1791282766735],[129.07459904989182,35.17906336716653],[129.0731636902315,35.179026963565555],[129.0727568052636,35.17939309706115],[129.0724890700676,35.17948285018811],[129.07238270407933,35.179347700827],[129.07197574774537,35.179563729404],[129.07163618779666,35.17880622509781],[129.07202402361716,35.177902522251294],[129.07026313302904,35.17579679381536],[129.06898813877913,35.17644756673786],[129.06892591606166,35.17639229587498],[129.06879909380217,35.17647874277879],[129.0672339534391,35.17657545366001],[129.06717208952148,35.176295705915386],[129.06705516932482,35.17619572002321],[129.06699661452163,35.17512862198239],[129.06637621260262,35.17514626100815],[129.06626722026743,35.17518051794141],[129.06627568934863,35.17545134395036],[129.06657831344125,35.175712789545095],[129.06662534649035,35.175814642956],[129.06656349309785,35.17586372038195],[129.06650110856805,35.17580866401298],[129.06671848051695,35.17601656758087],[129.06666293194672,35.1760454865797],[129.06596251826736,35.17548113657807],[129.0658615425925,35.17560431565195],[129.06586453386745,35.176553887508035],[129.06566963996224,35.1765520815157],[129.06570403615368,35.17697242606136],[129.0626043114357,35.177354430806176],[129.06238400125017,35.17830330484713],[129.06219110087275,35.17860942664367],[129.06190045331255,35.179453526506606],[129.0615491624716,35.179786496858526],[129.0622041626722,35.18113085269153],[129.0620375676323,35.18172660676773],[129.06208412728725,35.1821246988241],[129.06178754943758,35.18314963890552],[129.06153371236982,35.183480127880074],[129.06137691601802,35.18343942099594],[129.0611507903875,35.18403343312588],[129.06002313140732,35.184363257132375],[129.05910531013842,35.18415646648512],[129.05744347635047,35.18409459477896],[129.0565374012456,35.184522797210136],[129.0562731478091,35.18476611511898],[129.05593612982608,35.184576484999205],[129.05539319352792,35.18407462922332],[129.05524218609318,35.184001515695336],[129.05483203946102,35.18400252728471],[129.05131453086688,35.18488514136327],[129.05125929029813,35.18563286453475],[129.05085821428642,35.18588001804383],[129.05092851096856,35.186717566573655],[129.05004914279542,35.18770522757862],[129.04944113679286,35.188094837146494],[129.04901571922366,35.188508969479464],[129.04830808990747,35.18939579528353],[129.04761848431616,35.190466562796],[129.0477066548221,35.19115125915072],[129.04735559624447,35.192184647892645],[129.0482744398935,35.19450947124664],[129.04959829469092,35.19402956121264],[129.04996448421403,35.193703412527256],[129.04960636149468,35.19403722798703],[129.04829036122018,35.19452549110259],[129.04462352406904,35.19841525021068],[129.04413167308428,35.19945225764092]]]}}
