{"type":"Feature","bbox":[128.98773679779362,35.18747590162506,129.06177789107048,35.27688541281039],"properties":{"regionCode":"26320","version":"vworld-20260909-3f8952dfda77-p3","name":"부산광역시 북구","attribution":"국토교통부/K-Geo플랫폼 · VWorld 법정구역정보, CC BY 2.0 KR; 공공주택 복덕방 가공"},"geometry":{"type":"Polygon","coordinates":[[[129.0359089114132,35.275467045362795],[129.03483869219997,35.276260435864316],[129.03182796578804,35.27661518392444],[129.03068345100002,35.27687663929097],[129.02953558529083,35.27688541281039],[129.02731252207428,35.276732864868556],[129.0249763229966,35.27642562898083],[129.0238272656435,35.27637095490376],[129.0225961809381,35.276154126234516],[129.0215112162537,35.27609761975464],[129.0188757188767,35.27562446942756],[129.01881217857382,35.27551623001641],[129.0183701995664,35.27545986285634],[129.01814391426225,35.275551110241615],[129.017120166913,35.27545859026278],[129.01333404641616,35.27413522842021],[129.01482197370336,35.27052971664812],[129.01328123184047,35.26692452389091],[129.01162303362972,35.26331931402563],[129.009823668995,35.25971409392856],[129.00782436350573,35.25610885298037],[129.0061276281804,35.252503571853424],[129.0042180966909,35.24889825982125],[129.0021808471071,35.24529292676785],[129.00063366396327,35.24168754998535],[128.99880011054134,35.23808215362299],[128.99676140558012,35.2360766939991],[128.99822447273021,35.23291471225722],[128.99761031630734,35.22825055205125],[128.99730484566336,35.22464417838036],[128.99683197389294,35.22241971419346],[128.9967894314497,35.22170425961117],[128.9959928835705,35.21710816454125],[128.99541220562855,35.21291500892673],[128.99456493763478,35.21004484587352],[128.9938762370097,35.208107773912715],[128.99317362717449,35.206747719499546],[128.99120007616958,35.20442438822897],[128.98773679779362,35.201460910024906],[128.98886262452916,35.20062915695576],[128.98912130595605,35.2001195620226],[128.9885335350296,35.197762470736585],[128.9877849292009,35.19709954233979],[128.98806387790012,35.196872916534176],[128.98788856655204,35.19590304501907],[128.99082917240128,35.1956251532748],[128.9904500602657,35.19389452273198],[128.99121080325526,35.1938400443389],[128.99166524210992,35.19413753952629],[128.9919791677022,35.1941331467905],[128.9925088468049,35.19439708042371],[128.9931411943215,35.194260230690325],[128.99381528431047,35.195332882887094],[128.99519887065648,35.194621794443066],[128.9951253124724,35.1944965042902],[128.99486946878156,35.194535248159674],[128.99458511584086,35.19411069879604],[128.99482229778224,35.19397911260123],[128.99470440134667,35.1937864078981],[128.99514404387824,35.19367205778242],[128.99545938331107,35.19382659085463],[128.9963424461135,35.19363815153133],[128.9971721111962,35.19326960209313],[128.99869358568355,35.192739920614656],[129.000282693771,35.19186507681925],[129.00043686612858,35.19020083551849],[129.00095149383233,35.18999911051648],[129.00206033418192,35.19003408129576],[129.00252554746135,35.19027077405788],[129.0034504767585,35.190060296557576],[129.0040725060645,35.19033762993829],[129.00629710557092,35.18960217528492],[129.00715372636083,35.18865019838956],[129.0079052325676,35.18812755332587],[129.00909059665284,35.188367515881154],[129.0100128739528,35.18836204421392],[129.01140271310973,35.188911789335535],[129.01719971915364,35.18883723625877],[129.02087745105965,35.18763195706759],[129.02108514210386,35.18747590162506],[129.0225932757691,35.18877161072448],[129.02326827265153,35.189500591189685],[129.02383868184253,35.19040228863051],[129.0246305496012,35.19112403780934],[129.0250891103117,35.1913102510396],[129.02556148473482,35.19173703745887],[129.02585743759957,35.19299183735501],[129.0255407570504,35.19406432880582],[129.0287789267678,35.19434260641368],[129.0295888141824,35.1946066965837],[129.03040724375313,35.19546739233102],[129.03243562692168,35.19590097044826],[129.03397924586,35.197502264956796],[129.0342627607707,35.19808650554467],[129.0363407864363,35.19913436164504],[129.03684532467585,35.19877128314128],[129.03761047594827,35.19863320271505],[129.03856722604118,35.19901414194931],[129.03984102935448,35.20008003101835],[129.04033385524517,35.199306893271434],[129.04149123998593,35.199403575279966],[129.04397542400238,35.19924558415712],[129.0441264441701,35.19944846005953],[129.04420418068312,35.2017365099699],[129.04655853634327,35.201877165775144],[129.0468227273635,35.20380071581009],[129.0474592886364,35.204370561866604],[129.04773932977176,35.20422739936238],[129.048065936811,35.20503968008805],[129.0500090137974,35.206608344011215],[129.05042737272933,35.20720070521418],[129.0510558350378,35.209123598022465],[129.05122111255858,35.209295236773286],[129.05130813249113,35.21097801592758],[129.0511063132684,35.212527070516764],[129.05122308408806,35.21298968937745],[129.05290157354216,35.21460905685577],[129.05345382688188,35.21582088164144],[129.05444230106258,35.21639161671275],[129.05500758972858,35.21705321831502],[129.0558308271022,35.217712058869814],[129.05579843183745,35.21823538850997],[129.0564455590205,35.21877125958346],[129.05604038125506,35.219750857210755],[129.0569142107527,35.220378218062905],[129.05788274553944,35.222550251470416],[129.05803935863477,35.222672541565466],[129.05889149775774,35.22475227319978],[129.06076024944232,35.2253269719105],[129.06177789107048,35.22582815682256],[129.06113431923413,35.228978048953905],[129.06046684898297,35.22982177244121],[129.05872008698512,35.229035088571024],[129.05725052208373,35.22854262099717],[129.0568892025726,35.228050327940664],[129.05660973781966,35.22803558426825],[129.05613908391143,35.228432750142545],[129.05555391412113,35.228091492511744],[129.0537519284914,35.2280408196447],[129.05216365837026,35.22808295577],[129.04894147247612,35.228640393139266],[129.04842723916568,35.22897048536453],[129.04784803746324,35.22922281761721],[129.0474280212401,35.22989772167496],[129.0471613194455,35.230121083848545],[129.04631790199952,35.23035575212068],[129.04607597975237,35.2303022099673],[129.04529985589474,35.23046022845661],[129.04498702811202,35.23030801506676],[129.04432203298447,35.2306862180493],[129.04461627703327,35.23113585186939],[129.04404607087906,35.23276330743409],[129.0465880950785,35.23497885321565],[129.04726400835366,35.23789216429687],[129.047930250184,35.23872279310077],[129.04940446258328,35.23937048413319],[129.04996520785704,35.240016540732455],[129.0503787183507,35.241247843219064],[129.049872164418,35.24244016508843],[129.05005711472904,35.24308486479833],[129.0503050542677,35.243374933596016],[129.05099145588525,35.243558008671684],[129.0507424207425,35.243712838300716],[129.05020546477684,35.24382563383892],[129.04994466804206,35.244148151730506],[129.04970888756722,35.24424921496729],[129.0495781326052,35.24516900882468],[129.048723728264,35.245514729648015],[129.04815425351245,35.246102044274856],[129.04611351968595,35.24667735147817],[129.04558251426135,35.24730685957578],[129.04554188721758,35.24797107458349],[129.04649086314637,35.24863909710949],[129.0462041758501,35.248953815524665],[129.0458053207881,35.24989777777257],[129.04539806026716,35.25122316720367],[129.0454810716855,35.25138634164514],[129.04534931312438,35.25143986280632],[129.04535703048944,35.25154463611023],[129.04585183852132,35.25249551620486],[129.04688337966874,35.25353176412379],[129.0470291833931,35.253904053946975],[129.04760832617322,35.25445562642852],[129.04816671355968,35.25462760230847],[129.04849348729456,35.25489040614559],[129.0485442627696,35.25525232920179],[129.0479698133446,35.25588240891167],[129.04785120961046,35.256392972496606],[129.04744167025763,35.256748102604426],[129.04677539260405,35.257132662183096],[129.04588150659015,35.257025100385604],[129.0455484794379,35.25722095879656],[129.04391695900992,35.257668148220894],[129.042960224541,35.25737784166917],[129.04296047078728,35.25742991289875],[129.04232820508994,35.25747966757541],[129.0420053148815,35.25801109723855],[129.0406852214183,35.25899001809533],[129.04003601890918,35.259274599861165],[129.03882848476684,35.25914743958243],[129.0387862925556,35.25940325238452],[129.0381489517103,35.25970296431943],[129.0378789196945,35.259633193117914],[129.03742001412604,35.26012789486394],[129.0369366979023,35.26035310055593],[129.0367429306236,35.26053360664276],[129.03659135122746,35.26045171785692],[129.0366830043624,35.260586792984334],[129.0365678743031,35.26070098735222],[129.0370445705384,35.26150903689226],[129.03786683422544,35.262343703088845],[129.0383500597334,35.262384207681855],[129.03886873259856,35.26255656498232],[129.03918384131865,35.26288239045416],[129.04000722768416,35.2627568460903],[129.04114014647362,35.263228329593325],[129.04181165474452,35.263318603962794],[129.04237397284834,35.263937993803125],[129.0425788050368,35.265213228637776],[129.04271943904743,35.265578223772],[129.0425770491789,35.26652341596214],[129.04278787300495,35.2670246699834],[129.0428103459811,35.26820983214501],[129.04296444421098,35.268670903810026],[129.04340891073272,35.26892114562563],[129.043569092342,35.26944666046439],[129.04352010900118,35.26972482681713],[129.04408945257734,35.2700073795852],[129.04483717769202,35.270705111089285],[129.04609494657126,35.27131377675922],[129.046488223156,35.27196637865976],[129.04653132922206,35.27280334451342],[129.04709257532977,35.27368022606774],[129.04754867599362,35.27420770072052],[129.0465580601776,35.274771161357954],[129.04459772861256,35.274497797992325],[129.040909154901,35.274796633150046],[129.03873140273396,35.275358948360314],[129.03746903231078,35.27528812904516],[129.0359089114132,35.275467045362795]]]}}
