{"type":"Feature","bbox":[128.95746204823607,35.116904877159406,129.02177639679104,35.201460910024906],"properties":{"regionCode":"26530","version":"vworld-20260909-3f8952dfda77-p3","name":"부산광역시 사상구","attribution":"국토교통부/K-Geo플랫폼 · VWorld 법정구역정보, CC BY 2.0 KR; 공공주택 복덕방 가공"},"geometry":{"type":"Polygon","coordinates":[[[128.9904500602657,35.19389452273198],[128.99082917240128,35.1956251532748],[128.98788856435579,35.195903045046066],[128.98806387790012,35.196872916534176],[128.9877849292009,35.19709954233979],[128.9885335350296,35.197762470736585],[128.98912130595605,35.2001195620226],[128.98886262452916,35.20062915695576],[128.98773679779362,35.201460910024906],[128.98188179134578,35.19666218512378],[128.9770696029834,35.19332832837745],[128.97026135571684,35.19051782306926],[128.9663203362608,35.187899535086686],[128.96361802955346,35.18450990023603],[128.963291047515,35.183641542867846],[128.96288534646982,35.164384394055105],[128.96063704564887,35.15422361280356],[128.9606399527179,35.15295064929577],[128.9605643656896,35.15277441722838],[128.96024401517604,35.149313010072255],[128.96003792035552,35.14563012240428],[128.96005481099837,35.14006960086237],[128.9596404125392,35.136645095047534],[128.96223072998302,35.13683255542775],[128.96223131569613,35.13561398020682],[128.96195732653425,35.13526419963729],[128.96157781081055,35.13351889504641],[128.96057326884556,35.131049346570016],[128.95979778892288,35.129912858655146],[128.9585958315993,35.1277525645744],[128.95799195235506,35.12630678356657],[128.95746204823607,35.12430242913554],[128.95758322061047,35.122093774174125],[128.9581928423158,35.11887084831746],[128.95944160253913,35.11770999755574],[128.95978805357532,35.11842324125719],[128.95997375829378,35.11909659578211],[128.96059143282693,35.120105250910065],[128.96150920352218,35.119911759263694],[128.96143721179445,35.11980960312118],[128.9615266574698,35.1198665801602],[128.96182906716018,35.119727500355985],[128.96227381165622,35.120095118651626],[128.96244843540754,35.1204423636507],[128.96256678367155,35.12039959494998],[128.9628628757128,35.12102216163851],[128.9632000677331,35.12094091079004],[128.96340619764,35.12154330996449],[128.96368676720462,35.12194870423551],[128.9645932970818,35.12158407461281],[128.96731850706306,35.12073817952026],[128.96898152680922,35.12061376307878],[128.96892868740895,35.12023787316588],[128.96962865574946,35.11986636270419],[128.9708261317976,35.11938820245285],[128.9719168426811,35.11908906731045],[128.97588340932117,35.11705420805918],[128.9770091733248,35.116904877159406],[128.97841444946695,35.11714758337883],[128.9800670009414,35.11710702517102],[128.980469127826,35.11739858009595],[128.98145955389526,35.118647625125526],[128.98161380294164,35.11968969876221],[128.98220687186247,35.12030409249517],[128.98315619422718,35.120898090942504],[128.98417903720042,35.12176092345385],[128.98464697153352,35.12225645604725],[128.9853701574119,35.12262847366388],[128.98695066006277,35.124219792109464],[128.98780386186922,35.12430797897568],[128.98825390521634,35.12447041766181],[128.98994075196438,35.12459958564953],[128.9937245007525,35.12392817369811],[128.99421453465183,35.12391787310053],[128.9954418878588,35.12361165915878],[128.9968062023464,35.12363270214021],[128.99975668738972,35.12327643660347],[129.00001016676393,35.12369904082278],[129.00128996285238,35.12471630848946],[129.00302838923227,35.1254605476801],[129.0035614749434,35.12645603230785],[129.0040360503357,35.12804226108212],[129.00361524266478,35.12798723277043],[129.0031186732756,35.1277615024192],[129.00288311857258,35.127791359116394],[129.00330081159427,35.13080640199963],[129.00301454774782,35.131374478470676],[129.00284489547164,35.132388347910265],[129.00258181607543,35.1327170309762],[129.00255809728355,35.13287308516399],[129.00297412282882,35.132825666573936],[129.00342428442676,35.13244093498697],[129.0039826175289,35.13225246060101],[129.00488039770428,35.132214469813256],[129.00513054626242,35.13240860083104],[129.00418514516525,35.13242857076029],[129.00354875444464,35.13257493627461],[129.00298721477526,35.13298848258201],[129.0027643896478,35.13304761375703],[129.0027047839827,35.13371690686436],[129.00250178068868,35.13383794031885],[129.0035081617496,35.134574926982694],[129.00365634542172,35.13461229588765],[129.00371825441985,35.13473147347767],[129.00338903578523,35.13503475366719],[129.00338677187491,35.13575627657079],[129.00370979404698,35.13586417153021],[129.00413133743928,35.13637794841643],[129.00432987411276,35.13639489721462],[128.99950240621223,35.13890807654351],[128.99888025152362,35.13868804147583],[128.99842019566944,35.138705059989896],[128.9977336014408,35.13927852801073],[128.9960139198694,35.140408305450144],[128.99850275943294,35.140991735022986],[128.99996519807715,35.14071144846135],[129.0016803906755,35.140720649027294],[129.00218161490108,35.140364663693724],[129.0039832733578,35.139574077005015],[129.0044948182737,35.139178397463276],[129.00631789166513,35.13927799934926],[129.00765879814847,35.13953429441461],[129.0087108497867,35.139405945484455],[129.0094818203787,35.13910967251172],[129.01058479377795,35.138837781121595],[129.01216676817134,35.13746585357014],[129.01393085706883,35.14010256581123],[129.01625186178643,35.14335238518669],[129.0160301365139,35.143868186334096],[129.01524703076572,35.144421413973504],[129.01501849505627,35.144496487901606],[129.01403998512032,35.14581735051432],[129.01482776269035,35.14630748710906],[129.01627335782945,35.14739498718181],[129.0163100274818,35.1473096420766],[129.016165621933,35.148279303169076],[129.01615587713508,35.149734027057036],[129.0161595777428,35.14983716331056],[129.0162811975232,35.149838024969576],[129.01633389381584,35.151567161229366],[129.01688213423904,35.15178742850738],[129.01660109128034,35.15211135940671],[129.01603049273237,35.152296377606284],[129.0163899638383,35.152593772978456],[129.01659512248267,35.15288351512365],[129.01652765732626,35.152869398365226],[129.0164742173676,35.15314487843014],[129.01624274853174,35.153259296548136],[129.01649365592777,35.15351261350107],[129.01638540711878,35.153726174279385],[129.01642428252848,35.154150599326904],[129.0162507019136,35.154397798365046],[129.01622833721507,35.1548321287308],[129.01550258418098,35.156284573685014],[129.01529389768913,35.15633472832062],[129.0148999872865,35.15614293128143],[129.01243969582944,35.15774819357493],[129.0119451481508,35.15828419198943],[129.0106000024752,35.15874759475701],[129.01070602240466,35.159082677340685],[129.0107628499329,35.16037206085788],[129.01142027917072,35.16132169473959],[129.01134883949715,35.16284459358804],[129.01162953305263,35.1634251703197],[129.01218338052638,35.163873546259005],[129.01201765622156,35.16416422698027],[129.01290840857675,35.165094553657745],[129.01323154246106,35.16592977953916],[129.01266642103903,35.16706971426215],[129.01253946377705,35.16900836468648],[129.01104388058644,35.17081385249479],[129.01115647361672,35.17128970890686],[129.0105178619009,35.1731445650663],[129.0105724132482,35.17357093860624],[129.01152873184034,35.17403694013948],[129.0118059372387,35.174730869440864],[129.01258453415048,35.17551778779385],[129.01314040978716,35.176320833167644],[129.01449454282834,35.17675071376365],[129.0163999675277,35.17852969758755],[129.01690022843965,35.17955706902422],[129.01993944017008,35.18071834327138],[129.02106629795722,35.18202035636706],[129.02079384125608,35.18323108739336],[129.02075423317098,35.18445115365371],[129.0206390696907,35.185035111498976],[129.02071932305188,35.18669379246628],[129.02110597142192,35.187482259572384],[129.02177639679104,35.1880218729045],[129.02108514210386,35.18747590162506],[129.02087745105965,35.18763195706759],[129.01719971915364,35.18883723625877],[129.01416944916025,35.18889495693501],[129.01140271310973,35.188911789335535],[129.0100128739528,35.18836204421392],[129.00909059665284,35.188367515881154],[129.0079052325676,35.18812755332587],[129.00715372636083,35.18865019838956],[129.00629710557092,35.18960217528492],[129.0040725060645,35.19033762993829],[129.0034504767585,35.190060296557576],[129.00252554746135,35.19027077405788],[129.00206033418192,35.19003408129576],[129.00095149383233,35.18999911051648],[129.00043686612858,35.19020083551849],[129.000282693771,35.19186507681925],[128.99869358568355,35.192739920614656],[128.9971721111962,35.19326960209313],[128.9963424461135,35.19363815153133],[128.99545938331107,35.19382659085463],[128.99514404387824,35.19367205778242],[128.99470440134667,35.1937864078981],[128.99482229778224,35.19397911260123],[128.99458511584086,35.19411069879604],[128.99486946878156,35.194535248159674],[128.9951253124724,35.1944965042902],[128.99519887065648,35.194621794443066],[128.99381528431047,35.195332882887094],[128.9931411943215,35.194260230690325],[128.9925088468049,35.19439708042371],[128.9919791677022,35.1941331467905],[128.99166524210992,35.19413753952629],[128.99121080325526,35.1938400443389],[128.9904500602657,35.19389452273198]]]}}
