{"type":"Feature","bbox":[128.57380920043863,35.85495098720289,128.61464282030346,35.879511223620206],"properties":{"regionCode":"27110","version":"vworld-20260909-3f8952dfda77-p3","name":"대구광역시 중구","attribution":"국토교통부/K-Geo플랫폼 · VWorld 법정구역정보, CC BY 2.0 KR; 공공주택 복덕방 가공"},"geometry":{"type":"Polygon","coordinates":[[[128.58399207491763,35.878246772698006],[128.57772614333263,35.879511223620206],[128.57794436551507,35.879032320901615],[128.5778748451831,35.878817610266736],[128.57774295574728,35.87873787856539],[128.57805042454441,35.876952256192865],[128.57795200995824,35.876624460403846],[128.57845926458683,35.87585816953608],[128.5789951025591,35.87550880345158],[128.57901561378821,35.8754019913817],[128.57844989263984,35.87547174655377],[128.57693342758247,35.87628858192637],[128.57666849941654,35.87622782955102],[128.57644796240874,35.87597205299442],[128.57644899714273,35.87576180467908],[128.5762549393498,35.87527411580381],[128.5763087348463,35.874867342622345],[128.57621188709444,35.87453139547192],[128.5760175078409,35.87452154461448],[128.5755468681298,35.87412082448439],[128.57547234071404,35.873836354404446],[128.57555998306577,35.87313914269875],[128.57598413060884,35.87287313878183],[128.57611832679498,35.87288513009141],[128.57637946587238,35.87276841798587],[128.57656491532273,35.872210581624415],[128.57675350373208,35.87193385853495],[128.57788678290612,35.87203800544064],[128.57793871400702,35.8721126107943],[128.5778782010801,35.87221058936221],[128.5781574930634,35.872446102722854],[128.57877801026646,35.8723751807901],[128.579110594766,35.87256366196407],[128.5793760839531,35.87285722005599],[128.57947244851303,35.872215036243524],[128.57935593360708,35.8717274162261],[128.57934406995903,35.87102262571634],[128.57940276586353,35.87055913291865],[128.57962845722312,35.87031318399331],[128.5790572941641,35.86943926292388],[128.5783781077252,35.86871377207375],[128.57725327323197,35.86779236983494],[128.57498547522593,35.86625448589462],[128.57380920043863,35.86533059056152],[128.57421533136358,35.86266463879905],[128.57408355364143,35.862632189605606],[128.57446050220625,35.85998727442341],[128.58289285335727,35.85628381022482],[128.59039055641387,35.85696417379243],[128.59044236482464,35.85714712590887],[128.59068908255617,35.85724962915043],[128.59094001299187,35.857162057421974],[128.59101315338484,35.856966649965116],[128.59472111836823,35.85656358250402],[128.59471201513568,35.85683568170213],[128.59445576371883,35.85720278372366],[128.59472771587573,35.856850264779965],[128.59476475784973,35.856562181410084],[128.59679336138365,35.856327940906816],[128.5976186678379,35.85597769942221],[128.59800715579433,35.85572271693086],[128.59801424292368,35.855827230844106],[128.59811059855485,35.85553075808596],[128.60351860901622,35.85522823479675],[128.60362201409058,35.85516679727828],[128.60374948650423,35.85520812593824],[128.60833951386266,35.85495098720289],[128.6081536195272,35.855674902470724],[128.60800337830275,35.85833944088888],[128.60822500980015,35.859836801014836],[128.60866640307464,35.86083863002452],[128.6093599383183,35.86072079099926],[128.6093923207196,35.86164325311889],[128.60965949494874,35.8621345780941],[128.6101517223618,35.8627228918565],[128.61237352491864,35.86375065662387],[128.61267366527156,35.86391277074133],[128.61288086765487,35.86412982975997],[128.61419625713035,35.86646725375352],[128.6142088327106,35.86679288717562],[128.6140537918948,35.86745885638285],[128.61414575005816,35.867758019386436],[128.61464282030346,35.86821600947692],[128.61434721667604,35.86892359008999],[128.61364179294202,35.870060520891215],[128.61342209522638,35.87146535069592],[128.61348290040956,35.871736814734035],[128.61241017957346,35.87417001152381],[128.6118598761308,35.8744541394527],[128.611323942038,35.87460126615588],[128.6105522410938,35.87502303453381],[128.60973943365326,35.8747937765038],[128.60998870663536,35.87452585114549],[128.60976137234624,35.87446507695583],[128.60975158300394,35.87438427584221],[128.6075867661955,35.873803684754726],[128.60628168099691,35.873627621110494],[128.60625661700726,35.87376490534645],[128.60514085157817,35.873580091201916],[128.60437109011792,35.87363602836522],[128.60295248538264,35.8740339535603],[128.60295980808147,35.874088663337915],[128.6003588676724,35.87475575844524],[128.60037991518578,35.874797943491245],[128.5998544209842,35.87474973834904],[128.59496487461712,35.87566802187405],[128.5949624086118,35.875777959078],[128.58858792910718,35.87705338147899],[128.58861400912846,35.87721732667198],[128.58821706715557,35.87731997549783],[128.58820026938122,35.87748067865924],[128.58777168734676,35.87759139766029],[128.58745751825725,35.87759283965108],[128.587452435827,35.877675827524506],[128.58722727381982,35.87763954048544],[128.5872132932723,35.87770888893058],[128.58705965880938,35.87765112983884],[128.58667609368035,35.87777318666562],[128.58399207491763,35.878246772698006]]]}}
