{"type":"Feature","bbox":[126.586181040542,37.42966399103347,126.67443057753256,37.49866381027411],"properties":{"regionCode":"28125","version":"vworld-20260909-3f8952dfda77-p3","name":"인천광역시 제물포구","attribution":"국토교통부/K-Geo플랫폼 · VWorld 법정구역정보, CC BY 2.0 KR; 두꺼비집 가공"},"geometry":{"type":"MultiPolygon","coordinates":[[[[126.59981135935197,37.46561898630999],[126.59972608225293,37.46560257754987],[126.59977664229307,37.46549503025117],[126.599862847333,37.465540805658115],[126.59981135935197,37.46561898630999]]],[[[126.59996893718755,37.46607028632688],[126.5998722897928,37.46610215055254],[126.59982319778129,37.46601554194036],[126.59991861637508,37.46597881719882],[126.59996893718755,37.46607028632688]]],[[[126.60006961562927,37.46643667684717],[126.59997799820096,37.466388180211155],[126.60003873356935,37.466311999950456],[126.60013207033104,37.466353925094054],[126.60006961562927,37.46643667684717]]],[[[126.5998262413261,37.4663720772082],[126.59993529988253,37.466348796659574],[126.59995972774297,37.46643958313643],[126.59984764891912,37.46645690685463],[126.5998262413261,37.4663720772082]]],[[[126.59617795765192,37.47277336113042],[126.59705028781387,37.47444058137365],[126.5966233909133,37.47433991966882],[126.59648953951945,37.474130609921644],[126.59652493746445,37.47406522878302],[126.59629395929275,37.473838466948955],[126.59633290039916,37.473744986915506],[126.59621496387787,37.473687188971084],[126.59596444200663,37.47308167047755],[126.59617795765192,37.47277336113042]]],[[[126.61318169207095,37.482626639587146],[126.61285318151077,37.48253023409088],[126.61290968117295,37.482346319426696],[126.61436943573315,37.478985331774545],[126.61423868197043,37.4788897310396],[126.61376639056851,37.478773593420954],[126.61358778633657,37.47881045261033],[126.61365136117735,37.47884698047935],[126.6135783466904,37.47899625214475],[126.61342860308244,37.47895043129397],[126.61194827722511,37.48208017990575],[126.6051043582982,37.4800766318933],[126.60454555787881,37.481354737757485],[126.60979486327066,37.48295040518043],[126.60805136722703,37.48676595902161],[126.60636516125393,37.48627857864328],[126.60753288173726,37.48369774766287],[126.60645570061563,37.48337627073802],[126.60585337747153,37.48473193838079],[126.60341798674041,37.48401479176886],[126.6027555732482,37.48429890341562],[126.60273232057635,37.48232593310812],[126.60393478403812,37.479735396461315],[126.60349489337085,37.47960664982819],[126.60333152289523,37.479833033288195],[126.60221015098546,37.482187047104695],[126.60154510397243,37.482042602630266],[126.60177572570987,37.48136341961847],[126.6006002826511,37.48152302195582],[126.59788802607198,37.47732753563044],[126.59794588783592,37.477310560273644],[126.59786272578009,37.476810223261516],[126.59760771319915,37.47683102982607],[126.59762838347001,37.47666638933528],[126.59782275580142,37.47658849566854],[126.59764158384458,37.475494850737505],[126.59516741017356,37.47075156697906],[126.59505864285879,37.470170500193085],[126.59542658610997,37.46981740293307],[126.59477550625111,37.46888276658592],[126.59487135780277,37.46884028105898],[126.5954841336371,37.469791075614665],[126.59682968045783,37.469353967873516],[126.59720454499065,37.46968645768018],[126.59762876748268,37.46986553097647],[126.59780712400244,37.46960103995245],[126.59789785914748,37.46962066727945],[126.59947095847481,37.467236692009244],[126.600332544209,37.46693525398212],[126.60015579049595,37.46629379195918],[126.60065720498396,37.46617021006789],[126.60060973090529,37.46599634560511],[126.60009192495349,37.46608862501072],[126.60003817149521,37.465933020240136],[126.60048011697707,37.465794307501014],[126.60039856508448,37.46552063184993],[126.59995730350545,37.46559937618267],[126.5997715539297,37.46496298253734],[126.59912239699827,37.46464795636774],[126.59576834181635,37.46419614307152],[126.59382414635466,37.46529512110514],[126.59104552105553,37.46420442214905],[126.59109829122148,37.46412062339318],[126.5934795215034,37.46505000451114],[126.59419205834168,37.464663114278224],[126.5941946242619,37.46458184408267],[126.59427775533844,37.464616269398746],[126.5957047696807,37.4638420604749],[126.59578621953936,37.45799810104691],[126.59550759041805,37.457751530368924],[126.59545114743563,37.457780546847665],[126.5954458127574,37.457696915792766],[126.59474791543445,37.45707834949864],[126.59254535018324,37.45818493280514],[126.59106143255703,37.46197180374741],[126.59093184721524,37.46193794459031],[126.59246199633606,37.45813060241248],[126.59478800984465,37.456973061560355],[126.59489466813406,37.45689403250926],[126.59487325786237,37.45681539170449],[126.59668650399725,37.45773432891327],[126.59670282027518,37.45762401239399],[126.59684828031298,37.45766843425323],[126.59694293564016,37.45760174199103],[126.59702012600191,37.45766564378206],[126.59710734117061,37.45760371022931],[126.59816594237884,37.45854746645818],[126.5980051362661,37.458664047424286],[126.59812024354531,37.458768902212285],[126.59798887026986,37.45886418488085],[126.59804757912957,37.458916192769784],[126.59817256419143,37.45882764572841],[126.59829241588142,37.45893730084408],[126.59845503062084,37.45881228329926],[126.59876380959422,37.45909405125376],[126.59911356066009,37.45927712731914],[126.59894013093239,37.45941028098247],[126.59899005965919,37.459451563633664],[126.5991752003072,37.45930971908595],[126.60014012616696,37.45981192834064],[126.60061418514594,37.45947115775643],[126.6021960091901,37.460340345887076],[126.60294667868598,37.45945792760195],[126.60154993409488,37.458692432206846],[126.60329481772011,37.45668374378002],[126.60173349905399,37.45569215743963],[126.60155240199396,37.45587315922542],[126.59969829043527,37.45472484396964],[126.59923389279108,37.4546171174149],[126.5988864047661,37.45441010975778],[126.59780334094218,37.45398745025573],[126.59699207936565,37.45434677015329],[126.59687884995081,37.45419068077998],[126.59424748478881,37.45538954075124],[126.59340772737464,37.45484491804017],[126.59553239007803,37.45283934785728],[126.59518384550731,37.45260333148821],[126.59604861484463,37.45178244490005],[126.59613640914999,37.451842437311555],[126.59680521384014,37.45120642474069],[126.59662962271028,37.45108700845547],[126.5968374795075,37.450887527066016],[126.59660013849931,37.450694693017304],[126.59698778129352,37.450326321937],[126.59698576478908,37.44935548704817],[126.59345524270893,37.44934785583558],[126.59328442547815,37.449653606108654],[126.59328107028396,37.45020658347176],[126.59297452232559,37.45020665052329],[126.59129040121962,37.454354426873934],[126.59142266293998,37.45438839404578],[126.59134516239389,37.45457733501894],[126.59110515348775,37.454515405050984],[126.59320980862115,37.44934700823222],[126.59323682903154,37.4416438312968],[126.59413783312515,37.44164640645486],[126.594159259297,37.43874621135175],[126.59426628457645,37.43868026637578],[126.60104756983785,37.43870146182149],[126.60551679562847,37.445891872003735],[126.60568075539298,37.44587496880696],[126.60588704062704,37.44620057854197],[126.60576528148661,37.44625310475545],[126.60589655176527,37.44650611286919],[126.61089494225773,37.454329899889075],[126.61388705690527,37.453112426442466],[126.61134999511259,37.449135170465546],[126.61128982009538,37.44916059627803],[126.61097533736331,37.44868343261304],[126.61105072284278,37.448651579010004],[126.61062353349422,37.44794738615031],[126.61867837276226,37.44467383180118],[126.61667692788357,37.441541981527344],[126.61018705304093,37.444222535494646],[126.60810295870934,37.44095377419859],[126.60951460570183,37.4403691301479],[126.60936795666441,37.44014032714613],[126.61197346999325,37.43907697462012],[126.61212689246241,37.43931579979847],[126.61544994462484,37.43797761488591],[126.61163803838863,37.431906136809765],[126.61139478619994,37.43200303912907],[126.61020134838108,37.430108960021656],[126.61068366892249,37.42966399103347],[126.6115293144657,37.429723375828466],[126.61166326913998,37.42993414801686],[126.63234636048875,37.4299971683323],[126.6288719960423,37.448648012058705],[126.62884837100403,37.44846463781635],[126.62843256575623,37.448634237048154],[126.62829975607833,37.448886656803964],[126.62843678263636,37.4488865307812],[126.62893848862984,37.44912715803505],[126.62905271626451,37.44913259068889],[126.6291109657148,37.44892216513595],[126.6291864318459,37.448943234041934],[126.63008822403165,37.44994505671082],[126.62976423722922,37.45029261752986],[126.63004410994802,37.45054493089617],[126.62914352671261,37.45179448862641],[126.62941212029833,37.45189922897559],[126.6293548140093,37.45223833850169],[126.62950478313853,37.45254936764662],[126.62989871302428,37.45280767147774],[126.63270503957713,37.45364059838039],[126.63756259601546,37.45996885903424],[126.63783626640434,37.46093123966526],[126.63776973589798,37.46095721797047],[126.63922166884372,37.46321952920968],[126.6388318007168,37.46334503193681],[126.64223029195553,37.46506252755661],[126.64286671195487,37.46515793938466],[126.64317117720682,37.46542240531047],[126.64321326925581,37.46585641816994],[126.64410270078082,37.46593429086868],[126.64400408857584,37.466318602164584],[126.64364413746618,37.4668724741151],[126.643388157562,37.46708204590738],[126.64296405209197,37.467277727313174],[126.64290516300001,37.46778094578893],[126.6429975157604,37.46793729704746],[126.6433170325324,37.467783506650804],[126.6434013494715,37.46797067816405],[126.64242950163695,37.46838894660432],[126.64244792211541,37.468538036912946],[126.64264866988181,37.468442240270356],[126.6429104589261,37.46878821641312],[126.6421236721123,37.469269554352074],[126.64186358568494,37.46927414245678],[126.64193021413584,37.46978368829071],[126.64227171161258,37.47028534924609],[126.64263357060837,37.470149046461785],[126.64309406363238,37.46977484464347],[126.64340273088342,37.46968145493995],[126.64453235485033,37.46958829478128],[126.64543586728479,37.46994832083182],[126.64640633258271,37.46989718115646],[126.6469446942635,37.46974985355478],[126.64783436444222,37.46975167273524],[126.64894359512921,37.46930138800532],[126.6493005156898,37.46927204363493],[126.64994836694045,37.46931368019825],[126.65066340299504,37.46971984918736],[126.65086080639844,37.46992371858256],[126.6522212371408,37.46965041105584],[126.65356011862256,37.47021438588428],[126.65361904711324,37.47049541872374],[126.65293276862607,37.47018405632484],[126.65225921857102,37.47029197139367],[126.65222108300313,37.4706256153873],[126.65258263659695,37.47131804800703],[126.65275375736783,37.47148016458117],[126.65290171919169,37.47206259217768],[126.6535007376289,37.47285047905591],[126.65376230179609,37.473544450359775],[126.65313275742551,37.473812616158966],[126.65244301013294,37.47426305290151],[126.65226965590584,37.47442922534794],[126.6521427323916,37.47494467160407],[126.65198007447114,37.47520463314001],[126.65228798964797,37.47534829763322],[126.65266552111433,37.47570529271565],[126.65278219601636,37.4756734857091],[126.65303072249402,37.476027734139926],[126.6527406335531,37.476000972933235],[126.65261059327932,37.47613593010635],[126.65265413301061,37.47623010471776],[126.65300969918373,37.47666715905012],[126.65316186811731,37.47670133797583],[126.65340599205675,37.47696271602704],[126.65401058740045,37.47825261609974],[126.65433687384788,37.47851711703747],[126.65449440236121,37.47841030694088],[126.65439811234276,37.47891148340148],[126.65419699177959,37.47900774964984],[126.65428009344623,37.479182562158755],[126.65299789509992,37.47953778066269],[126.65305502426702,37.48165331963697],[126.6525514547467,37.4812931190647],[126.65245493175344,37.48126947149633],[126.65243618779758,37.48134937962029],[126.65300888260792,37.481775385685346],[126.65472760752681,37.48383302187528],[126.6547828867056,37.483798270478296],[126.65498761328385,37.48403285088593],[126.65923337653055,37.48247805040475],[126.6700092760898,37.47702536486339],[126.6702966616464,37.47690932035165],[126.67035405657457,37.47699450852971],[126.67031392511771,37.47684010009826],[126.67064476301263,37.476766135850276],[126.67070101742421,37.47686624070343],[126.67067472291346,37.47674284789328],[126.67082714766961,37.47666696906291],[126.67437209075982,37.47560718898513],[126.67443057753256,37.47693941421959],[126.67352560076311,37.477186653411536],[126.67352538172287,37.477236775233735],[126.67134065400617,37.47783181899903],[126.67131805083231,37.47778895842603],[126.66427090318096,37.483086067694614],[126.6477712473867,37.49198837122264],[126.64777388848923,37.49217646191799],[126.64734535069948,37.49223177898995],[126.6407630010322,37.49577304614921],[126.63678156427723,37.49474220724825],[126.63631758305381,37.49588098634454],[126.62747864144589,37.49336613979825],[126.62755445601267,37.49319690106848],[126.63191312484827,37.48826848730991],[126.63902385724627,37.48352122039211],[126.63762432860901,37.48217555991804],[126.63741790197827,37.48230359538953],[126.6385553049548,37.48341982550509],[126.63603435740015,37.485079816703404],[126.63600899330221,37.48518738924582],[126.63257817026509,37.48696957295391],[126.63258530006824,37.487044188581656],[126.63252152851473,37.48697081047951],[126.63214814896897,37.48716462108143],[126.63216226589543,37.48724384329174],[126.63210975445931,37.48718463651985],[126.63184657148635,37.48732315261238],[126.63073939086283,37.48819713395234],[126.629734383607,37.48921065216954],[126.62959851634015,37.489182033811936],[126.62944650399596,37.48932905579894],[126.62916596206341,37.4892194938461],[126.62906600947541,37.48945794256414],[126.62929833573514,37.48953159186385],[126.629112003724,37.48980271823667],[126.62901069381759,37.48978381144255],[126.62888898269269,37.48988620401581],[126.62626859643122,37.492484038583505],[126.62420270578107,37.49212240420711],[126.62470599046092,37.4911174274808],[126.62483063779699,37.491064612687545],[126.62473619048482,37.49013628667344],[126.62396912021535,37.489034065200116],[126.62379819033568,37.48908785795077],[126.62387290051916,37.48923310288409],[126.62362153988245,37.48925820280871],[126.62343423586887,37.489368254854405],[126.62398879765485,37.490156876135934],[126.6231592745072,37.491819450270704],[126.62241035432965,37.49158742566977],[126.62237245178909,37.49166890335434],[126.6220377458748,37.49153302382571],[126.6219825012649,37.491648487601594],[126.62124100843268,37.49142326166003],[126.62131046972986,37.49124940029997],[126.61838834257635,37.490381945144854],[126.61900887540031,37.48888352026062],[126.61837099049254,37.48869619070423],[126.61771993279646,37.49018268314998],[126.61621389228914,37.48974361939131],[126.61744589056082,37.48687373548253],[126.6165981155841,37.486724006186726],[126.61667079509422,37.486435356889245],[126.6164178994376,37.486370710091556],[126.61523296684291,37.489047032485054],[126.61313340673682,37.488401163883076],[126.61427018733141,37.48579369382041],[126.61317478819007,37.4854460985598],[126.61197522236195,37.48803154709685],[126.60987084674386,37.48736596296856],[126.61168279617743,37.48351046898801],[126.61419148237096,37.484282286080635],[126.6147763847836,37.48299735493277],[126.61448484326823,37.482911485427906],[126.61444539871037,37.48299641023083],[126.61318169207095,37.482626639587146]],[[126.6154433207982,37.46608616200186],[126.61789048937092,37.465139417753356],[126.6180369634941,37.46488201177256],[126.61820677904528,37.46501886329626],[126.62674320195042,37.46169987772079],[126.62590217942424,37.46032318336458],[126.62031393335164,37.46249274566137],[126.62001614293888,37.462009470844954],[126.61957250463627,37.461279066403016],[126.62515769309897,37.459108123263974],[126.62426786626723,37.457650739005516],[126.61217094358892,37.46234596980578],[126.60333663466918,37.46005446912022],[126.60260690623512,37.46088402678887],[126.60426807195847,37.463324003782596],[126.60408432275577,37.46340362891927],[126.60396887913227,37.463996416717464],[126.60426442892086,37.46394424795255],[126.60434315641952,37.464258465487724],[126.6046158057749,37.464209331027156],[126.60475302979468,37.46472473945247],[126.60392253751463,37.464872559173834],[126.60401764550562,37.46518850784128],[126.60484349961672,37.465052718247144],[126.6048955875687,37.4652151088154],[126.60297731201608,37.46556539646847],[126.60303666096434,37.465764663146125],[126.60353170552008,37.465666248468246],[126.60363214465592,37.466029788059224],[126.60373122462765,37.46601211065351],[126.60362407335617,37.46565233273808],[126.60374311402576,37.46562844256679],[126.60393778512388,37.46630221399954],[126.60606818017384,37.46629765047174],[126.60803611125276,37.467229706617836],[126.60991906031761,37.469137409363405],[126.60697168414873,37.47552102850975],[126.60705194946522,37.47571050580964],[126.6097887109157,37.4765158659908],[126.60984815711271,37.47639611334768],[126.61241894971658,37.47716313767302],[126.61563725015857,37.470224460943136],[126.62506346075735,37.46656246580121],[126.62408106158087,37.46486071059773],[126.61528401239838,37.468271213668324],[126.61424019416826,37.466551918395915],[126.6154433207982,37.46608616200186]]],[[[126.5871320281828,37.4968117157242],[126.58760698389965,37.496673114118956],[126.58765127022627,37.496889831483756],[126.58821155894071,37.4968639161998],[126.5886111035458,37.49658665432303],[126.58902732364479,37.49653380559126],[126.58940687024928,37.49671152602137],[126.59083323906454,37.496761416556964],[126.59104675956715,37.49668754729258],[126.59132663189492,37.49677993404427],[126.59137950668095,37.49697271422911],[126.5912940509599,37.49716261704008],[126.59097326218392,37.4974134832899],[126.59054626165745,37.49797603821837],[126.59024835108701,37.498062650372155],[126.58967251580727,37.498527214517246],[126.58943973385519,37.498635459012284],[126.58838631953616,37.49866381027411],[126.58737919380113,37.498355766907196],[126.58651494996818,37.49800436503908],[126.5865349237417,37.49795678167873],[126.586181040542,37.49794168998022],[126.58627063921307,37.49753098086221],[126.58651217096936,37.49719044376264],[126.58678777406287,37.4969540809769],[126.5871603115633,37.496928105925015],[126.5871320281828,37.4968117157242]]]]}}
