{"type":"Feature","bbox":[126.66742674269484,37.381315404297496,126.78043195262518,37.47993673282711],"properties":{"regionCode":"28200","version":"vworld-20260909-3f8952dfda77-p3","name":"인천광역시 남동구","attribution":"국토교통부/K-Geo플랫폼 · VWorld 법정구역정보, CC BY 2.0 KR; 공공주택 복덕방 가공"},"geometry":{"type":"Polygon","coordinates":[[[126.71038475702011,37.38289863452253],[126.71030077562027,37.38260593171813],[126.71048808513925,37.38252115688861],[126.71161096580809,37.3823225380697],[126.71331317031206,37.3817742867138],[126.71485534694973,37.38149565687661],[126.71667972477636,37.38141248608153],[126.71726123903933,37.381315404297496],[126.71730851361767,37.38144427280364],[126.71753946514818,37.381400948175525],[126.7177083406858,37.38147091181186],[126.71789075846588,37.38181265348523],[126.71785159769307,37.38195744260295],[126.7175002747499,37.38206246859026],[126.71753533109967,37.38219788505044],[126.71584100208092,37.382663826578295],[126.71619798392223,37.38270691140289],[126.7181467576987,37.38331809598392],[126.71893564375708,37.383439088489894],[126.7192851254579,37.38339571024424],[126.719441137577,37.3832871228502],[126.72031646079083,37.38322050496891],[126.72010165689625,37.38282129545928],[126.72024860242605,37.38268479903379],[126.72114250983505,37.382504186898466],[126.72472529415037,37.385205810138665],[126.72631141354086,37.38640983275532],[126.73350081294832,37.39387208967714],[126.73372272631708,37.39398719216859],[126.73743396409145,37.397325904266076],[126.73767678727641,37.39727323251746],[126.73793623159754,37.397559873360265],[126.73795618290481,37.39770943174223],[126.73784406722149,37.3977787309164],[126.73803453816907,37.39806072166225],[126.73807403286713,37.39796677104851],[126.73813668270549,37.39801702488023],[126.73827108586059,37.39772984730735],[126.73812679422798,37.39736376923656],[126.73821377936157,37.397114211442734],[126.73836438710772,37.397036834402016],[126.73868788744987,37.397175246496126],[126.73883500378298,37.39708856265251],[126.73906198854017,37.39742554055142],[126.73899623931344,37.39750620636981],[126.73957888086201,37.39792083759291],[126.7398846051718,37.398402150152506],[126.74007649145226,37.398532932927786],[126.74030362619837,37.39837069411675],[126.74106525376683,37.399130629519014],[126.74084419063493,37.39932329229991],[126.74101632744416,37.3996043998355],[126.74122104488093,37.39973988931891],[126.74161803424144,37.3998532227079],[126.74194546165431,37.40023357411648],[126.74195104790748,37.40041162626266],[126.74270198887943,37.400680620365364],[126.74399928705067,37.40098702143654],[126.74399109831559,37.401096125104715],[126.7438578669222,37.40107202114509],[126.74366050573155,37.40124652232076],[126.74347995788605,37.40128670102593],[126.74367028688246,37.4014804101764],[126.74414890183375,37.401586961273956],[126.74440750443623,37.40189350730079],[126.74367544080931,37.40406371067316],[126.74342504948764,37.40508292859915],[126.74331032462476,37.40510772623884],[126.74325656798325,37.405266410039985],[126.74451285373786,37.4055285952469],[126.74463344421243,37.40623727699447],[126.74487813159774,37.40641660488018],[126.74850467543797,37.407404260439264],[126.7490132438852,37.40793152871887],[126.74978021291598,37.40829450532365],[126.75003982931939,37.40830468956073],[126.75071231177252,37.407986736677685],[126.7507710880701,37.40805538318525],[126.7499597503363,37.40839842253448],[126.74916330745486,37.40810714067509],[126.75168507427959,37.41104714042161],[126.7527034780206,37.41645520190309],[126.75504393576956,37.41795286008647],[126.75504608511582,37.418210490093585],[126.75325328573633,37.42270221385583],[126.75368360411815,37.42292610725032],[126.75382181942302,37.42287318335412],[126.75440795687945,37.42311289780606],[126.75452170981364,37.42282030780644],[126.75468092261704,37.422716745049016],[126.75498371391724,37.42270189751275],[126.75510588204843,37.42285700850959],[126.7551441740655,37.42318285688308],[126.7556302335406,37.42353019835467],[126.75568538634438,37.42382763675652],[126.75601813483206,37.424098918970685],[126.75679970872618,37.424388303346625],[126.75737793548618,37.42484759838392],[126.75798188203255,37.424881505566994],[126.75837582783912,37.42500706098772],[126.75856380643859,37.42523128487179],[126.75868093744722,37.425802251023],[126.75843115153191,37.42645750025154],[126.7589838497001,37.426902381762574],[126.75953276175339,37.42693195140335],[126.75961811458265,37.42673954466691],[126.75998072076727,37.42645730651478],[126.76071915738389,37.42633998796286],[126.76139084612801,37.426448628167094],[126.76241853925244,37.42696653810673],[126.76238713173268,37.427129791262736],[126.76116146185329,37.427910047180916],[126.76145749079664,37.4279103693572],[126.76084893240919,37.428094964879485],[126.76076866889237,37.42824037725923],[126.76131572131602,37.428084372318516],[126.76175896550285,37.4277051549477],[126.76257764476595,37.42728361809608],[126.7626165790478,37.42691682441095],[126.76233234586594,37.42642379482142],[126.76236386015097,37.42628730181229],[126.7645253518832,37.426034299631795],[126.76570898056814,37.426419306517126],[126.76732084132294,37.426706886712886],[126.76801330137538,37.42718158294459],[126.76920581865018,37.42750603363192],[126.76968276078114,37.428663926978956],[126.77059125154693,37.42979730760742],[126.77076034418943,37.4298074948111],[126.77070760125353,37.430312523693324],[126.77090426621713,37.430944162318305],[126.7711205318094,37.43117209737272],[126.77100606801986,37.43119383178495],[126.77117863808421,37.43133495054975],[126.77109464637945,37.43149668887223],[126.77012658200987,37.431524369063624],[126.76956877415742,37.431622954361515],[126.76899969250654,37.43199799792348],[126.76948870996056,37.43250971268173],[126.7702402663409,37.432960860037795],[126.77071327101582,37.43369524023345],[126.77083040566767,37.43442077943224],[126.77113950367209,37.434773621824924],[126.77123474156632,37.43543802055834],[126.77120241006871,37.43647946716654],[126.77045544899585,37.43779516374764],[126.77051444013546,37.43801687253402],[126.77028246732034,37.43864290665099],[126.77016592722657,37.4395115819018],[126.76972941396214,37.44096022909021],[126.76926830072057,37.44139405028843],[126.76940027288788,37.44193941797028],[126.76934709847244,37.442292958257354],[126.76892892329076,37.442713356273934],[126.76871474575508,37.4431707625764],[126.76853928786633,37.44332330849805],[126.7680577854819,37.443500307053334],[126.76749037885943,37.44341133699877],[126.76794987100178,37.443560911730806],[126.7682779327962,37.44356408233416],[126.76874506963601,37.44415770251922],[126.77030389698876,37.445505512311925],[126.77111053156622,37.44641373279651],[126.77102263308669,37.446859820181594],[126.77033306218992,37.447500448468354],[126.77067936591298,37.44847223724336],[126.77096581897975,37.44880223067187],[126.77162589109818,37.449317088973196],[126.77374211289438,37.45051671093247],[126.77822734571816,37.451055447391745],[126.77902260850537,37.45102090692076],[126.77940430422035,37.45212563447901],[126.77999532597067,37.453385626721534],[126.78015410379298,37.45404196327102],[126.78000684559703,37.45445388768045],[126.78023919131337,37.45464973263739],[126.78043195262518,37.45497812185296],[126.7780553395135,37.457000342924154],[126.77736998728349,37.457162910627716],[126.77740298375002,37.45764614530478],[126.77758259735998,37.458114151559286],[126.77776827504448,37.459096894108164],[126.77831881481072,37.4593183925603],[126.77883777276558,37.45970173920399],[126.77886561331297,37.4602043711688],[126.77852849368881,37.462035591575045],[126.77774386085304,37.46278785131271],[126.77826255893953,37.46333028080333],[126.77939415787968,37.46499223074372],[126.77981961293597,37.465830682417135],[126.77952250478764,37.46602242557409],[126.77969982917374,37.46632374731112],[126.77965979290386,37.46684344222857],[126.77959428602351,37.46713445099961],[126.7791847295072,37.4677812853327],[126.77938575534193,37.46795087151397],[126.77943364442663,37.468300667358],[126.77859986240456,37.46934933213633],[126.77786714015268,37.470022572620664],[126.77789056407687,37.47075832968514],[126.7781971198876,37.471795069932675],[126.77776340331762,37.471819306347804],[126.77711076447815,37.472220708210976],[126.77606127708674,37.47166627972762],[126.77522253082185,37.471697337832616],[126.7745952608261,37.47142105929844],[126.77338724936942,37.47217894414344],[126.77314364717388,37.472185789747144],[126.77282423199716,37.47237945488841],[126.7719642304225,37.47231218553837],[126.77178186756568,37.4719857768784],[126.77141558988079,37.47185188726276],[126.77096495382814,37.471807923060936],[126.76955154049395,37.47197606794558],[126.76813876811181,37.47170694136519],[126.7677575906823,37.47176446471036],[126.76767779566609,37.47146557091568],[126.7670303651369,37.47064296236968],[126.76663529313144,37.470398907445485],[126.76605726780599,37.46974959482921],[126.76528815704933,37.46971400203468],[126.76491542761214,37.46978364258787],[126.76236204303828,37.4698491772901],[126.76035697555875,37.46934279430094],[126.758632877513,37.46946174544696],[126.75794866141254,37.46917735972229],[126.75707503063815,37.469131343728044],[126.75673553378932,37.468430409788496],[126.75618594263257,37.467599501849506],[126.75576129236075,37.46712812553051],[126.75518911951131,37.46699149572106],[126.75481204951073,37.466769972774834],[126.7543126442655,37.4656238100813],[126.75436858129372,37.465367709195284],[126.75401572963517,37.46530529717176],[126.75360696699293,37.4650592057166],[126.75289164892733,37.46484567923744],[126.75246255549968,37.46482169206483],[126.75194634205722,37.46501994070214],[126.75132149487109,37.46512083815275],[126.75129287768895,37.46522833014797],[126.74989822284059,37.46572233448683],[126.74963115791721,37.46577751954847],[126.74959536292974,37.465709012172304],[126.7493389778965,37.46569072463316],[126.74893877236887,37.46584501344148],[126.74783281277597,37.465672859787006],[126.74724479032321,37.46543085742895],[126.74625365783481,37.46448211031996],[126.74609019171113,37.46476642863871],[126.74546333091331,37.46524399956959],[126.74492997400434,37.465391796354005],[126.74501939110465,37.465479549799625],[126.74495677683211,37.46555994540832],[126.7450290573468,37.46621698650545],[126.74479256286355,37.46637161643921],[126.74342501786687,37.46646464843779],[126.74290406258898,37.466956240191536],[126.7426050683646,37.467971185138765],[126.74187238944559,37.46936302986697],[126.74066521425839,37.469798203759744],[126.7393670713162,37.47052766461398],[126.73888303309361,37.47105622509141],[126.7380925239091,37.47092691991427],[126.73719016483405,37.47116225556647],[126.73285793308206,37.47198985764769],[126.73254793092423,37.47209276750319],[126.73094223461027,37.47299854451571],[126.73044598431746,37.47223606199211],[126.72977037116604,37.47232715112819],[126.7289424627982,37.47223682920486],[126.7284663759576,37.47186463510366],[126.7275205675051,37.471650422503835],[126.72703280263796,37.47128748484412],[126.72698515496539,37.47079267086695],[126.72659227330398,37.47032548973796],[126.72602044312995,37.47010341288353],[126.72581227088081,37.470178106874364],[126.72520085415023,37.47011022102304],[126.72443027453484,37.469904286037085],[126.72355728681464,37.46992616645133],[126.72355227506715,37.4700401942985],[126.72307443883601,37.47010186010017],[126.722439563577,37.47002320981455],[126.72206476774797,37.4702118135123],[126.72193562836493,37.47069101146687],[126.72097234534006,37.47161957895932],[126.72126173426668,37.47202740058366],[126.72038469942,37.47270050879328],[126.72045698442318,37.47297153936582],[126.71939313220855,37.474092154691895],[126.71870421863585,37.47395479933554],[126.71835363131248,37.47432027022561],[126.71816459503539,37.47470218335126],[126.71780313146601,37.47513801256044],[126.71567031380005,37.47635513237749],[126.71498848548227,37.4762090418418],[126.71401456340801,37.476415032371676],[126.71313385552196,37.47700163525928],[126.71184229258725,37.477395195081186],[126.71137697027557,37.478635747253755],[126.71143874240721,37.478650819455886],[126.71130175658524,37.47921980627176],[126.71114629079227,37.479588266221995],[126.71087360311209,37.47993673282711],[126.71024501936775,37.47790145938299],[126.7096127817868,37.4763608846043],[126.70937059122181,37.475457034262384],[126.70910070008628,37.47313938326904],[126.70829744473954,37.47176027768767],[126.70795149649634,37.4714235079759],[126.70762536376024,37.47058252381887],[126.70803712047166,37.470575375057784],[126.70799908695342,37.46932486350951],[126.70664390789423,37.46934992534127],[126.7048859851414,37.469600058370396],[126.70460915754782,37.46836471348672],[126.70341573140017,37.468532619797465],[126.70325069859103,37.467660206200705],[126.70301616342672,37.46769733890789],[126.70301815195057,37.46764356321436],[126.70024214953912,37.46812531142142],[126.69940768707508,37.468366730486856],[126.69821892112768,37.468866840022],[126.69768623648439,37.46811820913541],[126.69757930887896,37.468135665858846],[126.6968414876997,37.46845503557861],[126.69656056743183,37.468430659727545],[126.69357149565263,37.46977384085261],[126.69305506467798,37.46942054537543],[126.69261790652857,37.469593972214206],[126.69143788653358,37.470311960990735],[126.69069754623546,37.470502037121996],[126.69027878223916,37.470751250676614],[126.68846411325146,37.47082557410134],[126.6881217713708,37.471044564662364],[126.68802931839963,37.47093479392698],[126.68607041333561,37.47204118919182],[126.68434723874633,37.46951575122002],[126.68724722810454,37.46898598953823],[126.68679602160562,37.46618719247465],[126.69009173891816,37.465851570091054],[126.69268035257748,37.46570519324989],[126.6929506250024,37.46453572470936],[126.69399920197661,37.46457759737031],[126.69722810106741,37.46126341983298],[126.69523814123595,37.460285716591805],[126.6955005039751,37.45992753609735],[126.69537879540961,37.45915376444877],[126.69460364623329,37.458772216106006],[126.69467662889764,37.458674980304565],[126.69450772408005,37.457482966885195],[126.69472289867781,37.45746382072966],[126.6945166630525,37.45598732690369],[126.69505236572557,37.45566295089005],[126.69491462115754,37.45449579579965],[126.69445658317622,37.45336019066814],[126.69428726210988,37.45128152508567],[126.69271812082445,37.45136613059492],[126.69260016212334,37.449863967775315],[126.69330614485719,37.44981906679816],[126.69298771677938,37.44854303739526],[126.69280835657193,37.44814443379184],[126.6937861343771,37.44774097342656],[126.69400044937046,37.447624112456204],[126.69406100699608,37.44749531839825],[126.69400849553755,37.4471243648508],[126.69366577987333,37.446816843255995],[126.69320873015678,37.44666249040363],[126.69480333889824,37.44546125840305],[126.69494719271752,37.44551738570308],[126.69599194353229,37.444787178322215],[126.70095189479919,37.44339770720504],[126.70175049416335,37.44326852194802],[126.70293908045139,37.44319466560133],[126.70241060023405,37.43938461240491],[126.70261948136353,37.439425685978684],[126.70254518427795,37.439105082767355],[126.70263452091898,37.43901661377083],[126.7050008989382,37.43897499129553],[126.70507014984275,37.438606599917726],[126.7048881352526,37.437172419036344],[126.70500674416283,37.43686608652444],[126.70535212595178,37.436586235162494],[126.70587122447553,37.43594894705856],[126.70609996136587,37.435248428569025],[126.70663013584904,37.43430397578578],[126.7066550802619,37.43384114634597],[126.70640575143968,37.43268329937496],[126.70562151118604,37.430182452775554],[126.70555491200818,37.42925142941007],[126.70560938492874,37.428463752766554],[126.70526265820932,37.42842374466569],[126.70526812014023,37.42726118053664],[126.70508964747356,37.426590609413154],[126.70462336436601,37.42566956541596],[126.7040295739866,37.42490081124702],[126.69866494915685,37.41952479136293],[126.6918508979151,37.41464000357216],[126.68720246584662,37.41095528102167],[126.68692419529444,37.4105195249074],[126.68678492642252,37.41052422695986],[126.68681856119863,37.4103736768165],[126.68674381456046,37.410396561698846],[126.68655044283645,37.410085198692855],[126.68604399282123,37.40901644123083],[126.6856453288903,37.40774973838466],[126.68536655038761,37.40613871843647],[126.68528239085104,37.40613398834105],[126.68503078685063,37.405659438242765],[126.6842831599349,37.40471137475872],[126.68350786780313,37.404135177872185],[126.68291608123586,37.40381626724226],[126.6798466174557,37.40262931918541],[126.67810926481869,37.40159996083161],[126.66742674269484,37.392251002690315],[126.67167894726008,37.38975221648281],[126.67288671788846,37.389261148651364],[126.67363012812842,37.38908441533204],[126.68499606180143,37.38717229451868],[126.68405797004849,37.38620318146816],[126.6842922130401,37.38610664636608],[126.68436691733085,37.38621694143861],[126.68479098320522,37.386234404223906],[126.68523248658022,37.38676465129112],[126.68587252066608,37.38665598720953],[126.68599720149254,37.38700433596389],[126.71038475702011,37.38289863452253]]]}}
