{"type":"Feature","bbox":[126.68105551584773,37.52345146611611,126.79369516662314,37.59370282124145],"properties":{"regionCode":"28245","version":"vworld-20260909-3f8952dfda77-p3","name":"인천광역시 계양구","attribution":"국토교통부/K-Geo플랫폼 · VWorld 법정구역정보, CC BY 2.0 KR; 두꺼비집 가공"},"geometry":{"type":"Polygon","coordinates":[[[126.73902477083439,37.59356009637525],[126.73901276537543,37.59370282124145],[126.73881261610167,37.59356863421179],[126.7378891511108,37.593448889081095],[126.73733035458554,37.5931725519428],[126.73701630187722,37.5931757949269],[126.73677410726616,37.592973657265894],[126.73671653258815,37.59249685461132],[126.73691001992276,37.59256316831339],[126.73672796307993,37.59246646310142],[126.73666398810592,37.59184689442442],[126.73674646477077,37.59098974088111],[126.73663082587885,37.59072172753985],[126.73625235751531,37.590482675947335],[126.73634213676071,37.590660542362045],[126.73586829635607,37.59057866784181],[126.73504492394213,37.590682956698],[126.73464807679962,37.59118492534815],[126.73418840377717,37.59094990915141],[126.73367253834236,37.5910439104748],[126.73344921328854,37.591355927184445],[126.7335415254312,37.59146368702095],[126.73132192014471,37.59176159137663],[126.7303325205356,37.592173206540494],[126.72990139108576,37.59221473260393],[126.72954063988716,37.592559086108636],[126.72920555532448,37.592753997792556],[126.72872073922572,37.59272134397368],[126.72789299027322,37.592511922955744],[126.72752442399937,37.592236268553],[126.7272480563369,37.59190338965942],[126.72557382857666,37.5918707643418],[126.72548410730745,37.591781861908814],[126.72541384432736,37.591835477186606],[126.7254623520295,37.591875008596666],[126.72538131691091,37.59187763912748],[126.72448657191723,37.591801490909084],[126.72223889047132,37.59064969488085],[126.72164758562472,37.590240600043714],[126.71909633147702,37.58808173484052],[126.7186595113009,37.58809083399205],[126.71859152074084,37.58782488126696],[126.71813042910915,37.58756474279967],[126.71791976286458,37.58732209785043],[126.71785094066088,37.58718368574516],[126.71805127684307,37.58702424260961],[126.71782117898168,37.586633726602976],[126.71750779124963,37.58637958070048],[126.71813466728447,37.58588525852116],[126.71740655030855,37.58508980567494],[126.71773891301315,37.58468036964932],[126.71819410422873,37.58434444138357],[126.71755763037035,37.58383103666711],[126.7180528947028,37.58323842511756],[126.71798372252645,37.58319320984563],[126.71817199218177,37.582898869238605],[126.71785680092428,37.58214213336961],[126.71786942826475,37.5816128360572],[126.71729819698436,37.58087998080494],[126.7171015808536,37.580297526037576],[126.71668135665507,37.58009576473865],[126.71651756136036,37.579906721494254],[126.71640045467832,37.57944440534562],[126.71582764500765,37.579132748804966],[126.71565583594116,37.57914583864461],[126.71521250589471,37.57897639749477],[126.71467248371917,37.57837114822664],[126.71399279478995,37.577984324232425],[126.71358771031342,37.57757536247708],[126.71190356200137,37.57831511309164],[126.71165320380898,37.57856086360594],[126.71088717282743,37.57872509458497],[126.71045539098353,37.57868095478797],[126.71010340672375,37.578768211645745],[126.70819024815567,37.57952142586353],[126.70789858909401,37.579694428429356],[126.70782106571167,37.57984092468871],[126.70612198493612,37.579902853618485],[126.70533424769631,37.579781499593665],[126.70498826569515,37.57982258082982],[126.70430798166012,37.57959196628662],[126.70412273851652,37.579913601295026],[126.70349868762396,37.58013164221058],[126.70289010629553,37.58059410161346],[126.7028874539261,37.58068278768192],[126.70263153515145,37.580319215001104],[126.70236319560196,37.580361332008174],[126.70167489699239,37.58019065144775],[126.70095161624863,37.58049402018807],[126.70023351894453,37.58095647526224],[126.69927354661347,37.58086476999075],[126.69850337466337,37.58125612874333],[126.69798660824053,37.581270856685244],[126.69768470864175,37.58138776644415],[126.69700012371554,37.581259017980564],[126.69649628773027,37.581314875590834],[126.6951428171461,37.58128659368471],[126.69498267726519,37.581472284981764],[126.6933646243027,37.58233526825286],[126.69237832305001,37.58244841172983],[126.69175097721,37.58242368404135],[126.69094658339549,37.5827329681304],[126.69059506301154,37.58303894447524],[126.69042784847214,37.5830928421921],[126.68979528895959,37.58291631986771],[126.6888284550938,37.582981624866434],[126.68852396795181,37.583289683727564],[126.68832994048876,37.58324129992938],[126.68780656778942,37.58335084820018],[126.68704790951669,37.5837596235247],[126.68620575032546,37.58403865472931],[126.68518542939422,37.58419978661784],[126.68490088460159,37.58417847237606],[126.68480021903247,37.58409964570051],[126.6843000455656,37.584075498835006],[126.68367930620582,37.58353549228428],[126.68192803086255,37.58365605466634],[126.68185005695203,37.5833999105376],[126.6821207919118,37.583297877326096],[126.68206193601425,37.58266365177827],[126.68214148760839,37.582221818043095],[126.68168286611086,37.58166815701284],[126.68158432709184,37.58167071007419],[126.68139173975902,37.581412281736625],[126.68112486764598,37.58127471651328],[126.68108604028835,37.58100432537168],[126.68123257663196,37.58086507073016],[126.68105551584773,37.58003821792713],[126.68156776162132,37.5790944133161],[126.68198435506248,37.57859100021143],[126.68203260348099,37.57739873377487],[126.68230272947702,37.57710269865219],[126.68259485953135,37.57704041936945],[126.6827227005801,37.57692645691652],[126.68303849266773,37.5772435003056],[126.68371008826044,37.577042021323926],[126.6859040930434,37.57600473968761],[126.68637689266195,37.57608905538392],[126.68725521212704,37.57652584191389],[126.68781282476014,37.57650592659436],[126.68818176415792,37.57680930344412],[126.6890898234172,37.577201664679336],[126.68972222825437,37.57646931444165],[126.69021828349686,37.576323375789805],[126.69063584931993,37.57535590975735],[126.69084743450662,37.57517627000272],[126.69205612289024,37.574985174388495],[126.69251942136505,37.57505678177286],[126.69277592445856,37.574963687473385],[126.69343742157152,37.57449830950262],[126.6940607978579,37.57426652571167],[126.69523681556997,37.57423044378852],[126.69623461919952,37.57369835725598],[126.69711845061677,37.57357252847905],[126.69787473297961,37.57370990294283],[126.69825814819086,37.57345945982549],[126.69914063692725,37.573269417322564],[126.69923336113563,37.572820568207575],[126.69921523318581,37.572317664447056],[126.70070418846575,37.571864497364516],[126.70042360634484,37.571749474229286],[126.70000874169854,37.570766342363754],[126.69963188319905,37.5705806774984],[126.6991571822047,37.56956866606673],[126.6984080668418,37.568937749722856],[126.69850883049443,37.568689111312075],[126.6984729291449,37.56768525888446],[126.69951538788017,37.567585163657405],[126.70031453101338,37.56629007477434],[126.70018839992113,37.56524319539053],[126.70132079851463,37.56489103768746],[126.70318632745757,37.56478229604979],[126.70325338894988,37.564152343175984],[126.70265442241966,37.562993908826364],[126.70263748144005,37.56178907659406],[126.70236337097401,37.56059626068683],[126.69961403388719,37.559091652564305],[126.69955648589011,37.55902365212459],[126.69968585782375,37.55860306008078],[126.69997465003159,37.55829436316624],[126.70047498815272,37.55801380228122],[126.70081701856932,37.55752334781162],[126.7015678254541,37.55696073525696],[126.70222720651739,37.55630581430981],[126.70581895553214,37.55682111012527],[126.70648536740697,37.55710883143012],[126.70893806423754,37.55494046524998],[126.71094428685494,37.55382369004779],[126.71200525588834,37.55258799688764],[126.71150060957459,37.55231280422775],[126.71153870145318,37.551471600503],[126.71130631425204,37.55102814003364],[126.71096059275008,37.55076318328975],[126.70975812686646,37.54856180763427],[126.70890658634409,37.54756861357652],[126.70834545336797,37.54610508878999],[126.70590469032257,37.54487365959412],[126.70688549407744,37.54369158980061],[126.70728622667013,37.542811313616006],[126.70672023897941,37.542462732995745],[126.70633336828224,37.54188935923453],[126.70518801669147,37.54181160057723],[126.70454586784697,37.541992149482795],[126.70394029415425,37.5420455313614],[126.70309541837162,37.541146915223614],[126.70149554516485,37.54111161524726],[126.70091047865166,37.54103269641823],[126.69986097821419,37.540557559583974],[126.69937748274819,37.540635160132176],[126.69839623968525,37.54133908412526],[126.69775134863906,37.54210888987692],[126.69681113106678,37.54206283276826],[126.69620359067954,37.54173127643447],[126.6948083494887,37.5418461951105],[126.69396911394783,37.5413234120931],[126.69333122758341,37.54136454612422],[126.69267924431017,37.541139001178784],[126.69203513592898,37.539436130477355],[126.69221245298584,37.53819717612274],[126.69256147656655,37.53703102902457],[126.69159059389132,37.5360832839429],[126.69118474315846,37.53589948846074],[126.69033646133738,37.535830529083746],[126.68929520648251,37.53604091902455],[126.68814504010822,37.53595790989141],[126.68717283811361,37.53559183094258],[126.68656210918645,37.53570480068105],[126.68449678566618,37.535606923298495],[126.683618844886,37.535157447252274],[126.68385281904654,37.53438435189157],[126.6829876108977,37.53323044837563],[126.68249235281539,37.5322171826932],[126.68294399955637,37.53122393391913],[126.68304856836802,37.53116058800104],[126.68687847135716,37.530715573699226],[126.68760840479528,37.52817502857588],[126.6874538616309,37.52700811380878],[126.68750262410752,37.52616778998601],[126.68784598288806,37.52593697643932],[126.68829585075711,37.525088706750466],[126.68859290711545,37.525021352166135],[126.68903196886413,37.52426259141679],[126.68915793235686,37.523557331120415],[126.69031911368228,37.52345397109962],[126.69129516621933,37.52345146611611],[126.6913011398227,37.52354693285814],[126.76030976029625,37.52408165140656],[126.7602642903736,37.52486316984198],[126.76010625873155,37.5254127318317],[126.7603164911903,37.52665737808332],[126.76045393891704,37.52678858191489],[126.7602912715947,37.5268586443435],[126.76025302863626,37.52704298137046],[126.7604142552046,37.527642191247175],[126.76021567656736,37.52782874162571],[126.76031349564705,37.52852242618586],[126.76024142427599,37.5289986786022],[126.76034368706003,37.52952146289405],[126.76026583228669,37.52965391190332],[126.76026610529318,37.53022604239062],[126.76051573785482,37.53043632098665],[126.76048095419392,37.530589418632424],[126.7602785484655,37.53070078243785],[126.7602009028841,37.530880254568906],[126.76039618939502,37.53138859657601],[126.7602600450088,37.532876918980854],[126.76028964938794,37.53318022617469],[126.76044505934719,37.53344999401634],[126.76029534509573,37.53388131728647],[126.76057360645427,37.53464970112386],[126.76056209955361,37.53487492546784],[126.76042158563479,37.53497458566293],[126.76043001041774,37.535102435497684],[126.76019865524141,37.53530721779977],[126.76014343094985,37.53549322269311],[126.76064864121575,37.53605342726853],[126.76084552603164,37.5359603508292],[126.76071789913114,37.53606651574307],[126.76078824047931,37.53601710463379],[126.76098176480171,37.536255135339815],[126.76096065278074,37.5363888354502],[126.7605656948428,37.53661299875159],[126.76054503857536,37.53677006240405],[126.76075408914106,37.53712722712438],[126.76068936763946,37.537684024652854],[126.76099003809674,37.53769871087657],[126.76120715915675,37.53758033921579],[126.76150304955121,37.53754010802305],[126.76173336440786,37.537611817218874],[126.76182407583329,37.53782654530225],[126.76144644469154,37.53837960828193],[126.76091463566539,37.53855168742376],[126.76082200109335,37.53887951332775],[126.76072319170319,37.53887537457306],[126.76083327559564,37.539057481957094],[126.76100576697547,37.5391285070757],[126.76174528516108,37.53902329749924],[126.76208952871612,37.53917773194555],[126.76231418259395,37.539415255841234],[126.76232133665573,37.539502837606875],[126.76158449096398,37.54026295917363],[126.76153228246957,37.540446997517165],[126.76166467558436,37.54067757765041],[126.76235105217137,37.54066039126856],[126.76259276994674,37.54075744869789],[126.76266405477223,37.54097017256646],[126.76188913496469,37.54141881856192],[126.76149931023306,37.541795595890086],[126.76153082074102,37.54200457252676],[126.76248438427116,37.542033256873985],[126.76282032924516,37.54230395412701],[126.76372625901718,37.54274979871589],[126.7638885972051,37.54290386142731],[126.76388509467445,37.54306265388037],[126.7637104231363,37.54316844790669],[126.76267995272774,37.54330066989371],[126.76235807775325,37.54355144874063],[126.76237997456137,37.54367144187635],[126.76298951703653,37.543862450141226],[126.76324507573642,37.544115243229264],[126.7629944963692,37.54457620635463],[126.76301860306879,37.544887375828665],[126.7631825431484,37.544987104002274],[126.76339639065732,37.54529161943912],[126.76345232213816,37.54577263544802],[126.76333151743196,37.54628764077014],[126.76339393734565,37.546731783302874],[126.7637603427935,37.547270871792996],[126.76361853243183,37.5472739558895],[126.76397635569944,37.547676751737015],[126.76385531587522,37.54820892981131],[126.76389307459642,37.548402439182425],[126.76452381106722,37.549061149529855],[126.76432201751706,37.54929753332129],[126.7638739450498,37.54952694327429],[126.76371667839024,37.54982734077991],[126.76386596062092,37.54998164736247],[126.7643767968189,37.54992355143691],[126.76438394203053,37.55001141221454],[126.76470963577152,37.54995884438758],[126.76470452971289,37.54989520630296],[126.76522316984871,37.54988470359474],[126.76554435166629,37.54991688047384],[126.7656594793211,37.55002268837525],[126.7655016939133,37.55043571082644],[126.76527823416806,37.550534084454576],[126.76442565924664,37.550517176039826],[126.76443111055137,37.55058250868188],[126.76387606388028,37.550752301557424],[126.76384618619267,37.550863450482524],[126.76456934856117,37.55109860228523],[126.76503293151114,37.55155706273301],[126.76554878099928,37.551875413924364],[126.76564007860378,37.55197047945482],[126.76561277600433,37.552274229293914],[126.76577431089582,37.55263719982972],[126.76652697305799,37.553111439777524],[126.76640934203716,37.55346202353249],[126.76583258807558,37.55372751229945],[126.76566201311495,37.5539304527284],[126.76582502946064,37.55410449780172],[126.76627900591761,37.55431151318313],[126.76640206009775,37.55465609799492],[126.76633631211175,37.55487079871502],[126.76604840287409,37.55499355220763],[126.7653929119694,37.554986891369715],[126.76478380577575,37.555074644356246],[126.76459250099738,37.55517815361353],[126.76448368045328,37.555369395208956],[126.76600873569926,37.556133781760394],[126.76672433645011,37.556315683788576],[126.76675151816588,37.55650409839964],[126.76627509822666,37.55685087752291],[126.76628407993486,37.55691706397401],[126.76661882854043,37.55697432143775],[126.76735009589483,37.55661932504718],[126.7687353312632,37.55681661441153],[126.76899458152513,37.557096440515984],[126.76986702632342,37.55723048345306],[126.7711919044088,37.557165501134875],[126.77199376148295,37.55696546646315],[126.7724307531389,37.55701277003977],[126.77318390977631,37.55752751274071],[126.7717711354915,37.558631861184566],[126.77220298922353,37.55862679019513],[126.77244585640341,37.55872270325531],[126.77274208309724,37.559408595892556],[126.77319198830014,37.55928642786297],[126.77359070926217,37.560057254356835],[126.7737859557744,37.559997382050405],[126.7741867120253,37.559695476519366],[126.77428874005821,37.559755930967356],[126.77416496498775,37.56015916398002],[126.77444812518529,37.5604361949305],[126.7748083023168,37.560456879956746],[126.77466288728569,37.560703813626766],[126.77493286697721,37.56090198166324],[126.77494694669599,37.56104025620363],[126.77467906221978,37.56131932727651],[126.77545913578204,37.56143316748024],[126.77553452070593,37.5618283407052],[126.77575824570933,37.56194139211034],[126.77588609097383,37.56177044888466],[126.77610863157507,37.56186350445419],[126.77718132833462,37.56070327357914],[126.77734783378696,37.56031588583831],[126.77784184121622,37.55993305601233],[126.77792974355214,37.56028658085712],[126.77757364868064,37.56150364475039],[126.77750924878782,37.56228231807733],[126.77698186540567,37.56228919997662],[126.77694844001401,37.56222972530233],[126.77663197792738,37.562374127877234],[126.77674274091439,37.56323984516007],[126.77696968712236,37.5636958341087],[126.77710136323371,37.56371945606459],[126.77610667056497,37.56480607070382],[126.77594257869056,37.5652058495564],[126.77575114008285,37.5653502001582],[126.7753426225135,37.565343507825034],[126.77557515078314,37.56559200371433],[126.7754377103336,37.565774478759764],[126.7751317854812,37.56587947920846],[126.7749889407302,37.566911672881304],[126.77475216435283,37.56730962559789],[126.77476191260406,37.56770833084384],[126.77553030200997,37.56826109066931],[126.77555929105813,37.56773998857206],[126.77540138493993,37.567318475071616],[126.77561712236972,37.567210769661244],[126.77633323708585,37.567091910006745],[126.7763418149356,37.56694213734535],[126.77638182314772,37.56687210787348],[126.77639450785442,37.567005027585296],[126.7764952304984,37.56679967751824],[126.77657088753244,37.56610662956194],[126.77672227379769,37.566051164831514],[126.77696372936951,37.566208738372296],[126.77719645163046,37.56662926580866],[126.77780817839516,37.566993911515745],[126.77866806437471,37.56717405015093],[126.77900308496656,37.567154689130916],[126.77907967841368,37.56733052584602],[126.77901757366757,37.56799178700282],[126.77917031016871,37.56831671818621],[126.77970582925661,37.56796239444522],[126.78023953903283,37.567445049354234],[126.78031806585754,37.56750403993599],[126.78054223791553,37.56789160462847],[126.78046176558796,37.56795452304321],[126.78047403764143,37.568287064094356],[126.78093333386867,37.56871363919517],[126.7813603634309,37.56892504182631],[126.78162555202988,37.56890160583202],[126.7818979981096,37.56923603650882],[126.78180346429244,37.56938846968662],[126.781123846711,37.56960146653051],[126.78099581247368,37.569897426685],[126.78048444086777,37.57027488462597],[126.78052067073303,37.5704638802338],[126.78131547016172,37.5701750765761],[126.78148701987647,37.57018159519723],[126.78239345916717,37.57030125615134],[126.78262991541806,37.570547492813],[126.78192008028032,37.571114354503464],[126.78137463266816,37.57134956822943],[126.78145024591454,37.57149639872735],[126.78189929731235,37.571808354371825],[126.78218118895312,37.57266622955136],[126.78213956279767,37.573169010394196],[126.78240801261282,37.573606207685785],[126.78399408635875,37.57419816004109],[126.78440117171502,37.57446948437985],[126.78524887478446,37.5748618427986],[126.78761395774751,37.575583561380185],[126.78783762970542,37.57585876699048],[126.787914906528,37.576114849756934],[126.78804546843793,37.5761688567207],[126.78833712453184,37.57605028247948],[126.78859499785851,37.575745539038664],[126.78920181366267,37.5755810758249],[126.78846995447756,37.57679834910555],[126.78934254797018,37.57772342143876],[126.78995482162813,37.57763161067283],[126.7900161164359,37.577349595005096],[126.79059453753395,37.577783670371524],[126.79081743077076,37.57897224246525],[126.79068552711436,37.57901424514791],[126.79082112470802,37.57954156342377],[126.79072753892392,37.580612433048024],[126.790817857026,37.58076548238063],[126.79118190030492,37.580828641886704],[126.79126000621898,37.58092056433582],[126.79134865652118,37.58141373198946],[126.79160064090367,37.58131760379185],[126.79237369168636,37.579727611537095],[126.7927239790187,37.57743016103684],[126.79273676915365,37.57683891205509],[126.79321898100227,37.57689382297807],[126.79315357215474,37.57795799639009],[126.79325420543778,37.57853367821779],[126.79306658734895,37.578639212831845],[126.79304310025624,37.5791983406862],[126.79284617362623,37.580168245390404],[126.79286424284268,37.58022064256673],[126.79330993257075,37.58024705347566],[126.79369516662314,37.58159385752805],[126.7870477562371,37.58557952680577],[126.78694241400578,37.58554554847329],[126.78411315159784,37.58258514391244],[126.78204970654329,37.58383763110211],[126.78228783821217,37.58400926055921],[126.78200693315306,37.58400367501929],[126.78177144392858,37.58383458168047],[126.78173228613156,37.58397979246614],[126.78160689662495,37.58396942287489],[126.78152624413666,37.58378401225227],[126.78142114022083,37.5839707615251],[126.78089142968025,37.58393570650275],[126.78045364174926,37.58404525803362],[126.78039715421349,37.58418452545824],[126.78010884523586,37.58435066710367],[126.77998225613962,37.5842062721665],[126.78002501030069,37.584044454573906],[126.77995926739383,37.5840249059868],[126.77995851218415,37.584218616135004],[126.77970738863296,37.58437496981877],[126.7783673160833,37.584630071579916],[126.77667697922425,37.58464685699058],[126.77599275504836,37.585048742063265],[126.7755862027715,37.585056686181446],[126.77495525172012,37.584863738544485],[126.7742005877838,37.58510048983807],[126.77299038011569,37.58504747286048],[126.77275159542651,37.58509515892767],[126.77243599866131,37.58521476516387],[126.7719648699312,37.58557171166702],[126.77086465950767,37.58604680908551],[126.76931133185678,37.58733470188413],[126.76826565884359,37.5878400110263],[126.76827549319066,37.58797573655593],[126.76766736179205,37.58823159290532],[126.76751629784167,37.58839544366817],[126.76710718706148,37.58803255385129],[126.76725558370292,37.587928667753005],[126.76723374881338,37.58784021093367],[126.76705243829049,37.58772047967293],[126.76675361682878,37.587222083479816],[126.76588038510799,37.58689092605864],[126.76567788148213,37.58670750490019],[126.76512509900465,37.58652479699997],[126.76466310165613,37.58627666809769],[126.76410374934791,37.585822232638435],[126.76382360815384,37.58585602338754],[126.76346981604112,37.58546028325876],[126.76339955345878,37.58508342229679],[126.76317704964444,37.584962178391294],[126.76248488515078,37.58499822373893],[126.76199044718854,37.585110412086095],[126.761993188411,37.58535734120168],[126.76182487455362,37.58544006123308],[126.76131453006616,37.58526896323739],[126.76069648819276,37.58525137819722],[126.75917738284946,37.584885055879916],[126.7591401039013,37.5850865744119],[126.75864314096175,37.58499150832517],[126.75801120636503,37.58522193041459],[126.75798468494614,37.5853280205671],[126.75602769332471,37.58352679310452],[126.75610768124868,37.583408984608816],[126.75595988905546,37.582951148706435],[126.75565032716567,37.58289306665402],[126.75560326966674,37.58230282421412],[126.75570259556821,37.58227740709996],[126.75553877199783,37.58142197801671],[126.75557507510854,37.58130267326956],[126.75582459806446,37.58116325200702],[126.75581325268172,37.581063840839974],[126.75605558877484,37.580902735455254],[126.7557254530554,37.58032822975948],[126.75562848592,37.58049780928756],[126.75469835381367,37.58013716843657],[126.75432818551333,37.580382470722974],[126.7541007139581,37.58016660492241],[126.75348754886456,37.5800811302799],[126.7517612044746,37.57957349803068],[126.75143596740368,37.57997966693963],[126.7512509229251,37.580089077737505],[126.7511993473463,37.58054143360372],[126.74952537395838,37.58108324685872],[126.74971320858265,37.58146122300415],[126.74963306276362,37.58272242036295],[126.74979373617431,37.583707376038944],[126.7496099384411,37.5842833251122],[126.74942321879655,37.58467739508837],[126.74915872423742,37.58484463811254],[126.74868235469796,37.58499171341371],[126.74807590579407,37.58568051209565],[126.74739183484812,37.58624919260218],[126.7477591508534,37.586439189238305],[126.74723872430309,37.58679648942575],[126.74683068943328,37.58723597423598],[126.74646272223843,37.5878602276487],[126.74635440848799,37.58844254203607],[126.74614296096014,37.58866282555698],[126.74525857738143,37.58871665276516],[126.74432405742047,37.592495367780316],[126.7416464371149,37.59207195201741],[126.74141106825701,37.59300649080873],[126.73909541076542,37.592638999415094],[126.7392390506173,37.59284598591603],[126.73955219371378,37.59295000591068],[126.73941397271328,37.59291197495712],[126.73939931615936,37.59300372544385],[126.7393143498153,37.593219772400026],[126.73917986225014,37.59327607326351],[126.73902477083439,37.59356009637525]]]}}
