{"type":"Feature","bbox":[127.38930254033413,36.34093109560046,127.50448885069169,36.477251848430875],"properties":{"regionCode":"30230","version":"vworld-20260909-3f8952dfda77-p3","name":"대전광역시 대덕구","attribution":"국토교통부/K-Geo플랫폼 · VWorld 법정구역정보, CC BY 2.0 KR; 두꺼비집 가공"},"geometry":{"type":"Polygon","coordinates":[[[127.4866538002691,36.452803798516825],[127.48454439162988,36.45292928797919],[127.48210705573851,36.45388664933633],[127.47895981292733,36.45650204441687],[127.47824128897281,36.45733607992612],[127.47758811079596,36.458438359478144],[127.47746312870852,36.45921680017573],[127.47749375432953,36.45954418214745],[127.47782020650097,36.46089571202625],[127.4782636918525,36.46170305492724],[127.47889336052602,36.46257185000984],[127.47919646561243,36.46333577574559],[127.47964652010131,36.46409829955296],[127.48009602712249,36.46463551975441],[127.48056820076411,36.46502656156695],[127.48158161383904,36.46636783939705],[127.4823283695623,36.46806364203602],[127.48287344007157,36.46898853601574],[127.48335979912723,36.47011778373537],[127.48452984474358,36.47451057629433],[127.48402867514757,36.47662588254416],[127.48043313510202,36.477251848430875],[127.47612522290093,36.476332686179504],[127.47242786783204,36.4750205128677],[127.47179958260527,36.47469757766458],[127.47028730314729,36.47366357880513],[127.46942517858047,36.47268692697624],[127.46669544426311,36.47007304310483],[127.46378070236179,36.46450901156526],[127.46360542963662,36.46345961641826],[127.4635045629877,36.46027740926067],[127.46258458947356,36.45615459406509],[127.46096207878165,36.454479196743044],[127.45840225973417,36.45230157893294],[127.45473809629698,36.45026368911292],[127.45133434251657,36.44925490503611],[127.44717842914231,36.44920509425795],[127.44411331461092,36.45041323687343],[127.44240428331547,36.45128275610461],[127.4413964388191,36.45241914130106],[127.43764266997007,36.45560857094525],[127.43708162430542,36.45600878461003],[127.43681812246884,36.456408089676884],[127.43215594700716,36.45674701056519],[127.4274914276867,36.45690127239605],[127.42470503669765,36.456269343225756],[127.42470454010372,36.45617811035549],[127.42090012854477,36.4556072940454],[127.41695720880267,36.45490576707267],[127.41496854321741,36.45470684906505],[127.41301989792959,36.454811639300374],[127.4079639706689,36.454739116620296],[127.40313656238517,36.45534375521798],[127.40236619808167,36.455752458810686],[127.4020890886389,36.45603863105266],[127.40039916978225,36.45449993397117],[127.39934852969614,36.4536778044674],[127.39860342408548,36.45277314926576],[127.39693885577415,36.45112487055904],[127.39574617363397,36.451035681861924],[127.39502164532279,36.450893119663505],[127.39461831208463,36.450805900453055],[127.39374443447065,36.450461078249624],[127.39240417863039,36.44943358862714],[127.39177870352324,36.44871390196368],[127.39119371055443,36.447243236833856],[127.3901471438079,36.44606512995787],[127.38951976465812,36.445159093685916],[127.38930254033413,36.44411832860496],[127.38933313751993,36.442761301056656],[127.38946611488048,36.44184567282261],[127.38987044050782,36.44132321839216],[127.3901641112789,36.4407452006265],[127.39056258011472,36.43966791489364],[127.39073236987456,36.4395822558117],[127.39116389254632,36.43901375090835],[127.39121851544792,36.438783477502334],[127.39360703819335,36.43772286936391],[127.39386142803085,36.43759348132982],[127.39385831232312,36.43744642403348],[127.39438751859464,36.43749480685878],[127.39456167747886,36.43663881213528],[127.39605235178075,36.43475225257811],[127.398359577122,36.43309390849971],[127.40026624216911,36.43122188363954],[127.4019619001327,36.42993936105488],[127.40271385331258,36.42919357848481],[127.40470658065158,36.428528636256225],[127.40569327195873,36.42802339122237],[127.40636292032183,36.42744168888739],[127.40711507933469,36.427035064497815],[127.4078149563078,36.426160807591614],[127.40901675551012,36.425367353634755],[127.40956111296494,36.4251265250042],[127.41222194552812,36.424340939565674],[127.41322188515318,36.423882485140695],[127.41354600810148,36.42340841983741],[127.41490113954343,36.422087497472845],[127.41753905049988,36.418770909502854],[127.41828487957086,36.41748214090194],[127.41868215759146,36.41661691151166],[127.41972960652522,36.415304516343994],[127.42025757336405,36.413691009538816],[127.42026243609617,36.41268410997026],[127.4199036787088,36.411823193587004],[127.41740736398336,36.407604399207386],[127.41755989638169,36.407468270399264],[127.41738279309209,36.407166864815835],[127.41676290018113,36.40631666945183],[127.41605976387076,36.40599058423036],[127.41533703332162,36.40547350744853],[127.41368347150944,36.40297695230483],[127.4135449123306,36.401780627287785],[127.4135110539203,36.39966138031221],[127.41324278504281,36.39817702836267],[127.4126255240777,36.39734889980988],[127.41171758994807,36.395838304765896],[127.41147775311097,36.39457845825648],[127.41121423140775,36.391973294284554],[127.41117524699209,36.39045799946035],[127.41162278619014,36.38774297362185],[127.41191933676407,36.38699604591054],[127.41178412810802,36.38224739261514],[127.411637904995,36.381293943981554],[127.41110129785014,36.38016115454573],[127.40994908857088,36.37882488294227],[127.4098974347093,36.37860522779661],[127.40901772836132,36.37795397950941],[127.40755937161278,36.37704991283789],[127.40513482118445,36.376241278778465],[127.4042054934356,36.376407444198676],[127.40370679686217,36.376586483434394],[127.40329665298628,36.37656273020163],[127.40272442730029,36.37639499081065],[127.40262172272031,36.37652679842547],[127.40235021255664,36.376419091029845],[127.40227737400944,36.376542337417575],[127.40104642824096,36.37598844924096],[127.40017065635412,36.375882891675396],[127.40089495346865,36.3750197173706],[127.40049601653766,36.374785566620474],[127.39798737909774,36.37376427531387],[127.39320007044272,36.373043233946824],[127.3929500811617,36.37259703574511],[127.39285003326734,36.37217169791547],[127.39307962247952,36.371344998677806],[127.39333400410207,36.37082354572512],[127.39374524369663,36.370348318415324],[127.39543270710178,36.36918655438539],[127.39654113311039,36.367529975243144],[127.3972197397182,36.366118081624236],[127.39731614017083,36.36460784083278],[127.39746890870532,36.36413020594606],[127.39779799166502,36.36367900073397],[127.39846841692393,36.3628499813889],[127.39931896595228,36.36217767500126],[127.40020240278264,36.361712909899296],[127.4011403739485,36.36136905275407],[127.40195988247899,36.35921710014307],[127.40247987355504,36.35824037543455],[127.40322647823318,36.35650368762668],[127.40328123477143,36.356011144783096],[127.40461215943134,36.35326904862123],[127.40390662242494,36.349628690054786],[127.40598691184344,36.34890256290675],[127.40840540274284,36.34828279400875],[127.40956334773138,36.34775612086039],[127.40999454384924,36.347754601849836],[127.41090422522261,36.34699567517794],[127.41165453410072,36.3461068630379],[127.4117887918161,36.34555712082059],[127.41259047158061,36.344109405997266],[127.41295892073794,36.34302796304773],[127.4141557217226,36.34154854919156],[127.41450408285071,36.341204674692996],[127.41489692301296,36.34096277728461],[127.41498985556537,36.34093109560046],[127.41473403079983,36.34133730713832],[127.41365102241629,36.34394609271606],[127.41698648128897,36.3446591004194],[127.41853096041393,36.344729131270874],[127.41949309278158,36.344665678245775],[127.42065607679552,36.34447322491285],[127.42149770088355,36.34426065795949],[127.42311939380382,36.343698540412994],[127.42322533755043,36.343846623735736],[127.42084572115563,36.34460141834459],[127.41843693756654,36.34635793174906],[127.41924122788579,36.347401560045924],[127.41958006080613,36.348310643509414],[127.4201344157066,36.3482749085443],[127.42083470202343,36.34834229414163],[127.42120439076004,36.348541056128724],[127.42130800666965,36.348481334168596],[127.42164848607355,36.34856995404236],[127.42214437536497,36.348475616282194],[127.42264780203426,36.34854991108843],[127.42319707100485,36.34849812020054],[127.42370223782557,36.3485582556776],[127.4239179756289,36.34847787474337],[127.42412102305741,36.3484923870388],[127.42482944546943,36.3488106407889],[127.42523200914185,36.349227142270585],[127.42598720714868,36.35067002270705],[127.42652549174659,36.35142161098975],[127.42658964113579,36.351401746189964],[127.42734670826195,36.35194529184623],[127.4272465931257,36.352506806260465],[127.427912600984,36.352593285423815],[127.42747560096359,36.35546388923949],[127.42910870037798,36.35559620389948],[127.42905530461955,36.35677205954075],[127.43076654108101,36.35682449978249],[127.43066930311304,36.35906127102069],[127.43244965261593,36.35911064487968],[127.43290919996457,36.359184324313276],[127.43309628678885,36.359386176739456],[127.4339770933426,36.359923717639695],[127.43500902255695,36.36070807493062],[127.43532181652013,36.36082605427269],[127.43617101864457,36.36077677659097],[127.43636402531962,36.360688335708645],[127.4366491542244,36.360280340300655],[127.4371736692627,36.360233965261116],[127.43716613953524,36.36018316944569],[127.43745789482729,36.36020651733314],[127.43774102463234,36.36001518533103],[127.43827667418631,36.359983425209904],[127.4386175650081,36.359639265744995],[127.43923284857176,36.35830612852401],[127.43898561519599,36.357648181978774],[127.43908262182009,36.35724009515511],[127.4389188028977,36.35700521976137],[127.4392479455376,36.356747506434516],[127.4397177980038,36.35654303160799],[127.43987501115991,36.35625904623021],[127.43969277619453,36.3556090915094],[127.44003569635522,36.35555921596347],[127.43965445768886,36.355083266616084],[127.4414799043343,36.353560082860156],[127.44138191256201,36.35234070872618],[127.44516928809266,36.3507967961028],[127.44609524645924,36.352438164875764],[127.44567589228292,36.35219776654731],[127.44549469025552,36.352227901889584],[127.44561552401396,36.35239732406643],[127.44582599603665,36.353362591479936],[127.44597136786436,36.353654210230744],[127.44662324209901,36.35344451447428],[127.44699543258922,36.35400797733934],[127.44871211636851,36.35336579437542],[127.44908104381463,36.35405740700017],[127.45432121434779,36.354441657581205],[127.45463142340229,36.35445003387673],[127.45395493187496,36.35323834211072],[127.45497791811458,36.35301960515826],[127.45847697346476,36.35296584039703],[127.45875619319331,36.35258143702528],[127.45889738572406,36.352215443732916],[127.46193678625663,36.35154036130399],[127.46332207860374,36.35083602719057],[127.46367666422057,36.3507326060877],[127.46437926055643,36.350902384908075],[127.46511395673573,36.35147355501479],[127.46503580721124,36.352394364610355],[127.46474691710539,36.35256616576947],[127.46459094071166,36.353502418755944],[127.4647686994403,36.355251904175205],[127.46524042391849,36.35587842019065],[127.46532790217897,36.35625959715102],[127.46552826498159,36.35640990948271],[127.46563107018875,36.35723848187948],[127.4663067420878,36.358095233250296],[127.46601258222236,36.35847860928868],[127.46591626289414,36.358922759908175],[127.4662317840449,36.36055975958796],[127.4661919236809,36.36075550509272],[127.46562121196837,36.36100140494344],[127.46509231040022,36.36105735802728],[127.46460963895892,36.361347160271144],[127.46391598858105,36.361485220162436],[127.46343899702984,36.361977695422276],[127.46301440986667,36.363247166053185],[127.46266979548213,36.363599941279624],[127.46274175764192,36.36389747086272],[127.4625272513368,36.364349322945316],[127.46232626483344,36.36434345563017],[127.46199374758368,36.36466284144018],[127.46080384084429,36.366793581081716],[127.46066649243367,36.36751357796706],[127.46001764031601,36.36800520792949],[127.46001005378193,36.36842704980959],[127.45988327128629,36.368605544431],[127.45916932179789,36.3692114106259],[127.4581644612016,36.36925871921852],[127.45781794710888,36.36978846495574],[127.4571799108969,36.37240506839231],[127.45575179958576,36.37386009735882],[127.45577095414559,36.37476063707928],[127.45535953219621,36.37509334170761],[127.45500669331007,36.37552422369346],[127.45434232617686,36.37591090436809],[127.45440916478974,36.37617668874651],[127.45427214411247,36.37696582967892],[127.45311980182649,36.37732541379895],[127.45267173423791,36.37803609479689],[127.45206838513525,36.37859774182245],[127.45153700922235,36.37929311561855],[127.45164492858056,36.379607801189934],[127.45141592650488,36.38031488469395],[127.45153980282912,36.38080319296019],[127.45118961537102,36.38101967165745],[127.45120726010103,36.38113402618746],[127.45166605190175,36.38162161953182],[127.45208299429628,36.38176976754204],[127.45245930689153,36.382007153668],[127.45268846502532,36.38236031163767],[127.45273413396383,36.38266481107819],[127.45291952194063,36.38275201058373],[127.4531478037176,36.38304536836767],[127.4533650503802,36.383538276487734],[127.45307264253537,36.38413626285407],[127.45331570847554,36.384986376987484],[127.45359625510854,36.38540226397115],[127.45422902842007,36.38592203452362],[127.45484021944465,36.38676729489253],[127.45467922162135,36.388015491453395],[127.45488345936963,36.38845414787242],[127.45529413117495,36.388825992815384],[127.45416199410926,36.390056706081346],[127.45437375610716,36.39036242209354],[127.45439488241519,36.390758824449314],[127.45414996175623,36.39120899348399],[127.45430082090444,36.39231953170025],[127.45418904118041,36.39425616088602],[127.45461464282714,36.3959818553521],[127.45541197166312,36.398203805070146],[127.45543315501412,36.398634272114315],[127.45521368835304,36.39875446549457],[127.4553358565972,36.399474844192014],[127.45531926698143,36.40003213023953],[127.45576479701415,36.39984338504886],[127.45590174458641,36.40091808753958],[127.45630999723534,36.401063451237],[127.45687297112116,36.40148436560006],[127.45762877060443,36.402456613829244],[127.45757517640422,36.40307735474059],[127.4582090847185,36.403683376264134],[127.45912035350506,36.40394565742822],[127.45946920733033,36.40420243205526],[127.46020813463714,36.40448549154024],[127.4608464358396,36.40457074324006],[127.46123809297059,36.40487270253135],[127.46144477442499,36.405269350285664],[127.46187126965641,36.40552114298018],[127.46272716692346,36.40656426244383],[127.46328213444018,36.40689343078346],[127.4640828967206,36.40694083889287],[127.46420342900173,36.407144982134675],[127.4648682444345,36.407656910345885],[127.46565491823833,36.407931924571294],[127.46632887269264,36.40832094847207],[127.46690770251139,36.40915451772001],[127.46741906579474,36.409717719503796],[127.46740045039569,36.409921678941224],[127.4676902573409,36.4099548439428],[127.46818260552135,36.409851676736636],[127.46841488909045,36.41016838094634],[127.46864869213321,36.41094962127968],[127.46901135431425,36.411155752135585],[127.46980963721214,36.412169632247874],[127.47046327780167,36.41268225901853],[127.4712730044785,36.41360236449078],[127.47160670107587,36.41412782193342],[127.47189825367245,36.41433614115045],[127.47238682596807,36.414891695173736],[127.47281242988402,36.41559762994535],[127.47289814068827,36.41607355354135],[127.47362351328839,36.41668805020283],[127.47381158048829,36.417092276995085],[127.4744168476605,36.41758904922132],[127.47455221114666,36.417796013844296],[127.47335595319139,36.41908040425207],[127.47337908470111,36.419312389591546],[127.47387661128033,36.41945526413021],[127.47397040939634,36.419662265324234],[127.47451304240096,36.41945754731061],[127.47494300743075,36.419448029790516],[127.47604464248555,36.41908076114842],[127.47674190339956,36.42097740825322],[127.47789395197813,36.42211262366055],[127.4778610298246,36.422407441522886],[127.47805643234713,36.423058881215496],[127.47829556371661,36.42320951928427],[127.47843513267071,36.42341665136875],[127.47840588312465,36.42369173367602],[127.47901722691886,36.42439951156495],[127.47937333921692,36.42523852325247],[127.47963689243835,36.42542441172588],[127.4795638660475,36.425840029887375],[127.47973106605448,36.42619593378143],[127.48023509223563,36.42649528658246],[127.481174729986,36.427947373972856],[127.4809002099572,36.428424324359696],[127.48108383272861,36.42885160654209],[127.48093378097376,36.429143975781344],[127.48103605957124,36.4295510362821],[127.48146664088313,36.430136472413224],[127.4815850798597,36.43064873885631],[127.48198923560889,36.430951744123384],[127.48260684874802,36.43202806148892],[127.48295877745207,36.432298918976386],[127.48316035066685,36.43261681592416],[127.48404649839745,36.43349446613974],[127.48415839766024,36.433937463504186],[127.48452361858965,36.43418924531238],[127.48470655153011,36.434669179720665],[127.48530266578196,36.43526197547865],[127.48568249428047,36.4358489889049],[127.48602228847996,36.436070340014226],[127.48606170267155,36.43639181708036],[127.48625569961197,36.436717895383076],[127.48653863437985,36.437034394757696],[127.48711762870091,36.4374704503895],[127.48708069415882,36.43756740306809],[127.48765955826728,36.438496559512714],[127.488301114147,36.43898629003036],[127.48884741414558,36.43879158338535],[127.48933793015935,36.439098212677244],[127.48978834760413,36.43914764677887],[127.49067357513592,36.439802792943155],[127.49111305228267,36.43982868409307],[127.49245763269583,36.43936106746952],[127.49349517541307,36.44116429888823],[127.49713384175692,36.44471838135311],[127.4993715935595,36.44621718136636],[127.50214821513667,36.44833714652606],[127.50352552894365,36.44927242335313],[127.50448885069169,36.451746384081765],[127.50374926555013,36.45373679431788],[127.50278874165797,36.455508964253326],[127.50058421428685,36.45622446954223],[127.49160130006122,36.453331983543926],[127.4866538002691,36.452803798516825]]]}}
