{"type":"Feature","bbox":[129.2526330019353,35.54490352378677,129.35368674784462,35.59912785619248],"properties":{"regionCode":"31110","version":"vworld-20260909-3f8952dfda77-p3","name":"울산광역시 중구","attribution":"국토교통부/K-Geo플랫폼 · VWorld 법정구역정보, CC BY 2.0 KR; 공공주택 복덕방 가공"},"geometry":{"type":"Polygon","coordinates":[[[129.33190176579413,35.59769815192391],[129.3318986123396,35.59815569745044],[129.33168753336665,35.59889166456077],[129.3314657316378,35.59905481579751],[129.33119622045703,35.59912785619248],[129.32980047005452,35.59886492004251],[129.32782512500538,35.598041555523366],[129.3266346865227,35.59771306299653],[129.3258327381276,35.5979710439147],[129.32507630713312,35.59848382044481],[129.32459331855128,35.598650565908144],[129.3240136953194,35.598636983857176],[129.32356431443367,35.59852473208565],[129.3228280820117,35.59818022419811],[129.32237826016654,35.59762204075846],[129.32238262639413,35.59623921666525],[129.32226803182752,35.59575560396154],[129.32214319682657,35.59552085551667],[129.32109071908914,35.594467811243334],[129.319740375543,35.59393615031579],[129.31941885358052,35.59387841269014],[129.31755635968426,35.594288451892915],[129.31734869315756,35.59427250685272],[129.31686613386776,35.593857685354855],[129.316345025061,35.593575106456974],[129.31576441274743,35.59330160411323],[129.31501180173893,35.59310426131681],[129.3141607002656,35.59265473212696],[129.3122474420492,35.59118432884854],[129.31099542695438,35.589839378779445],[129.31030852580795,35.58937350237158],[129.30959934957414,35.58908682231283],[129.30865841680992,35.589425350710876],[129.30792122412112,35.58920415134291],[129.30734735955087,35.58921462155021],[129.30697150652213,35.58969205612137],[129.306893718242,35.5900678659938],[129.30664270534814,35.59022502835338],[129.30607311280534,35.59032522977337],[129.30592739661304,35.590473904864005],[129.30580755959997,35.59089774122253],[129.30520110418064,35.59148841322494],[129.30508918707866,35.59170186017317],[129.30512589440218,35.59184741437318],[129.30540812288612,35.591962421149454],[129.3056279095134,35.59218863846826],[129.3057118753666,35.59244394984044],[129.30501062916443,35.59292572646898],[129.30472696478526,35.59296904189713],[129.30451107445143,35.593105308707564],[129.30436925032163,35.59342289100739],[129.3040999596543,35.59368743666693],[129.3040244720133,35.594159503253415],[129.3038788765061,35.594252351720954],[129.30293064528388,35.59424413820345],[129.30234027924274,35.59411039110533],[129.3017183321387,35.59427435397159],[129.30014959950887,35.59426822917097],[129.29944425363527,35.59443657721063],[129.2989667279845,35.594256644872246],[129.298709378131,35.594325154410456],[129.2986724011506,35.59440028754478],[129.2984027438153,35.59430585718111],[129.2979617251306,35.5944108826054],[129.29710099079836,35.59411340810192],[129.29664001033754,35.59384246629402],[129.29607977427867,35.593725009798945],[129.2959226390876,35.59340140892129],[129.29557107408206,35.593203400398835],[129.295272029718,35.592741040492214],[129.29506916162472,35.5925745339024],[129.29467463523457,35.59245839975425],[129.2936768595928,35.59243591024188],[129.29294532454685,35.59265435101853],[129.29136538213606,35.59274086429686],[129.29047930556686,35.59323501836704],[129.29045193620078,35.59275688789278],[129.29030327546687,35.592326142009405],[129.29083206384232,35.5922766642207],[129.29105201890658,35.59199121048111],[129.29100002442806,35.59183273932817],[129.29108676329116,35.590794783548766],[129.2912436889202,35.590403186545466],[129.29121724809082,35.58938791018885],[129.29156270056274,35.58855866159688],[129.29189169779002,35.588071982797196],[129.29261655885554,35.58761018468375],[129.29294771566867,35.58694380845908],[129.29331478764865,35.58665563586638],[129.2934861750531,35.58633391244818],[129.293636994696,35.5856934757056],[129.29386565109928,35.58549512771785],[129.29380034279365,35.5850875794157],[129.29348548030228,35.58442871852987],[129.29271935412714,35.58367220946807],[129.2925784376773,35.5830201912585],[129.2921569751959,35.58209500761933],[129.29233621138292,35.58156781226682],[129.29251374411416,35.58134634706535],[129.29256252611628,35.58105902659275],[129.293111464326,35.580670106839],[129.2934831666696,35.58022915938695],[129.29358331946528,35.57966547307835],[129.2938263374342,35.57944308175592],[129.29393384188893,35.57917562137541],[129.29364442933434,35.5789239573292],[129.2937826295903,35.57856334651539],[129.29369321250817,35.57851337236971],[129.29367427070187,35.57827028524251],[129.29384798671748,35.57741038851787],[129.29398040935595,35.57722110963685],[129.29418675971905,35.576463628954116],[129.2945389216986,35.5761311554459],[129.29421836828612,35.57621566118002],[129.29398019878528,35.57649837349461],[129.29264544424368,35.57708919623556],[129.2920152253867,35.577752182005746],[129.29142009371986,35.57809022584505],[129.29080614401306,35.578561272797586],[129.2899494940033,35.578324731706],[129.2897171156645,35.57814552734484],[129.2891383000512,35.57801614565858],[129.28886365377016,35.57786881184647],[129.28807476608208,35.57793974063155],[129.28797681838674,35.577851882691135],[129.28783380338044,35.57796029858878],[129.28734746610655,35.578081673660094],[129.28679876817105,35.577827863011116],[129.28574571404073,35.57788569425843],[129.2845584715718,35.57827218029955],[129.28416368852572,35.57856587267877],[129.28365710888198,35.578606302520846],[129.28338054349763,35.57937910901611],[129.28243497377963,35.57991718447781],[129.28235881497073,35.58037411176648],[129.28110224631885,35.58101018985295],[129.28078389722072,35.58109142636832],[129.28122179337774,35.582090271936906],[129.2817819094039,35.58396425539255],[129.28168175237954,35.58415435495145],[129.28197773883522,35.58418349819153],[129.2831003353954,35.583826203373164],[129.2830647631921,35.5841378912014],[129.28252224081203,35.58423764360192],[129.28197876774217,35.584478411778655],[129.28136735880196,35.58463454158724],[129.28094080241985,35.58485527947819],[129.28000951020516,35.58500357727789],[129.27846226525244,35.585416277113346],[129.27764238514672,35.58548680454148],[129.27578754492805,35.58586652461191],[129.27421182757212,35.58602219270141],[129.27293891766826,35.58644764795615],[129.27181286424855,35.587045489290276],[129.27063157448254,35.58739018025857],[129.27017515760625,35.58736742129188],[129.269144315928,35.58715055953782],[129.2685219912188,35.58712322894834],[129.26767807088825,35.58719588080351],[129.2674865649812,35.587116379842435],[129.26709362957047,35.5865701929771],[129.26661390126932,35.58617367237468],[129.26631875497142,35.58523049387336],[129.26559536628633,35.58561922998812],[129.2652581350845,35.58546019573295],[129.26495215057088,35.585680937651475],[129.26474766811978,35.58616419803195],[129.26395777303426,35.58646335730877],[129.26304751379809,35.5863805218864],[129.2624236201674,35.58652617034],[129.2617797644429,35.58699831446025],[129.25995851976845,35.5874638664293],[129.25945003771258,35.58751619346003],[129.25862457490686,35.58808503803138],[129.25825188010023,35.58857026504711],[129.25759943606963,35.58890203890474],[129.25705519557854,35.589447842139016],[129.2567370513772,35.589614175602456],[129.2562248871176,35.58951969458718],[129.25589693573514,35.58986055850428],[129.2550948807018,35.589482692724616],[129.25436915445277,35.58967815417369],[129.25343473795002,35.59013744339033],[129.25275869828045,35.5902509904034],[129.2526450394843,35.5900768980816],[129.2526330019353,35.589292582314854],[129.25322976206238,35.588458094745896],[129.25416343044208,35.58819073527796],[129.2543158433595,35.58690349131666],[129.25398360867592,35.58656348076159],[129.25386513020734,35.586165170680864],[129.2548867472487,35.585427072331285],[129.25510863057352,35.58437413704582],[129.25553276138936,35.58360729098047],[129.25515848331088,35.583093900869535],[129.2548527580048,35.58198570551971],[129.25516972956916,35.58147406363383],[129.25522561145291,35.580917367288144],[129.25543653047617,35.58016713522525],[129.25605313064767,35.57994108157012],[129.25626747193274,35.579435943047834],[129.2568655631003,35.578584940391686],[129.25795976750734,35.57872106553607],[129.2587963085033,35.57836563246117],[129.25890615414633,35.5779032734397],[129.25926040910946,35.57765908056303],[129.2591814286335,35.576970526088395],[129.25887113764358,35.576446386231574],[129.25974144550327,35.57473038360099],[129.25974356331312,35.57427397271467],[129.25855803505098,35.574380840783014],[129.25781050782146,35.573946484180674],[129.25770701364476,35.573100209514976],[129.25754592870953,35.572621186673345],[129.25792300641328,35.57206715679194],[129.257990818665,35.57160784995423],[129.25782289321882,35.57097516650184],[129.2584338122927,35.570352964216475],[129.25839320208212,35.57003481152578],[129.257806142486,35.569664459166894],[129.2573442368525,35.569205146981474],[129.2573664687878,35.568839355248926],[129.2568277792895,35.56708856851877],[129.257005778935,35.5667300179609],[129.25751084185376,35.56654363977293],[129.2578672388347,35.56629881416237],[129.25817876327056,35.56568915281227],[129.25820550494373,35.56522000050678],[129.25801351302303,35.56452242181718],[129.2584591569645,35.56375907726682],[129.25847313050824,35.56314315856814],[129.25878601767064,35.56261676458241],[129.2588852614648,35.56152859876581],[129.2611826379842,35.561333419237066],[129.26177658341902,35.56110888777029],[129.2622323590111,35.560800608311006],[129.26306677038616,35.56000931477124],[129.2639128886361,35.558666199819214],[129.26534013242755,35.5574132480629],[129.26564407938022,35.556909593165],[129.2664333557913,35.55605816737054],[129.26782261717537,35.554836418674974],[129.26878875951093,35.55426376112028],[129.27037199540376,35.55356927293569],[129.27084158757557,35.553433176359434],[129.27258687705677,35.553431633248174],[129.2743247946122,35.554073732624865],[129.27487392186782,35.55412904497158],[129.2763573251072,35.5537966018612],[129.2782449795167,35.553607727156795],[129.28014655122539,35.55324511102671],[129.28145064777647,35.5526287155607],[129.2830584721444,35.55167334842033],[129.28418204040466,35.551112528623925],[129.28528817330135,35.55069900530513],[129.28737350426994,35.55017342061403],[129.28831400495088,35.54970163181865],[129.28915589054446,35.54899590580281],[129.28990388782006,35.54779131820254],[129.29152690324742,35.54638643568076],[129.29178506957564,35.54624836981047],[129.29221797958206,35.546042406816355],[129.2928722108028,35.54587078028853],[129.29341745134235,35.545927604560944],[129.2940506150881,35.545634499902356],[129.2942955535066,35.545418231370355],[129.29480324969856,35.54514970128986],[129.29585230719175,35.54490352378677],[129.29690256253755,35.54490835243651],[129.29957540520712,35.54527369169248],[129.30117875850672,35.54558835333625],[129.30172522560883,35.545774687634804],[129.30282823354614,35.54645702767346],[129.30328422489865,35.54696105535878],[129.30305439036132,35.54951949535215],[129.30305120644883,35.5508799236407],[129.3032150854563,35.55136391406571],[129.30450945849472,35.55228131913155],[129.30517153681737,35.55263961998086],[129.3054966064412,35.55275171580198],[129.30644286427406,35.55288052794847],[129.3071600412558,35.55288903072407],[129.30943802017717,35.55211689329617],[129.31216630511688,35.551588282414045],[129.31345999738704,35.551095468485144],[129.3148562192955,35.55068303946324],[129.317204783951,35.55037024327742],[129.3193600163102,35.550249985490495],[129.32012456125582,35.55009514456185],[129.32197068221782,35.54996164823595],[129.32283298249033,35.549821597568815],[129.32597105923386,35.54959376644897],[129.32739030233753,35.54972535081335],[129.33009929954267,35.550160305205864],[129.33076885707771,35.55020405648256],[129.33141580202889,35.55041921300029],[129.33313222419997,35.550033142176325],[129.33676069679126,35.54956913418092],[129.3396300656403,35.54929604214186],[129.3404049715327,35.54906170382126],[129.3420009992267,35.549043639947534],[129.3425114844327,35.54906279608013],[129.3428649761685,35.54919800720939],[129.34388963344264,35.549374025852266],[129.34632228092252,35.54970077808075],[129.3481251146306,35.54924438247861],[129.3482023089667,35.54982764081188],[129.34861365184562,35.54975670675845],[129.34931023515963,35.54941735542819],[129.34943409596016,35.549397257291254],[129.34931480434813,35.54963797825782],[129.34998224312915,35.549525130699976],[129.35037089238148,35.54924155126928],[129.3519016115258,35.54855469121432],[129.3517322474939,35.54910186988322],[129.3509339634836,35.55016872099512],[129.35099440355702,35.55044566300724],[129.34988400578152,35.55194011698194],[129.34973274597294,35.55177970878222],[129.34955758597744,35.55212137361282],[129.35040938094588,35.553415893818624],[129.35059008040682,35.5539658630304],[129.35044557271885,35.55499083047239],[129.35020634538037,35.55569255382153],[129.34963957588178,35.55685632095781],[129.34951917814024,35.557636460725],[129.34931074582784,35.557943951955565],[129.34958944182063,35.55844927609707],[129.35012875052865,35.55886470464305],[129.3522028622618,35.55964113917666],[129.35321056882916,35.56025180133257],[129.35359557757235,35.561805436467836],[129.35368674784462,35.56265393290214],[129.35303714528334,35.565649585998045],[129.35234257931893,35.566909537716356],[129.35200263392974,35.568085138485294],[129.35210547508592,35.57107055593912],[129.352258445035,35.57168214619232],[129.35230388028683,35.572825055769854],[129.35215159096964,35.57485729799768],[129.35156994120464,35.576584057385695],[129.35031317608636,35.57848367758079],[129.3499513953468,35.579189998836235],[129.3492554206237,35.58008115777482],[129.34879591286335,35.58146093702119],[129.34853850034602,35.582753274907375],[129.34845516997225,35.58447737654038],[129.34828284653005,35.58534655835243],[129.34818799843063,35.585559475437336],[129.34815102247057,35.58551570302465],[129.34819648294157,35.58872112287459],[129.34858657415316,35.58873889127437],[129.3486930920859,35.590617216046375],[129.34857256411118,35.59095258910614],[129.34870563959316,35.591381449551506],[129.3486896815535,35.591909773303115],[129.34835343563452,35.59243632556523],[129.348349240725,35.59270507388984],[129.34803424903598,35.592954537774716],[129.3480404833254,35.593443249703824],[129.34816938862073,35.59317263889189],[129.3483015238241,35.593085149379185],[129.34855285756436,35.59313062722589],[129.3483592481434,35.59387623773625],[129.34800469909996,35.59449236007633],[129.34812842938987,35.59487704816403],[129.3462031266526,35.595863232903014],[129.3457230589941,35.596041555032855],[129.34179720378785,35.59621642088483],[129.33908652181583,35.595735884691315],[129.33719935443642,35.59491939812537],[129.33719145096927,35.59483438235787],[129.3356686709462,35.59386340701339],[129.33462563296777,35.593658314011506],[129.33390425014105,35.59382525179724],[129.33266542818356,35.59450019274755],[129.3313897178981,35.59540171639407],[129.3311564072931,35.59566771622131],[129.3310538416346,35.59617936850329],[129.33122460251272,35.59659312251625],[129.3316804452529,35.597166091524365],[129.33190176579413,35.59769815192391]]]}}
