{"type":"Feature","bbox":[129.38762237268753,35.46647332244727,129.45936930748294,35.57183929296071],"properties":{"regionCode":"31170","version":"vworld-20260909-3f8952dfda77-p3","name":"울산광역시 동구","attribution":"국토교통부/K-Geo플랫폼 · VWorld 법정구역정보, CC BY 2.0 KR; 공공주택 복덕방 가공"},"geometry":{"type":"MultiPolygon","coordinates":[[[[129.40655672972974,35.4686919163415],[129.40649725100863,35.4688125280083],[129.39985848926008,35.46662964045703],[129.39993546760712,35.46647332244727],[129.40655672972974,35.4686919163415]]],[[[129.4154533000445,35.478506152636626],[129.41531720139287,35.47851973102449],[129.41533340972325,35.478491187112816],[129.4154533000445,35.478506152636626]]],[[[129.4155941589888,35.478616535945875],[129.41555724872626,35.47855560048218],[129.41562004592024,35.478558402311535],[129.4155941589888,35.478616535945875]]],[[[129.42102901720276,35.48068986722166],[129.42099275077533,35.480718480647376],[129.42097756949457,35.4806816560795],[129.42102901720276,35.48068986722166]]],[[[129.41777875441727,35.4810441701568],[129.4177919722344,35.48108186566312],[129.4177204088846,35.48106552850122],[129.41777875441727,35.4810441701568]]],[[[129.42129216838038,35.48103259121665],[129.421195949926,35.481010220152214],[129.42131517215307,35.480874830084794],[129.4213814794953,35.4809374509782],[129.42129216838038,35.48103259121665]]],[[[129.41778616892148,35.481129251836386],[129.41777309680882,35.481165735353045],[129.41772563213627,35.48114819382325],[129.41778616892148,35.481129251836386]]],[[[129.43504698385362,35.480895686539284],[129.43499418045948,35.480949595088646],[129.43495686260167,35.48089465474591],[129.43504698385362,35.480895686539284]]],[[[129.43477203884558,35.481410399547904],[129.4346489879921,35.48135475160589],[129.43475334976037,35.48124608659816],[129.43484669892996,35.481325522787785],[129.43477203884558,35.481410399547904]]],[[[129.43579535585235,35.48257922062392],[129.43573517708288,35.48260780202486],[129.43572115524063,35.482572925205176],[129.43579535585235,35.48257922062392]]],[[[129.4363529890476,35.483454646165505],[129.43644668530854,35.48349325090682],[129.43644884430887,35.483553922535776],[129.4364100473118,35.483551075431976],[129.4363529890476,35.483454646165505]]],[[[129.43800091622722,35.48501447813035],[129.43801859653624,35.484971465586234],[129.4380711471553,35.48498884247266],[129.43800091622722,35.48501447813035]]],[[[129.43841193598615,35.485310255983094],[129.43831781987595,35.48531023665114],[129.4383831382047,35.485308362206354],[129.43835482434963,35.48525796794879],[129.43841193598615,35.485310255983094]]],[[[129.43898727011285,35.48532147543318],[129.4389104919835,35.48531646392159],[129.43890481160588,35.48528950745958],[129.43896038429926,35.48527516200684],[129.43898727011285,35.48532147543318]]],[[[129.43870519098624,35.4854766826321],[129.43868068930803,35.48543077977399],[129.4387229843477,35.48543260710708],[129.43870519098624,35.4854766826321]]],[[[129.4463585962347,35.491086629900366],[129.4462772844963,35.4910692998099],[129.4463737328774,35.49099638981935],[129.4463585962347,35.491086629900366]]],[[[129.44454420195765,35.491134789827896],[129.44441122640615,35.49094151525111],[129.44469024457283,35.49100716381396],[129.44454420195765,35.491134789827896]]],[[[129.4421847439958,35.49174739851122],[129.44216463534636,35.49173945553074],[129.44224673549667,35.491697873461234],[129.4421847439958,35.49174739851122]]],[[[129.4454513015664,35.49176575873047],[129.44517646908378,35.49173042954669],[129.4449926891214,35.491580485183974],[129.44495379654356,35.491272931800864],[129.4450431721841,35.49122573048716],[129.4450169597745,35.491058843756115],[129.44514684701906,35.49111627441104],[129.44502056041972,35.490968792542446],[129.44518920995012,35.49100118818884],[129.44505376870126,35.49094175655711],[129.44506943398437,35.49082642745519],[129.445163489135,35.49083545198783],[129.44521255842133,35.49066459718534],[129.44547498741713,35.49047253909016],[129.44565861420637,35.49066922621405],[129.44555459405504,35.490475781548966],[129.44562302540987,35.490427768221046],[129.44582537658835,35.49063943258844],[129.44594628572156,35.490582979183095],[129.44605114891309,35.490735515144515],[129.4459136170592,35.4908140837722],[129.44567105487985,35.49068423114456],[129.44573322816956,35.49082441758644],[129.44537297661375,35.49096721475898],[129.4458054993424,35.4913450787318],[129.44591400675623,35.49134836677309],[129.44593425143032,35.49147980250349],[129.44579211953067,35.491666008582065],[129.44566266614922,35.4916352172842],[129.4456821756794,35.49154901307928],[129.4453794139948,35.491483516311256],[129.44523056586672,35.491269336868434],[129.44511775656164,35.491305926923665],[129.44549443132897,35.49160330605449],[129.4454513015664,35.49176575873047]]],[[[129.4423498337031,35.491815049117875],[129.44233062653615,35.491838782998],[129.44227371377457,35.49179492281108],[129.4423498337031,35.491815049117875]]],[[[129.44278146090167,35.49188273849392],[129.44276660423142,35.49182012337011],[129.44278175646892,35.49185001557848],[129.44278146090167,35.49188273849392]]],[[[129.44513923299178,35.49247247950107],[129.44498165106288,35.49243876678149],[129.44498215152385,35.49229368933618],[129.4451090740093,35.49237176616939],[129.44504102922605,35.492398767138255],[129.44513923299178,35.49247247950107]]],[[[129.44441273598238,35.492815321153074],[129.44443847013562,35.49258059022563],[129.44472664186378,35.492557377130034],[129.44465134822735,35.49265046742568],[129.44448675022133,35.49264951229531],[129.44441273598238,35.492815321153074]]],[[[129.44418343364163,35.49365784867519],[129.4442583058786,35.49370295277349],[129.44427786616157,35.493731564805685],[129.44419997509723,35.49370180332626],[129.44418343364163,35.49365784867519]]],[[[129.43822324373042,35.49995435306491],[129.4383297547266,35.50003147754094],[129.438311763274,35.500064135045506],[129.43823447261548,35.500013747348376],[129.43822324373042,35.49995435306491]]],[[[129.43869313150375,35.50007410534461],[129.43876941757503,35.500120706363106],[129.43873391442168,35.50016606719368],[129.4387028206593,35.50015610870662],[129.43869313150375,35.50007410534461]]],[[[129.4397036657724,35.5002061371645],[129.43957290381647,35.50016638885853],[129.439650644412,35.50016792337867],[129.4397036657724,35.5002061371645]]],[[[129.4393333983954,35.50025307185045],[129.439432013669,35.50031151429324],[129.43946016200874,35.50041619006194],[129.43937932349854,35.50036574297506],[129.4393333983954,35.50025307185045]]],[[[129.44004780654285,35.50045943429278],[129.44001236485371,35.50036891684861],[129.44003778117357,35.500365712468096],[129.44004780654285,35.50045943429278]]],[[[129.43990227944488,35.50059220767935],[129.43995418622993,35.50053580613892],[129.44006070423535,35.50054808945971],[129.4400155655002,35.50062883626121],[129.43990227944488,35.50059220767935]]],[[[129.43953186375887,35.50074819801446],[129.43953424353072,35.500780364022404],[129.4394424552917,35.500746556262555],[129.43953186375887,35.50074819801446]]],[[[129.4406480515593,35.50094265983981],[129.4405766394801,35.500947504128895],[129.4405484209326,35.5008900124716],[129.4405910673818,35.500880860309834],[129.4406480515593,35.50094265983981]]],[[[129.43982012233778,35.50095277765105],[129.43974423270663,35.500981847346054],[129.43973670884216,35.50091607953904],[129.43982012233778,35.50095277765105]]],[[[129.44987935640953,35.52768017889933],[129.44986869357126,35.52777414192098],[129.44975963743696,35.527768442084515],[129.449769742144,35.52767250931592],[129.44987935640953,35.52768017889933]]],[[[129.45178355668313,35.53485138665182],[129.45172462460937,35.534824651357184],[129.45174233999418,35.5348067971637],[129.45178355668313,35.53485138665182]]],[[[129.45289422917403,35.54433065172295],[129.45293169083308,35.54426211200858],[129.45295424270032,35.54430620911875],[129.45289422917403,35.54433065172295]]],[[[129.45280497522867,35.54455760039459],[129.45271848344433,35.544510633784554],[129.45279536711888,35.54454037528455],[129.45279748787985,35.54437221723372],[129.45285175423098,35.54442320454256],[129.45280497522867,35.54455760039459]]],[[[129.45310468458658,35.54469589082213],[129.4530524015733,35.54475096985315],[129.45302715648896,35.54465446220979],[129.45310468458658,35.54469589082213]]],[[[129.45320445814164,35.54507233543737],[129.45308620330715,35.54500956406655],[129.45318105571153,35.54494444410147],[129.45307413069722,35.54486372885022],[129.45314794786535,35.54469609584524],[129.45330329834167,35.544814761646215],[129.4531649173271,35.54498468584132],[129.45320445814164,35.54507233543737]]],[[[129.4533787771171,35.545273522806625],[129.4532724706821,35.54519609898338],[129.45339576265152,35.54518527190531],[129.4533787771171,35.545273522806625]]],[[[129.45360468391834,35.545665750885746],[129.45350367900676,35.545686936643094],[129.45349212876434,35.545632047206084],[129.45352922341374,35.54561961938675],[129.45360468391834,35.545665750885746]]],[[[129.45371968324318,35.54590427875623],[129.4538597300085,35.54579312220555],[129.4539604495113,35.54594407513277],[129.45371968324318,35.54590427875623]]],[[[129.45559983888384,35.547043383600005],[129.4556121631145,35.54712348395504],[129.45557980459793,35.54713472945379],[129.45556769649164,35.54708586945945],[129.45559983888384,35.547043383600005]]],[[[129.45495571458414,35.54724464774905],[129.4549514747488,35.5472120888494],[129.4550342785307,35.54719262953074],[129.45495571458414,35.54724464774905]]],[[[129.45564121031697,35.54738493905794],[129.45567944804668,35.54737236942384],[129.4556981376233,35.54741643667351],[129.45564121031697,35.54738493905794]]],[[[129.45484347885883,35.54747062819711],[129.45471864314683,35.547426183482074],[129.45483664523803,35.54735109404232],[129.45491358403132,35.54739881526856],[129.45484347885883,35.54747062819711]]],[[[129.45541588483397,35.54832244883078],[129.45536113916563,35.548344647256805],[129.45535851644138,35.54831895674896],[129.45541588483397,35.54832244883078]]],[[[129.45551077262255,35.548664751570534],[129.45549810610703,35.54874341198997],[129.4554575760543,35.5487602728967],[129.4554504600713,35.54871086043953],[129.45551077262255,35.548664751570534]]],[[[129.455730414407,35.54936719224913],[129.4557158419656,35.5493916841917],[129.45566613195112,35.54935842159385],[129.455730414407,35.54936719224913]]],[[[129.45542184874859,35.5500804372741],[129.4553884463372,35.550132635452364],[129.4553571312843,35.550065133206466],[129.45542184874859,35.5500804372741]]],[[[129.45790418799143,35.55194674321348],[129.45788808910234,35.55196733601654],[129.45782196070897,35.551931429238806],[129.45790418799143,35.55194674321348]]],[[[129.45744764731108,35.55198865824181],[129.45764664284042,35.55193441832249],[129.4576233871572,35.552018438059235],[129.45744764731108,35.55198865824181]]],[[[129.4577757834002,35.55200047885947],[129.45773372880902,35.55208501310194],[129.45762965999413,35.55203986826511],[129.45767471529422,35.551991218705936],[129.4577757834002,35.55200047885947]]],[[[129.45710595405515,35.552082696152844],[129.45709574146832,35.5521078828276],[129.4570260601138,35.55207891707616],[129.45710595405515,35.552082696152844]]],[[[129.45787830989613,35.552139363895996],[129.45783214059597,35.55209812334206],[129.45786755045944,35.55206227828544],[129.45787830989613,35.552139363895996]]],[[[129.45756848087248,35.55219486880207],[129.45745827655796,35.552149955983325],[129.45757015914876,35.552141087508936],[129.45756848087248,35.55219486880207]]],[[[129.45763625729907,35.5522358045045],[129.45763670342527,35.55225986433254],[129.45755352649275,35.552248967578],[129.45763625729907,35.5522358045045]]],[[[129.45755550343821,35.55241495203408],[129.45765753658284,35.5524399221931],[129.45766848227998,35.552452778155576],[129.45760586683494,35.55247428959368],[129.45755550343821,35.55241495203408]]],[[[129.45877153865942,35.552903614069635],[129.4587465533784,35.55295355424867],[129.45866380046365,35.552922399422535],[129.45877153865942,35.552903614069635]]],[[[129.4587949258341,35.55296357430223],[129.45881027030578,35.55289529943682],[129.45889303437946,35.55295397375088],[129.45887904889932,35.55296721224057],[129.4587949258341,35.55296357430223]]],[[[129.4588719849254,35.553062834447424],[129.458634157457,35.55302641629467],[129.45859210363076,35.55297105495334],[129.45888766310784,35.55298098583193],[129.4588719849254,35.553062834447424]]],[[[129.4593201515863,35.552993871060806],[129.45936930748294,35.55305954782251],[129.45925953314685,35.55305940127405],[129.45924419885745,35.55301772135825],[129.4593201515863,35.552993871060806]]],[[[129.45933066565368,35.55320397706083],[129.45921455881737,35.55320309322547],[129.4591958849915,35.55318138689804],[129.45924452828595,35.55315498399574],[129.45933066565368,35.55320397706083]]],[[[129.45853836935598,35.55330938718722],[129.45869247018013,35.55331537421056],[129.45868527425262,35.55334016581626],[129.45853836935598,35.55330938718722]]],[[[129.4588465995356,35.55336410108963],[129.4589562604158,35.5533272040448],[129.4590259155069,35.5533984858881],[129.4588465995356,35.55336410108963]]],[[[129.4586179449138,35.553738380463805],[129.4585813724091,35.5538200330833],[129.45851013239155,35.553770661298564],[129.4586179449138,35.553738380463805]]],[[[129.45867590266528,35.554103575865184],[129.45860245284223,35.55409093067131],[129.45861928749858,35.55402530994541],[129.45867590266528,35.554103575865184]]],[[[129.45888918005215,35.55654690475216],[129.45884622727888,35.556568874377845],[129.45880310364927,35.55652426368574],[129.45888918005215,35.55654690475216]]],[[[129.45830449990368,35.55662621547215],[129.45826973768783,35.55653082847897],[129.4583156755428,35.556533512259215],[129.45830449990368,35.55662621547215]]],[[[129.45821731346342,35.556591682448534],[129.45821970262472,35.556636239397896],[129.45815142474848,35.556622653524464],[129.45821731346342,35.556591682448534]]],[[[129.4589504071355,35.55661499975029],[129.45889635436046,35.55666598843783],[129.4588425896017,35.556611960668704],[129.4589504071355,35.55661499975029]]],[[[129.4584670598558,35.55861981685332],[129.4584141772951,35.55865032252312],[129.4583538375876,35.55859099697853],[129.4584670598558,35.55861981685332]]],[[[129.4585471251764,35.55908454403382],[129.45852017747916,35.55914889478835],[129.45840986334926,35.55911711681557],[129.4584453249064,35.5590714084544],[129.4585471251764,35.55908454403382]]],[[[129.45845368654585,35.55959211851972],[129.45843138602217,35.55959638253663],[129.45838925876495,35.55955061516419],[129.45845368654585,35.55959211851972]]],[[[129.45833138338148,35.559479700611114],[129.45836128613394,35.559528068206454],[129.45831326185797,35.5596341162782],[129.45824440593643,35.55958672595471],[129.45833138338148,35.559479700611114]]],[[[129.45858741207377,35.55973605332692],[129.45845707821394,35.55975528514638],[129.45835471365663,35.55966454860974],[129.45843339368838,35.559632550093625],[129.45858741207377,35.55973605332692]]],[[[129.4584706198519,35.559923629055476],[129.45839609226718,35.55991279350215],[129.45842900575207,35.55986119385274],[129.4584706198519,35.559923629055476]]],[[[129.45788336024953,35.56017631554779],[129.45787758961055,35.560247069781155],[129.45762838382157,35.56011992330847],[129.45788336024953,35.56017631554779]]],[[[129.45762933592434,35.560159832978584],[129.4576414788992,35.56023986463506],[129.4575562514262,35.56029177560067],[129.4575341870195,35.56017531996123],[129.45762933592434,35.560159832978584]]],[[[129.45748685524424,35.560478977231234],[129.45744743326,35.56051444472409],[129.45744259833342,35.56045772855663],[129.45748685524424,35.560478977231234]]],[[[129.45764526933186,35.56055136659094],[129.45761424581409,35.56055737950351],[129.457563368722,35.560519504069845],[129.45764526933186,35.56055136659094]]],[[[129.45748460257394,35.56069944945236],[129.45743313272382,35.560630493949986],[129.45743629922035,35.56056641518455],[129.4575695769037,35.56065924486983],[129.45748460257394,35.56069944945236]]],[[[129.45756620548818,35.563177304104656],[129.45760134812897,35.563268864488926],[129.45749531562993,35.56330510024121],[129.4575153786313,35.56324065420373],[129.45756620548818,35.563177304104656]]],[[[129.45761222054716,35.563345261207644],[129.4575779909637,35.56340306352105],[129.45755730438364,35.56337072418667],[129.45761222054716,35.563345261207644]]],[[[129.45802981618513,35.56381464431205],[129.45794230149517,35.56390065096464],[129.45788553017607,35.563776567502764],[129.45802981618513,35.56381464431205]]],[[[129.45800365843206,35.56389407662205],[129.45805657584972,35.5639534930803],[129.45804520339883,35.56398573657353],[129.4579908557029,35.56395899254657],[129.45800365843206,35.56389407662205]]],[[[129.45819781087806,35.564049201807414],[129.45807882915895,35.56398849510316],[129.4582194419142,35.56392888750284],[129.45823885106398,35.56395632083814],[129.45819781087806,35.564049201807414]]],[[[129.45814959761574,35.564100580307425],[129.45810747110573,35.56419253323622],[129.45798137015905,35.56412400090024],[129.45804159002438,35.56402712490813],[129.45814959761574,35.564100580307425]]],[[[129.4580575285321,35.56422109428477],[129.45796501585818,35.564256107444876],[129.45796591063706,35.56420686985035],[129.4580575285321,35.56422109428477]]],[[[129.45832448800348,35.56424484970425],[129.45829135821782,35.56432462343765],[129.45826275029378,35.56432640716776],[129.45825738692346,35.56428822614639],[129.45832448800348,35.56424484970425]]],[[[129.45788963134964,35.56433517836434],[129.45789017264818,35.56425781016504],[129.45792572823217,35.56431316536228],[129.45788963134964,35.56433517836434]]],[[[129.45795000217456,35.56440712706265],[129.45794463616718,35.56448100104619],[129.45789920160829,35.56443326255989],[129.45795000217456,35.56440712706265]]],[[[129.45804918426418,35.56449125260059],[129.4580197038895,35.56453829613806],[129.4580038090729,35.564493243783566],[129.45804918426418,35.56449125260059]]],[[[129.4577715789176,35.564633112436795],[129.4576462045514,35.56456852278589],[129.45784375155645,35.564476529725695],[129.45793229081175,35.564523503944095],[129.4577715789176,35.564633112436795]]],[[[129.45775761791893,35.56472230619641],[129.45772923080054,35.564669508318985],[129.457820263811,35.56466040109562],[129.45775761791893,35.56472230619641]]],[[[129.45509645680488,35.567376661043205],[129.4551739782279,35.56745516524411],[129.45512326497305,35.567532408061695],[129.45507096858728,35.56750509939804],[129.4551380859329,35.567476423185774],[129.45509645680488,35.567376661043205]]],[[[129.45534604424594,35.56765636228326],[129.4553869867899,35.56771047058562],[129.4553460506259,35.5677451921203],[129.4553179328968,35.56771921400098],[129.45534604424594,35.56765636228326]]],[[[129.45510198140985,35.56773652395051],[129.45516156128534,35.56761070573829],[129.45519293413184,35.56763856026931],[129.45510198140985,35.56773652395051]]],[[[129.454957844419,35.56781842219711],[129.45487035499812,35.5677723266956],[129.45494235523552,35.56774121218653],[129.454957844419,35.56781842219711]]],[[[129.4553515766553,35.56788625747434],[129.45529900170877,35.56790129543324],[129.4552918558817,35.56782754613865],[129.4553515766553,35.56788625747434]]],[[[129.45460162186535,35.56937171123767],[129.45445004262677,35.569425906091126],[129.45446637686769,35.56928639642119],[129.45451726149312,35.56926563924075],[129.45450036831343,35.5693702866191],[129.45460162186535,35.56937171123767]]],[[[129.45472710830447,35.569394514539965],[129.45489898937822,35.56940021932345],[129.45488213024478,35.56943450865934],[129.45472710830447,35.569394514539965]]],[[[129.45420331321534,35.569538673716394],[129.45422914240046,35.56949141534021],[129.4542814880823,35.569512307655536],[129.45420331321534,35.569538673716394]]],[[[129.45464947651953,35.56955383976414],[129.45463756962323,35.56949283267173],[129.45471218758706,35.56953124095195],[129.45464947651953,35.56955383976414]]],[[[129.45481496478612,35.56955449364472],[129.45491843359363,35.56954209379949],[129.45491253439823,35.569569583013426],[129.45481496478612,35.56955449364472]]],[[[129.45336621213445,35.57034673064352],[129.45284998718006,35.57183929296071],[129.45184126577837,35.57152851159517],[129.45086430526794,35.57145003309859],[129.4506378851983,35.57124417802373],[129.4502937782713,35.570566746440896],[129.44977715077866,35.57035899342682],[129.4493814672324,35.57033439981515],[129.44889553784768,35.57051443298242],[129.44890391823745,35.57059109168686],[129.44810606530714,35.57077305393941],[129.44810035367914,35.570666418083434],[129.4477550686273,35.57043272885911],[129.44750773460078,35.5701135549786],[129.44749395322154,35.56981702276027],[129.44777717921878,35.569150250075474],[129.44712080481855,35.56885112611641],[129.44599034829835,35.56852229079812],[129.44579847049664,35.568279478885785],[129.44563278918793,35.567834639025655],[129.44532646789975,35.56744182422648],[129.44511468020963,35.567328365471425],[129.4449846386122,35.56733656199935],[129.44460399174702,35.56772799080845],[129.44414820467742,35.56802295151641],[129.4438359168515,35.567960133022815],[129.44327014241756,35.567619053834136],[129.44293863089112,35.567654678294936],[129.4425292760781,35.56780750542039],[129.4424565560858,35.56800451103504],[129.44225166463835,35.5681532959107],[129.4418431782797,35.56810104381697],[129.44066709391032,35.56746820012308],[129.4404120816705,35.567478439275206],[129.44033407008484,35.56767025337065],[129.44044291807364,35.567859371625886],[129.4409211562407,35.5681591074009],[129.44094474234882,35.56827466823633],[129.44045384520646,35.56842516597492],[129.44013703658896,35.56838246342145],[129.4391422609174,35.56803150362548],[129.43899122982353,35.56790424977147],[129.43901502027998,35.56781453103417],[129.43876237526283,35.56768873328763],[129.4380137776327,35.56797916726285],[129.43766755997962,35.567686014533436],[129.4375577222252,35.566984509108124],[129.437366640501,35.56677794826817],[129.43702236343194,35.5667094338366],[129.43645130216504,35.567068865898825],[129.43522450150977,35.567308538137375],[129.4349079810844,35.567128066424075],[129.43460573771637,35.56678776543847],[129.43435603602657,35.566726885151],[129.43381971806377,35.56700326072603],[129.43337064698855,35.566925503889024],[129.43225563967314,35.56695156487057],[129.4314030697416,35.56717257840909],[129.4311421782807,35.566847817312905],[129.4306616558929,35.56706943333864],[129.42953455415014,35.56699720187706],[129.42924910511854,35.5666871174902],[129.42892679512678,35.566515137005716],[129.42886674062615,35.56617722971132],[129.42821443496743,35.56565793645809],[129.4275388496043,35.56561357054195],[129.4269161436677,35.56533707360808],[129.42557231063478,35.56531547100202],[129.42524523611308,35.56522240930177],[129.42457304975588,35.565282945006075],[129.42451805736164,35.56521407370804],[129.4245899858753,35.56500998978193],[129.42430168908854,35.564950639607524],[129.42403258920973,35.56466931931059],[129.4235468829124,35.564853658999006],[129.4231894566941,35.56481711565558],[129.4228853160452,35.56459831158763],[129.42237175569102,35.56447519462116],[129.42120906886885,35.56375635570267],[129.42006018400704,35.56375486978109],[129.4196643956153,35.5634273330935],[129.4188891582478,35.5623403758019],[129.41794074944966,35.56177716119234],[129.4169255802531,35.56084249546778],[129.414879610759,35.559863034034194],[129.41337760048393,35.558743988236216],[129.4143691274976,35.55801968432617],[129.4142630449577,35.55704704426832],[129.41395631590444,35.55645955088998],[129.4134676444095,35.554975189790774],[129.41328309557892,35.55469313992494],[129.412759494207,35.55432507333125],[129.41183542611685,35.55317610443588],[129.4113264989516,35.55286699807849],[129.4100288579565,35.55233072877772],[129.4093015509181,35.552280275438285],[129.4081884410404,35.551741928218945],[129.40769284912193,35.551063018410645],[129.40743223940498,35.550397156049435],[129.40715998094117,35.550108552642],[129.40728775497803,35.54965956960701],[129.40710151694492,35.54855567566602],[129.407447758555,35.54813314933645],[129.40740284131803,35.54796264919491],[129.4076154481995,35.54765091081847],[129.4075699836082,35.54654244914674],[129.40806864913108,35.54635077545557],[129.40854152027447,35.54548264450953],[129.40844793307366,35.54547684388802],[129.4084893000489,35.545296774389584],[129.40796599558433,35.544924910398315],[129.40765221943775,35.54403432131244],[129.40753998140917,35.543144094161256],[129.40691740920028,35.54285222644864],[129.40558805118667,35.541653029352936],[129.40539442975367,35.54067217793653],[129.40569627714711,35.5401474374977],[129.4058713329709,35.53921962785463],[129.4063905318469,35.53883100704555],[129.40657402116773,35.53829362369425],[129.40663177636387,35.53745659375162],[129.40640670468176,35.5371571298692],[129.40565741893775,35.53677057413165],[129.40554801529154,35.535744278595224],[129.4057043128904,35.53537208987427],[129.40558973992592,35.53468253426441],[129.40491730262937,35.533820385051875],[129.4043821658122,35.533300020189664],[129.40384217633624,35.53318916986884],[129.40272405038303,35.53166441093202],[129.4024694372019,35.530540617201844],[129.40174126523942,35.530180092911515],[129.40121171242637,35.52940484585983],[129.40181568696497,35.52869659104618],[129.40193488475026,35.52815949230309],[129.402404968135,35.5279670282323],[129.40355820161153,35.52778430060164],[129.40386249472508,35.52755494444536],[129.40518945027324,35.52738208451082],[129.40525774403952,35.52744074971171],[129.40621569877786,35.526849622474444],[129.40714464445955,35.52593325016739],[129.40759606393024,35.525772029769094],[129.4084549436612,35.525177689021525],[129.40889170440244,35.52516261476995],[129.4103677394,35.524060565625085],[129.40992299057686,35.5235028203432],[129.4105712805525,35.5231063535725],[129.41043811537753,35.522257488969224],[129.4102076081471,35.52193906846498],[129.4090554655365,35.52111895045882],[129.40952255934138,35.520830588583095],[129.40943261494414,35.51968083216758],[129.40970101236633,35.51911237101192],[129.40933228853044,35.518435637282984],[129.40916995880553,35.51758108390863],[129.40926330016566,35.51737398766858],[129.40901888296338,35.516649652119874],[129.40831541171576,35.516089534908346],[129.40793162819764,35.516323713297055],[129.40727358067713,35.51648581911166],[129.40702686271624,35.516461161471916],[129.40676127642112,35.516575128359264],[129.4065827878149,35.51667596200455],[129.40618032704035,35.51713761268597],[129.40547331468167,35.51752888052588],[129.40535923662227,35.51786541856954],[129.40550511289575,35.51837709303422],[129.40515939343214,35.518709186601335],[129.40451187452646,35.51910998628286],[129.4043493873474,35.51949815439112],[129.40409030618952,35.519558063242144],[129.4033642434737,35.520163647612385],[129.40318983282563,35.520127529502446],[129.40269070558554,35.520251922123784],[129.40247534937268,35.52038788259702],[129.4021266368569,35.52037249426474],[129.40200285000037,35.52029212517908],[129.4017690314814,35.52032501461448],[129.401692479476,35.52020143398679],[129.40156896007235,35.52017630257435],[129.4014880008489,35.52023915017673],[129.40140404317052,35.520102742346104],[129.39966617419742,35.5204422648912],[129.39908004031875,35.520402302456546],[129.3988278605901,35.52029845034243],[129.39834725331872,35.52067079870908],[129.39766135868115,35.52079295784148],[129.397722160998,35.52107108865871],[129.39759986942573,35.5212982739367],[129.39675731200865,35.521708569283014],[129.3959282049354,35.52184790211004],[129.39407701524362,35.52182297139647],[129.3934303477992,35.52196691991455],[129.39276858999867,35.52224381242661],[129.39188361589186,35.522965943136384],[129.39022188779157,35.52542567890665],[129.38907467514017,35.526472848753485],[129.38762237268753,35.527410224127685],[129.38804502379267,35.52700883744233],[129.38897687889497,35.52558654709547],[129.38880648832995,35.52550845323929],[129.39324712879184,35.518966474692114],[129.3971200468057,35.51187789163214],[129.3975463883241,35.50756792312545],[129.3957593706439,35.50124752822925],[129.40322162746182,35.4998206051928],[129.4084484436342,35.4932558291766],[129.40581093077455,35.48912297785407],[129.40583484372587,35.487208166293186],[129.40453615537086,35.48720108863302],[129.4045214887082,35.48733277714238],[129.4042444480232,35.487332176299994],[129.40433401617182,35.47642318114007],[129.40128330163364,35.476423172680676],[129.40128257209489,35.47625181800455],[129.40488847802905,35.47625238341743],[129.4070978414206,35.47327605562412],[129.40485570610807,35.471465584828806],[129.40501724246323,35.47132863009644],[129.4061990228256,35.47225944079358],[129.4063908599879,35.47226040162146],[129.40647421739286,35.472134726661984],[129.40667162926653,35.47205896074882],[129.40894843256928,35.47146670121753],[129.40969264055647,35.471377539434904],[129.41037299039985,35.47146021742387],[129.41095504199163,35.471609725842946],[129.41133941379803,35.47180125067212],[129.41276082211553,35.472874628553534],[129.41339536055114,35.47345860937779],[129.41339431468023,35.473607640724836],[129.415724430041,35.47555957624669],[129.41604096921264,35.47601387554922],[129.4160854549505,35.47632273396828],[129.4159549477332,35.47679805550059],[129.41490107262132,35.477940543843815],[129.41494325040918,35.478182298639744],[129.41532179513575,35.478546953020036],[129.41531101402921,35.47875860870042],[129.4149565716909,35.47925924022273],[129.41502430401158,35.47935143317014],[129.4154310657996,35.479231566026215],[129.41546202427887,35.47930362685666],[129.41504457536467,35.47943234526896],[129.41508825119908,35.47959466422505],[129.41517642523723,35.47962275186396],[129.41557311700683,35.479481251966746],[129.41556755357394,35.47923758548196],[129.41564172686404,35.479234229666694],[129.41565156187636,35.47952445154239],[129.41526840891757,35.47969289915772],[129.41536327701024,35.479914826046475],[129.4160312566124,35.48019709307423],[129.4163925581826,35.48077692866004],[129.4166149320997,35.48094373647335],[129.41684840468116,35.48099903147046],[129.41710449960271,35.48093949323472],[129.41769142554102,35.481263187407826],[129.41785136057618,35.48117150939062],[129.41797283188242,35.48127443149522],[129.41805327012543,35.4812007977201],[129.4180359834274,35.48126830689489],[129.4178227744998,35.48130368290818],[129.41810616998364,35.48130892708875],[129.41816070074177,35.481418104192215],[129.41797087852729,35.48158595094923],[129.4180971376684,35.48184271723019],[129.41821134009643,35.481908109549266],[129.41817242415738,35.48200806979486],[129.41839416750642,35.48220364585728],[129.41869528044026,35.4822546548707],[129.4196470787161,35.48180769610374],[129.4197294665663,35.4818262650667],[129.41974739369482,35.48193415146029],[129.4192576934582,35.482145046296765],[129.41951637289037,35.48237682845845],[129.41976113409504,35.48244929657507],[129.42000235609314,35.482311637179116],[129.4200646609876,35.48206364470032],[129.42030266856537,35.48216408656163],[129.4204064959295,35.48198748939203],[129.42073608041147,35.48191465639714],[129.42075832963127,35.482092667729965],[129.4208969349003,35.48209352679947],[129.42127017587856,35.481786863360746],[129.4212718223488,35.48133571024355],[129.42024167334094,35.48147487554713],[129.42019066119096,35.48133021424819],[129.42116042454953,35.4811962842073],[129.4217687295251,35.48081853585893],[129.42205635245713,35.480908204243214],[129.42257316728487,35.480739093524534],[129.42404807444004,35.480983775208365],[129.42413010324518,35.48093341960985],[129.42416680839384,35.481039985261724],[129.42484227323516,35.48116031102641],[129.42512301155787,35.48102238155107],[129.4255530388051,35.481062444446486],[129.42745075529658,35.48079780550092],[129.42863557079988,35.47973333718889],[129.42882986151272,35.47978201154297],[129.42892285556377,35.47987835413025],[129.42892353786067,35.48008980730968],[129.42875532691903,35.48018828612745],[129.42856831844486,35.480143588084324],[129.4277330344236,35.480927486775215],[129.42777953381608,35.48102446140087],[129.42771084332384,35.481120961671174],[129.42579568637672,35.481268649734204],[129.42580463305035,35.48167930550555],[129.4251638618453,35.48168396433184],[129.425188634832,35.482965112998016],[129.42439655447453,35.48421338236019],[129.42570004227835,35.484984348280236],[129.42626597700482,35.4849536242466],[129.4262272132077,35.48440530916811],[129.4264148789117,35.4843995087363],[129.42645576200556,35.48493580168765],[129.42840162874478,35.48483795904663],[129.42836584586723,35.4843854757694],[129.42843887409254,35.48438168046824],[129.42847735429976,35.48483341832523],[129.42889852473513,35.48480664951003],[129.42977763656208,35.4843823969995],[129.43009782327726,35.484112046686185],[129.42950187985463,35.48363907374752],[129.42959956713844,35.48355684104979],[129.43007297065643,35.48393340659167],[129.4306206879683,35.48349831380612],[129.43074545861944,35.48283690752871],[129.43041592034083,35.4827905125437],[129.43043423106386,35.48269080800222],[129.43084185998575,35.48275095769717],[129.43113165621725,35.481475552036684],[129.43145645307132,35.48152842444521],[129.43143425819778,35.48175287379941],[129.43173553860737,35.481813400681396],[129.43194791951964,35.48177791332147],[129.432076622884,35.48150587158996],[129.43210073509655,35.481411545123436],[129.431773679946,35.48120431637552],[129.4314304115986,35.48139377267626],[129.4312002727875,35.48106460651772],[129.43132544229684,35.480732563018336],[129.43179638460663,35.480507295000045],[129.43192598239972,35.480341329856415],[129.43113489104732,35.47836878930716],[129.43054366734953,35.478236904015844],[129.42809630504604,35.47823480538294],[129.42811923641295,35.47836407076926],[129.4278264727414,35.47843748379569],[129.4276344177733,35.478304681460294],[129.42766702267903,35.47800936117637],[129.4292626712281,35.477943111015975],[129.43066232662403,35.478052309853254],[129.43086333616114,35.47797589340643],[129.4309884453473,35.478009275010244],[129.4309571585228,35.47785147883555],[129.43100760291176,35.47793766208384],[129.43102711075323,35.4778612971272],[129.43119153448075,35.47785925928026],[129.43122066052965,35.477915620259814],[129.43127241756844,35.477844759263746],[129.43138215847546,35.47790534686727],[129.43136603700617,35.4778077511782],[129.43163060136683,35.47786520446639],[129.43167206836185,35.47774353070141],[129.4316943539494,35.47789499529435],[129.43178919858198,35.47776813146879],[129.43182199142126,35.47797170420886],[129.43191791264644,35.478010705222275],[129.43180185960588,35.47802210423336],[129.43171408749134,35.47815387079196],[129.43160088353534,35.478068705347155],[129.4314780030068,35.47820023602993],[129.43137432266477,35.47813699843846],[129.43127584988963,35.47818569199798],[129.43212271649446,35.48035312066226],[129.43209438906956,35.48045832187985],[129.432777299909,35.48073741349942],[129.43380855780725,35.48092496560679],[129.43410963537139,35.48109823454901],[129.43425605270392,35.48110059917415],[129.4345685862525,35.4814525378957],[129.4347200312846,35.4821959705113],[129.4350307014286,35.48277768400112],[129.43531546816445,35.483031318915906],[129.43548414658036,35.48299742791478],[129.4354095218209,35.483084821491985],[129.43547595291201,35.48319164392807],[129.4359615565289,35.48360163880576],[129.43640797695573,35.48420714562846],[129.43690290215199,35.484609068952736],[129.43722726970842,35.48472786830006],[129.43729476551385,35.48486620980583],[129.43748156733326,35.48496757479505],[129.4375215680214,35.48510430684541],[129.43793480134516,35.485238362773806],[129.43801898542378,35.48533421388596],[129.43822724136294,35.48530446020761],[129.43823877101565,35.48537386730899],[129.438302502862,35.485324525465956],[129.43842220096167,35.485440803422044],[129.43844340910005,35.48539608438232],[129.4384417584119,35.485485118908194],[129.4387039371307,35.485655628387434],[129.43865559255406,35.48573053856066],[129.43879071066038,35.485729875193634],[129.43873735596134,35.48581930437728],[129.43884352293784,35.485782887502445],[129.4389574210667,35.48589143939159],[129.43881863421763,35.48598650228703],[129.43889835279396,35.48597670449098],[129.43896297130905,35.48634343803291],[129.43920092584187,35.48669139877878],[129.43937378712673,35.48671096528315],[129.43933997085074,35.48689272341508],[129.4394388028082,35.486873380273785],[129.43946550060494,35.4870974727178],[129.43954761314544,35.48705814336168],[129.43960049986808,35.48712359483219],[129.43951680683625,35.48724446521551],[129.43978832817268,35.48731637978356],[129.43966037260088,35.48744087388443],[129.4397461104522,35.48749777908225],[129.439670633145,35.48760983509341],[129.43979568369775,35.4876130907954],[129.43964096553725,35.4876514855211],[129.439776712862,35.48806636429878],[129.43967814687738,35.48858919110836],[129.43970987067414,35.48876130677521],[129.43981025001958,35.488798213737866],[129.43970436684907,35.48911485412571],[129.43977883010544,35.48918247550291],[129.43989668778843,35.48915089913154],[129.43982830901453,35.48925580575939],[129.43969163347862,35.489181016327],[129.43964660824142,35.489829867480026],[129.4398456537825,35.490302743091725],[129.44029637785945,35.4909010662441],[129.44132249966552,35.491571641046775],[129.4414170367741,35.491522707766435],[129.4414488573315,35.491628087679445],[129.4416344218025,35.491661541250416],[129.44174723455282,35.49176817487371],[129.44201057829977,35.491828716217476],[129.44211379437812,35.491787825581575],[129.44245276090865,35.491923965181506],[129.4425858921913,35.49192436701951],[129.442595541365,35.49181530495559],[129.44265988014615,35.4919075830728],[129.44279450492243,35.491941854338165],[129.44285982140133,35.49188402669455],[129.44324738886917,35.49202007084176],[129.44372743116892,35.49194877050114],[129.44388784390935,35.491733535954],[129.44402222944586,35.491688611102575],[129.44393955761552,35.49157577117916],[129.44413589823017,35.491604299913064],[129.44406156509206,35.49144493266606],[129.44419296702938,35.491525835734805],[129.44408494643176,35.49139413401362],[129.4441561001145,35.49130756823652],[129.44427439515778,35.491268839738204],[129.44442277578315,35.49138711643134],[129.4444192175539,35.49152482926341],[129.4445744353862,35.49146273697677],[129.44457215733235,35.49173742653922],[129.44438603548906,35.4917680750477],[129.4444902909726,35.49186018829579],[129.44445692530732,35.492061601131],[129.44462251847597,35.492099273700596],[129.44460104617528,35.49204332119277],[129.44475985866188,35.49202262618678],[129.44471696561368,35.49206820703809],[129.4449028734701,35.49226972025221],[129.4448855834585,35.492372724062164],[129.44482650278735,35.49245771540218],[129.4446559308545,35.49246353603171],[129.4444950713557,35.49225573364878],[129.44442942115896,35.49236581127391],[129.44425752272608,35.49243225876879],[129.44428316767772,35.49276998454829],[129.44414799087176,35.49274170623423],[129.4441530330242,35.49281535775296],[129.44408141320906,35.49277115583717],[129.444028927433,35.49283537001009],[129.4441008184717,35.49333365945929],[129.44428663783657,35.4931439447414],[129.44447136480412,35.493302757323725],[129.4444377206685,35.493460302215134],[129.44432695438292,35.49344454459556],[129.44441609861738,35.493529864331826],[129.4443671017385,35.49369617045908],[129.44407249025318,35.493576109291716],[129.4440451601794,35.493484569740794],[129.44391658726832,35.49352037876273],[129.44388739761285,35.493680029747885],[129.44382092883325,35.49356731812264],[129.44362105205647,35.49421457789159],[129.44350277082998,35.49407438848415],[129.44350783418264,35.49393805148199],[129.44343371369715,35.49403894986174],[129.44319979064554,35.4938998841219],[129.44337516835583,35.494166316811736],[129.44320517425052,35.4944072003801],[129.44291796352655,35.4941378225265],[129.44310116917566,35.49442574478446],[129.4430314952971,35.4945262151983],[129.4428766159254,35.49448950924509],[129.44286374145318,35.494364407213354],[129.44273818604168,35.494454600776734],[129.44270116676847,35.494392275928526],[129.44262615107425,35.494430607009754],[129.44200163262755,35.4941664327775],[129.4419866377493,35.49429735567823],[129.44262892732917,35.49461208565131],[129.44277983743305,35.49477489818128],[129.44251232132356,35.494748338530826],[129.44190667261884,35.49438726240253],[129.44190551143663,35.49449687287494],[129.44246530904798,35.49489928556334],[129.4424300827312,35.49497345403208],[129.4423428416777,35.494967297168984],[129.44181474928686,35.494683250722275],[129.44184034065944,35.49485097211599],[129.44198092081652,35.49489386402986],[129.44230292794964,35.49520362358743],[129.4423141283349,35.49533971126816],[129.44219721245096,35.49538816183633],[129.4421063216095,35.495309500034864],[129.44198838042377,35.495344120770824],[129.44182672985778,35.495209577224095],[129.441969500082,35.495445207958596],[129.4415417721304,35.49538306506974],[129.44174515021558,35.495531041216665],[129.44165371739922,35.495584372825114],[129.44161275140883,35.49579287584288],[129.44109538916817,35.495792655909995],[129.4413510778835,35.49523268565555],[129.44127055864743,35.49522492243727],[129.44106300670518,35.495516013508336],[129.4408277553285,35.49568581856872],[129.44061207053332,35.49544751831398],[129.44063676040656,35.495223197400634],[129.44045623420826,35.49543998459196],[129.4404426847621,35.49557730635334],[129.43994566139924,35.49529162047713],[129.43989966494112,35.49498509643875],[129.43972496805782,35.495115398014825],[129.4397371127683,35.49498704358614],[129.43962921096266,35.494965312744526],[129.43962075469724,35.49466079291686],[129.43980687900506,35.49452101324504],[129.43972383539565,35.49439544000726],[129.4398271962217,35.494250088465755],[129.43965244074175,35.493910398003706],[129.43947415839352,35.49381523744199],[129.4394200453558,35.49367489285475],[129.43913042865577,35.493527345268205],[129.43828627350769,35.49338723367184],[129.43755544278167,35.49355342887],[129.4375668595773,35.49366569241277],[129.437412121141,35.49357318229482],[129.43747326347406,35.49342404388762],[129.43718408084015,35.493146894675306],[129.43673420825547,35.4930255522459],[129.43592163444652,35.49253920632742],[129.4350727690391,35.492419447560124],[129.43454046389493,35.492208361231555],[129.43383111734698,35.492198567658036],[129.43348205267262,35.492248498452575],[129.4328790700849,35.492584161821675],[129.4319940352617,35.49348204735084],[129.43143861763122,35.49452884269418],[129.43105532958137,35.495785248493014],[129.43106592473555,35.496232717839334],[129.4308832564686,35.496279684230124],[129.43088392164483,35.49643384032392],[129.43108565960495,35.49650671627629],[129.43118670467393,35.49740582494286],[129.43162668774306,35.49819890801948],[129.4320534517815,35.498717550511074],[129.43279331747513,35.49934376006569],[129.43304724301103,35.499640297058626],[129.43303200929648,35.499773985009625],[129.43314702385553,35.49973093668634],[129.4334406111518,35.50000056463848],[129.43337963784157,35.500056168514945],[129.4334553542554,35.50012332548235],[129.43391949639798,35.500380557476994],[129.43410631551717,35.50038965718697],[129.43462427977803,35.50010059821756],[129.43483219588236,35.49972982208281],[129.43490444535524,35.49952375911373],[129.43484851855663,35.49948651111282],[129.43507776572775,35.4993142309854],[129.43557685449778,35.49974575008897],[129.4361236036688,35.499760917410704],[129.43665103822104,35.49988904929223],[129.43723815546812,35.50023967780284],[129.43825352726589,35.50026813474757],[129.43885365629254,35.50043708137436],[129.43922664178908,35.50039599484322],[129.43926769555253,35.500291494575784],[129.43942387566375,35.50043749724343],[129.439333672862,35.50045896911313],[129.43941393441006,35.50077139955995],[129.4397126927132,35.50107120100908],[129.44035066488055,35.50112384824901],[129.44042690658037,35.50098272241734],[129.4406421711862,35.501143558081175],[129.44081424661954,35.50117437633107],[129.44177138206516,35.50110453775152],[129.4425273061265,35.50134038821115],[129.4429027361879,35.50170742896435],[129.44332678754856,35.50248312243005],[129.4432851635702,35.503671445729545],[129.44337647982468,35.50483490442939],[129.4432301155254,35.505676308307045],[129.44317200688613,35.50580876601528],[129.44247987777717,35.50625253520467],[129.44216821444977,35.50659223966869],[129.4418089769078,35.50719153952917],[129.44166031708642,35.50759917380541],[129.4417208276811,35.50771079581607],[129.44158925048606,35.50773348193143],[129.44159835703303,35.5076292645245],[129.44120672316606,35.50724567905702],[129.4411012140042,35.50698500154679],[129.4386385165414,35.506987051121726],[129.43864219800258,35.506707428938434],[129.43732362554573,35.506708564005656],[129.43373529403283,35.50419549461856],[129.43201987778727,35.50534939321726],[129.4328168879291,35.5109796204659],[129.4329475908969,35.510986084385834],[129.4331934785338,35.5111943017989],[129.43319354256923,35.51136236372247],[129.43492354846697,35.51137789721767],[129.4349257734395,35.510940967942346],[129.43501549616107,35.51092656654903],[129.43864260341908,35.51095131953702],[129.43888739069374,35.511147845846224],[129.43979909159665,35.51115320189331],[129.43980157213352,35.51097709124164],[129.44055437279047,35.51097510895157],[129.44056448277607,35.51076983106195],[129.44115576410235,35.51077173952333],[129.44116432855452,35.511005497170736],[129.4415165164019,35.51100534291957],[129.4415271952048,35.50917340232065],[129.44177291811584,35.5090828670642],[129.44177245780466,35.50887111341916],[129.44191312547161,35.50887133651885],[129.44194497661985,35.509098523167104],[129.4427818419828,35.5095302987056],[129.44764304128344,35.50899519838902],[129.44833837792476,35.50762457809264],[129.44850073436234,35.5077022784134],[129.44782804737798,35.50908760680338],[129.44724343831678,35.50954891256076],[129.44729927464286,35.50961187573177],[129.44713059572342,35.50989844208211],[129.44665883214478,35.510185731628674],[129.44587519259102,35.510874661410796],[129.44564363829505,35.51162289640626],[129.44657340023696,35.51458827059636],[129.4467631769004,35.51494798098618],[129.44719850651563,35.515472965008115],[129.44730178192472,35.51579357417765],[129.44727902288543,35.518012792788326],[129.44768161480508,35.51877082876427],[129.44761473198247,35.5190583278625],[129.45021007049473,35.52423575251089],[129.45053966197233,35.524524061388625],[129.45055463339534,35.52476448132035],[129.45041360080955,35.52485474144938],[129.45006215744667,35.52484612375224],[129.4499212608825,35.52474343868921],[129.44919944695354,35.52467931119669],[129.44862061252795,35.52483783319181],[129.44821971164924,35.52527416881481],[129.44818949653657,35.52593512021757],[129.44763475533568,35.52608273598276],[129.44698916115914,35.524451262268244],[129.44378697464967,35.52560732510325],[129.44361877194373,35.52529111717111],[129.44676153961055,35.52414952720099],[129.44597194579453,35.52234467668404],[129.44178346613853,35.522289174066785],[129.44167362153877,35.52209893500919],[129.44065555047604,35.52209335720025],[129.44063227837003,35.522272888915474],[129.44022675016393,35.52227047849048],[129.43984132108616,35.520538873994575],[129.43979373752956,35.52144092292307],[129.4397318262893,35.5214367154593],[129.43974503047204,35.519444392636146],[129.43879821921934,35.51943675435592],[129.4387353445925,35.528599521092204],[129.44643776554713,35.52902903783217],[129.44657407174222,35.52909376870703],[129.44675416429354,35.52939190701304],[129.44752188664629,35.52919017105063],[129.4474495866516,35.528981636810215],[129.4475514924572,35.52893491150032],[129.4477092776459,35.528905032038544],[129.44780396858,35.52911470717522],[129.44857108377664,35.52891316913004],[129.44856190610176,35.52869511611786],[129.44917756256095,35.52850726634373],[129.44951264886598,35.527953212660826],[129.44965030291084,35.527885085758925],[129.4499450845811,35.52789036579244],[129.45027721657516,35.52806990019077],[129.45020689475186,35.52813742281663],[129.45034470808585,35.52819069137819],[129.4508039067333,35.52813407413864],[129.45131636900405,35.52796760158994],[129.45201237166378,35.52751908268489],[129.45404294110708,35.52590029258895],[129.45424727454088,35.52595667779997],[129.45181607957312,35.533147817650196],[129.45183397753812,35.5337983141188],[129.45116344759762,35.535799911199405],[129.45114911176668,35.536320020767505],[129.45158621762457,35.53787233179034],[129.4531716811725,35.54084117641012],[129.45370938943577,35.54209136779869],[129.45388766886094,35.542260493765276],[129.45384974273915,35.54234632560025],[129.45381988253658,35.542269631959094],[129.45376660212798,35.54232757165986],[129.45369183355697,35.542290554780045],[129.45355285313036,35.54269508613666],[129.45341508988898,35.54282211031975],[129.45305795985803,35.54295522996103],[129.45227104707507,35.543450947396536],[129.45217409858517,35.54361624191736],[129.45219542387193,35.54385385707134],[129.45237731396844,35.54414210666907],[129.45257842170557,35.544274863686816],[129.45269021858817,35.544295087017765],[129.45275457992423,35.54414018772604],[129.45282295122138,35.54419575962464],[129.45268083939885,35.54432427780161],[129.4527211003907,35.54440504654526],[129.45261503113554,35.544637623237925],[129.45275154454922,35.54471117684136],[129.45299094514047,35.544653632647496],[129.45312708268912,35.54537362356406],[129.45324197634363,35.54561182820345],[129.4534063457594,35.54565768927861],[129.45335224499752,35.54571328650371],[129.4534226021834,35.54584663807232],[129.4532922598394,35.545900620244936],[129.45333517703313,35.54614137484749],[129.45355154225658,35.54641097534511],[129.45353307267183,35.54649511696723],[129.45366012267738,35.5465471230281],[129.45356252089644,35.54674829682652],[129.45367932050905,35.54676524771938],[129.45360535688292,35.54685045102642],[129.4536952331343,35.5469776263518],[129.45389770892726,35.54696628427742],[129.45383344168275,35.547057007238145],[129.4539190469281,35.54709470920017],[129.45389098639006,35.547186026242095],[129.4540919702355,35.5471341445228],[129.45411107467922,35.547299463074694],[129.4543003506504,35.547389538387165],[129.45438680513735,35.54757216796343],[129.45490359190805,35.54764605795279],[129.45515941167017,35.547800671281976],[129.45507509096487,35.54801619710277],[129.45524351069787,35.548304939828895],[129.4554190943915,35.54815157869271],[129.4552832924864,35.54796963681123],[129.4553519422583,35.54750975273592],[129.45542242459473,35.54751706987192],[129.45534765613627,35.54793429102026],[129.4553774911246,35.54808241148908],[129.45551311760119,35.5481423988291],[129.4552422535991,35.54836545565901],[129.45538753007872,35.54856768427056],[129.45523596689213,35.54874601557095],[129.45526863036955,35.5489845655741],[129.45519681784373,35.54909585293085],[129.45527751382224,35.5491537628876],[129.45509845877797,35.54939656924635],[129.45519453506765,35.549592861912856],[129.4550489609346,35.54983125952069],[129.45515085888528,35.5508145464292],[129.4554137713059,35.55145161892952],[129.45602175468395,35.551994759797374],[129.45645120610857,35.55225609045897],[129.45724132745733,35.552368131888976],[129.45747196416556,35.55253069518871],[129.45795648962914,35.55320061407474],[129.4581847855357,35.553662393096474],[129.4583347583395,35.55378760020427],[129.45801284556845,35.554203381920686],[129.45794664246077,35.554782425707465],[129.45811820117797,35.5553302846275],[129.4583591321518,35.555326678518945],[129.45839352666798,35.55489237439894],[129.45850338576994,35.55492750081041],[129.45845596965572,35.55536305775749],[129.45802815403474,35.55595883698624],[129.4578877525099,35.556786674580536],[129.45794416912995,35.55736914778694],[129.4580996860815,35.55778216358643],[129.45855401850915,35.557872210794315],[129.4580679879687,35.55781146130267],[129.45806109671778,35.55789509351039],[129.4582604203774,35.558020793281855],[129.45819542747634,35.55813047686849],[129.45819935942077,35.55804986675051],[129.45799631617407,35.55795665025844],[129.4579796701501,35.55817640259983],[129.4582393467234,35.5582676099664],[129.45801337250586,35.55826158127692],[129.45804005055123,35.55849774364146],[129.45828869172743,35.558501630749234],[129.45834127022047,35.558215535437334],[129.45847232950476,35.55808341205766],[129.45855441047587,35.55817821663359],[129.45839424080765,35.55857069973699],[129.45815333999195,35.55862749702669],[129.45801174342316,35.558823999804154],[129.458053439127,35.55888257096855],[129.45786986354923,35.55904711266381],[129.45780830199362,35.55957492655845],[129.45788328719362,35.55974112393814],[129.4576993542599,35.559993830487365],[129.45756549240036,35.559933500067245],[129.4575050236564,35.560002001014766],[129.4575106321337,35.56019378911019],[129.4573407499132,35.560507404083246],[129.4573388024139,35.56063883851819],[129.45790136326903,35.56089060161037],[129.4579361633738,35.56096716222396],[129.4576103611994,35.56132774934876],[129.45758035236318,35.56106156381539],[129.45730839775644,35.56081362884499],[129.45708785965638,35.56118551259704],[129.45700173745308,35.56160901333341],[129.45702989270313,35.56200227771321],[129.4569635113188,35.56203469136086],[129.45718809696143,35.56234230405388],[129.4577733027666,35.562068410538636],[129.45795056243134,35.56168278324293],[129.45805730638256,35.56165783571728],[129.45818755637495,35.56118138600069],[129.45838591761355,35.56103825730418],[129.4584827334637,35.561093403922406],[129.45846877835277,35.561380657416834],[129.4580914071024,35.56218105369453],[129.4572054725643,35.56267134736134],[129.45729268357945,35.562756976959385],[129.45736881681424,35.562702142486444],[129.45746596689688,35.56289011157166],[129.45737376103844,35.562853962993884],[129.45739266438397,35.56292688839192],[129.45730361345312,35.56292909373179],[129.4573639645456,35.5628047304497],[129.45727580432228,35.562787986436504],[129.45732546938825,35.56315183823267],[129.45752554943076,35.56351414841842],[129.45779585955148,35.56382666223159],[129.45787102789419,35.563813853367904],[129.4579080113625,35.563966936453554],[129.4580263306356,35.56399729918154],[129.45782506125778,35.56431504507722],[129.45788064623466,35.56444127894445],[129.4574232068476,35.56452824966851],[129.45692108349274,35.56476965431601],[129.45634947756662,35.565199035441594],[129.45573610510152,35.56584908734176],[129.45515230269854,35.566885587899456],[129.45500482540243,35.56751602118564],[129.4550778540981,35.56758626226782],[129.4550471880242,35.56774022461411],[129.45497750065593,35.56768017652945],[129.45461827073134,35.5678725890843],[129.45415483541524,35.56847223391624],[129.4541490105773,35.56904104935858],[129.45407032486096,35.56915343189824],[129.4542776495903,35.56942851437964],[129.4541724182436,35.56953218998349],[129.45405522253355,35.56945829054401],[129.4538070754577,35.56962792459384],[129.45336621213445,35.57034673064352]]]]}}
