{"type":"Feature","bbox":[126.92699518694691,37.22453686588029,127.08964502946715,37.35179927796688],"properties":{"regionCode":"41110","version":"vworld-20260909-3f8952dfda77-p3","name":"경기도 수원시","attribution":"국토교통부/K-Geo플랫폼 · VWorld 법정구역정보, CC BY 2.0 KR; 두꺼비집 가공"},"geometry":{"type":"Polygon","coordinates":[[[126.93657265393996,37.30283057209596],[126.93569004667495,37.30287044462503],[126.93526938638888,37.30313029943071],[126.93465951152585,37.30320234682244],[126.93435850143197,37.30336403215767],[126.93295304155183,37.30309407494368],[126.93262466308877,37.30242243855633],[126.93237869249322,37.300919299086665],[126.93281400055736,37.30076853818783],[126.93339524258435,37.30034455244114],[126.93378325692957,37.299877852170525],[126.93387759429878,37.29941178599655],[126.93408702644086,37.299036545672536],[126.93508405409678,37.29858706369127],[126.9354093617528,37.298034582847635],[126.93667870890911,37.29754553883356],[126.93790659033775,37.29688735271717],[126.93934320850175,37.29661284243872],[126.93956718332126,37.29585734901467],[126.93959380330332,37.29533117901498],[126.93873079351445,37.29461957607504],[126.93780223543473,37.29411236666177],[126.93708762737322,37.293308486599926],[126.9356624736282,37.29275672255857],[126.93404480960308,37.292291575398785],[126.93367052327717,37.29201772588001],[126.93336021548448,37.291907587560694],[126.93295469533372,37.29150030901148],[126.93268906969844,37.29038859346065],[126.93272210316624,37.29022448755386],[126.93256416457659,37.29005075164256],[126.93216047996314,37.2891023755954],[126.93195240467004,37.28813479999027],[126.93149350723667,37.28748228648958],[126.93130811948947,37.28699687864109],[126.93073858247791,37.286595146317076],[126.9306287634846,37.286384626406196],[126.9291563828361,37.28596051236284],[126.92884235194397,37.284207317664546],[126.92812760767356,37.28265673474836],[126.92800492174942,37.28066315244728],[126.92752232398618,37.27941669555077],[126.92762039959482,37.27919762588549],[126.92734382596177,37.27879695066356],[126.92734906712235,37.27859410323964],[126.9277846986923,37.278169683660984],[126.92765080179151,37.27740475080556],[126.92843905687255,37.276812999294236],[126.92855708255894,37.276504405383704],[126.92838070389266,37.27579029025956],[126.92799494885892,37.27505753751779],[126.9281322944444,37.27416931612923],[126.92809061159305,37.27398244068118],[126.92734873699334,37.273411471257546],[126.92731945083088,37.27265836850991],[126.92699518694691,37.27206242509109],[126.92706808894904,37.27132201430223],[126.92747433618533,37.27124317914699],[126.92810310343309,37.27126609397401],[126.9286051362273,37.27110413717766],[126.92864611536189,37.27081573164481],[126.92849132637649,37.27056071598858],[126.92961010285262,37.27059384656548],[126.92900872843109,37.26953002800809],[126.92821835613813,37.26886667531953],[126.92892323080783,37.26799618003967],[126.92892771984029,37.26748988185906],[126.92915819031775,37.267115661711934],[126.92966359438782,37.26674424959028],[126.92945171658896,37.26618314980057],[126.92964039583765,37.26584032453876],[126.92955022193192,37.265668694399864],[126.92973038170207,37.26485465845462],[126.92963120866584,37.264488205310435],[126.93021385351709,37.26398939597567],[126.93040888748058,37.262258746389826],[126.93064295664355,37.2616917272953],[126.93079236137001,37.26094571072505],[126.9318219321193,37.260912727393766],[126.93228614889985,37.26081976735005],[126.93245961987583,37.260509418918],[126.93284707655545,37.260317571102746],[126.93307041861901,37.25955531544747],[126.93430164058985,37.25878968913117],[126.93461409753613,37.25836971970429],[126.93517182759234,37.25806756797854],[126.93521090251667,37.25736947042918],[126.9355424236681,37.256984063090066],[126.93579980544641,37.256843875869116],[126.93622204004649,37.25679950964032],[126.93706366841376,37.25692352103812],[126.93751090178294,37.25677748116614],[126.93802042862205,37.2567870821103],[126.93832627146031,37.256720163697054],[126.93877543142882,37.256774058760165],[126.93908284938337,37.256697498255235],[126.93951607226732,37.256803739977585],[126.94019782866758,37.25680302265309],[126.94078891885218,37.25695869382894],[126.94138074385894,37.25688920044578],[126.9415478278711,37.25672696373954],[126.94249800195762,37.257015331495836],[126.94266477156337,37.25696528081911],[126.94318267012035,37.25708550069834],[126.94358494962775,37.25696831255386],[126.94432819778919,37.257013102197135],[126.94497164738917,37.25719943916312],[126.94550751086712,37.25717889865321],[126.94635740584742,37.257479028349955],[126.94673890707632,37.25750276598177],[126.94836120833895,37.2567892919638],[126.94866974593938,37.25649683452868],[126.95009213543047,37.25570609987636],[126.95005883026664,37.25510443492502],[126.94985434619605,37.254320471069896],[126.94975988302465,37.25430696642603],[126.9498153403093,37.25407925643196],[126.95026793694403,37.25352634389035],[126.95039865247375,37.25350108974563],[126.9503590695748,37.25291909095355],[126.95057968701097,37.25248133645743],[126.95151510686831,37.25219620704504],[126.95248029191067,37.25171305091026],[126.95268443635736,37.2504856899974],[126.9527258557832,37.24949328014383],[126.95289740849103,37.24875178675967],[126.95364116200663,37.24802126711197],[126.95499270144774,37.2474912931483],[126.95544116205906,37.247088839520345],[126.95617497553756,37.24675863837662],[126.95630573647902,37.24608719339574],[126.95668413898038,37.24512325900761],[126.95675440128458,37.24473243015649],[126.9572899802454,37.24425739196825],[126.95774919892581,37.243460010755975],[126.95797841771699,37.242931770048045],[126.9579638252383,37.241220664105164],[126.9575042365016,37.240297182025074],[126.95756505801795,37.24001234205041],[126.95780521649104,37.23978243946187],[126.95856321067257,37.23945776896473],[126.96067941128649,37.23831310734261],[126.96163161657142,37.23791402849046],[126.96339992885285,37.23746826190525],[126.96435475023868,37.2370762605472],[126.9657227317536,37.23614158444324],[126.96709626649826,37.23538727229711],[126.96788879569372,37.23480600445573],[126.96813616552541,37.2344244132938],[126.96819217052091,37.23357422936742],[126.96829757618488,37.23327624563783],[126.9686535877927,37.232910233084034],[126.96903819746652,37.2317717592731],[126.96928632153809,37.23148423325131],[126.96942373921475,37.23042747567411],[126.96986878219776,37.229771295286135],[126.97052954988854,37.22932018663795],[126.97059080650784,37.22937351854875],[126.97167565857944,37.22896254292484],[126.97291791211285,37.228735975409364],[126.97424571801605,37.22904356171989],[126.9745275470092,37.22930704805938],[126.97575780968063,37.22954139042428],[126.97656990187873,37.230212957827234],[126.97782377586695,37.22964099986882],[126.97897822007499,37.22944698176561],[126.97904506046721,37.22984245945558],[126.97897457015206,37.230330995427366],[126.9790828924738,37.230588834520184],[126.97942489073729,37.23081730756752],[126.97982139448729,37.230951028850335],[126.98015897206054,37.23159737462954],[126.98038083796682,37.23170621855651],[126.9807512693625,37.23221727355787],[126.98108639809317,37.232520196847666],[126.9819546456697,37.232262942508086],[126.98240448537614,37.232258098453606],[126.98259997314163,37.232179115894304],[126.98260628854806,37.23186283673319],[126.9827370129071,37.231628421502506],[126.98322450296591,37.231449540036444],[126.9835168882986,37.231426043314485],[126.98392167106826,37.23100869940126],[126.98474379694922,37.23080072914287],[126.98487595206599,37.230970686628645],[126.98494881821607,37.23146447381791],[126.9850937299515,37.23168573549848],[126.98513640165655,37.231966659561046],[126.98502667352369,37.23223707412725],[126.98555127838127,37.23261546597066],[126.98631512673221,37.2328263915858],[126.9860434530283,37.23356196301033],[126.98623669832762,37.23409731583141],[126.98665524931533,37.23429144403723],[126.98681071197872,37.23426026063679],[126.98684195948618,37.23415803874983],[126.98662700566776,37.233764407881246],[126.98666251864839,37.23359357932312],[126.98676537383916,37.233516949316275],[126.98754595839569,37.2333583457701],[126.98769386382824,37.23341889258086],[126.98768554454179,37.23349395924101],[126.98735378724915,37.233733667280696],[126.98734713799122,37.23385423467692],[126.98747299406632,37.23414548374469],[126.9876814194509,37.23423902762569],[126.9882875092591,37.23407557728568],[126.98852830752475,37.233799632457604],[126.98954413523371,37.23355126796727],[126.9895942164203,37.232747212567105],[126.98922500369513,37.23213098277211],[126.98930508459101,37.23181201241967],[126.98944544353974,37.2317110210369],[126.98974802266284,37.23159413108358],[126.98990438112922,37.2317042352733],[126.9899982988268,37.23226609891325],[126.99038202111433,37.232277431780474],[126.99056929442106,37.232150430995596],[126.99058527479013,37.23190353021197],[126.99035023806739,37.23162548151126],[126.99037973317763,37.23143469774116],[126.9905925610264,37.23129639155247],[126.99095353731458,37.23132046332605],[126.99129083404235,37.23103874023891],[126.99161016067859,37.23096699004697],[126.99198561215759,37.23120082117802],[126.99268408704032,37.23127597673345],[126.99335036923308,37.230616453650576],[126.99354479328605,37.23064985096664],[126.99395726050832,37.23049272825524],[126.9944410441025,37.230565103512156],[126.99486682228238,37.230461058302865],[126.99541183098934,37.22994053630323],[126.99598161950249,37.2295743753249],[126.99656919541657,37.229472059846],[126.99703560534583,37.22925225693531],[126.9975093145386,37.22925235771329],[126.99768888950639,37.22917972040275],[126.99788215053012,37.228959668410795],[126.99777732804377,37.22860740080824],[126.99732415167063,37.22828072405682],[126.99694485265879,37.22828229458506],[126.9968255015648,37.22843815411255],[126.99673912051361,37.22842843867373],[126.99661019479217,37.228170365632074],[126.99661258600082,37.22786829812601],[126.99681484203408,37.22761095552572],[126.99724622754023,37.22774633070646],[126.99756673556239,37.227769165771235],[126.99766849938726,37.22771587407062],[126.99774357602216,37.227565761624874],[126.99754927517459,37.227150265108406],[126.9976452874101,37.22701703639238],[126.99820825335352,37.226943705439275],[126.99829156829797,37.22668707404344],[126.9980416407014,37.226292196483],[126.99828828833749,37.225623215348534],[126.99871537037247,37.22564041786312],[126.99908317551973,37.22626138854462],[126.9993512027447,37.22630059875966],[126.99964700079417,37.22619479141295],[126.99986021884274,37.22632254591447],[127.00007890885122,37.22676763455949],[127.000288468243,37.22679865181422],[127.00057103936304,37.22643857917407],[127.00089858543457,37.22642727366388],[127.00112356018435,37.22651170371459],[127.00123166483765,37.226696524009625],[127.00119782597042,37.226976035177586],[127.001323046423,37.22737467442701],[127.00126020091456,37.227633661175794],[127.00183818887396,37.227969343685515],[127.00221390746015,37.22846934572657],[127.00240481860374,37.22902665726292],[127.00286974706368,37.228969094002146],[127.00323874618415,37.22880290101651],[127.00336799249646,37.228843816726474],[127.00330285316801,37.22935954664498],[127.0028552668645,37.2295939856601],[127.00271302234859,37.229947819363964],[127.0033366211093,37.23021525542986],[127.0037101877656,37.22999414893962],[127.00387945965986,37.229418413615385],[127.00401107767846,37.22921206862018],[127.00427588585272,37.229086510957124],[127.00571956509681,37.22884507133896],[127.00603333139428,37.22886843226587],[127.00644063356683,37.229054877518564],[127.00652412888299,37.22900122624286],[127.00664804120716,37.228446514914836],[127.00727284300886,37.2280248147861],[127.00729679783245,37.227587773674934],[127.00859120587752,37.226978518887286],[127.01061921724411,37.22660751983728],[127.01105944883552,37.2263887241519],[127.01139036003427,37.226347237271035],[127.01267536198664,37.22641706735758],[127.0135760647888,37.22667413998553],[127.01404584894364,37.22668407474307],[127.01525274127376,37.22596246361031],[127.01577384220457,37.22580732626146],[127.01869658890995,37.22585101967116],[127.01971043075686,37.225607488398694],[127.02071679643228,37.225502647241086],[127.02116156282825,37.225267725988616],[127.0214808497026,37.224725490161994],[127.02185916544832,37.22453686588029],[127.0225629985704,37.224908682603576],[127.02273170286205,37.22508387724541],[127.02315419816631,37.225794232807544],[127.02329253399213,37.22588771142672],[127.02330935383749,37.22614893095524],[127.0232348615028,37.22626105011589],[127.02348963595851,37.22674979054484],[127.02382116895221,37.227083870362186],[127.0242674438695,37.22729389081585],[127.0243316313717,37.22745871360735],[127.02384921396207,37.22784848920242],[127.02423637096544,37.22832438871933],[127.02424562146464,37.228584897956154],[127.02403412975059,37.22892708845777],[127.0240774230057,37.229118433983885],[127.0243890844718,37.22931650390333],[127.02440909827936,37.229470137698975],[127.02429064697809,37.22966047744323],[127.0241648513139,37.22971206126197],[127.0235164703003,37.22969041775099],[127.02362574210596,37.23022845019049],[127.02326721686434,37.230833697988174],[127.02349837462158,37.23090256133633],[127.02383010010833,37.23081989596349],[127.02428991192618,37.23085375973559],[127.0252326631366,37.231004788231175],[127.02580823684735,37.23096263720454],[127.02617883185101,37.230836552632276],[127.02638645229288,37.23063644764603],[127.02677350619835,37.23059323678873],[127.02709319417713,37.2306654133544],[127.02849205753515,37.23126280659199],[127.02870826963276,37.23111056180134],[127.0293281418492,37.2312307668698],[127.0300064963641,37.23119135021603],[127.02990458448447,37.23207086033779],[127.0301548012615,37.23225641482065],[127.03016709042916,37.232990166568264],[127.0304719017218,37.23349139602335],[127.03065819432894,37.233575394012725],[127.0315192972503,37.23361065809896],[127.03164393045839,37.23372464263561],[127.03164851117663,37.233874033415084],[127.03236310991525,37.2342292377216],[127.03246345519804,37.23469741499454],[127.03275195293217,37.23501213232388],[127.034086972051,37.235937551075764],[127.03470520320978,37.235906114389756],[127.0348635252657,37.23613096834757],[127.03464202219874,37.236584777270174],[127.03482880296178,37.23677076208732],[127.03558648114415,37.23684204386058],[127.03588862239933,37.236662622280214],[127.0361230444766,37.23662781832933],[127.03724748138292,37.236837392153724],[127.03740134307353,37.2370284372447],[127.03765818492703,37.23877924009629],[127.03956530596058,37.239127480393016],[127.04148430123308,37.23922585564387],[127.04284989077729,37.239082075426566],[127.04396307704454,37.2387465113191],[127.04376917075872,37.238303116278544],[127.04370557379846,37.236853056529036],[127.04438209451335,37.235961301976644],[127.04556793683253,37.23593604639255],[127.04588116617471,37.235866123924374],[127.04593395334864,37.233595422349204],[127.04576454419909,37.23331553347428],[127.0458242538911,37.232823514362615],[127.04594834816007,37.23276983049648],[127.04668774123108,37.23286706932716],[127.0476489047175,37.23326755425915],[127.04769507305849,37.23321296154342],[127.04801353518333,37.233255128900666],[127.04956404899816,37.23405817401129],[127.05151307921712,37.23432236550746],[127.05348294385989,37.23351388714851],[127.05356670819764,37.23340408701902],[127.05376245861754,37.232323616099514],[127.05249496777604,37.23153438269592],[127.05243679314461,37.23139106737101],[127.05269818958237,37.23125490688564],[127.05366925347575,37.23176517554593],[127.05456588234077,37.23204041364804],[127.05547196779492,37.23259663068247],[127.05591981834016,37.23272964668275],[127.05826338340346,37.23413974426708],[127.05931206114943,37.23504561913542],[127.05970135333484,37.235498735203144],[127.06001406061205,37.23607673022883],[127.05997896333206,37.23650959081241],[127.06007962562963,37.2367763752864],[127.0616982157354,37.23757896551787],[127.06244982374601,37.238329910234285],[127.0633500573569,37.23895227096496],[127.06412860081016,37.239082863805145],[127.06452932234068,37.239249135520744],[127.06513482491431,37.240118555521924],[127.06606487365177,37.24019373123764],[127.06644899553332,37.2400872163385],[127.06691779606692,37.24019592335647],[127.0670838741077,37.24047491880516],[127.06686185087821,37.241018168121116],[127.06658224688383,37.24115661318775],[127.06610881481303,37.240995019906386],[127.06602302288789,37.241166748392644],[127.06625926275144,37.242597351925944],[127.06647284352333,37.24299009567866],[127.06631894248905,37.24351078499846],[127.06632667729247,37.24377678908871],[127.06583324133311,37.2436411142095],[127.06541036529724,37.243697558996914],[127.0654955984069,37.24379753583678],[127.06616920018755,37.24388997690092],[127.06789384148243,37.2446963526632],[127.06910117891454,37.24562406392337],[127.06928377911083,37.24600531317602],[127.07072505382557,37.246458511363485],[127.07134175290733,37.24653581932667],[127.07149514670267,37.246654127821444],[127.07202651281007,37.246713010689305],[127.07332016646187,37.24704714582332],[127.07390703317485,37.24698815144163],[127.07609376074699,37.24743838476726],[127.07772788774943,37.24737098132018],[127.07841294562388,37.24748761964448],[127.07962690325219,37.24735511944159],[127.08006126252056,37.24742886270095],[127.08110646412074,37.24832432665948],[127.08104572804388,37.24837294415045],[127.08174215327062,37.24875832479291],[127.08192895764712,37.24917725414998],[127.0823274127299,37.24966713716878],[127.08251781247067,37.250176868877844],[127.0822331230032,37.250442984270876],[127.08194652378366,37.250900508649494],[127.08265875840519,37.2516453622392],[127.08218033429867,37.252290850894994],[127.0817534888496,37.252687921383895],[127.0818861247399,37.252814154669764],[127.08223560826647,37.25403041490676],[127.08212875041781,37.254250373701076],[127.08236566436723,37.254378196693374],[127.08294980720545,37.25451679306483],[127.08306811165112,37.25466586010775],[127.08376996586169,37.25502785914277],[127.08364943184506,37.255400776240656],[127.08387315678135,37.25552024074588],[127.08399721023405,37.25591557985291],[127.08467292447207,37.25651674951053],[127.08447590933798,37.25703554261915],[127.08387474700633,37.25793193426132],[127.08387755787712,37.2582680291935],[127.08367487060924,37.25877099215235],[127.0828571792909,37.25854681929261],[127.08097254920717,37.25846965890023],[127.0808030321408,37.25990768658917],[127.08209158194447,37.26208925732074],[127.08449509249591,37.26256082371137],[127.08622576769444,37.26487814104884],[127.08564703500126,37.26705626240214],[127.08551988933388,37.2688018353855],[127.084899950206,37.26992332498478],[127.08240478759734,37.26817510348639],[127.08156946182076,37.2677552116996],[127.08096275550272,37.26754669668054],[127.07849103949638,37.26694656341708],[127.0777073005399,37.26686048327293],[127.07717808013685,37.2668827175258],[127.0773347435287,37.26568987219494],[127.0756025357493,37.265790445733046],[127.0759723491379,37.26564904562021],[127.07636132547728,37.26535154788458],[127.07665402574813,37.264944107494074],[127.07666589389068,37.26458645256764],[127.07753951986878,37.26360682063937],[127.0773838406048,37.26316171624506],[127.07714723924755,37.26285155190289],[127.07573224170122,37.26126996005703],[127.0750579888754,37.261970151635076],[127.07497193233075,37.26249411285768],[127.07480027371193,37.26277307174956],[127.07478092354054,37.26339706767615],[127.07427439120045,37.26370150928732],[127.07456972529904,37.264444857908195],[127.07451258718932,37.264793463959414],[127.07470275405947,37.26503939723971],[127.07486807344269,37.26605342670559],[127.074330813068,37.26624317261045],[127.07340741827055,37.26605162673339],[127.07225016600282,37.26606849156505],[127.07178881828362,37.26639343367978],[127.07109851795282,37.26659872098081],[127.07058026372229,37.2666175473754],[127.07004255933333,37.26696016504575],[127.06974058807687,37.267415478729525],[127.06968664564266,37.267637386488566],[127.06938607208788,37.26784124745304],[127.06901456193326,37.26794109612554],[127.0688711962437,37.26809364275574],[127.0687969881281,37.268229607563285],[127.06898440775842,37.268404866866064],[127.06883334782032,37.269029784075016],[127.06815943418417,37.26940743523064],[127.06811619719458,37.269646514949166],[127.06757240792268,37.26974316955899],[127.06722849555932,37.26995140695026],[127.06657222495292,37.26996330489758],[127.0654436826485,37.27025810634433],[127.06490134187156,37.27020812047646],[127.064721746958,37.270349676940185],[127.065665116128,37.272519670772624],[127.06592398616009,37.27278812798807],[127.06676951415741,37.273215025782505],[127.06681906790732,37.27380382483891],[127.06698853673558,37.274070976310554],[127.06795820390141,37.27447761275749],[127.06821486355388,37.275289117986546],[127.06822579879574,37.2757989196627],[127.06876056345327,37.27640969930545],[127.06941120814234,37.27672414655369],[127.06952931532167,37.27690878856671],[127.0695131959403,37.27716496558706],[127.06901780908468,37.27823927759722],[127.06896482587162,37.278630444577786],[127.06978183922477,37.27885604469835],[127.06998027611262,37.279087677524835],[127.07048109472848,37.279406263509905],[127.07084803553612,37.279435780944084],[127.0710087934131,37.279520653853034],[127.07124298514547,37.27987822792658],[127.07175658251569,37.280345559470184],[127.07184144231466,37.280536260566016],[127.07214084048933,37.28056040616183],[127.07221419751401,37.28074813948668],[127.07317344378713,37.28074539698251],[127.0738132110356,37.28083096741378],[127.07420549971066,37.28117663391528],[127.07517044284593,37.28146382712673],[127.07497443759975,37.28213044304453],[127.07549938600184,37.2825414745701],[127.07600252701397,37.282641315179035],[127.07630603759823,37.28291258735153],[127.07662137031245,37.28293840838646],[127.0784468649895,37.28362987694078],[127.07965434377259,37.2834572419034],[127.07999726818193,37.28376954709185],[127.08139116661485,37.28371216599513],[127.08149362484527,37.2843306172189],[127.08185698444055,37.28485836812285],[127.08263321413182,37.285209998137944],[127.08384999269599,37.285369125331385],[127.08444548125011,37.28557646099658],[127.08492953234607,37.28542167751562],[127.08530728629127,37.28509470514384],[127.08564974507287,37.28495127767937],[127.08594810560894,37.285084824708385],[127.08636297795309,37.285613082708366],[127.08744439438604,37.28554621187525],[127.08767750703657,37.285614502416394],[127.08779074412895,37.285760412312314],[127.08936430482916,37.28682146347229],[127.08886267089481,37.287856373609735],[127.08882211967718,37.28804973835731],[127.08900779250862,37.28844502829231],[127.08854610142046,37.28880148002022],[127.08848073602219,37.289073935786654],[127.08803199298595,37.289883428005666],[127.08800922172277,37.29090594422411],[127.08843317382822,37.291165958296546],[127.08833248025498,37.29186687058995],[127.08821037754859,37.29213064390356],[127.0883054686413,37.29313271338666],[127.08923741520975,37.29337734952699],[127.08935982081405,37.29355823294934],[127.08919389020537,37.29418069656299],[127.08943002491597,37.29463397137223],[127.08946182721712,37.29503901573384],[127.08896440157177,37.29626138822104],[127.08907235376097,37.29718305371031],[127.08964502946715,37.29825810742082],[127.08912631588558,37.29805506409386],[127.08885187330444,37.29775976530142],[127.08850439892556,37.29775674501653],[127.0879324943342,37.297909931557484],[127.08752840939424,37.29785245204587],[127.08698287815288,37.29819164325056],[127.08652164509662,37.298285171039595],[127.08586402645396,37.298611912902864],[127.08539579969859,37.29779496436538],[127.08469273767614,37.29732035066726],[127.08346139284937,37.297769737859355],[127.08283246522484,37.29763087453854],[127.08262765965947,37.29701182604002],[127.08212093823852,37.29681709884338],[127.08153549641897,37.296196507370944],[127.08108143091458,37.29608724882556],[127.08067806498809,37.295496624148996],[127.08023330501136,37.29522192418382],[127.07964605321871,37.29511247975211],[127.0791917873707,37.293274793943034],[127.0602746470022,37.296615526625985],[127.06044733166024,37.29718398285101],[127.0606216759662,37.298743126162954],[127.06053864328237,37.29871631610455],[127.05995474197724,37.29962582797055],[127.06090048858873,37.30134108660329],[127.06084785523934,37.30182390199016],[127.06105685689167,37.3021812725599],[127.06086060731101,37.3036683549226],[127.06054258407761,37.30415925020142],[127.06030396463812,37.30409978620181],[127.05935767528638,37.30427939475577],[127.05823107499016,37.30479366847518],[127.05889859645683,37.30599643745491],[127.0589663873442,37.306277833382055],[127.05953747838956,37.3066804204156],[127.05956676463877,37.30692091725474],[127.05975353309056,37.307091201325896],[127.06026348682721,37.30742389623449],[127.06032366045027,37.30768160697788],[127.06079986164083,37.30827429065333],[127.06099274395882,37.30911021428343],[127.06036670452127,37.30967433371006],[127.05996485689339,37.309826681978045],[127.06027812286443,37.31020067063957],[127.06043503189649,37.310733450483674],[127.06068789598383,37.31092595524318],[127.06032382838306,37.31103753811631],[127.0598126770075,37.311419763657895],[127.05881391837353,37.31238647895719],[127.05879379697488,37.312748718713394],[127.05834388466685,37.314002201611196],[127.05785636785046,37.31424585605665],[127.05759198500715,37.31488128920145],[127.05777736753691,37.31533580381333],[127.057696449386,37.31553611243236],[127.05691938371498,37.31560388592344],[127.05544774543202,37.315437082125534],[127.053851138615,37.31617616564566],[127.05355244142758,37.31597516725164],[127.05278873631198,37.31605939718885],[127.05229265177793,37.31583684185644],[127.04995928139962,37.31575723003036],[127.04896113949073,37.316103041845246],[127.04869952599108,37.31652290210796],[127.04773951981116,37.31682035884409],[127.04752479997168,37.316597300099],[127.04694768234253,37.31695682851828],[127.04601981366076,37.31721062833814],[127.04559117264112,37.317996315757824],[127.04455096779853,37.31819244437834],[127.04233601299502,37.3189883130724],[127.04170798342084,37.31943066349181],[127.04035105721984,37.32083108629486],[127.03968542902116,37.320939755983936],[127.03928484394663,37.32146378985864],[127.03933739189969,37.322696032365435],[127.03967449948242,37.32312766955839],[127.03940275061667,37.32330381911655],[127.03929019749268,37.32357293677358],[127.03872040865942,37.323972657426445],[127.03846370885958,37.32429482123832],[127.03813430199179,37.32431001322721],[127.0376778050036,37.324574946875906],[127.03732612984201,37.32569779473993],[127.03691620568411,37.32607998840828],[127.03678279759929,37.32682346604833],[127.03783834498648,37.32755311327503],[127.03823770533435,37.32840889897556],[127.03750739336962,37.328476511438375],[127.03742493600868,37.328735958344474],[127.0367634740853,37.329439101696444],[127.03683503308216,37.32995006141635],[127.03652663610322,37.33031199464936],[127.03614101947743,37.33058989381333],[127.03602216350917,37.33121739360506],[127.03582369250623,37.33162621959371],[127.03606614809694,37.33178466585074],[127.0360067584961,37.33234565384545],[127.03534919251764,37.33313249033204],[127.03533876504522,37.33365689815566],[127.03457775340429,37.33449708415867],[127.03415713915824,37.33451564503144],[127.03281252956252,37.3352906387562],[127.03280903599745,37.335820448446796],[127.03241584420707,37.3360581259992],[127.03213431112468,37.336381098294964],[127.03176106609895,37.33648166733454],[127.03177884390682,37.33666131854762],[127.03159735548586,37.336825650702885],[127.0317439494051,37.33730153233546],[127.03157884220467,37.33760469545524],[127.0316713724755,37.3380477618184],[127.03144051914633,37.33857133387819],[127.03142452601458,37.338906571594244],[127.03173952554465,37.33969503908795],[127.03204763984444,37.34219137097401],[127.03244314295038,37.34247235076015],[127.03288846616698,37.34314520736412],[127.03312714858194,37.343920240699305],[127.03359679776146,37.344547181248366],[127.03261474238077,37.345035625176386],[127.03137626161444,37.34551924424816],[127.03086770894325,37.346075726834464],[127.02990538421207,37.34688162902559],[127.02921629226263,37.34707112374522],[127.02875330003995,37.34763186428886],[127.02728786388944,37.348039084784425],[127.02629932721459,37.348511343059236],[127.02528544032573,37.34844354028956],[127.02426007192757,37.348760588802186],[127.02365631112296,37.34942718072109],[127.02327216658514,37.34952582180105],[127.02301882231212,37.349757447086006],[127.02247202979423,37.3498167171057],[127.02193177823722,37.35019882629516],[127.02147209594044,37.350323635176046],[127.02065670381813,37.35083411576412],[127.02015364987872,37.35089743179752],[127.01983082229899,37.35112942269127],[127.01899716405481,37.35112101335233],[127.0182441217576,37.35100230810454],[127.01803931639935,37.35179927796688],[127.0182164232392,37.35098738470816],[127.01731857427916,37.350503680635725],[127.01623929795205,37.35020187298201],[127.01599686178672,37.35023368797014],[127.01508394492156,37.34969554390348],[127.01464444243096,37.34961374752623],[127.01427793432298,37.34942490378527],[127.0140459882579,37.34790931355276],[127.01304922861227,37.347543046996414],[127.01269579486728,37.34714673072878],[127.01259763414737,37.34694477205803],[127.01264803088708,37.34544582002475],[127.01255268615826,37.34519562551343],[127.01189824297401,37.34420150642914],[127.0109356182081,37.34336725002618],[127.01106692536177,37.342983530072694],[127.01095187384453,37.34286578653767],[127.01098266714467,37.342778487892744],[127.0101135908341,37.34186126143914],[127.01010891367103,37.34116900585277],[127.0097707875077,37.340498387530026],[127.00914754636548,37.340174072073665],[127.00887157472827,37.33915309375191],[127.0087030334449,37.339097321306134],[127.00737832504251,37.33913813840956],[127.00652341277777,37.33904377930269],[127.0058131818464,37.33913628551575],[127.00481379418348,37.33909877179687],[127.0043069667751,37.33855924521381],[127.00338226859972,37.33843237364009],[127.00206647405413,37.33864762403608],[127.00056966335228,37.3384912986697],[126.99905337797894,37.33701246207988],[126.99677637865027,37.33640474074086],[126.99569552395765,37.3360026288485],[126.99485151453824,37.33553177861328],[126.9944768407288,37.33478941314266],[126.9939707512864,37.334781201371314],[126.9922323166409,37.334113562614654],[126.99162231217139,37.334016342967345],[126.99115409621399,37.3333946476644],[126.99051417508149,37.333223668710346],[126.98996411558848,37.33259461245288],[126.98955892433106,37.332414544500615],[126.98971199263788,37.33060539922848],[126.98943290063842,37.33012641712675],[126.98897838861365,37.32978412873273],[126.98778092832859,37.32960876063325],[126.98736956006644,37.32961660580521],[126.9867085988444,37.329438286032385],[126.9857373236394,37.328871749609256],[126.98517077548973,37.32880033900531],[126.98419140483624,37.32806365464835],[126.98391899617582,37.327430903611706],[126.98336875474962,37.32695136409988],[126.9829122083297,37.32667226651173],[126.9815969337029,37.3265748134604],[126.9814712558615,37.32661495120193],[126.98053038267324,37.32711120907141],[126.97968031687596,37.327353632652155],[126.97863124103851,37.327771808362144],[126.97823512780502,37.328353112808706],[126.97742875103816,37.32846447140084],[126.97704592630143,37.328675434228195],[126.9756295722468,37.328934505692125],[126.97455562860453,37.32937076075237],[126.97339553707404,37.33040677205889],[126.97288511080434,37.33108528620268],[126.97228031511985,37.33140598813261],[126.97130806032571,37.33173055296309],[126.97130770605285,37.331595866859146],[126.97106004480437,37.33121608026003],[126.97066463827363,37.330874887418425],[126.97062379191368,37.32991539952575],[126.97069551437636,37.329657997146015],[126.9703362470729,37.32932358997646],[126.96987036914489,37.32813315682267],[126.9693398471102,37.32801388733419],[126.9688660385648,37.32800958903443],[126.96851307284436,37.327015167096704],[126.96859502494836,37.326509480866505],[126.96837697763902,37.326065606906944],[126.96851577920884,37.32552519338901],[126.96839876233526,37.325121866691056],[126.96779931453581,37.32484046433895],[126.96762539983347,37.32457383706131],[126.96684665235396,37.324035540078164],[126.9670592554155,37.32380982702805],[126.96704139706952,37.323452185903655],[126.96687805617492,37.32328571273471],[126.9668734646301,37.32316397826612],[126.96719062286618,37.322930668595966],[126.96739822032848,37.322358107058115],[126.96811356767459,37.32219344210998],[126.96822121625249,37.321713398407226],[126.96931624371139,37.320966488506855],[126.96963245709055,37.320555261801154],[126.9692469922688,37.32026480219852],[126.96852264113951,37.31872986537667],[126.96801028812914,37.31826499980586],[126.96657632304651,37.31761229701148],[126.96623541188383,37.31761014679003],[126.96628077606482,37.31662129862901],[126.96639120315751,37.31651179170839],[126.96632973668656,37.31648362568645],[126.9665300010672,37.31424817589251],[126.96663900291121,37.3115093047106],[126.9664818070501,37.30962736022009],[126.96621527614228,37.308437582533756],[126.96581258508927,37.30730353511787],[126.96588338637642,37.306990451910025],[126.96496917781005,37.30544789116815],[126.96318566130257,37.30348920633348],[126.9619807403907,37.30237379491173],[126.96082667380186,37.30234609830246],[126.96034148793298,37.30223068179981],[126.96066710099117,37.302186375701126],[126.95940120032567,37.30220354930822],[126.95901042525715,37.302275938721465],[126.95883478590049,37.30218114818448],[126.95878228403184,37.302308553387626],[126.95854439039572,37.30217477219059],[126.95764968761048,37.302125993747566],[126.95765184538358,37.3022497639439],[126.95660936351413,37.30224601862354],[126.95614736188608,37.30235147688209],[126.95589309498664,37.30268201819197],[126.95565369598448,37.302845312068975],[126.95446029881148,37.303111584783835],[126.95350785751783,37.302971135360366],[126.95282934323951,37.30261431448887],[126.95322328002767,37.30185688881603],[126.95295080264583,37.301360083690845],[126.95116754751045,37.30085634460562],[126.95098002298035,37.3005962362139],[126.95096035220533,37.3004198068057],[126.94521994441423,37.30065295182224],[126.94492668847954,37.30064679944068],[126.94476246283807,37.30048195884861],[126.9444532602555,37.30037969683769],[126.94383387133672,37.30032137055077],[126.94232204726929,37.30035188018752],[126.94199920913181,37.300524235804815],[126.94098815615412,37.30161634260973],[126.94028551868989,37.30154464256667],[126.93925200132745,37.30166936940069],[126.93909008533248,37.30179656278576],[126.93848368135433,37.30192729053266],[126.93833131340745,37.302029676975984],[126.93716337362413,37.3020850168672],[126.93657265393996,37.30283057209596]],[[126.96803812994374,37.2942454458576],[126.96794721322445,37.29437510217394],[126.96803407811325,37.2942872142379],[126.96803812994374,37.2942454458576]],[[126.9784507648438,37.28658419452856],[126.97839823063742,37.28664055314107],[126.97733753116944,37.288359436491746],[126.9784507648438,37.28658419452856]],[[127.02040096138012,37.287119688450815],[127.01963320781738,37.287368887025416],[127.02045873450507,37.28714051535791],[127.02040096138012,37.287119688450815]],[[127.02600478534062,37.29085884854972],[127.0250735152515,37.289551335167204],[127.02598040315897,37.290840617416194],[127.02600478534062,37.29085884854972]],[[127.02673746824696,37.29138303114384],[127.02636779822473,37.291130280221644],[127.02668756509473,37.29136937347331],[127.02673746824696,37.29138303114384]],[[127.03437099655842,37.29323361348965],[127.03408290212207,37.29336234216125],[127.03407309279987,37.29338951754969],[127.03437099655842,37.29323361348965]],[[127.03924937905963,37.29240564363979],[127.03885632505396,37.29266442226338],[127.03892649721574,37.29263325656238],[127.03924937905963,37.29240564363979]],[[127.04103324404646,37.291041981236724],[127.04079804698617,37.29112459516146],[127.04099312427383,37.29107749879505],[127.04103324404646,37.291041981236724]],[[127.04120115232847,37.290783421633414],[127.0410829607131,37.29099796759663],[127.04115206261837,37.2909367922891],[127.04120115232847,37.290783421633414]],[[127.0366763626212,37.256520980989485],[127.03814355320155,37.25996690804772],[127.036062485663,37.25507896302264],[127.0366763626212,37.256520980989485]],[[127.04045132512383,37.245201852554636],[127.04027337799111,37.2455676648315],[127.04046882103312,37.24525529230383],[127.04045132512383,37.245201852554636]],[[127.03730248458533,37.240679132811614],[127.03768105741624,37.24059471648062],[127.03761221477325,37.240571879151624],[127.03730248458533,37.240679132811614]],[[126.98623842949436,37.28255701988105],[126.98629364035412,37.2825165116884],[126.98586278130533,37.28265125149693],[126.98623842949436,37.28255701988105]],[[126.98660097767196,37.28138425173547],[126.98658588739814,37.28134222657556],[126.98659940760805,37.28214265398612],[126.98660097767196,37.28138425173547]],[[126.98536432193326,37.2763992056727],[126.98510335214137,37.27650585197426],[126.98510472320098,37.276536580545084],[126.98536432193326,37.2763992056727]],[[126.98646542358406,37.27470653439388],[126.98596743477309,37.27488146941023],[126.98590544236949,37.274937858353304],[126.98646542358406,37.27470653439388]],[[126.98666840493989,37.27481828289028],[126.98646542358406,37.27470653439388],[126.98666927578397,37.27482962286512],[126.98666840493989,37.27481828289028]],[[127.03404539153992,37.29346625999949],[127.034324281625,37.29369657662882],[127.03405416732271,37.293441947943556],[127.03404539153992,37.29346625999949]]]}}
