{"type":"Feature","bbox":[126.92737062363771,37.361570966052625,126.9828786763785,37.440753778734106],"properties":{"regionCode":"41173","version":"vworld-20260909-3f8952dfda77-p3","name":"경기도 안양시 동안구","attribution":"국토교통부/K-Geo플랫폼 · VWorld 법정구역정보, CC BY 2.0 KR; 공공주택 복덕방 가공"},"geometry":{"type":"Polygon","coordinates":[[[126.96374739250828,37.440753778734106],[126.96294255514167,37.44028056805493],[126.96176239848188,37.44027909272454],[126.96005557511195,37.44040066997407],[126.9591546165171,37.43954651459811],[126.95891370952953,37.439122918619155],[126.956367966597,37.43875400440763],[126.9551493019913,37.438735068120224],[126.95389857202578,37.43906017816557],[126.9523939149255,37.43923851385131],[126.95152708298052,37.43866172844489],[126.95109401366663,37.43849997091259],[126.95092497574352,37.43873374983431],[126.95003243826805,37.438621487792254],[126.94984276813928,37.43837963595575],[126.94928388893314,37.43825012377445],[126.94876557319432,37.43864576759295],[126.94836291876081,37.43871258747923],[126.9481553909846,37.43863038591941],[126.94838353611874,37.43791841249656],[126.94831473180069,37.437762460761775],[126.948418389752,37.43736687384892],[126.94809224649521,37.43726565231232],[126.94824268743288,37.43642040440326],[126.94791699807767,37.435659066823845],[126.94835348785018,37.434808766273584],[126.9488852590599,37.432817765543035],[126.94879182109617,37.432603948590994],[126.94894315330086,37.43163992931212],[126.94879427168742,37.43136679362342],[126.94826657866882,37.43089594941453],[126.94855864405974,37.430543767609954],[126.94840022539042,37.430321905284295],[126.9484363427193,37.429994063905475],[126.94872899316557,37.4291367144102],[126.9485388772307,37.4288350758763],[126.947788306842,37.428093242744374],[126.94812176478871,37.42749403282993],[126.94826367437153,37.426668422251154],[126.94748706747036,37.42620342670094],[126.94758869961534,37.42504291937378],[126.94848749946345,37.42353920627266],[126.94834653810926,37.4230176465391],[126.94854517490039,37.422398535266055],[126.94846185242075,37.422070005499705],[126.94729401735596,37.42146277109876],[126.94730312323522,37.42138600994082],[126.9418294462293,37.41912479219681],[126.9414581318948,37.418336398548355],[126.9404460676915,37.4176059339258],[126.9394916195262,37.41617815606215],[126.93812522974794,37.415179615098666],[126.93825011685138,37.41444396018428],[126.92976372613185,37.41504167668393],[126.92977322855154,37.41458901229415],[126.92882562911207,37.412857088682934],[126.92838648338844,37.41028903920867],[126.92785342714298,37.40899139237428],[126.92737062363771,37.408282879419986],[126.92742357533594,37.40784610179135],[126.92824072867407,37.40492011099902],[126.9279687861434,37.40293384753756],[126.92737686130808,37.40189632076815],[126.92764797903928,37.40160375088174],[126.92778129960662,37.401091698804336],[126.92890171797296,37.400215615630756],[126.92917839894447,37.39941352262436],[126.92985654406066,37.398865307365945],[126.93001873307433,37.398615284821624],[126.92994674338765,37.39854883487451],[126.93009003342416,37.39845737851454],[126.93070555149305,37.39759827203527],[126.93067158126952,37.3979330694758],[126.93091918753093,37.39811927674078],[126.93146769401781,37.397411314491414],[126.93203315880032,37.39704268353438],[126.93328614391744,37.39693619362547],[126.93817211255181,37.394510495690106],[126.94037274576502,37.393022368672966],[126.94111615599036,37.39174763046197],[126.94145524236055,37.389806207164455],[126.94085483225639,37.387842317070174],[126.94138379191787,37.38594991278401],[126.94019635806184,37.38400436744716],[126.93900758348198,37.38004801153659],[126.93927265797232,37.380251781160275],[126.94125405693235,37.37916609028254],[126.94170925129403,37.37865607582545],[126.94379740492475,37.378013796233404],[126.9445910465952,37.377359798842505],[126.94501782785422,37.37664562178707],[126.94440284040803,37.37610014926295],[126.94427806386354,37.37513070989597],[126.94444467591157,37.37502164035566],[126.94449649919,37.37486995349966],[126.94536711038104,37.37432790030502],[126.94563305463015,37.3742349544374],[126.94561890316785,37.37403185976094],[126.94581068487781,37.37360593059364],[126.94573916643215,37.37330636064246],[126.94580950198667,37.373078029473234],[126.94728916217404,37.37101600220947],[126.94732447884306,37.370647382174695],[126.94793189710116,37.36931086169011],[126.94973151992987,37.3684471455776],[126.95001758517454,37.36794521100677],[126.95089307026112,37.36719409705898],[126.95089552781027,37.366931728735544],[126.95075782182373,37.366669529854505],[126.95104285142675,37.36648689487521],[126.95105989963328,37.366721133473234],[126.95179853456692,37.36619624112812],[126.95254528131352,37.36603256669833],[126.95356556794614,37.366012981875336],[126.95349594723689,37.36596429776864],[126.95380552309702,37.36608020616302],[126.95378604739841,37.366174533582615],[126.95430130628321,37.366127943811165],[126.95495414130961,37.36633575031676],[126.95599840154382,37.36620243550088],[126.95688037839605,37.36597741748924],[126.95702475803262,37.366041274078064],[126.95773229562027,37.36552876868184],[126.95863119399156,37.36456726063046],[126.959752143515,37.363605694525695],[126.96002345241938,37.363457160647414],[126.96213908310037,37.361570966052625],[126.96249727464921,37.36174939585115],[126.96263852105056,37.36192723216767],[126.96320307244345,37.361972793113935],[126.96355559999867,37.361771373457735],[126.96412421684802,37.361797458864196],[126.96579210434285,37.362095528208776],[126.96617979765936,37.36226250372523],[126.9661149023165,37.362390963559676],[126.96624291865118,37.36240732713794],[126.96617934253194,37.36332740946959],[126.96542941525091,37.36405223424622],[126.96465398711572,37.36455742099139],[126.96441651708625,37.36496907738482],[126.96450426047004,37.36550224965196],[126.96503133046654,37.366430013329015],[126.96512172050309,37.36696695573816],[126.96570881044799,37.36777336671834],[126.96595482031663,37.368445152312766],[126.96589950869294,37.36866885671665],[126.96475733222114,37.3701720382464],[126.9647436837291,37.37061155052763],[126.96500053566942,37.37150796285568],[126.96597893473155,37.37308215938426],[126.96630748488995,37.37353204797192],[126.9664753191634,37.37363021687455],[126.96683731746091,37.37429009507584],[126.96723712268019,37.374725763942706],[126.96744461138738,37.37527283100225],[126.96810561828012,37.376104930383676],[126.96838031202168,37.376358191817694],[126.96889154270747,37.37657309254254],[126.96914470083493,37.376769403941864],[126.96938605092618,37.377387297186736],[126.97019964841229,37.37818086121575],[126.97060430667246,37.37899458867004],[126.97228961499748,37.38028698391794],[126.97254453621348,37.38065520244699],[126.97265670368766,37.38114660758253],[126.9724641112368,37.381853185302724],[126.97239099980385,37.38317449047424],[126.9726973712651,37.38401743952729],[126.9728504711505,37.38674592340822],[126.97356205561994,37.38679118930967],[126.97400457593243,37.38715336550112],[126.97417786249373,37.3875802173661],[126.97406687200225,37.387863470839086],[126.9742211457114,37.38882790921537],[126.97456584070451,37.38913598495637],[126.97481367303826,37.38925143325518],[126.97504805396035,37.389686857597695],[126.97521765367732,37.38973527501231],[126.97537399594944,37.39009912309861],[126.97716366572398,37.390705282108414],[126.97781355041678,37.39113587347652],[126.97836854127506,37.39162929206511],[126.97875295051885,37.392266599585284],[126.9794693201395,37.392708498659154],[126.98027875167512,37.39289218946579],[126.98044268765,37.393019624930446],[126.98094841942908,37.393175512049204],[126.98119852239593,37.39336350034269],[126.98170415640692,37.39399356015767],[126.98176242836932,37.394375907608314],[126.9823897405963,37.39455862342028],[126.98269552776978,37.39480881265126],[126.98191093349182,37.39528524149141],[126.98056806503892,37.395833811557594],[126.97991739497782,37.396226545917],[126.97973677049089,37.396173679020315],[126.97972758208937,37.39633433531444],[126.97999616687895,37.396623334089284],[126.98002350063196,37.39697266407205],[126.98045367087278,37.3976005311765],[126.98132017466901,37.39789457729917],[126.98164558911509,37.39818355115244],[126.9817425680218,37.39855485496006],[126.98156633441978,37.3989214547282],[126.98209078077137,37.39904661008517],[126.98227249153703,37.39917274168775],[126.98250171237075,37.39962741483164],[126.9828786763785,37.399923731690656],[126.98287766894819,37.40048468726438],[126.9823882235509,37.400689906304024],[126.98233024304048,37.40060570768405],[126.98199137017693,37.400738627150076],[126.98180235891684,37.401403128673806],[126.98193541737726,37.401548174636936],[126.98187267763464,37.401794163552935],[126.98100854801262,37.40202553261264],[126.98083324842054,37.402140391001936],[126.98088176391666,37.402554883514824],[126.98016735815548,37.403111027874644],[126.97960821991809,37.403009074861544],[126.97902195154556,37.403018580464035],[126.97870162337492,37.40326113382275],[126.97823701938562,37.4031548138211],[126.97789408434508,37.40327448939421],[126.9773273698517,37.40303542057452],[126.97741208974995,37.40312139831313],[126.97735172828553,37.40364406219348],[126.9774351028859,37.4039206019149],[126.97755714043518,37.40408848984218],[126.97852591640229,37.40467455676429],[126.97866324590221,37.40497117272903],[126.97864873302346,37.40529964956093],[126.97839843930834,37.40561688290724],[126.97819115534571,37.40569196287144],[126.97823179752449,37.405530787773344],[126.97765899828806,37.40585799820609],[126.97671503064424,37.40613082443918],[126.97614871881831,37.40610241124418],[126.97609869974112,37.4059900680682],[126.97592074312601,37.40590647944414],[126.9756441929776,37.40666720022832],[126.97580211290888,37.407152008788756],[126.97615797765407,37.40751039369491],[126.97578425125673,37.408014370210005],[126.97550020955644,37.409211338537894],[126.97579258820656,37.409440132169],[126.97588343869273,37.41003366377864],[126.97539012523707,37.41069924708329],[126.97544264865179,37.41111228069132],[126.97578655335484,37.41143157512031],[126.9754989825794,37.41175032216866],[126.97526489624897,37.41223867333362],[126.97530065867329,37.41274124671352],[126.97507660494601,37.41321630166108],[126.97490350515072,37.41336015145813],[126.97451196890813,37.41342331583641],[126.97429967047493,37.413685782935055],[126.97427335786473,37.413917429743314],[126.97398350425955,37.414108510785276],[126.97377000617028,37.41521836358355],[126.97323540152064,37.415896457246895],[126.9726493036969,37.415937489509766],[126.9724672772328,37.41602309619929],[126.97203073615519,37.415962729694144],[126.97142597181609,37.41604894470099],[126.97073758874619,37.41637971858206],[126.97061646864569,37.4165866128978],[126.97073602555906,37.417107069688875],[126.9705485143385,37.41722140341363],[126.97009396407664,37.41731554832473],[126.9695981752204,37.417263607261575],[126.96933634789671,37.41733986077594],[126.96810356764918,37.41713705155028],[126.96691422728821,37.41730628066055],[126.96600743426052,37.418036092702806],[126.96547667168245,37.41833297646636],[126.96464097913953,37.41875931189122],[126.96393262896102,37.41895244800337],[126.96335445101114,37.41953742247788],[126.96346415323495,37.419737175139105],[126.9624585921675,37.42091456872142],[126.96235209288793,37.42193807204189],[126.96201441469971,37.42263847886424],[126.96198465260906,37.42325326294755],[126.96214347209397,37.42352789063573],[126.9616768150072,37.42463032869332],[126.96092352162576,37.42561003824906],[126.9609411035816,37.42608322278164],[126.96181177835723,37.42678188558737],[126.96204337581584,37.42774079578228],[126.96216114074248,37.42921386990242],[126.96249246600482,37.43054374123476],[126.96272190962756,37.43096765246949],[126.96399504641438,37.43126840108865],[126.9632337160841,37.43488657555055],[126.9640522828831,37.437603696428056],[126.96548757839999,37.43922350170445],[126.96536046965021,37.44017316170761],[126.96374739250828,37.440753778734106]]]}}
