{"type":"Feature","bbox":[126.74245866976626,37.45838133095458,126.83362042149994,37.49072679100808],"properties":{"regionCode":"41194","version":"vworld-20260909-3f8952dfda77-p3","name":"경기도 부천시 소사구","attribution":"국토교통부/K-Geo플랫폼 · VWorld 법정구역정보, CC BY 2.0 KR; 공공주택 복덕방 가공"},"geometry":{"type":"Polygon","coordinates":[[[126.820995851151,37.49064787015404],[126.82092518292201,37.49072679100808],[126.81965958994304,37.48978874674375],[126.81583675509663,37.486686332976234],[126.8146507198188,37.48605688138935],[126.81350794710514,37.48560241710746],[126.8058077812209,37.48308315823518],[126.80434436865973,37.48265950503534],[126.80257064780074,37.48225784042613],[126.80105675471557,37.48238384806311],[126.79946900867122,37.482612680680745],[126.79877564527823,37.482617099630275],[126.79879246213817,37.48300338714541],[126.792530486685,37.482881357421626],[126.79173181896351,37.48293099038151],[126.79181954426141,37.482830253044646],[126.79166554865624,37.48279571487979],[126.79158559084837,37.482904773081565],[126.79069294106736,37.482974341187436],[126.78984244857602,37.483188327060766],[126.78859575009814,37.4833144069327],[126.78852560368642,37.48338662981447],[126.7873788740655,37.48364673117651],[126.78118237126533,37.484626545289196],[126.7802590617764,37.48456383066777],[126.77641702529185,37.4851746512584],[126.77482018631517,37.485208786772255],[126.76585258909273,37.48654014951068],[126.7642927307476,37.48679805659044],[126.76408950570604,37.48697565729606],[126.7638978511575,37.48693780993801],[126.76385918508647,37.48686538175961],[126.76302718864687,37.48698362716717],[126.76077863250872,37.48742803757544],[126.76038054127201,37.48745497502348],[126.76042503348718,37.487332080622906],[126.75949127694392,37.48737603009627],[126.75942598926535,37.48732066651051],[126.75871015913434,37.48747480906862],[126.7570552185752,37.487470883133376],[126.75409623971072,37.48767079877638],[126.75384915341961,37.487697239770256],[126.75386266928469,37.4877881143659],[126.75357233296174,37.487806868924224],[126.75356375755939,37.487730160459925],[126.75188740691473,37.48781806260666],[126.7425078600802,37.488440143571125],[126.74245866976626,37.48688555821137],[126.74320505113862,37.48645236955636],[126.74380838877863,37.486410727459244],[126.74487715696101,37.486108480425166],[126.74547981620795,37.486052054139115],[126.74629081219379,37.485541084506636],[126.74704736042459,37.48538222374815],[126.74920028812072,37.4851275596153],[126.74945543582699,37.485186912199175],[126.7497950532955,37.485429518446196],[126.75000593440042,37.48541250590069],[126.75042992707306,37.48519178034481],[126.7508511642885,37.48507695146765],[126.75147776345143,37.48471779671151],[126.75238066238185,37.48459708699429],[126.75396953895321,37.483916776808385],[126.75435189856212,37.483684163848174],[126.75493753704163,37.483146751578886],[126.75554601392999,37.48291375955544],[126.7554297429277,37.48259938431218],[126.75544517370521,37.48217929048471],[126.75538401369688,37.48219825701046],[126.75509075682648,37.481353525826535],[126.75509803735764,37.48103691860761],[126.75530001923194,37.48096079121227],[126.7552739410878,37.480897984837654],[126.75573962117083,37.480922396641084],[126.7557814473073,37.480799881868485],[126.7558756218808,37.48079770069022],[126.75609972639367,37.47993155018754],[126.75663651200186,37.47972677642154],[126.75741508226203,37.479077845797796],[126.7578654949751,37.478835982744904],[126.75834352690585,37.478778503860816],[126.75835470900219,37.47835533607566],[126.7586844679476,37.47747598955931],[126.75915248869723,37.47692962057663],[126.7596644944103,37.476638618292526],[126.7598689150901,37.47664746855186],[126.760274734613,37.47641435550827],[126.76131882208153,37.47659899639728],[126.76218736345588,37.47603513740908],[126.76218570164465,37.47573654557893],[126.76362689313005,37.47558913041574],[126.76435661633256,37.47530706089126],[126.7649611270112,37.47529194704398],[126.76515946042892,37.475182150501126],[126.76583949403287,37.474516219773655],[126.76582440799102,37.474356374158205],[126.76633846066157,37.47425726564863],[126.76661159630422,37.473951741156235],[126.76708088950956,37.473649871996656],[126.76760545169579,37.472817775619355],[126.7675466712331,37.472355967936295],[126.76774192605575,37.47185865049345],[126.76796585234901,37.47181724094665],[126.76979442290846,37.4720891778281],[126.77081071174257,37.471879430706984],[126.77130407753846,37.471930785066945],[126.77159764009679,37.472047928531566],[126.77208952296606,37.472408158339114],[126.77280428174994,37.47243517080256],[126.77313805667595,37.472225486181124],[126.77341961727221,37.47222349713365],[126.77455216432413,37.471478973649795],[126.77524481457382,37.4717458079509],[126.77604752059497,37.4717194753899],[126.77711580458497,37.472252252370254],[126.77776724706995,37.471835080209104],[126.77880701791142,37.4718291430649],[126.7792999223543,37.4716146326224],[126.77978999428558,37.4715203612691],[126.78025378285629,37.47163237712742],[126.78049140895476,37.47157708603782],[126.78196076675796,37.47190177897123],[126.78293914759065,37.472203724654236],[126.78431152628144,37.472394089609146],[126.78425834651624,37.47154339186896],[126.78434452406587,37.471263248885315],[126.78512402054199,37.47014973310812],[126.7856844830423,37.47003369157871],[126.78630242207025,37.469675191711005],[126.7870808759944,37.46964945239836],[126.7878276950814,37.46935093189871],[126.78787464150128,37.46685998075802],[126.78872577190036,37.465996276219244],[126.78921756223534,37.46565280559159],[126.79145645607727,37.46531780461245],[126.7924390493161,37.465296464289935],[126.79423836039274,37.46577547000335],[126.794753503405,37.465730196155576],[126.79625114315981,37.46434385681071],[126.79647189617987,37.464026916638346],[126.79734684922944,37.464031531333625],[126.79810288995678,37.46444053799173],[126.79883829190443,37.46458399013435],[126.7996686587654,37.46422275717098],[126.80104865200897,37.463803491126974],[126.80092230064076,37.46297135489967],[126.8014471887844,37.46300160687187],[126.80238313316814,37.46269880059932],[126.80266802044657,37.46223343607939],[126.80312686820405,37.461769008508625],[126.80383094293602,37.46158248227646],[126.80407886961913,37.46154136081021],[126.8047463828288,37.46173585814462],[126.80541980648633,37.461719137662925],[126.80573510211131,37.462029073684924],[126.80610771948403,37.462038393824095],[126.80657467167624,37.462156647135636],[126.80743861689089,37.46199510360811],[126.80784219464066,37.462095905204336],[126.80891636182277,37.46217243474071],[126.80896296992623,37.461734731574744],[126.80944352927825,37.46136544333264],[126.80996758265267,37.4612315022096],[126.81014600814022,37.46091803310181],[126.81056099978429,37.460801100226206],[126.81061142546524,37.46066593870465],[126.81088101991668,37.460424420984765],[126.81111153847027,37.46035701685023],[126.81123999987862,37.460092555284426],[126.81151262295023,37.459922305904115],[126.81176264420732,37.459388700413115],[126.81183627311736,37.45886429945091],[126.81218395641142,37.45922206896892],[126.81242479712277,37.45916698886987],[126.81260886804638,37.459218243620725],[126.81314036223124,37.458972442658826],[126.81341872222046,37.45874763423889],[126.81345634937992,37.459239300044835],[126.81320752070208,37.459937749753955],[126.8133443649925,37.46028068431798],[126.81359399337998,37.46034281744787],[126.81400390052823,37.46032133162819],[126.81445710878832,37.460466916720264],[126.81440873268161,37.4605091494113],[126.81450258096255,37.4605810145308],[126.81551035297677,37.461002112651535],[126.81576345527074,37.46067156586025],[126.81607361820998,37.460503210636546],[126.81637455925707,37.460020684115825],[126.81666333081398,37.45997220107531],[126.81689126172992,37.459563816540104],[126.81767404671393,37.45918028172984],[126.81844969126053,37.45930703213532],[126.81880264983177,37.45928916173192],[126.81968118437946,37.459501191255306],[126.82014157737115,37.459230559573655],[126.82042758601469,37.45884981148589],[126.82071605459642,37.45862254174401],[126.82275641654492,37.458508027560015],[126.82319424029205,37.45838133095458],[126.82387507898984,37.4593643069598],[126.82506910903281,37.45927813156441],[126.82551061554858,37.45907559467261],[126.82596417579116,37.459484216647226],[126.826092109212,37.459479734650394],[126.82651568868324,37.46045474911616],[126.82646924214093,37.46068084381592],[126.82678497473452,37.461750888932166],[126.82748123189718,37.46286903601588],[126.82779530103444,37.463256235657184],[126.82862845386332,37.46382271975872],[126.82893564426261,37.46416789661321],[126.82999354010329,37.46463985738545],[126.83107774606822,37.46488235165168],[126.83098724934038,37.465758213186376],[126.83117230389809,37.465947159188815],[126.8313157499505,37.46633998505427],[126.83176245238235,37.46641521542404],[126.83213335544926,37.46613847074728],[126.8323338296978,37.46582179641933],[126.83254015655058,37.465725790478736],[126.83293115558547,37.46574381179467],[126.83301691535765,37.46586077451055],[126.8330909340437,37.46687760793701],[126.83337466375609,37.46692165829819],[126.83352337041838,37.46724313009168],[126.83350963702603,37.46785381841203],[126.83361789204778,37.4679415413806],[126.83352143531637,37.46842175697366],[126.8335990246444,37.468558144226776],[126.83333531663891,37.46876080648838],[126.83339918060773,37.46898724205201],[126.83330808059009,37.46928444305737],[126.83352197791551,37.469366115517396],[126.83352899674422,37.469441953682754],[126.83362042149994,37.46940338474631],[126.83350064060022,37.469560871792694],[126.83328025575656,37.46965901732454],[126.8328408108415,37.470284357901086],[126.8322954019346,37.472384163573786],[126.83202706796234,37.47284902591764],[126.8322181800598,37.473792402193375],[126.8324169744842,37.4738382940327],[126.83246990862726,37.474021948457136],[126.83245640224372,37.47500008517418],[126.83228179262841,37.476287989288736],[126.83242934031203,37.476428981812695],[126.83291923069478,37.476640286015915],[126.83279463074543,37.47698136696656],[126.83287526074504,37.477179702842285],[126.83198903002892,37.4774889878375],[126.8317474517224,37.477651194970925],[126.83045722803259,37.477339592572314],[126.82963020696911,37.47690044960168],[126.82955790926069,37.476606725253056],[126.82920415900898,37.47619566040205],[126.82787185408918,37.47598972976874],[126.82622375119671,37.47614631820429],[126.8243331254489,37.47614020691721],[126.82433450157562,37.47625279028034],[126.82417285712441,37.47619470463959],[126.82416346549418,37.47632394021593],[126.82400667086222,37.476444496168114],[126.82386130432519,37.476363188814474],[126.82370099591417,37.47610728824446],[126.8232180240054,37.47611556796114],[126.82320768775325,37.475934513296814],[126.82299779612158,37.47594771356898],[126.82214691458655,37.47572230084114],[126.82194258895804,37.47525768563231],[126.82174966841555,37.475194612976686],[126.82165496179877,37.475352704866864],[126.82164283243488,37.47624167563994],[126.82132297096707,37.47618871759725],[126.82106929847671,37.47630380705752],[126.82018031396296,37.4762698232763],[126.82006806243463,37.47619947297687],[126.81959887750897,37.47635529851616],[126.81935220659858,37.476303095506736],[126.81908408514698,37.47610253535453],[126.81908989484688,37.47546071037162],[126.8194746248474,37.47514045858047],[126.81895825098225,37.47523791487107],[126.81888797535521,37.4751544635524],[126.81844768211978,37.47519713562229],[126.81872392786794,37.47411918539984],[126.81794870242076,37.47366550701631],[126.81764024270142,37.47318790488718],[126.81707599983685,37.47328811503606],[126.8169527209315,37.47367895869715],[126.81656215048183,37.47399405698059],[126.81556478228902,37.47404572344549],[126.81464594318987,37.47472054621084],[126.81496454044684,37.475860136333736],[126.81529520579437,37.47636206532027],[126.81610847071329,37.47674500137001],[126.81609168619387,37.47710759438796],[126.81641120228211,37.477537187860705],[126.8172101570762,37.47813553357362],[126.81825607478191,37.47816427654288],[126.81899710450038,37.47916246955469],[126.81936712926053,37.47986347942755],[126.81954261037244,37.480323532192],[126.81957776266317,37.480792650912434],[126.81998623169177,37.48164426632461],[126.81995383161515,37.481944018507335],[126.81955515403475,37.48251694655674],[126.81951872389186,37.4829682414075],[126.81939042415733,37.48330939262069],[126.81957294503583,37.48365221609578],[126.81930734274076,37.484183252034484],[126.81946744747054,37.48451991462566],[126.8194912553095,37.48480840880338],[126.81929694751237,37.48548093849216],[126.82128137752059,37.48615794645302],[126.82162894268872,37.48649888085435],[126.82237911009537,37.48670950455186],[126.82247618605481,37.486907854030015],[126.82359091613816,37.48774525221578],[126.82350612526237,37.487735133969146],[126.82301043763997,37.48815029654491],[126.82304680195537,37.48929103508539],[126.82283373722287,37.4896357924829],[126.82276202807,37.489979418374936],[126.82151262716717,37.49032972281781],[126.82093858937726,37.49058189288725],[126.820995851151,37.49064787015404]]]}}
