{"type":"Feature","bbox":[126.82609116673561,37.40151304001336,126.8999257092612,37.495125460511886],"properties":{"regionCode":"41210","version":"vworld-20260909-3f8952dfda77-p3","name":"경기도 광명시","attribution":"국토교통부/K-Geo플랫폼 · VWorld 법정구역정보, CC BY 2.0 KR; 공공주택 복덕방 가공"},"geometry":{"type":"Polygon","coordinates":[[[126.86831733971394,37.495125460511886],[126.86799017431548,37.49506144697148],[126.86758827051106,37.494815828028734],[126.86758868674787,37.49464653270727],[126.86680884468672,37.49425999596647],[126.86685605043967,37.494123172990584],[126.86719009833124,37.49398547664591],[126.86755159724905,37.49425969150273],[126.86765047200176,37.4942613619145],[126.86777123019647,37.49412097711768],[126.86781964588745,37.493838245552816],[126.86774735387402,37.49345274466391],[126.86736592444856,37.4930051546945],[126.86710114935867,37.49285936311355],[126.86660307837292,37.49288846641059],[126.86667695983304,37.49264195117705],[126.86630365200942,37.49263133596379],[126.86620462078685,37.49255526858964],[126.86579193438536,37.492104942377445],[126.86546232571516,37.49156991280467],[126.86538259149651,37.49152287642188],[126.86515756605536,37.49162429460638],[126.8648246455275,37.49135209725049],[126.86480148793805,37.491203119615875],[126.86462140954603,37.49102640172278],[126.86449350451345,37.49108764394166],[126.86451782791889,37.491203085840276],[126.86402979244583,37.49101943627539],[126.86281085706882,37.49082826009094],[126.86217471135646,37.49057757518564],[126.86176788526211,37.49032616551707],[126.85797083459413,37.48608457281951],[126.85744890615668,37.485794444975284],[126.85642277298511,37.48570209891878],[126.85572950396792,37.48549807105484],[126.85516469468355,37.48517093937093],[126.85486582270869,37.48478629357715],[126.85386382259361,37.48283843394728],[126.85363688055902,37.48262172926345],[126.85310410600714,37.48232954890848],[126.85274239070867,37.4818269971],[126.85178671433542,37.481591582419505],[126.85075769398013,37.48150522859905],[126.84850967378385,37.48208024666363],[126.84813384225265,37.48209727153812],[126.84701549327991,37.48191002283833],[126.84651685801303,37.48159897845936],[126.84623210711055,37.48125920785786],[126.84600393117066,37.48069520347393],[126.84565989253225,37.47639407898849],[126.84536027534341,37.473812443717726],[126.84499023983007,37.47348840363909],[126.84491472458657,37.47349821447167],[126.84481970082214,37.47374523490496],[126.84470155584,37.47376087983631],[126.84449069032789,37.47398005006402],[126.84432022460805,37.47430053107675],[126.84434055126384,37.47452459456256],[126.84424949999615,37.4745997985923],[126.84404797221514,37.47447284989215],[126.84353537368908,37.474540370926405],[126.84311175761475,37.474869752177355],[126.84278143453575,37.474971479151534],[126.84082508171703,37.47465763206589],[126.84010834207656,37.474763331576575],[126.83956748844602,37.47519182969461],[126.83923404017936,37.47516559817088],[126.83884517138421,37.47530941074566],[126.83830054577321,37.475392000549114],[126.83720438084009,37.47488114488124],[126.83619705948247,37.474811318929056],[126.83592943063414,37.47448090534195],[126.83572381740038,37.47447946472362],[126.83558601699274,37.4743899713827],[126.8348334805715,37.474423449988436],[126.83463996201743,37.474362541097555],[126.83464437091557,37.47480898162869],[126.83489274247106,37.47572457161696],[126.83425610294121,37.476243364291186],[126.8339281374221,37.47675319038692],[126.83363882577413,37.47696953897515],[126.83322237433055,37.47718966266223],[126.83285228842215,37.47723527140866],[126.83279463074543,37.47698136696656],[126.83291923069478,37.476640286015915],[126.83242934031203,37.476428981812695],[126.83228179262841,37.476287989288736],[126.83245640224372,37.47500008517418],[126.83246990862726,37.474021948457136],[126.8324169744842,37.4738382940327],[126.8322181800598,37.473792402193375],[126.83202706796234,37.47284902591764],[126.8322954019346,37.472384163573786],[126.8328408108415,37.470284357901086],[126.83328025575656,37.46965901732454],[126.83350064060022,37.469560871792694],[126.83362042149994,37.46940338474631],[126.83352899674422,37.469441953682754],[126.83352197791551,37.469366115517396],[126.83330808059009,37.46928444305737],[126.83339918060773,37.46898724205201],[126.83333531663891,37.46876080648838],[126.8335990246444,37.468558144226776],[126.83352143531637,37.46842175697366],[126.83361789204778,37.4679415413806],[126.83350963702603,37.46785381841203],[126.83352337041838,37.46724313009168],[126.83337466375609,37.46692165829819],[126.8330909340437,37.46687760793701],[126.83301691535765,37.46586077451055],[126.83293115558547,37.46574381179467],[126.83254015655058,37.465725790478736],[126.8323338296978,37.46582179641933],[126.83213335544926,37.46613847074728],[126.83176245238235,37.46641521542404],[126.83134042019248,37.46635265350333],[126.83117230389809,37.465947159188815],[126.83098724934038,37.465758213186376],[126.83107774606822,37.46488235165168],[126.82999354010329,37.46463985738545],[126.82893564426261,37.46416789661321],[126.82862845386332,37.46382271975872],[126.82779530103444,37.463256235657184],[126.82678497473452,37.461750888932166],[126.82646924214093,37.46068084381592],[126.82651568868324,37.46045474911616],[126.82609116673561,37.45947791033827],[126.82810165283365,37.4596013431649],[126.82857285282437,37.459562162368044],[126.82914915352836,37.45857904470366],[126.82914721168636,37.45774156321984],[126.82944203461747,37.45780162461201],[126.83163800889096,37.45892063377783],[126.832182476761,37.45901755940999],[126.83269922729039,37.45998640133955],[126.83308026599016,37.4602952588656],[126.83376470143185,37.45999067534309],[126.83445595763092,37.45989594047263],[126.83487972658078,37.459506764345406],[126.83507798842845,37.45899118441834],[126.8362475029954,37.45808519997411],[126.83648859548987,37.458138353083974],[126.8368754741069,37.45806803752324],[126.83722844200169,37.45824964733634],[126.83747190258916,37.45852282039622],[126.83818991299269,37.4583042012439],[126.83833923816489,37.458123729407994],[126.83805010120764,37.45816355997156],[126.83796643540333,37.458056567082615],[126.8380566899997,37.4577586945658],[126.83828614559458,37.45746050905286],[126.83821528750582,37.457306041442735],[126.83797682136633,37.45723139837743],[126.8378461985398,37.45724210116431],[126.83775034791287,37.45734290907341],[126.83751545267819,37.45707243275011],[126.83756516805431,37.4565674645457],[126.8374356748774,37.45643896937049],[126.8367389011186,37.456170789964396],[126.83666348644005,37.4560140009777],[126.8369243057944,37.455808376007205],[126.83764635456093,37.45570650482638],[126.83857213181234,37.45545452905314],[126.83862095155126,37.455108098643805],[126.83805425712124,37.45392198017112],[126.83807464014639,37.45364333498169],[126.83826181883018,37.453390203893555],[126.83832676810181,37.453131030532234],[126.83804183327786,37.4525420378421],[126.838165382825,37.452361688430216],[126.83878783049849,37.45227333146013],[126.83891497302022,37.45213821347781],[126.83891870941392,37.452003744521754],[126.83883846135687,37.45179359821005],[126.83846190096645,37.45158110130205],[126.83832441149967,37.45157347767042],[126.83790610794186,37.451764589821494],[126.8376995071415,37.45173243266848],[126.83760570658004,37.451440782672876],[126.83773283613431,37.450896735834185],[126.83808087572208,37.45052886734339],[126.83854741135028,37.45076198741592],[126.83887603343359,37.45067887320067],[126.83915692133542,37.45072480544943],[126.8395037481855,37.45050092156978],[126.83951404082826,37.450062219399875],[126.83932481616682,37.44979793618402],[126.83889117863853,37.44964990936867],[126.83828011196857,37.4496270922722],[126.83810515712531,37.44952768419415],[126.83804871414627,37.449374292142515],[126.83816719470315,37.448959606043616],[126.83831061173977,37.44877466431446],[126.83845675910334,37.44880082507842],[126.83868040330819,37.44906850754445],[126.83895190272419,37.44888585905512],[126.8390031515784,37.44826570441805],[126.83949867170874,37.447871166627664],[126.83953715181057,37.447656566218214],[126.83951286452753,37.44718526853432],[126.83941424282357,37.446996354942186],[126.83919945301774,37.44700410650004],[126.83903181004968,37.44727793571615],[126.83866858032218,37.44748447819632],[126.83855941056373,37.44723042316279],[126.8382981098537,37.44704551229301],[126.83851299281395,37.44673753824648],[126.83850708436768,37.446581186088245],[126.83816929339505,37.44597154101065],[126.83830351657468,37.44556419140063],[126.83827254765852,37.445249436441344],[126.83806876734702,37.445035938679936],[126.83788833552276,37.44453415442546],[126.83813327257823,37.4442855902246],[126.83816626280407,37.44401861385175],[126.83776583843022,37.44333596168559],[126.83778734840661,37.4430228111058],[126.83793049555918,37.44293631639407],[126.83834252180277,37.442943290977944],[126.8384258598695,37.44291300490994],[126.83842194879009,37.44281923981812],[126.83822055489118,37.44255958076389],[126.83748354444307,37.44245665733176],[126.83773780945893,37.442016163732276],[126.83757682625776,37.44176221927131],[126.83759227905972,37.44156376517429],[126.83784391389983,37.441275593543416],[126.83790944963448,37.44105974068643],[126.83781560968703,37.440822654886645],[126.83733338944789,37.44063992181062],[126.83727318489908,37.44052531705461],[126.83735893456367,37.440409224961556],[126.83807040634345,37.44004105093137],[126.8382200453749,37.439663402391425],[126.83797716592554,37.43926841107637],[126.83799295990102,37.438798265362635],[126.8376741749666,37.43862191119333],[126.83762007524535,37.438133887415745],[126.83752103036373,37.43806304784807],[126.83767591052855,37.43780548502986],[126.83785260661801,37.43690996577109],[126.838392596683,37.43662628125176],[126.8388877191627,37.43679533465235],[126.83963496280789,37.43667066236732],[126.83978133925102,37.43658474575598],[126.84112395722715,37.43523956736019],[126.84151668001202,37.43450782452834],[126.84156141824876,37.433707661533106],[126.84136106574373,37.433517430716584],[126.84090586599002,37.43349279379581],[126.84064006650009,37.433331817334164],[126.84037058633665,37.432732056946286],[126.84018717219844,37.43172742335901],[126.84038088539052,37.431232288846516],[126.84069402481069,37.43077188440596],[126.84136240382232,37.430417903403274],[126.8418689475316,37.42993231116995],[126.84177115211234,37.42966015750238],[126.84203034397883,37.429101694427025],[126.84205634878623,37.42844257588365],[126.84175876791547,37.42797700437965],[126.8416615650178,37.42760033911312],[126.84174498468695,37.427059838604045],[126.84167323762115,37.4266480970221],[126.84182856479768,37.42614608477234],[126.84202351203066,37.42597295655367],[126.8425893428681,37.425847018835825],[126.84295394739073,37.42565196130791],[126.84360974875938,37.42500859945537],[126.84373026897937,37.42463306872456],[126.84423222084735,37.424425881927455],[126.84446577244225,37.42421563650899],[126.84540007828122,37.42288450572869],[126.84542470992085,37.42262165145558],[126.84498461696533,37.422029033681724],[126.84511027774822,37.42177612418801],[126.84483231112254,37.42140426974433],[126.84466313369784,37.42073528128389],[126.8449146407315,37.42010947245465],[126.84489086173035,37.41962675434408],[126.84512069121409,37.419068784009994],[126.84534333122343,37.41889751600363],[126.845462528798,37.418654382429374],[126.84574263170569,37.41851697694221],[126.84590962501406,37.4183057939408],[126.84600458577299,37.41787854292872],[126.8453619901653,37.41651584685258],[126.84553795360974,37.41626495660342],[126.84547798485298,37.41588687738795],[126.84555126423172,37.41564695238843],[126.84583611536925,37.415272310389305],[126.84570949724046,37.415027195798764],[126.84580537688075,37.41446585563524],[126.84619267902357,37.41392573383269],[126.84637756815943,37.41234350953431],[126.84690663521802,37.41157952350622],[126.84718283934393,37.41138254142535],[126.84758084164822,37.41130542376007],[126.84776821145282,37.41115048543706],[126.84899477009729,37.41062872149224],[126.84970480107617,37.41059540814622],[126.8500298707997,37.410293235610624],[126.85006399290965,37.410114430123784],[126.85039228442791,37.40977216892416],[126.85086635158414,37.40963111680031],[126.85132741340543,37.409109490881875],[126.85202798249387,37.40890288901034],[126.85237307656314,37.408512617413805],[126.8529144652306,37.4083052914084],[126.8531512702704,37.407850263736655],[126.85300758144606,37.40717709752122],[126.85343369331859,37.406701042245885],[126.85384638958422,37.40650815635164],[126.85400755552699,37.40629410636564],[126.85404270578529,37.406230059874254],[126.8538911518918,37.406006140102505],[126.85413623000122,37.40521325857252],[126.85463003698935,37.4043769130154],[126.85489634206542,37.40411847001046],[126.85504542913685,37.40411336859992],[126.85512676893349,37.40376646177849],[126.8550631126813,37.403477619664606],[126.85515608922599,37.403406544785724],[126.85557197916168,37.40322176526254],[126.85614541999489,37.40325811644477],[126.85673881008715,37.40286641530604],[126.85737881666188,37.402296100032885],[126.8582542315074,37.4020089021033],[126.85933484050668,37.40177616698847],[126.86089223331153,37.40174842186536],[126.86172608516571,37.40151304001336],[126.86227235766762,37.40152449659618],[126.86341966198646,37.40179615522781],[126.86496759696655,37.40181877483552],[126.86575557177447,37.40172094975656],[126.86687780862505,37.401758191322934],[126.86798195268612,37.40197683202967],[126.87039830663286,37.402181255251996],[126.87137780736863,37.40213318719432],[126.87192116196512,37.402018219215684],[126.87259807302412,37.402020030184474],[126.87323473896322,37.40183107848565],[126.87388787925218,37.40183579366088],[126.87474408152676,37.40160960510158],[126.87511264380639,37.40173592604663],[126.87606202856499,37.401645917641474],[126.87637614838653,37.40168124633549],[126.87706459868019,37.40194258458923],[126.87696817933369,37.401996595773234],[126.8772332917753,37.404222448198134],[126.87763609669429,37.405080258685025],[126.87686102931393,37.40529945029609],[126.87654715316262,37.40529095603253],[126.87604455048417,37.405943918443135],[126.87587266268237,37.40650790411634],[126.8745843584201,37.40700150083582],[126.87291580040294,37.4065595731636],[126.87174987104903,37.406671076682265],[126.87036808024662,37.40706275473581],[126.87019085778228,37.4081597940528],[126.87065866511495,37.40880251840884],[126.87096834956516,37.40944359206106],[126.87064036896614,37.41016534969644],[126.8703410313943,37.410372926838555],[126.87036752808883,37.411009512524046],[126.87061903851726,37.41128403859102],[126.87115563062487,37.4127239846696],[126.87192137245546,37.41229138140545],[126.87256453570734,37.411289564464234],[126.87500906206472,37.411600828654294],[126.87533635515099,37.41118091019416],[126.87606561350745,37.41088978722184],[126.87605828081253,37.4104011233151],[126.87836762817832,37.408916277325176],[126.87915621677294,37.40898875361758],[126.87990905340453,37.41014029376944],[126.88059619991395,37.41055861991387],[126.88089801063795,37.41083450097477],[126.88293154333977,37.4107901579225],[126.88357102872358,37.41129127174928],[126.88390573579758,37.41144386912683],[126.88406276522748,37.41142367828192],[126.88426615501565,37.41151654912028],[126.8854240779544,37.41172497771045],[126.88564086026494,37.41170418138638],[126.88672585225099,37.41112385240563],[126.88760969707012,37.41084277816062],[126.88782536933438,37.41115823411509],[126.8889880402673,37.41142179081085],[126.88914680910011,37.41173995360289],[126.88914383892805,37.41197393482924],[126.8892623964494,37.41208882079649],[126.88940816833615,37.41335331119251],[126.88930167742956,37.41405249363372],[126.88912066614489,37.41435159262979],[126.88920154409679,37.41524460097512],[126.8896650283782,37.416099259723076],[126.8894443971182,37.41633090904247],[126.889819384802,37.41777015225963],[126.88911990891897,37.41813103593047],[126.88891373871164,37.418620251985644],[126.88899636527242,37.418904850781956],[126.89010558676215,37.41969666664462],[126.89137873148884,37.42039172710578],[126.89179244974525,37.42052933519466],[126.89358404096345,37.42022983230691],[126.89389781118585,37.42045690000719],[126.89395509734618,37.4208428555469],[126.89386866062759,37.421405818048065],[126.89410888165332,37.42256086378244],[126.89430915676733,37.4228941459306],[126.89473785268014,37.42323763998329],[126.89494143837175,37.4236303018941],[126.89499866702049,37.42438251710915],[126.89546208964171,37.42470324287426],[126.89643426128231,37.42517461830311],[126.89656119568318,37.42545359520415],[126.89646274129797,37.42581454348133],[126.8962022190468,37.42613525086637],[126.89615376110083,37.42637036950248],[126.89672521774295,37.42685435824698],[126.89689409934194,37.42719500203348],[126.89676635332096,37.427576736097215],[126.89658047494588,37.42775740332549],[126.89613601389843,37.4278769223973],[126.89571028110299,37.42782921164142],[126.89546351315948,37.42768293836268],[126.89521628942802,37.42738044495034],[126.89487702040127,37.42735049776712],[126.89456250420061,37.42742801448208],[126.89430701429853,37.42761620129233],[126.8942120063913,37.42780609342078],[126.89423540546426,37.42795721350428],[126.89453556155037,37.42829644566285],[126.89426473877968,37.429014754300425],[126.89464027778807,37.42942235150262],[126.89468233480832,37.429800543124706],[126.89576142839583,37.43052727801308],[126.89626106757439,37.43105857837859],[126.89651539395908,37.43119583704766],[126.89688858080291,37.43115985921987],[126.89747455362631,37.43094854826686],[126.89776646244944,37.43099713754342],[126.89812167555749,37.431218430729025],[126.89826693501914,37.43178231188401],[126.89850457783285,37.4322362080223],[126.89834854512985,37.43272791554378],[126.89871493526698,37.433327092081285],[126.89920680812618,37.43340128225672],[126.89919532084598,37.43400493206516],[126.89908307994658,37.43407286694392],[126.89921181907164,37.43450470850049],[126.89984643717378,37.43466140040816],[126.89984291303232,37.434827839135636],[126.89941862264786,37.435086104208494],[126.89959582230546,37.435830295818896],[126.89942300401619,37.436122411426815],[126.89936878182438,37.43642149670626],[126.8996944692611,37.437077654588066],[126.89967678299578,37.43782996506997],[126.89925202650035,37.43824953852418],[126.89899035298345,37.43865309870725],[126.89876015446407,37.43927816246699],[126.89926859078231,37.43964817025915],[126.8999257092612,37.43955628559861],[126.89941074822022,37.44073245874153],[126.89925817914857,37.44097940127241],[126.89898933515857,37.44117384832787],[126.898779225933,37.442065085373024],[126.89726005667079,37.44542881994805],[126.89671469532539,37.44569954938025],[126.89624827880594,37.44571253226936],[126.89578213072856,37.445633357657954],[126.89550525334327,37.44577822744709],[126.89530939914118,37.446209911622105],[126.89464971248614,37.44669819669271],[126.89472588829103,37.44763068838413],[126.89500322417183,37.44822253798094],[126.895262499971,37.44837624188637],[126.89559047150783,37.4483430802007],[126.8960523962698,37.44804991045661],[126.89480795202904,37.450880024517545],[126.89460099502462,37.451165623455765],[126.89398239585951,37.452718070066524],[126.89361366947196,37.45282334686608],[126.89325415622272,37.45276295646935],[126.89305413506234,37.4525932036841],[126.89273282406629,37.45199503800067],[126.89259795794158,37.45193495967256],[126.89240009378923,37.45199434815365],[126.8921165237588,37.452273735853915],[126.89196350070887,37.45230435566229],[126.89149728612948,37.45222305998558],[126.89104835664617,37.45224226130554],[126.8902094083946,37.452504089199095],[126.88984922108024,37.45227723613985],[126.8896447602051,37.45231463239788],[126.88952241373562,37.45270086798558],[126.88966442369983,37.45360058587342],[126.88952815538029,37.45376889971264],[126.88909851277477,37.45397311808358],[126.8890391623968,37.454118341284605],[126.88926620300441,37.45448443590613],[126.88920205514715,37.45472545617625],[126.88876761182733,37.454766336449175],[126.8883398915718,37.455091740785825],[126.88819887312553,37.455400263833525],[126.88801471634109,37.45558030519558],[126.88747366232487,37.455480540990585],[126.8872411981176,37.45550358786091],[126.88634652796269,37.45623568820503],[126.88618528610382,37.45652441803994],[126.88586900730812,37.45758925633918],[126.88594692558299,37.45789458575934],[126.88632165624256,37.45845087201074],[126.88633682464298,37.458958821732466],[126.88622836028593,37.459211381770785],[126.88610336566222,37.459299152244455],[126.88541787299646,37.459418431834166],[126.88534945620775,37.45986425601953],[126.88565020755007,37.46043249001436],[126.88612783705965,37.46090149758629],[126.88682613418308,37.46093205382707],[126.88749642485877,37.46106487140164],[126.88622831241798,37.46249304601448],[126.88611172925387,37.46275513603658],[126.88514111108609,37.46246943901941],[126.88431702384341,37.46272549129752],[126.88378187817403,37.463182353320725],[126.88274539258092,37.46439248335642],[126.88277328762585,37.46482899466797],[126.88287322991752,37.46496136194515],[126.88314719186518,37.46512859004653],[126.88428739562553,37.465404947744105],[126.88457406525902,37.465648263819716],[126.88461721862144,37.46601229026929],[126.88429875891853,37.46651840968283],[126.8830950575169,37.467021476439434],[126.88254161987949,37.467934743990284],[126.88195072598204,37.468216981426124],[126.88163095491501,37.468459145533195],[126.88144664242667,37.46899589116907],[126.88159265175507,37.469416898064466],[126.88020412882635,37.47093494141363],[126.87801116057608,37.47382778038829],[126.87598549273945,37.47710393188859],[126.87419748870599,37.4804862059307],[126.87420204838917,37.48062488470539],[126.87338150265145,37.48244185040685],[126.87318874286305,37.482283588289924],[126.87307181659604,37.48227644749557],[126.8727635252897,37.48248989438422],[126.87282034307593,37.483462801458465],[126.87331274114561,37.48417510341766],[126.87229394299764,37.484512081805086],[126.87188495631541,37.484955486589264],[126.87182448935124,37.4852297655332],[126.87231514900142,37.485730161833416],[126.87244484699008,37.48609826282532],[126.87279157526437,37.48626724496834],[126.87307053548386,37.48622039046525],[126.87359025636965,37.485721698372636],[126.87378980498194,37.485360762235985],[126.87393086728046,37.485264071578655],[126.87421739838295,37.48519914714452],[126.8745972749928,37.48538819699523],[126.87486259025404,37.48567302858128],[126.87502234449835,37.48601422896026],[126.8749980231672,37.486490920554935],[126.87513435343438,37.48678207439501],[126.87536277035869,37.48690126600935],[126.87598175859499,37.486918097054506],[126.87668838872486,37.487852598545395],[126.87679008925741,37.488570802548374],[126.87638196180855,37.48894113361892],[126.87605247711028,37.48904533551867],[126.8758149218731,37.489025784959885],[126.8751820580777,37.48850882622674],[126.87471566980601,37.48857715646895],[126.87449355965022,37.48886749671263],[126.87436626165554,37.488867666318455],[126.87373409898301,37.48865640149642],[126.87325577007272,37.488301125290256],[126.87308428007016,37.48825837633542],[126.87274814063478,37.48843059497442],[126.87263966419668,37.488981441375685],[126.87241337037055,37.48933078061368],[126.87244015620983,37.489535517672664],[126.8728389326774,37.49001438312564],[126.87336816140896,37.49038644014598],[126.87375246215365,37.490475784888275],[126.87393300598362,37.4904289484094],[126.87409031927392,37.490214590901644],[126.87410957968795,37.48976548689147],[126.8743299652073,37.48968892508878],[126.87458132676937,37.489762093969496],[126.87465156270812,37.48989221029647],[126.87443705853524,37.49027862989476],[126.87446381596335,37.49042019403253],[126.87483921441019,37.49074545178352],[126.87437242778006,37.49122139959696],[126.87412979649629,37.49133763836656],[126.87376815217726,37.49122228289459],[126.87329738300248,37.490845421736466],[126.87271667664344,37.490819381373015],[126.87224571099343,37.49063480172523],[126.87180739982455,37.49079769903231],[126.87154697808445,37.490771214866975],[126.87147261323922,37.49056592167704],[126.87157703445278,37.49020932829598],[126.87134204050476,37.489833533010305],[126.8706578565585,37.48956094785177],[126.87041010680593,37.489540210832445],[126.87021320143552,37.4896137501653],[126.87012516548427,37.48975722345014],[126.87023309361442,37.490112878211896],[126.86968077445654,37.490439370285245],[126.86999272850927,37.49087008231397],[126.86990871913312,37.49125388499668],[126.86941745810746,37.491584282458646],[126.86929856249938,37.491853791567735],[126.86946259444169,37.49211268776058],[126.87002915577541,37.492260490265934],[126.87001319774772,37.49248136118128],[126.86946436249394,37.49260504985975],[126.8693732918684,37.4927727689297],[126.86959383057683,37.49311755275211],[126.8700666188147,37.49348567271345],[126.87005436694757,37.4935862200545],[126.86979277303044,37.49383803843179],[126.8697092361935,37.49409561236251],[126.8695024033933,37.494328400814396],[126.86831733971394,37.495125460511886]]]}}
