{"type":"Feature","bbox":[127.13995196458824,37.46875168767739,127.28564459535772,37.59156330842681],"properties":{"regionCode":"41450","version":"vworld-20260909-3f8952dfda77-p3","name":"경기도 하남시","attribution":"국토교통부/K-Geo플랫폼 · VWorld 법정구역정보, CC BY 2.0 KR; 공공주택 복덕방 가공"},"geometry":{"type":"Polygon","coordinates":[[[127.20783198261738,37.58288350620558],[127.20501325486048,37.58648530816315],[127.20258687861688,37.588868597715056],[127.2000646655274,37.5899496751637],[127.1969857994478,37.59089481906195],[127.18565629451653,37.591553546148745],[127.18357354104221,37.59156330842681],[127.17998406511755,37.58752754328956],[127.17796285003725,37.58616707959409],[127.1734917885975,37.58256643956764],[127.1686625530018,37.57963607255831],[127.16866023441997,37.578997718714746],[127.1702512769352,37.579016772127105],[127.1718371441548,37.57926249564301],[127.17387105820575,37.57973488509616],[127.17510606855198,37.580267026575875],[127.17651821075201,37.58103469936572],[127.1771546544527,37.58120075703873],[127.17708251624948,37.580477580096726],[127.17714252485294,37.57985836938653],[127.1769883952185,37.5794168023274],[127.17652904094027,37.5789238179441],[127.17596358629174,37.578553330682645],[127.17559976561758,37.57845792303957],[127.17541523032726,37.57829897090322],[127.17532882469597,37.57723440177136],[127.17549971692905,37.57701944693684],[127.17576552584731,37.57566018970023],[127.17568802422163,37.57490104072086],[127.17613997723927,37.57409930884982],[127.17649547156604,37.573828033918005],[127.17696864102938,37.573294126815995],[127.17739792863911,37.57253909178179],[127.17783283329139,37.57205749642578],[127.1778399725797,37.57146272363822],[127.17832170886213,37.57070636609636],[127.17865454576221,37.56976848172973],[127.17921582403656,37.56891818689959],[127.17934013203426,37.56813702311903],[127.17949706597489,37.567730443491236],[127.17946925526694,37.56627007375529],[127.17966554406208,37.56527923183363],[127.18118598624152,37.56301689294457],[127.18199942152938,37.56099275192337],[127.18198622019824,37.559648316466294],[127.18155914971683,37.55755849719566],[127.18168438806944,37.556834090156634],[127.1816973161914,37.555999213020684],[127.18153049050775,37.55547770453144],[127.18134175991656,37.55300870012873],[127.18138068322769,37.55286186628406],[127.18167717991639,37.55257070810284],[127.18291138167919,37.551820368142494],[127.18311879060943,37.55108184251599],[127.18310242928118,37.55065829320903],[127.18302233464908,37.550664209240296],[127.18290599821296,37.55001290827305],[127.1828970823649,37.54929500786249],[127.18307578928517,37.548633000300455],[127.18267709855743,37.547857425232166],[127.18272418791112,37.54670414077308],[127.18282510409423,37.54634433640205],[127.18379470607357,37.5455742619705],[127.18356363710016,37.54516789389795],[127.18284633594996,37.54557977759926],[127.18274466473864,37.545514322911956],[127.18219219282885,37.5457430400127],[127.18169254919735,37.546444728453096],[127.18119430390051,37.54661624273174],[127.1798433872096,37.546605488594736],[127.17930880116016,37.546681615840285],[127.17679277082034,37.54574556339328],[127.1767842631232,37.54543286963531],[127.1766372165323,37.54533598950563],[127.17598118682103,37.54563645008293],[127.17576796598927,37.54540436955837],[127.17571805503209,37.5452104040085],[127.17431440986796,37.545297773472186],[127.17413768792686,37.545712553210464],[127.17390557101882,37.54558184136143],[127.17361362756529,37.54553982477932],[127.17210675975544,37.54553462974763],[127.1715714931975,37.54538627887195],[127.1710660918998,37.54511214162718],[127.16976035622893,37.544796236780826],[127.16881502381773,37.54513918166743],[127.16797941798728,37.545052650259166],[127.16697792796455,37.54520266935304],[127.16674610351528,37.54481845056219],[127.16688846668102,37.54427039341596],[127.16531090090922,37.54440562291754],[127.16517039726544,37.54463904892614],[127.16349133180505,37.545016023524],[127.16315954583852,37.544999929357395],[127.1622665289232,37.54383157759222],[127.1617140160123,37.543418503637646],[127.16116105265641,37.54279715396212],[127.16040652158179,37.54170224182423],[127.15995800501013,37.541330709151275],[127.15989329455584,37.541165077054146],[127.15910120810848,37.540725884061736],[127.1589591727574,37.54048420249184],[127.15824690887402,37.5397499679181],[127.15765120976104,37.539270186410306],[127.15739535475971,37.53895178833176],[127.15717437977388,37.53844133434803],[127.15699344326042,37.53836884281963],[127.15694112421974,37.53785577024057],[127.15694106993169,37.537900974922714],[127.15654809403237,37.537448525155845],[127.15603121672137,37.53733889580112],[127.15593719331908,37.537050005662024],[127.15529209678839,37.536232674080836],[127.15473185785497,37.53509956764408],[127.1545195607035,37.53482295844103],[127.15402121324112,37.534515020044196],[127.15382552461082,37.53395145348853],[127.15360625565799,37.53368302992555],[127.1539333504579,37.531919906333286],[127.15376652764635,37.53160105337737],[127.15337871239053,37.53133014664632],[127.1533270886701,37.53103386669467],[127.15343391444274,37.53091333791653],[127.15354100275088,37.53043647787316],[127.15312865716194,37.52994824495348],[127.15328999916522,37.52946898814712],[127.15316359130132,37.52910909325735],[127.15277888795049,37.52880246558593],[127.15268666663088,37.52852945791279],[127.15163725675721,37.527704837853065],[127.15040165586719,37.52637276868304],[127.1499405507182,37.5262300608649],[127.14945941250589,37.52575592993936],[127.14959568938671,37.52529367790487],[127.14949052804711,37.52504798364043],[127.14926187773817,37.524850881697134],[127.14900858097259,37.52411993145509],[127.14859556182739,37.52353222981317],[127.14859808424127,37.523191804961364],[127.14823160417387,37.522935192326],[127.14788841419308,37.52248213554607],[127.14781806573629,37.52214476441681],[127.1457413909555,37.52193970318585],[127.14568989887165,37.52163740062202],[127.14527087888584,37.520879427718455],[127.14478559348188,37.5196244644899],[127.14480472460698,37.518774655656784],[127.14490207429473,37.518390104004155],[127.1448641072096,37.517731331389854],[127.14508411439614,37.51714607387326],[127.14511828475571,37.516779408832235],[127.14543057534534,37.51642317215668],[127.14543342247144,37.51606153536828],[127.14501820033189,37.51585139626289],[127.1448493168268,37.515670266900656],[127.14460784125603,37.51559149724185],[127.1426194849842,37.51557155373731],[127.1418268613945,37.515642732616406],[127.14118479395431,37.51553504804665],[127.14061718353882,37.51557560604284],[127.14123094268948,37.51503094056132],[127.14202348013808,37.51470506725685],[127.14295019922848,37.5140891373666],[127.1434212290254,37.51388235154592],[127.14336615526769,37.51344740885589],[127.14353983066268,37.51265726902718],[127.14288443576297,37.512733541812466],[127.14191316133925,37.512458508584885],[127.14143940605922,37.51240060568556],[127.14127773138269,37.512152707646315],[127.14110592234775,37.51112434478848],[127.14124198085342,37.510995034327365],[127.14122389969597,37.5107848056008],[127.14094761430258,37.510393631953775],[127.14034910063559,37.51021677773385],[127.14018237643174,37.50923344536835],[127.13995196458824,37.50851711608001],[127.14032937822839,37.508275396022114],[127.14034697971226,37.507752004156245],[127.14088465131627,37.507437959083234],[127.14151634306356,37.50670866858335],[127.14081266671157,37.50597887208287],[127.14114929107792,37.50545830091403],[127.14212227366042,37.50507603434092],[127.14223273760177,37.50488492612002],[127.14342378590791,37.50441409135657],[127.14411586219957,37.50449707922428],[127.1443983698541,37.504316979892714],[127.14474359742954,37.50424275135226],[127.14498817292893,37.50411675521175],[127.1455303103025,37.50330725158285],[127.14623923524516,37.50322985501749],[127.14634034950885,37.503351565794404],[127.1465419869917,37.503357939817654],[127.14650912653195,37.5032377692963],[127.14725959307935,37.50336580487908],[127.14771631090704,37.50323382575545],[127.14803488397064,37.503505634577124],[127.14854331952398,37.50365485092022],[127.15026314847343,37.50467827492718],[127.15170197112651,37.50335090208168],[127.1517836057771,37.5034646530465],[127.1517094452452,37.50335525786636],[127.15213362849828,37.50298535401011],[127.15256438396085,37.503117259705455],[127.15283079272092,37.50306979846835],[127.1532462276126,37.50270041470389],[127.15399451147763,37.50267001379273],[127.15655480729383,37.501894573016045],[127.15772908991866,37.50317940625602],[127.15886588743521,37.50239057942664],[127.15938540792045,37.501380921411176],[127.1604636407143,37.501125179429614],[127.1613585816675,37.50024420941864],[127.16143084867716,37.50002297341852],[127.16135515876705,37.49953689408617],[127.1610690384434,37.49924521281722],[127.16063284456045,37.498549694925394],[127.16057104916773,37.49756049701754],[127.15977959242831,37.49682366359283],[127.15974067876039,37.496546256197675],[127.15998400015668,37.49542768008928],[127.1600311595826,37.49439024750475],[127.15975668361904,37.49364183944712],[127.15951669236073,37.49327487895713],[127.15905458036238,37.49293883387659],[127.15865067175372,37.492426882791996],[127.15836058590443,37.491590948828765],[127.158260556826,37.490636538862034],[127.15798911753676,37.49036771478877],[127.15728209070012,37.48995046159719],[127.15838186317266,37.48989469758963],[127.15852329173077,37.48967199181501],[127.15042997164278,37.48524928599905],[127.14992148268884,37.48490611817601],[127.1494657314527,37.484427223916654],[127.14909446782963,37.48388305863323],[127.14868282143365,37.48404358520797],[127.14777014558355,37.48262456239513],[127.14752510220232,37.48201425655807],[127.14714509893557,37.477222194423256],[127.1443702500192,37.477331539455],[127.14426898520968,37.476395148361554],[127.1436186331613,37.475171044716575],[127.14352636698433,37.47393081128543],[127.15460042557753,37.47352144510327],[127.15456423312516,37.47293855450215],[127.15542719783471,37.472545874508],[127.15582110604936,37.47212095373694],[127.15722635584962,37.47169032380188],[127.1576786731807,37.47174974256062],[127.15804779565936,37.47154021150292],[127.15925308545232,37.47126375134759],[127.15952623457216,37.47139731095659],[127.16024816921929,37.471222199128285],[127.16310492875799,37.470831083818204],[127.16352111203085,37.47091347742671],[127.1645093248044,37.470519590238844],[127.16546141445708,37.47025789875805],[127.16539642111292,37.46992216456558],[127.16581347368616,37.46990424571816],[127.16673647240967,37.46966270544301],[127.16637742714182,37.469349756080476],[127.16646140909964,37.46913484127839],[127.16779847077201,37.46875168767739],[127.16896393857448,37.4688077172756],[127.17006958195148,37.469198404748724],[127.17091735638328,37.46962472696763],[127.17135989264729,37.469968230315374],[127.17191492785183,37.47062737964447],[127.1722987680165,37.47088981874105],[127.17338962226822,37.471297571784724],[127.17419465700287,37.47147680561032],[127.17475432257,37.47174641583726],[127.17543455149405,37.47181811694922],[127.17599615167755,37.472070315798156],[127.17690703676567,37.472801464329876],[127.17727892399301,37.472808840656334],[127.17767587978183,37.473276520412206],[127.17818576125289,37.47307999702712],[127.17854305573344,37.47331250734632],[127.17891219855659,37.473266758017566],[127.17898029104502,37.47333056422122],[127.17896566958292,37.47368291302869],[127.17868852881908,37.474429459608956],[127.17879801815299,37.474823987205234],[127.17816046674184,37.47509449218076],[127.17757187284577,37.47522756612052],[127.17747799169074,37.47536109796016],[127.17723275312603,37.47544884336747],[127.17703842921557,37.47597684853725],[127.17672463841836,37.47614066469837],[127.17660426183016,37.47629112219583],[127.17539510056109,37.476752607885004],[127.17528142298995,37.47752351721918],[127.1750757511304,37.477703435086816],[127.17506514014784,37.477885470174904],[127.1754221363866,37.47801370808562],[127.17556135419574,37.47819936987469],[127.17543356954194,37.47838013764792],[127.17552182316831,37.47875203133875],[127.17546635072759,37.479021989566235],[127.17531636479177,37.47939144044916],[127.17503882343925,37.47970628083811],[127.17503250350626,37.47983366342304],[127.17565030825328,37.48001207200021],[127.1757243709751,37.480406547163966],[127.1757746645532,37.48048185008683],[127.17594644382804,37.48049495128311],[127.17610499820616,37.48071837133355],[127.17609509501973,37.48091298332015],[127.17578019294378,37.48138709431693],[127.17584471749065,37.481679366131935],[127.17554381976126,37.482402042976425],[127.17568149163452,37.483189611410445],[127.17611673591523,37.4836011041868],[127.17608557191711,37.483779007771446],[127.17571665461024,37.484119788113574],[127.17571932428261,37.48450024009705],[127.17583319725637,37.484658459160876],[127.17567146718574,37.48533410589595],[127.17590268106073,37.48542472005374],[127.17630116189545,37.48527438673932],[127.17700148882832,37.48531468533902],[127.17710706075599,37.48544116322988],[127.1771131300702,37.48575846034117],[127.17748057718902,37.486019790831314],[127.1776690108416,37.486615737795304],[127.17758717321749,37.486910405054424],[127.17770344832425,37.48722056288925],[127.17874500533274,37.487200569856164],[127.17877609068158,37.48714346457596],[127.17862041901031,37.48683333042141],[127.17858068740212,37.486086452227404],[127.17840085614314,37.48537719060837],[127.17879520738997,37.48501292022333],[127.1798731839378,37.48485397517957],[127.18041443552734,37.48461412334894],[127.18084316809356,37.48432101531726],[127.18137528375516,37.484405270787654],[127.18282516094943,37.4840817401178],[127.18316062852503,37.4838920590972],[127.18345949832039,37.48385800258702],[127.18387431078693,37.483984330907475],[127.18397734211025,37.48388999921162],[127.18395782336009,37.48351685736961],[127.18439274596652,37.483349486218756],[127.18470787686006,37.482784397933926],[127.18506101985477,37.481763825518705],[127.18524383177828,37.48159489193541],[127.18552709151305,37.48149721703947],[127.18565689787548,37.48118383662641],[127.1858931182188,37.48115261778936],[127.18628825805855,37.48092143245006],[127.18679428676832,37.480814483022996],[127.18703934859965,37.481013375240224],[127.18740331203459,37.48112272440406],[127.18845272629466,37.48038825081093],[127.18867279155614,37.48034995855826],[127.18919327412523,37.480352078792585],[127.19032626336936,37.480699537870294],[127.19179423981359,37.48072699025174],[127.19220527682023,37.48110457501546],[127.19316734460196,37.481455897035374],[127.19390404033886,37.48138287912337],[127.1941985787884,37.48117324312142],[127.19500424709156,37.48084927620022],[127.19538376772849,37.480832428052345],[127.19559740180215,37.48074368929841],[127.19590900184417,37.4805552299921],[127.1959618431607,37.4802267368226],[127.19656261749215,37.479888621137526],[127.19727744231093,37.47969070293632],[127.19752117204607,37.479733348851234],[127.19778760414039,37.47961201985678],[127.19838963750432,37.47960517548578],[127.1987679486153,37.479994106757864],[127.19946262749498,37.4799768299228],[127.1997007415193,37.48012828804723],[127.20003811842106,37.48066226723445],[127.20024002387068,37.4807064274179],[127.20034188952235,37.481375519467655],[127.20080644155051,37.482124297127186],[127.2010255417158,37.48233644565643],[127.20074669348091,37.4829391195975],[127.20031615110663,37.48338391066098],[127.20032614248683,37.48349736570041],[127.20097019760593,37.483748506434225],[127.2017221934485,37.48376384847005],[127.20184656413784,37.48413230186695],[127.20204218665639,37.48412373303266],[127.20215478377584,37.48409207793568],[127.20210316410677,37.48375178671132],[127.20224976699933,37.483025557895544],[127.20268466894457,37.483138162890874],[127.20332386529927,37.48288753315991],[127.20333950988075,37.48264309129822],[127.20316321827906,37.48243034253651],[127.2031359961867,37.48191413381213],[127.20371229538995,37.48130689492986],[127.20379247147241,37.48093968098555],[127.20404643417858,37.48060310718808],[127.2045511161831,37.48056383219804],[127.20499977230136,37.4803320527461],[127.20605002081246,37.48055579534175],[127.20644784735175,37.48040037928986],[127.20667251163381,37.48038923932031],[127.20766568390437,37.48102991518515],[127.20902067430369,37.48112003991165],[127.20949832985896,37.48123432957683],[127.2097346174308,37.481382361242254],[127.21041059228472,37.48116548907754],[127.21092804810945,37.48128440438276],[127.21151532841365,37.48159102624444],[127.21307776335524,37.48190931939517],[127.21391219569739,37.481903183635325],[127.2155651080939,37.48233172700637],[127.21600393446559,37.481849525776234],[127.21783511665386,37.481472595382186],[127.21872067608751,37.481660127044506],[127.21901155350537,37.48188108612716],[127.2193194968168,37.481997216437485],[127.21959986352138,37.48193831623285],[127.22038037381334,37.4814156787471],[127.22046246136647,37.48123883915609],[127.22044085594489,37.48093308950339],[127.22105476113556,37.4804852523638],[127.22110617376289,37.480236129565384],[127.2214257126746,37.480094159145004],[127.22137270321264,37.479948457983056],[127.2221812668924,37.47984571504863],[127.2224463346499,37.4797352427285],[127.22287691000743,37.47971476120643],[127.22321094905263,37.47946144162367],[127.22405444891176,37.479503399243875],[127.22436830146826,37.479718282210385],[127.22534388377363,37.479689633541255],[127.22598564504074,37.4798260528516],[127.2269867325845,37.478329254210394],[127.2279666226599,37.4779665813118],[127.2284029119815,37.47749816184555],[127.23029698749856,37.47755830048248],[127.23124000709194,37.477320957700414],[127.23142885386675,37.477439864653064],[127.23178327825276,37.477406603447065],[127.23194474810974,37.47747001873134],[127.23225877351405,37.477406153149815],[127.23249462152442,37.47726031606676],[127.23305431736439,37.477432663252706],[127.23408004021654,37.4774181260023],[127.23438104256877,37.477347807729224],[127.23514628972353,37.47693609164164],[127.23638503778065,37.47682595292369],[127.23696473096474,37.4768508119872],[127.23739504626168,37.476753700338136],[127.23758941321772,37.476636990405304],[127.23814383973347,37.4766120320654],[127.23841291581807,37.47640392176868],[127.23868367550122,37.47601653250396],[127.23919520187042,37.476434309154875],[127.24067560770894,37.47670026035946],[127.24124861688145,37.47688398586787],[127.24149353282402,37.47681218358091],[127.2419589938396,37.47681822883656],[127.24234494573733,37.476613483494134],[127.24266515705783,37.47658181139193],[127.24324712815319,37.47667548566492],[127.24435586270387,37.4765770032083],[127.24461790673928,37.47663953711296],[127.24475015912361,37.47716637494757],[127.24542000313662,37.47779237782356],[127.24536034551706,37.47856540640763],[127.2458314731871,37.47894069026592],[127.24610117730575,37.479098735437944],[127.24637238951352,37.47908498437811],[127.24675926796354,37.47940627019602],[127.24702274111253,37.48051286292306],[127.24696830546497,37.4810392494257],[127.24512779800445,37.48168171441168],[127.24495563746875,37.4824821390496],[127.24498351934143,37.483929239234946],[127.24486664310844,37.48425235584129],[127.24437730207191,37.484805735998066],[127.24441826963123,37.4851209478067],[127.24522385541458,37.48544904552721],[127.24634064443693,37.4860610390951],[127.2470572447207,37.48619628955948],[127.24854372665358,37.48632127691185],[127.2492429833941,37.48628749082049],[127.2495504334813,37.4859236717904],[127.25046598074977,37.48552719776977],[127.25150480691478,37.48541290183595],[127.25179024664246,37.48525149740349],[127.25261201353334,37.485099537912845],[127.25312106750215,37.485166337586726],[127.2535951452644,37.485057304623425],[127.25369265758967,37.48562283615158],[127.25351553769478,37.486164334145194],[127.25363958048777,37.48647641161971],[127.25387254794524,37.48674612274194],[127.2543393226157,37.48707277236286],[127.25595108644767,37.48855324851213],[127.25701398417195,37.48841226450981],[127.2571968330363,37.48851235858577],[127.25856907871203,37.48983051287772],[127.2591713991119,37.491069027555874],[127.25921278054861,37.49129472740307],[127.25907038441889,37.49172613186514],[127.259074876666,37.492237804935534],[127.25847704063472,37.49274918192463],[127.2582660440512,37.49317055705418],[127.2583316923892,37.4934071808537],[127.25789478105153,37.493850544127525],[127.25789130475874,37.494451544057554],[127.2579811014722,37.49464665913465],[127.2569504245534,37.49538505985367],[127.25599752567143,37.495856508792556],[127.25548923272532,37.49639447960613],[127.25506998701597,37.497002147898215],[127.2551425066131,37.497590884123916],[127.25494670732563,37.49911870964406],[127.25472982716146,37.49947955713832],[127.25463018988945,37.499876568969384],[127.25469468781509,37.50024591984671],[127.25431176414754,37.50121763495843],[127.25385861154248,37.50191326231646],[127.25365456235404,37.50247837087389],[127.25349647464215,37.502644780833464],[127.25322710228998,37.503248617257725],[127.25366988540964,37.504112864179675],[127.25424152601425,37.50484216751289],[127.25425640612237,37.50505213149487],[127.25482275735659,37.50566528020915],[127.2546479438226,37.50630503682747],[127.25637571684885,37.50647387426864],[127.25730653781804,37.50668279209739],[127.26037279818077,37.507115871169376],[127.26066572982216,37.50721208709828],[127.26213740961903,37.507361612431254],[127.26289010936829,37.50699457078006],[127.26477582991063,37.506894327155756],[127.26534596293139,37.50669921440013],[127.26741635341249,37.50651389649788],[127.26792052868387,37.50628322321499],[127.26831894931554,37.50632439903227],[127.26898224533679,37.506590360139334],[127.2706133042668,37.50754196445679],[127.27116018797206,37.50775571996713],[127.2720525931961,37.507702999474795],[127.27263563564887,37.50753744659124],[127.27332360102587,37.50801819508639],[127.27422131788654,37.508171711217166],[127.27463301990925,37.50837765498241],[127.27614862364146,37.508407109078405],[127.27640514440996,37.50853535419899],[127.27788110912576,37.50970903346396],[127.27757208127777,37.510318036790096],[127.27797380779181,37.51064419194185],[127.27797275399159,37.5112749909895],[127.27859987464758,37.51151627503336],[127.27935862366392,37.51233766839424],[127.27998965989437,37.51252629291734],[127.28029347836485,37.513138117730385],[127.28098632715175,37.51326380874899],[127.28192629268518,37.513188041493876],[127.28275643208197,37.51337342041005],[127.28356203810361,37.51440469921115],[127.28564459535772,37.51440405683822],[127.28536384991645,37.5180128784515],[127.28444887983338,37.521617108998],[127.28139804049067,37.52522376876336],[127.27607268381041,37.527765075705425],[127.27405386062746,37.528827684369304],[127.2700843214507,37.530184075209576],[127.26442888746068,37.53243328804657],[127.25877174404908,37.536039005150926],[127.25311476874306,37.53873216204779],[127.25142011542519,37.539642184238915],[127.24745739895755,37.54144916742392],[127.24179969513149,37.5432459465495],[127.23756154404332,37.546849561834],[127.23613893181201,37.55045336247319],[127.23511579887195,37.553792878635235],[127.23509603962903,37.55436244255956],[127.23368400359801,37.55735862602524],[127.2332493453761,37.55788196140417],[127.23227617266294,37.55990914352734],[127.23047949475834,37.56126444936648],[127.22870120600209,37.56325105490861],[127.22202608655103,37.56486684943732],[127.22005696244123,37.56677158049069],[127.21977344406842,37.56847018641714],[127.2198235279787,37.57375104497896],[127.21915675933204,37.5741994599891],[127.21535746747695,37.57567688323734],[127.21349553921458,37.5767471080255],[127.20783198261738,37.58288350620558]]]}}
