{"type":"Feature","bbox":[126.66261786071769,37.68860572463645,127.01710713752398,38.01059074041247],"properties":{"regionCode":"41480","version":"vworld-20260909-3f8952dfda77-p3","name":"경기도 파주시","attribution":"국토교통부/K-Geo플랫폼 · VWorld 법정구역정보, CC BY 2.0 KR; 두꺼비집 가공"},"geometry":{"type":"Polygon","coordinates":[[[126.98960212865722,38.010001498454976],[126.98938158379306,38.01059074041247],[126.98738687898492,38.009952548851],[126.98686557041317,38.00995248516102],[126.98692768815486,38.00988042850845],[126.986847629012,38.00981621449971],[126.98610499418923,38.00988425999855],[126.98621506052349,38.00932880188948],[126.98608432955709,38.00916577316298],[126.98540481389942,38.00936135349006],[126.98509367433935,38.0092486852908],[126.98449440027842,38.00942822640287],[126.98430119596222,38.009406792255355],[126.98380933301938,38.00909449667421],[126.98323288618573,38.00908596599524],[126.98308398383627,38.00899697713486],[126.98305620012995,38.00845332024426],[126.98281728551545,38.00837332665314],[126.98221379250272,38.007012838799284],[126.98125911938665,38.00702028139351],[126.98125544800583,38.00740909176027],[126.9809736004728,38.00753094673443],[126.9808009562802,38.00778598405235],[126.98051197778823,38.00798019901363],[126.9801573946937,38.008614147822236],[126.97953713442158,38.00873172148557],[126.97913451362706,38.00874233864975],[126.97898464750187,38.00836026584294],[126.978722248586,38.00831094399972],[126.97822257889167,38.00801354630814],[126.97736187723154,38.00735062558157],[126.97630032170862,38.00720231822035],[126.97529452453044,38.006879744307476],[126.9748895432888,38.00704857050667],[126.97453378398315,38.00737676861866],[126.97447251921315,38.007546234639705],[126.97393197289111,38.007668576470316],[126.9738858509401,38.00778175290402],[126.97360587878403,38.007603744663996],[126.97356112814796,38.00692325849286],[126.9734226098445,38.00720533188254],[126.97314023025169,38.00728746970962],[126.97263230453214,38.00726960986778],[126.97221801243774,38.00752880143769],[126.97217392558247,38.00609689384101],[126.97213220346616,38.006346041996],[126.97204805343245,38.006346022945856],[126.97197387923768,38.005424531533244],[126.9718126291339,38.005130844581586],[126.97091865065626,38.00556812137369],[126.9706500182625,38.00470035535567],[126.96942758943962,38.00274165014885],[126.96578566708047,38.00043536851557],[126.96016252054456,37.996427520148345],[126.95983803048888,37.99553126746871],[126.95769330696305,37.9919267982103],[126.9552495449641,37.98957192052278],[126.9531582762583,37.98832132858071],[126.94955988670003,37.98652892709749],[126.94627010131194,37.984714598559336],[126.94387091501677,37.983215660816064],[126.93818141804377,37.981106824669226],[126.93818161811058,37.98087342955707],[126.93248964369606,37.98177706035043],[126.92774087942438,37.98319200761318],[126.92679684186055,37.98335639838098],[126.92110315514692,37.98552555283021],[126.9187648079295,37.98618920974493],[126.91784734334615,37.98640561945499],[126.91780476869825,37.98629635285402],[126.91662268503639,37.98662800998188],[126.91213054349254,37.98829729956054],[126.9097167288555,37.98829544127852],[126.90971581634616,37.98902828552756],[126.90995803352679,37.98905634464386],[126.90971491868176,37.989747608759785],[126.90971308011721,37.99122259073581],[126.90860195028898,37.99189825537975],[126.90624365581571,37.99357405839174],[126.90401696114668,37.99439037899779],[126.89832438480165,37.99467916872503],[126.89711404073923,37.99496048555628],[126.89562400516542,37.99490312333476],[126.89294856400922,37.99328493399527],[126.8924262544088,37.99188408407096],[126.89217761508844,37.98467674792876],[126.89265229880955,37.98107349324234],[126.8928534515675,37.980468087079885],[126.89328041894962,37.97747037510423],[126.89428382981919,37.97413899740531],[126.89537578912585,37.97421036914354],[126.8954909821589,37.973868688651066],[126.89564102209525,37.971799514365976],[126.8955147033506,37.96974331642186],[126.8951673884824,37.96927339428124],[126.89405428151298,37.96948382216483],[126.89267169812427,37.967939145899855],[126.89180638962789,37.96738089488151],[126.88698403126911,37.96635487249893],[126.8869842163621,37.96623662699933],[126.88622706445214,37.9661379127371],[126.88537412734435,37.966237301600614],[126.88287439011837,37.966596301707305],[126.88129298096666,37.966995608848976],[126.87559883491437,37.969390341974226],[126.87383124318497,37.97024346722539],[126.87245519337644,37.97109362054832],[126.87006638967405,37.973843022385935],[126.86756520454955,37.97579577157657],[126.8650006168995,37.97744095180518],[126.86420206550723,37.97813598619898],[126.86003696764202,37.981038782193735],[126.85850284296878,37.98241646792045],[126.8579278068803,37.98280401122019],[126.85514628945919,37.984636493767624],[126.85280328921299,37.986002957925194],[126.8509022190429,37.98648703638418],[126.84908830299939,37.98661645928971],[126.84711267855992,37.98607895023859],[126.84505970820933,37.98462350985],[126.84143101181913,37.9815419723961],[126.84143195712906,37.981106719759595],[126.84110170586814,37.98069015057897],[126.84012728487497,37.97898691911838],[126.83910264661215,37.97547415536066],[126.83824221193379,37.96659575220359],[126.83751105067685,37.96299102973776],[126.83578772920346,37.96019458731996],[126.83577975859346,37.9637870482554],[126.83593941026847,37.96403390187158],[126.83577662939076,37.96407224265888],[126.83457383358551,37.963961871788904],[126.83282958201788,37.96364039272011],[126.83262034222957,37.96370034693525],[126.8325701357558,37.96380528660204],[126.83275022083765,37.964051326708734],[126.83309678555139,37.96425055879819],[126.83307917789767,37.964433285527384],[126.83291353703285,37.96455721334999],[126.83266902831718,37.9645684048369],[126.83211099982792,37.9642866215307],[126.83081861693019,37.96454912029602],[126.831218892855,37.963614988726114],[126.83120226686191,37.963343839491955],[126.83065596397533,37.96261471123378],[126.83046208846189,37.962184519057004],[126.83043750362546,37.96182411018798],[126.83016554082798,37.96156329233974],[126.82918645320048,37.96092754693946],[126.82831282827314,37.95983248634381],[126.82787073056089,37.96024879197843],[126.8275852419786,37.96030157987956],[126.82725636315988,37.960205658181245],[126.82707929606316,37.960045201686654],[126.82647274030407,37.95978527833521],[126.8261560931001,37.95948045981515],[126.82591804936382,37.95946969212602],[126.82564093723263,37.95921673853344],[126.82563852238358,37.959112839444906],[126.82546244876588,37.95905936825393],[126.82511583662419,37.95932040116585],[126.82469299937115,37.95904357253563],[126.82394042661628,37.958291859324625],[126.82371394943455,37.95820395713741],[126.8227271100034,37.95816417200973],[126.82262836905888,37.95833800859323],[126.82219583207768,37.95840070337838],[126.8214263242855,37.95782546633098],[126.82073720630015,37.957459255659096],[126.82054432586183,37.95766814030207],[126.82021881624343,37.957802493892665],[126.81982443584816,37.958322457976934],[126.8188578172777,37.9585222564332],[126.81886366602312,37.9588846087422],[126.81897918290694,37.95919363446108],[126.81854031464843,37.95964989357434],[126.81829569792293,37.959710888222006],[126.8184438262592,37.95998702459306],[126.81814330319222,37.96014844374564],[126.81819534581196,37.96088305906777],[126.8177261215827,37.96110418877586],[126.81686801787068,37.96097614816977],[126.81681702685692,37.96160418496635],[126.81690281625126,37.962062387446174],[126.81753810721438,37.9622041525668],[126.81795143128227,37.96294580118803],[126.81849142265604,37.963591372094974],[126.81876147891147,37.96410278852865],[126.81852186380789,37.96407763934008],[126.81757666467453,37.96463811864524],[126.81744601953481,37.964834144303495],[126.81731524607302,37.965721910181095],[126.8174101437019,37.9660993218926],[126.81654397304735,37.96626154493606],[126.81630155184817,37.96685211636985],[126.8157847888973,37.96686734648474],[126.81542435619706,37.966728817451596],[126.8148789379019,37.967315807912094],[126.8150425415566,37.96787238844384],[126.81467718215578,37.96827131614755],[126.81442812700385,37.968315119036745],[126.81407809171401,37.96884301883008],[126.81394404637544,37.96889967023172],[126.81336941273162,37.96900771013662],[126.81251077882817,37.96933404666672],[126.81219846935116,37.96921670229603],[126.8118743926317,37.96883891782399],[126.81163423509334,37.96880756141865],[126.81024158725536,37.969007730667784],[126.80993364585065,37.96926568574722],[126.80919407198816,37.968998706867],[126.80882858226443,37.969500095304966],[126.80900198479664,37.96996716698687],[126.80900308121115,37.97070648495458],[126.80866346038647,37.97090216773531],[126.80817447007128,37.970961330539595],[126.80793233209761,37.97113914522301],[126.80747504733878,37.971042956243494],[126.80702716905941,37.97129278197509],[126.80706476214888,37.97146486637676],[126.80666859386051,37.971995189166414],[126.80637908991734,37.972129847602886],[126.80589058700524,37.97213691977783],[126.80568448235141,37.97287195651104],[126.80707846705178,37.9726763496327],[126.80900087367552,37.97311674416578],[126.80933414397579,37.97324792310015],[126.81073775508766,37.97420546688843],[126.81006628325791,37.974472121028356],[126.80976367277643,37.9745178015906],[126.80937514230476,37.97504983820871],[126.80931792688455,37.97530566162805],[126.8087113556624,37.975094357478675],[126.80836819526337,37.97479986659432],[126.80798596254816,37.97475729172499],[126.8077056700017,37.97483706653412],[126.80744109684673,37.97522768656228],[126.80732528850133,37.975241576509866],[126.80695228257198,37.975678476422225],[126.80655868572197,37.97583069336525],[126.80647476063355,37.97616108458235],[126.80660583019218,37.97663006192264],[126.8072140188154,37.97757929104047],[126.80647795037017,37.978048241140634],[126.80647242087859,37.978455904868326],[126.8063048580582,37.978872305402895],[126.80640291465753,37.979387399283915],[126.80624788082118,37.98024217170278],[126.80546730333285,37.98051283489719],[126.80501259667905,37.980764336135586],[126.80472204354696,37.98134326106556],[126.80465320836775,37.981678460706746],[126.80396570104983,37.981856645021004],[126.80352344503704,37.98209971323227],[126.80271967686978,37.98225545573902],[126.80274820685004,37.982624883199584],[126.80263473008033,37.98315341644928],[126.80221208314079,37.98390243893139],[126.80200334167988,37.98400963828623],[126.80174878184857,37.985012040644065],[126.80139944608794,37.985286517332476],[126.80097495405161,37.98611238123419],[126.80094744667583,37.98667738428747],[126.80070809245916,37.98685715928192],[126.80020973695214,37.98749878204292],[126.80017828910704,37.98768454427721],[126.80062189658635,37.98937508961752],[126.80080397363783,37.98966031722263],[126.80150330966067,37.990069177650874],[126.80123055130508,37.990820136525976],[126.80089872820017,37.990982302972604],[126.80075400756311,37.991748873715814],[126.80090820081196,37.99199747961914],[126.80065295857099,37.99233721361321],[126.800456804572,37.992451736476],[126.799816055143,37.99226876994652],[126.799147749102,37.99240894999554],[126.79841578202631,37.99279987764292],[126.7979357239766,37.99272640526971],[126.79721873163739,37.992846228512064],[126.79699679365228,37.99327378076322],[126.79639386603861,37.99369503776738],[126.79458530433764,37.992834588785165],[126.7942125109934,37.9927576329352],[126.79393083693328,37.99260285356505],[126.79366523020717,37.9923025475051],[126.79307158536524,37.99226320912665],[126.79299441087961,37.991878486862525],[126.79316949006024,37.99142101220169],[126.79271301311998,37.990624300884505],[126.79261520340404,37.99030373129079],[126.79247909864293,37.990127811145804],[126.79186080424722,37.98969539329127],[126.79143228051001,37.98902456940396],[126.79043599400553,37.988854988796355],[126.79011853669684,37.988138520804114],[126.78793994427889,37.98805982316405],[126.78698643998159,37.98816982070218],[126.78686647514428,37.988043219538],[126.78653554005793,37.98800267353634],[126.78549609169443,37.98544144631953],[126.78496913905047,37.98437257857287],[126.78448916290591,37.983723330041975],[126.783910696372,37.98379854783864],[126.78333155520326,37.9841025973338],[126.78265648474195,37.98425391003473],[126.78212653711486,37.984214790433946],[126.78130701486089,37.98432768785566],[126.78010107959258,37.98474497391673],[126.77928063387053,37.98516297058614],[126.7785557527251,37.98584811780338],[126.77739831210901,37.98615104934506],[126.77643431111302,37.986225499288786],[126.77580844048153,37.98603361067643],[126.77388429855029,37.98492388421418],[126.77273002898725,37.98419701027072],[126.76898015736073,37.98140552361155],[126.76772962163687,37.98067841089213],[126.7663343161168,37.980027276644314],[126.76546772483691,37.97979671507324],[126.76117981805076,37.97963552964681],[126.75934993903726,37.9792885440984],[126.7581470930752,37.97875212472172],[126.75718618587698,37.97791107734762],[126.7566602025152,37.97668952636919],[126.75594567804666,37.974208978362526],[126.75561056242825,37.9735599111297],[126.75498548860237,37.97317721506072],[126.75416668410236,37.97309922887403],[126.75320155392407,37.97355488193882],[126.75214056452175,37.973857766505894],[126.75084008067148,37.97374060133153],[126.74925103908731,37.97347024815309],[126.74819303119344,37.97289589491174],[126.74535648929273,37.971135371322],[126.74473228054453,37.97052378637842],[126.74439714875643,37.96991282590513],[126.74377335682652,37.96918681810523],[126.74098443551732,37.96765512969972],[126.73997394311206,37.967309644133586],[126.73732385463344,37.96741817532611],[126.73597519682943,37.967338877105725],[126.73424168368965,37.967106136915035],[126.733183331741,37.96668420602013],[126.73255912478949,37.96611069486276],[126.73121703007686,37.96423879856486],[126.73044945380258,37.96335983311738],[126.72973468050068,37.96122237660872],[126.72911180575066,37.960305594788956],[126.72786343047508,37.95919666567843],[126.72584593202622,37.95766639794376],[126.72488452985634,37.957130198796214],[126.72348947855943,37.95663111423275],[126.72252710261576,37.95636187100129],[126.72151570111551,37.95632134188539],[126.7205054584419,37.95597569037358],[126.71954411735749,37.95543944842594],[126.7181492789613,37.95490216062886],[126.71175085677197,37.95286525861537],[126.70992202968561,37.95247936844081],[126.70621520532755,37.951974355301125],[126.7044336790325,37.95181733478478],[126.7023625511612,37.95181211426756],[126.70072444988439,37.95192237689496],[126.69951890628155,37.952262560658276],[126.69729888714348,37.95332477866216],[126.69623560703724,37.954199249484226],[126.6940619095268,37.95568106104964],[126.6931910728089,37.95659414306082],[126.69135475197645,37.95800050420792],[126.69058291589104,37.95826545347675],[126.68928216703776,37.95830016508836],[126.68783739129499,37.958220061616835],[126.68653745362036,37.95806404605262],[126.68504598075413,37.957640528335375],[126.68389187558273,37.95717975823065],[126.68336479807297,37.956529968139485],[126.68269306036137,37.955917925094184],[126.68028894138732,37.95491978780859],[126.67927974075948,37.954383086951125],[126.67846072964693,37.95441899179493],[126.67778588735774,37.95453156388512],[126.67537029869408,37.95616492492879],[126.67363420828784,37.95661779676505],[126.67199579170239,37.95676579816287],[126.67117709140689,37.95672537268156],[126.67108296503315,37.95622929566107],[126.67128209817541,37.95478054954815],[126.6711433758377,37.95348341590915],[126.67124378862185,37.95256834658662],[126.67144307896928,37.951081459207785],[126.67222439587415,37.94868084497537],[126.67213145797152,37.94791779339916],[126.67179771048728,37.94715407084333],[126.671078841766,37.94635113114734],[126.67040678784743,37.94585343549581],[126.66973645060934,37.94497434423881],[126.6696443966489,37.944020595355575],[126.6696987034011,37.94264772139159],[126.67004059501177,37.94158076962411],[126.67062292789464,37.94059077110265],[126.67245802162842,37.939451703783234],[126.67294162606835,37.93899537293527],[126.67337824861893,37.938271930956155],[126.67347877908243,37.93731871855408],[126.67348620365824,37.9356405933323],[126.67388526135859,37.93251424364121],[126.67389890766603,37.92942496408802],[126.6734716204079,37.9280507489522],[126.6735249983021,37.92686856533958],[126.67410649395516,37.92603110233048],[126.67473494903976,37.925460745213165],[126.67569942614286,37.9251201482635],[126.6778664285095,37.92504982067119],[126.678830388183,37.92482361731942],[126.67989195969353,37.9242925533174],[126.68182329174034,37.92303917831308],[126.68413874789421,37.9220156412743],[126.68524773607876,37.921637214044424],[126.68650228547531,37.92099218636556],[126.68823987337318,37.91996702778293],[126.6895919393854,37.919017106466264],[126.69075155482275,37.91802852401202],[126.69070836202725,37.916846075808614],[126.68936886164919,37.914821137142944],[126.68812410478759,37.913177831621745],[126.68650027594401,37.9101223287691],[126.68497073966256,37.90756287328842],[126.6835380687182,37.90488923770794],[126.68286827046931,37.90393393675002],[126.6824363712605,37.90362765362195],[126.68157389965457,37.90270996543382],[126.68076221699812,37.90118217058129],[126.68087269181176,37.87559052724627],[126.68383156718615,37.87003005481542],[126.68460689322639,37.86873536957986],[126.68465711803397,37.8682396824587],[126.68451506114982,37.867705340108266],[126.68389418155809,37.866635750940745],[126.68370744696331,37.86530034380075],[126.68385959462304,37.86347002442896],[126.68410713617935,37.861830661746936],[126.68947925022458,37.84103050744669],[126.69009016660158,37.83790625003515],[126.68601734344388,37.83618973336367],[126.68113530350531,37.83531474354686],[126.6733047547506,37.83096447805398],[126.67075632878945,37.82586777923168],[126.66423278810703,37.78964197081175],[126.66283746024385,37.78243036364199],[126.66261786071769,37.780724709331196],[126.66303393084769,37.78068308554864],[126.66510594142545,37.76932800897693],[126.67543299980056,37.752952612937264],[126.67693570009871,37.74656962063425],[126.67717075833568,37.74437326246731],[126.67840627854463,37.739834701908926],[126.67892748139124,37.73729261647532],[126.68029003631555,37.731687030751026],[126.68018255342248,37.726821823977474],[126.6781954366315,37.717466679342714],[126.67653958785043,37.71437210686805],[126.67484453389666,37.71147928078431],[126.67516391536645,37.710455312251185],[126.67395133756432,37.70029924973713],[126.67593909260127,37.699514694324314],[126.68288107712618,37.69599427036408],[126.68343247695536,37.6952002583538],[126.68696183145119,37.6924013655617],[126.68784965338222,37.69149543936614],[126.68991548602224,37.68860572463645],[126.6903135572002,37.68864281399912],[126.69069690616053,37.68881190940143],[126.69081159268158,37.68875280227143],[126.6910038168216,37.68929979789228],[126.69185847082461,37.68991639623618],[126.69219585124016,37.69045250974738],[126.69274921517137,37.69085038465534],[126.6933555959939,37.6910656708057],[126.69374902920413,37.691501693732214],[126.69388099228239,37.691547932959764],[126.6945480966915,37.69147449447732],[126.69465753731309,37.691398197589265],[126.69479456455184,37.691033946774354],[126.6957407687706,37.691198582111305],[126.69627205525875,37.69137057461858],[126.69641368425525,37.69165361893544],[126.69607498819265,37.69194949316204],[126.69516924039377,37.691810593345096],[126.6949387365364,37.6919026321989],[126.69465296819757,37.69216316436956],[126.69493226803691,37.69334443976833],[126.69527839284605,37.693398271054185],[126.69539420151719,37.693497109916834],[126.69578061772314,37.69344462250663],[126.69555370325939,37.69391225117585],[126.69582814219633,37.69403825574375],[126.69607651582268,37.69382492098292],[126.69630023239202,37.69383196926546],[126.69682179988438,37.69409009838324],[126.69719489354397,37.6941769363259],[126.69801438702825,37.69466669530253],[126.69828385602437,37.694883053184505],[126.6981882064225,37.695011196128306],[126.69824036634513,37.695079748746934],[126.69856553577246,37.695234306631725],[126.69847793185383,37.695341358752685],[126.6998902017904,37.69623383617083],[126.70072138377813,37.696955605263895],[126.70109242751148,37.696852378529904],[126.70183127911086,37.696486273268455],[126.70333050441215,37.696604377867644],[126.70355366622498,37.69675585331765],[126.70390296924543,37.69685950908491],[126.7044002226598,37.696875115926424],[126.70478039635569,37.69679273158335],[126.70501549079314,37.6969723949457],[126.70603853160189,37.69739869660425],[126.70645884025191,37.69764920357871],[126.70689700511912,37.69764382252649],[126.70750572118189,37.698144818040355],[126.70873070639114,37.69881288631993],[126.70936242187618,37.69901266403496],[126.71000802999971,37.69908841505869],[126.71045375809443,37.699522154901295],[126.71124536851733,37.69974709607103],[126.71166987166583,37.699794881736636],[126.71293764597586,37.699678045812],[126.71326424033136,37.69956819742106],[126.71402870938441,37.69962412173491],[126.71491615734095,37.70004213118608],[126.71574624573299,37.699943355134366],[126.71632811125794,37.70012016447741],[126.71673239686713,37.700452533644224],[126.71739475779125,37.700754261051394],[126.7178936154543,37.701192716717],[126.71815640504254,37.701743217638644],[126.71837855772515,37.70198109266036],[126.71890103170826,37.70198939146827],[126.72090000388651,37.70164842018352],[126.72191476008676,37.702199571772915],[126.72232689325512,37.70233879213927],[126.72278627999678,37.702350572936574],[126.72329785294411,37.70285660168668],[126.72340828503741,37.70284250968029],[126.7235130497449,37.702924969619964],[126.72381774243264,37.703747818224315],[126.72409311087699,37.70374170810752],[126.72442671778822,37.70384413096992],[126.72499817836619,37.70454794129108],[126.72548857140139,37.70465721050409],[126.72634163183896,37.704538420691236],[126.72656494494288,37.703606402445985],[126.7264106531942,37.7033124233292],[126.7264925082394,37.70326474452605],[126.72677987397981,37.703271893062706],[126.72715087424915,37.70356359788432],[126.72748134161004,37.70370401530208],[126.72758212478236,37.7036651204913],[126.72788655493173,37.70408956061326],[126.72793452859702,37.704343905767466],[126.72900960989114,37.70450856886075],[126.72967504555567,37.7045275646529],[126.72939065021936,37.70487124862275],[126.7295122777838,37.705042992221784],[126.73040408068086,37.70498761013404],[126.73122526656428,37.705154489237295],[126.7315580606898,37.70509471583],[126.7315836321481,37.70500327737385],[126.73292859032134,37.70490048028159],[126.73424115029394,37.705156012159826],[126.73434723931818,37.70502223397482],[126.73453053328493,37.70499815123751],[126.73487534940256,37.704796214507944],[126.73499688106816,37.704651488517136],[126.73543803368985,37.704613914312546],[126.7359010214147,37.70471124907742],[126.73611085708544,37.70465006380203],[126.73613915483872,37.70451526169921],[126.73697239590338,37.704380862996956],[126.73853008842934,37.704413349898445],[126.73879710808889,37.704512483713785],[126.73928685920492,37.705116093441795],[126.73978043404063,37.706343349173586],[126.74007497944446,37.70662837080348],[126.74093857958228,37.706485283536146],[126.74121101817303,37.706302873288436],[126.74122504712902,37.7059394280822],[126.74108265424965,37.705617298267114],[126.74118180323495,37.70543816551752],[126.74259711293429,37.704638581365266],[126.74298087876093,37.704592681391325],[126.74343198546832,37.704860752855176],[126.74396707073176,37.704854994420835],[126.74444050968638,37.70516404833641],[126.74493511397337,37.705245925076504],[126.7452067878782,37.70538673120753],[126.74525203537192,37.705264642066304],[126.74561560708295,37.70501006150849],[126.74609459607056,37.704788111806074],[126.74618062537942,37.70429417223344],[126.74641512676435,37.70406465506217],[126.74741562392245,37.70356255370657],[126.74801723634658,37.70343686679371],[126.74852396316152,37.7032310210546],[126.74896784483595,37.70316861653555],[126.74927092072222,37.70303440017085],[126.75022745914153,37.70300153448379],[126.7513902811516,37.703902434544716],[126.7517008236435,37.70434400820578],[126.75221866587248,37.70436480885179],[126.75260713817323,37.70449908940894],[126.75361140999414,37.70503220620687],[126.7539403003817,37.704858150805705],[126.75442710250678,37.704817525275175],[126.75567815381171,37.705288803326845],[126.75587138574046,37.70499188754001],[126.75595935294476,37.70410687266746],[126.75628624746105,37.70382904305247],[126.75670053886462,37.70375366283035],[126.75711691521542,37.703883477111255],[126.75765210902485,37.704226622495966],[126.75779645317196,37.704213275991364],[126.75922904160153,37.703417638689636],[126.75935915508678,37.70325288786263],[126.75970303288187,37.7031261150289],[126.75972975641872,37.703037452670664],[126.75995624460268,37.70329553870408],[126.76051615003713,37.7036215912859],[126.76128127317462,37.70371606393149],[126.76127784366324,37.70384443947267],[126.76303711770231,37.70411605715117],[126.7638248392391,37.704443442970046],[126.76408780560253,37.70467338801615],[126.76511191714835,37.703845999188744],[126.76521333501468,37.704604986374996],[126.76504103480681,37.70473950562992],[126.76500044070697,37.704912014213335],[126.76534448525157,37.705207768539225],[126.76608732153383,37.70557612005039],[126.76631470826847,37.705954132235746],[126.76602444036277,37.70663546567935],[126.76598453602469,37.70687020481408],[126.76607784788828,37.707283988675194],[126.76723289971363,37.70713622407333],[126.76787155104488,37.70694744055],[126.76883460758805,37.70648703330809],[126.77037294109732,37.70558234502561],[126.77146257898785,37.70525984096156],[126.77152578544569,37.705047958790004],[126.77244253116002,37.704648533250285],[126.77268304848609,37.70468193998927],[126.77341801942605,37.70387136725665],[126.7739058104245,37.70450749147049],[126.7741478062289,37.70498349779981],[126.77404784336453,37.705630035058256],[126.77349030162605,37.70630326803219],[126.77368588154505,37.70683775680624],[126.77349931111122,37.70776003764312],[126.77381354943732,37.70923935445835],[126.77410138887515,37.70968025544779],[126.7742209596775,37.71004170910317],[126.77477828341772,37.71043695512204],[126.77442543895145,37.71143635176921],[126.77585751911283,37.712743245931385],[126.77655124636172,37.713162677936644],[126.77735710747233,37.71348067596118],[126.77799729413125,37.71432682547445],[126.77856905507224,37.71559882453149],[126.77819828715836,37.71596639189124],[126.7790500063272,37.71672594311791],[126.7793227661044,37.71730983165398],[126.7801035177826,37.71774601994494],[126.78078246405131,37.71743617086746],[126.78182311847323,37.717302692020866],[126.78183728565632,37.7176056671609],[126.78218187961924,37.71805735271385],[126.78215396236081,37.71857056649999],[126.78236869657883,37.71871089989698],[126.78317722002298,37.71869241161412],[126.78346754136064,37.71861889865763],[126.78405462293128,37.71893869908767],[126.78437458890556,37.71896913776347],[126.78453918794189,37.71922677370327],[126.78456357552994,37.71961451248816],[126.78427843611473,37.719974659771175],[126.78437079150038,37.72027158004966],[126.78583830384028,37.72115018062836],[126.78692135335392,37.72150803682245],[126.78722587898287,37.721860246609815],[126.78718974927021,37.72240526241106],[126.78751308862793,37.722872379344395],[126.78810217937077,37.723184844951454],[126.7888776385212,37.72321890631137],[126.78949576842055,37.72354633522118],[126.79058497337145,37.72354368159107],[126.79151751832879,37.72408574515951],[126.79181359266572,37.72442582457835],[126.79242957304167,37.7247709703031],[126.79268613708088,37.72567718121553],[126.79383423060378,37.7261347540462],[126.79399037378289,37.72664463463087],[126.79429433869707,37.72715337023935],[126.79502465445952,37.72807672928691],[126.79529780449994,37.72877488925381],[126.7953703434043,37.72925653368311],[126.79563195294546,37.729591690690086],[126.79570683165542,37.73026416515762],[126.79513602684116,37.73230663153566],[126.79523693834807,37.732307781101426],[126.79524400367036,37.73242263089228],[126.79508172113611,37.732434314985326],[126.79502622800746,37.73255507462327],[126.79574010824926,37.73297104397167],[126.7956342078837,37.73325550936238],[126.79535263808738,37.73335552895173],[126.79430374874411,37.734080936924975],[126.7939334849609,37.73458229068446],[126.794579279552,37.73526505887649],[126.79554660769524,37.73550860674566],[126.79599884388062,37.73574702365296],[126.79606076582698,37.73585665246803],[126.7965439061115,37.73601121518969],[126.79759107823841,37.73616620367373],[126.79770056873596,37.73631842633487],[126.79793895092033,37.73639457788693],[126.79845300924268,37.73704415596537],[126.79876352962421,37.73660518397495],[126.79949825679793,37.735894127893836],[126.80112105601592,37.73452011534823],[126.80141773383623,37.7334842291817],[126.80134836733797,37.732980700105536],[126.80101024621345,37.73287085787972],[126.801203667029,37.732592446800275],[126.80108399487925,37.732289329307335],[126.80112575386124,37.73159425088335],[126.8005689815658,37.730753440192714],[126.80085478057379,37.73013254190669],[126.80122568621145,37.72989498701087],[126.80138685336611,37.72948362784055],[126.80171608796675,37.729316102589955],[126.80240129626378,37.72925362808481],[126.80339979327388,37.72869305468543],[126.8036161163013,37.7284121599924],[126.803523930127,37.72831463389592],[126.80365697332661,37.72836005658802],[126.8038200267754,37.72816360015632],[126.80401612557894,37.727269443223506],[126.80435274584133,37.72732181186083],[126.80501576732007,37.72726463596741],[126.80562179442352,37.72751960656583],[126.80577230618086,37.72743679783108],[126.80620633145709,37.72738233316569],[126.80647705386627,37.7270809608146],[126.80700290616464,37.72688531059626],[126.80821640669782,37.727038775646804],[126.80917972665604,37.72668644492135],[126.81016019572772,37.72614295739706],[126.81010625303466,37.72554485683],[126.81094109176944,37.72469254691719],[126.81186213195826,37.72429281611541],[126.81255031208768,37.72415483791671],[126.8134709643865,37.723693440368784],[126.81372565574867,37.723477895434016],[126.8142872289582,37.72343458685504],[126.81474355571983,37.72373375523868],[126.81567736614953,37.72480540400803],[126.81590884111135,37.724944857925585],[126.81624595038392,37.72500986254082],[126.81640553310746,37.725411040796665],[126.81786732922453,37.72563772060289],[126.81873493664334,37.72564118568604],[126.81913281692061,37.72555578814729],[126.8194577619437,37.7255999235799],[126.81944383981059,37.72549685884185],[126.82146796417739,37.72545435230773],[126.82221052646086,37.72775463274827],[126.82254610550395,37.72831711705928],[126.82277039217703,37.72902358797051],[126.8229786787456,37.729162426104914],[126.82321429677215,37.72869428194818],[126.823803498584,37.72807857103755],[126.823726178983,37.72750550530299],[126.82404125907722,37.726932175511955],[126.82513140997872,37.72613167509258],[126.82520018166613,37.72642599699045],[126.82563254722645,37.72624279102297],[126.82618690376945,37.72626051000391],[126.8265229751475,37.72662336794451],[126.82807949837637,37.72661102775578],[126.82847234534376,37.72672957752103],[126.8287903059573,37.72711097949],[126.82874740481722,37.7272677372796],[126.82905100773405,37.72772795257413],[126.82891601966004,37.727850790682524],[126.82900359710868,37.72792131065565],[126.83001235423012,37.72850305592645],[126.83099099525084,37.728773927204244],[126.83131586221984,37.728784812458755],[126.83160145439776,37.72899019265357],[126.83206321943979,37.728660592090435],[126.83287488912929,37.72776811730717],[126.8332567979192,37.72718105053648],[126.83341133767708,37.727130887461264],[126.83333399364783,37.727052023838986],[126.83352241648825,37.72648179252971],[126.83360522591806,37.72536443700756],[126.83393854667206,37.725231171926865],[126.83435152325546,37.726644018213634],[126.83496391681787,37.727816415344456],[126.83536858510257,37.727566130695216],[126.8357024027828,37.727690762588],[126.83605056913085,37.72750063550243],[126.83690273552202,37.72742553483779],[126.83717463403434,37.727575700068584],[126.83723422883453,37.727638283662564],[126.83717279463839,37.72768887705363],[126.83747916659628,37.727962411125084],[126.83841200987692,37.72819767694817],[126.83897462845304,37.72857938969217],[126.83908578841746,37.728561802771864],[126.83940595526234,37.72869879484081],[126.83966454316082,37.7293509418204],[126.8399532708991,37.72927278331634],[126.84031709920619,37.72945882455812],[126.84020300265094,37.7298466506415],[126.84028524646119,37.73025415889912],[126.84073342760628,37.73045439343493],[126.84087653687588,37.73066631171832],[126.84089449844805,37.73104699922109],[126.84149660692005,37.731544474805304],[126.84168961257384,37.731634263963926],[126.84197218759434,37.73153554143784],[126.84274711134957,37.73178801054317],[126.84294089188874,37.73193637220379],[126.84347676477458,37.73207899255266],[126.84495913571375,37.73215558066827],[126.84571277821932,37.732340996535115],[126.84636032293231,37.73257355933719],[126.84671624969636,37.73293473576606],[126.84759244809203,37.73349218806802],[126.84905890752265,37.73416587395136],[126.84965380830805,37.73406190461578],[126.85418532279877,37.73506012302404],[126.85603291648775,37.73558638424156],[126.85771107395529,37.734833321424475],[126.85846606912527,37.734248055738725],[126.85891024399947,37.73417369634475],[126.85881006267232,37.73335680019571],[126.86008037736678,37.73321079839941],[126.8602944785494,37.73294104631066],[126.86112735966526,37.73267625702891],[126.86148117715376,37.732757205170856],[126.86195317816333,37.73258010505765],[126.8622904454926,37.73269847580143],[126.86282706928432,37.73255720661031],[126.8635483267519,37.7327427490523],[126.86415177333352,37.73260098555484],[126.86494491012161,37.732635972621445],[126.86527942382767,37.73193698765119],[126.86561734876321,37.731796602311135],[126.86575409666492,37.73164894709966],[126.86625694417944,37.7316548764911],[126.86644227672934,37.73081381705337],[126.86708416168308,37.729993268145364],[126.86791840150741,37.729435619570744],[126.86797830539487,37.728448565243184],[126.86887849277157,37.7287621074739],[126.86947777880063,37.72914231040173],[126.87154172888604,37.72938166632886],[126.87174782451284,37.72971046601313],[126.87223952215659,37.73010545615174],[126.87247533619451,37.729444632517506],[126.87300086384816,37.729244462938006],[126.87302166377086,37.728799356770025],[126.8732556636113,37.728060543307166],[126.873068151898,37.727431628544366],[126.87300296648887,37.72679863038894],[126.8734059818299,37.72639730350312],[126.87365770887358,37.725962013776844],[126.87436666959911,37.72595039294419],[126.87494888427257,37.72584966031858],[126.87529460534516,37.72536575430524],[126.87646393452516,37.72540079624861],[126.87732283619374,37.72571506884771],[126.87763362146565,37.72618840067181],[126.87883136010747,37.72588445163417],[126.87978256229667,37.726118283087715],[126.880754820866,37.725606576349364],[126.8821425269588,37.72586110204493],[126.88269014519298,37.72555560631597],[126.88318271973701,37.72541955098832],[126.88363674449721,37.72500696928259],[126.88459174775367,37.725300175164946],[126.88502004690916,37.7247867710462],[126.88538437405882,37.724829079002],[126.88576246339416,37.72502175249661],[126.88604174471926,37.72504651364256],[126.88648164676938,37.724820577228975],[126.88734272082687,37.72349587082953],[126.88833294088265,37.723472895209994],[126.88853399039859,37.72296489188567],[126.89010401779097,37.724299531846235],[126.89075522471158,37.72521293056477],[126.89124924915907,37.725402317144514],[126.89163524034792,37.725658324918676],[126.892300646901,37.72553874822643],[126.89313184732886,37.7260074297171],[126.89335339705673,37.72600283944379],[126.89411160138035,37.727114258152284],[126.89521970210144,37.7269902537963],[126.89686031776698,37.727173040104695],[126.89733660495236,37.7268876856596],[126.8992752586175,37.72688121994825],[126.90014450013767,37.72722602141811],[126.90087591103278,37.727918417390434],[126.90192296126561,37.72811752684783],[126.90264077248,37.72866574624652],[126.90271721711433,37.7290242223079],[126.90198379365368,37.73033957446339],[126.90216623401662,37.73175902879832],[126.90275440667216,37.73225702083082],[126.90314397203052,37.73294461443212],[126.90302620987781,37.733396681920375],[126.90237399241015,37.734538389452865],[126.90127459609876,37.73562396071581],[126.90120491233822,37.73655752366489],[126.90091810233635,37.73721413477339],[126.90159739679302,37.73772939588908],[126.90197524237907,37.73844738520429],[126.90179851571482,37.73897598824948],[126.90304481436657,37.74049655798689],[126.9035334224374,37.74073347681306],[126.90351756875138,37.741596133967406],[126.90588386621845,37.742656985752234],[126.9068044811874,37.74361527921249],[126.90788447389079,37.74403311625126],[126.90811838769054,37.74494862317863],[126.908727780515,37.745604833710566],[126.90936297512467,37.746900741142966],[126.91094374164429,37.746539898079654],[126.91173168489446,37.747347986456326],[126.91230330256172,37.74746329355905],[126.91302837238703,37.74704376729321],[126.9144938081832,37.74721097321954],[126.91522584363504,37.747806148925406],[126.91541654726979,37.74786175079396],[126.9156780863957,37.747673019457984],[126.91705662156838,37.74803271572776],[126.91793723087352,37.74786469191724],[126.91830276768243,37.74757213903221],[126.9196837609717,37.747010284031234],[126.92288944252537,37.74702204011942],[126.92365318229113,37.747373357612275],[126.92446830650907,37.74758111411425],[126.92566985952864,37.74820552941106],[126.92707003186034,37.74827342621405],[126.92909642073401,37.74848500900917],[126.92949425611633,37.74903653250673],[126.93079883381563,37.75026487110815],[126.93099727393107,37.75059300198537],[126.93123479333686,37.7514020349131],[126.93149027321871,37.75178594145377],[126.93179240858129,37.75345711301893],[126.93171078936058,37.75409731404022],[126.93113124072863,37.755164325751636],[126.9289860960709,37.75598430307726],[126.92845418618475,37.75687197805254],[126.92796926202412,37.75702878514122],[126.92962564290043,37.76038250086156],[126.9298758435899,37.761485758921815],[126.93058287235404,37.762728950826784],[126.93111964243674,37.76328420980569],[126.93112270724244,37.76491269171156],[126.93336495688774,37.76770641189776],[126.93281272018146,37.76905922035369],[126.9332753917066,37.76925487922263],[126.9323973484019,37.77044279266546],[126.93465603197369,37.77078251479683],[126.93417093568355,37.771243979299136],[126.93425097399478,37.77254787987345],[126.93463115997572,37.77280233743063],[126.93500700535371,37.77334283551852],[126.93525953228165,37.7735561161536],[126.93531364859274,37.77512352373129],[126.93509185962719,37.775234892314955],[126.93514919850409,37.7757709926155],[126.93552201608735,37.77615270258451],[126.93560532919624,37.776396854643636],[126.93529957626323,37.776380916473705],[126.93504251396958,37.77646749019941],[126.93510777315899,37.77668178204973],[126.93437009062158,37.77711973353162],[126.93441841261051,37.77741960883528],[126.93433755608842,37.77760004033663],[126.9349669578908,37.7776648721983],[126.93503189411352,37.777831583987],[126.9342620098857,37.777792576669384],[126.9343207968955,37.777893400374474],[126.93408412197695,37.778173130182445],[126.93397624658645,37.7786055261634],[126.93415287383638,37.77864053966001],[126.93443617695073,37.77857593991065],[126.93433719790164,37.77878704980169],[126.93441597499023,37.77895095135037],[126.9343110281471,37.77928228211207],[126.93444657542439,37.77962893775179],[126.93427112629745,37.78026148221261],[126.93393882405975,37.78056085800197],[126.93447672918721,37.781007416689],[126.93455231734046,37.78195486961633],[126.93680125149652,37.78412095788712],[126.93766898567578,37.78554803088271],[126.9379498029704,37.78697056481136],[126.93749793597125,37.787265104005634],[126.9352730629874,37.78801504370163],[126.93500201803342,37.78801601735807],[126.93414431078781,37.78845981694845],[126.93335607344952,37.7885801464505],[126.93284118467685,37.78851846549522],[126.93221102350418,37.78879373368173],[126.93194262803271,37.78900502142523],[126.93152151033232,37.788811632908086],[126.93135932294952,37.78849986180333],[126.93090082742577,37.78825717640566],[126.92974561654836,37.78724515773577],[126.92816952505743,37.786031555214784],[126.92779371665135,37.78597444425902],[126.92746092499253,37.78564426167429],[126.92669464663348,37.78546696554146],[126.92642514791702,37.78518356050633],[126.92555030688763,37.78571231069643],[126.92523196168223,37.78600491378924],[126.92406199060092,37.78649545002321],[126.92363015708027,37.78657202643772],[126.92209595505744,37.787605414003345],[126.92201431708348,37.787781861594596],[126.9216973460147,37.78779406744945],[126.92084197155866,37.78814118971855],[126.9205503904004,37.78859794467624],[126.92020097949153,37.78952934467217],[126.91866440188709,37.79020315033103],[126.91767738006236,37.78975901157694],[126.91551874315546,37.79051369030717],[126.91496843335584,37.7908505862614],[126.91406122588202,37.790877224564845],[126.91328255893644,37.791112577045006],[126.91298004368369,37.791017748513255],[126.91199018309288,37.79146719892453],[126.91127481427958,37.791277740261066],[126.9106155754153,37.79145995729457],[126.91025324569388,37.791243446716784],[126.90862970915464,37.79127821743728],[126.90815878651745,37.79109427575446],[126.90752024373818,37.79104899865185],[126.90630322626004,37.790572768810634],[126.90503616736416,37.790953797128196],[126.90358223308279,37.79070850109519],[126.9037208611035,37.791185274625605],[126.90467540899702,37.79240009926607],[126.90466801355223,37.793448576945984],[126.90499123793853,37.7943970948267],[126.90513538762131,37.79459345014252],[126.90509250416062,37.795651754625176],[126.90537503021962,37.796940908254015],[126.90530411577487,37.79826947617709],[126.90629997936153,37.79891446608395],[126.90640567209019,37.799360802177496],[126.90627073044907,37.799862414263515],[126.90616469465367,37.80147503447596],[126.90552942265228,37.80224651576786],[126.90602193458919,37.802390231430245],[126.90667437846244,37.803299872913115],[126.90729888767716,37.80330881561796],[126.90869271664815,37.80401886376221],[126.90899910795154,37.80402979830302],[126.90913377210808,37.804316803150776],[126.91022406024219,37.80414815734654],[126.91108730894132,37.804230754569524],[126.91231639049099,37.80476410000682],[126.912449655551,37.80489511913183],[126.91242276087615,37.80497505629698],[126.91189651260436,37.804976910713144],[126.91135830151882,37.804901613226896],[126.91073809211309,37.80470545955802],[126.91022047022959,37.80476727851235],[126.91072432436896,37.80536820716711],[126.91114047740349,37.80543807188404],[126.91146397074972,37.805836711012404],[126.91173980893184,37.80603878839867],[126.91127682625529,37.806972325021114],[126.9115921402528,37.807399959369164],[126.91171364585125,37.80815967091331],[126.91126682616837,37.808341483865846],[126.91051178560116,37.80940346607568],[126.90963467252116,37.80986902777158],[126.90868999295878,37.81072221674947],[126.9085369106647,37.81168188811615],[126.90876714096736,37.8126052646329],[126.90925162474271,37.81340946352977],[126.90962754819893,37.81361894797595],[126.90952587120105,37.814618913842835],[126.90982184014561,37.81620425917182],[126.90998488546333,37.816660490682715],[126.90914489088367,37.81732371805521],[126.9079864709462,37.81759928927225],[126.90770726292214,37.818079100076865],[126.90714420229689,37.81834922430596],[126.9063506115826,37.81918224291992],[126.90490901963734,37.81966250994218],[126.9044138767907,37.82089415039965],[126.90489785662645,37.82195964111709],[126.90425855365949,37.82214606198074],[126.90339307208775,37.823066843873384],[126.90296489685826,37.823692366431175],[126.90195444200768,37.82483740593537],[126.90210151438076,37.825409631985124],[126.9026048676724,37.82657763044395],[126.90281215985839,37.82671013510725],[126.9037561364696,37.82686774277925],[126.9040488387315,37.827096879235114],[126.90489083221115,37.82720821876283],[126.90572738616093,37.828779092474164],[126.90659429594429,37.8281556085823],[126.90722441708466,37.828107679477334],[126.9089387356728,37.828789823575875],[126.90971130250576,37.828803374503714],[126.91025069813317,37.82849212889318],[126.91101469165162,37.82854846012137],[126.91171131468577,37.83000233957986],[126.91201381728499,37.8309710874362],[126.91223396850818,37.83282889049339],[126.91216842083364,37.83316979516425],[126.91271402124048,37.83465620353842],[126.91294437403735,37.83588223242987],[126.91261672693369,37.836160431806434],[126.912391883828,37.83656146269958],[126.91231694330625,37.83718334759792],[126.91243706305735,37.83737432199974],[126.91126951064774,37.838054216065],[126.91135656740265,37.83856528081317],[126.91186642040405,37.83881794327726],[126.9118955338462,37.83983434184221],[126.91213918178761,37.84004231175646],[126.91237173604542,37.84047437437799],[126.91401386942397,37.84108261889383],[126.91492423566943,37.84131951186694],[126.91527967265384,37.841111426890016],[126.91632679496328,37.8411279560938],[126.91727286573565,37.841344575355485],[126.91804067478132,37.84175646757308],[126.91969271018696,37.8416658388518],[126.92028142478279,37.841751557274875],[126.92190100924755,37.84147196353094],[126.9229250095155,37.84170210421851],[126.92402396895608,37.841383285546264],[126.92506289799395,37.84160807466195],[126.92526483758476,37.8414969932529],[126.9255573930733,37.8406173545163],[126.92597323578467,37.839808454418396],[126.92728115943522,37.83764842932231],[126.92775347794756,37.83766420517901],[126.92840966371071,37.83824234601733],[126.92920058925226,37.83828619728658],[126.93021571507126,37.838502196515485],[126.93139978693969,37.83819573922328],[126.93197400648619,37.838206214553466],[126.9332863760663,37.83869321501823],[126.93413646917631,37.83887276669499],[126.93453752188572,37.83919002135347],[126.93517075241009,37.83952175655969],[126.93667407066856,37.84133068014798],[126.93560747412292,37.842851556477854],[126.93480650516416,37.8428719438954],[126.93419482323596,37.84321451397077],[126.93454957735412,37.84392449788146],[126.93408893584157,37.84487586005976],[126.9336594791547,37.84607696076348],[126.9354875169792,37.84738409151249],[126.93541561492886,37.847784411818935],[126.93559014738106,37.84994789630835],[126.93594524836729,37.85030566078404],[126.93672797352428,37.850529078197965],[126.9376336738688,37.85062417174013],[126.93767673318044,37.851340445635856],[126.93793520996549,37.85177078774051],[126.9386173886964,37.851884051229774],[126.93940342502599,37.8526325417271],[126.93837056506588,37.854438942625485],[126.93847615229707,37.85512906802733],[126.93897788362047,37.855342183853566],[126.93985778227957,37.856011318755954],[126.939681813772,37.856663843884604],[126.9399955914405,37.85768122743432],[126.94120102717069,37.85828098015913],[126.9411596813617,37.85890683304756],[126.94162925137168,37.85964077469705],[126.94174415091472,37.860268682587446],[126.9419030311781,37.86053454076906],[126.94238289513291,37.86085180626607],[126.94198438282716,37.861380342797446],[126.94247945717873,37.862000270001815],[126.9427702055419,37.86256829759082],[126.94294497256597,37.86318806199991],[126.94387066775464,37.863585212013355],[126.9442729123929,37.86419298695614],[126.94453721816184,37.86431727425481],[126.9452338148436,37.865007956753786],[126.94534989826266,37.86553703509132],[126.94583812204607,37.86590777106004],[126.94600842958667,37.866362268945295],[126.94576475793825,37.86712232407702],[126.94624230672696,37.86775743321413],[126.94606472470707,37.868250337102154],[126.94561340357218,37.86885037659487],[126.94451033211885,37.86971277739072],[126.9444968922603,37.870099050580386],[126.94458037188288,37.87030883790724],[126.94437374681488,37.870667710345444],[126.94471123402175,37.87148969399798],[126.94557166477476,37.87190989058332],[126.94475908059916,37.87300104674121],[126.94460797813406,37.87366317450187],[126.94378452123105,37.87408057664591],[126.9446910138521,37.874446744391086],[126.94539633597233,37.87501524289152],[126.94551977733752,37.875471962575915],[126.94539051967732,37.87589534262526],[126.94543979201498,37.87649365299844],[126.94572968194639,37.877373335272836],[126.94590780146771,37.877618924900744],[126.94574095774938,37.87820361207458],[126.94665321166899,37.87901938994178],[126.94651206226912,37.87967644419366],[126.94620891986403,37.88035228633302],[126.94563096512523,37.88086414235745],[126.94672386382632,37.88218453496344],[126.94723826157144,37.88238044738626],[126.9472086973591,37.883198036042586],[126.94742555933509,37.88442848606488],[126.94722647123253,37.88537015602172],[126.94691785309017,37.88622140023257],[126.94581398490593,37.88758327428532],[126.94571848088323,37.888452347064415],[126.9454116567122,37.88876893619522],[126.94616624409161,37.89038085693233],[126.94584822842414,37.890937035596124],[126.94584936596351,37.8910738613333],[126.94679246686444,37.89196567299831],[126.94658802755681,37.8924219584965],[126.94696886817269,37.89266313619545],[126.94701293878265,37.89336532125402],[126.94828682457722,37.895016872229206],[126.94790955598721,37.895206187067615],[126.94771021321453,37.89549973768535],[126.9478324321858,37.89623265161724],[126.94824217640443,37.896836187760954],[126.94787307454236,37.89701901890262],[126.94726299033857,37.89780199688233],[126.9467184575367,37.89809820715032],[126.94655093996889,37.89834138220882],[126.94644396698729,37.8988571176159],[126.94610026669513,37.89948986465505],[126.9465140975093,37.899615631236244],[126.94670616837281,37.89982884690442],[126.94674151465215,37.90007717921017],[126.94640664699493,37.90029747289867],[126.94587270084932,37.90089606639414],[126.94666468489638,37.9013837803008],[126.94829719423953,37.903320707992314],[126.9489470068113,37.90367264315398],[126.9493693088013,37.90442116710931],[126.94904080546411,37.904932302281466],[126.94909798069158,37.905485286804165],[126.94936064369773,37.905630391318674],[126.94960574281282,37.90623751383589],[126.95017591850633,37.90644947547284],[126.95034765101978,37.90705599766988],[126.95064719178473,37.90734189500765],[126.95143582308026,37.90767416524176],[126.95200444684907,37.90781659037701],[126.95313469861921,37.90879513664895],[126.95368296042881,37.909126173779214],[126.95399500415272,37.91015673703707],[126.95462202489453,37.91128034694142],[126.95494558522644,37.91099780676684],[126.95478902529385,37.91129899873795],[126.95480761216469,37.91170385935873],[126.95468279624131,37.91154474178124],[126.95414586261508,37.91291535337831],[126.953658858831,37.91313504793544],[126.95355669802854,37.913671340600004],[126.9531208924089,37.91412528772412],[126.95232801568271,37.914449575881626],[126.95185866793125,37.914826365591644],[126.95189174002783,37.91505752368784],[126.95122885973211,37.915457878542156],[126.95076182504054,37.91607369197335],[126.95055544243566,37.91618790572329],[126.9506029573407,37.91661361696637],[126.95051341696002,37.916836568073734],[126.94928857777472,37.91733378845406],[126.94953979520045,37.918400668930516],[126.94972495520804,37.918674408278534],[126.95017043676542,37.91866953333033],[126.95176380512609,37.91927750047239],[126.95278026835533,37.91977485413534],[126.95331865230281,37.91985531267627],[126.9542295144451,37.920193532208245],[126.95452682010068,37.92044985911581],[126.9544706091302,37.92053203795076],[126.95477016332983,37.920906043748126],[126.95560329169687,37.921383030340095],[126.95627156039072,37.92150041084765],[126.95659783010507,37.92178207726182],[126.9572572561829,37.92155399477808],[126.95795976620428,37.92118346853206],[126.95798158573224,37.92094107096226],[126.95984638692363,37.920029540801906],[126.96051729675725,37.920190827506765],[126.96090499579155,37.92092155676605],[126.96162516956117,37.9210485018678],[126.96205561956177,37.92193184036854],[126.96148915327164,37.923468587943695],[126.96154721780776,37.924199211901595],[126.96215779750472,37.924938741582594],[126.9622154302795,37.92516962479251],[126.96305191744007,37.925869817573464],[126.96376699780353,37.926312623676175],[126.96396535667661,37.926962773643204],[126.96387252683466,37.92742249880062],[126.9644155650253,37.927565135008145],[126.96466376897223,37.92806888936385],[126.96484417539605,37.92872690631319],[126.96450452509555,37.92948470983727],[126.96460123818814,37.93085500410556],[126.96427355733675,37.931809320871814],[126.96384295701324,37.93207777937154],[126.96436112794098,37.93332854568434],[126.96460285241395,37.93365520992215],[126.9646824886561,37.93399505771219],[126.96469745827805,37.9342698463444],[126.96436041570914,37.93474272931436],[126.96446817167326,37.93535511746126],[126.9643908999798,37.936330351967335],[126.96468355213234,37.937201247424774],[126.96467955696973,37.93843270305088],[126.96529780692134,37.93870880502502],[126.96589124605832,37.93882161172342],[126.96665698465064,37.939181077393286],[126.96763591387506,37.93902201654371],[126.96900649747072,37.93866513037313],[126.96905687812908,37.939693331926094],[126.96963484529927,37.94026557971526],[126.96958212853745,37.9405014943956],[126.96975593205418,37.94100634198866],[126.97021621370888,37.9412573271562],[126.97121219628549,37.94159064467338],[126.97160126325161,37.94211948194682],[126.97250283468821,37.942084510436366],[126.97300395283185,37.942490610241904],[126.97366676765418,37.942588753211],[126.97434619095114,37.942954070987575],[126.97469920536861,37.94296935886261],[126.97510398330394,37.94339992038797],[126.97546958853917,37.94401544963253],[126.97579144579704,37.94420133648787],[126.9757961583128,37.94445163289608],[126.97630113591784,37.944547746371036],[126.97625127562328,37.94533492402375],[126.97643606143589,37.94558609841303],[126.97726765451037,37.94606095380876],[126.97675104292995,37.94669148853788],[126.9769628923268,37.94736779870306],[126.97672454327262,37.94778723970088],[126.97702740556096,37.94846384712319],[126.97699878988135,37.94901706518631],[126.97711699544011,37.94960383191285],[126.97738693858783,37.949860360909106],[126.977276269981,37.950136526980316],[126.97759554638364,37.95072614298643],[126.97719930616793,37.951183002601326],[126.97728397992975,37.95156253096267],[126.97779736287143,37.95167919682142],[126.9779633082174,37.9519824452301],[126.97831547695208,37.9520216532151],[126.98046413310355,37.9531668047862],[126.98121118154644,37.95377224283864],[126.98192949724832,37.95415779125725],[126.98368657609653,37.954698069329496],[126.9843207830958,37.955250540981005],[126.98506453549726,37.955723076705524],[126.98604246838302,37.95606556210448],[126.98658669496453,37.955971035473475],[126.98788251646995,37.95638421046398],[126.98823685827554,37.956370452999266],[126.98850991800637,37.95646311668677],[126.9888414070571,37.956967952803296],[126.9890687147565,37.95751191109633],[126.9887934238039,37.95789420861723],[126.9885557900898,37.95847387540283],[126.98877685748437,37.95909469313097],[126.98877465482072,37.9595009587038],[126.98865369899356,37.95980754039876],[126.98834998735931,37.96003048544374],[126.98826123282554,37.960209814292675],[126.98862667333819,37.96085063862382],[126.98858800661746,37.96131152399189],[126.98820901717109,37.96183486567326],[126.98837836886233,37.96238670324568],[126.98833531369604,37.96255223562375],[126.98902787032004,37.963526726650265],[126.9894640010444,37.96368302051103],[126.98925349328972,37.96462756645165],[126.98956710702727,37.9648970396651],[126.99001355914388,37.96505840453976],[126.99058125320947,37.96543121639593],[126.99132743081842,37.96609824998753],[126.99118107677566,37.96623505964119],[126.99116847237832,37.96732602761712],[126.99092072250548,37.967677934586554],[126.99164067174753,37.967916741558156],[126.99363329193294,37.96787297452168],[126.99523828590078,37.96756337652496],[126.99747948258617,37.96753166221138],[126.99769462646738,37.96759388837151],[126.99889005353718,37.968319725676764],[127.0002692095019,37.96839998472788],[127.00172073618279,37.968285411063185],[127.0021183320296,37.96859003132386],[127.00307129087851,37.969702109497874],[127.00312393430356,37.97006951411289],[127.00370827434698,37.970976625282496],[127.00374580067432,37.971123020883404],[127.00346751470721,37.97141048524881],[127.00341152042914,37.97229169850817],[127.003022802823,37.972757653931644],[127.00276887825775,37.973270339025156],[127.00275482684741,37.973469389879746],[127.00325933147822,37.973630702901026],[127.00356165606782,37.97385987469736],[127.00376918298856,37.97391645881208],[127.0038424642334,37.97421206878328],[127.00410370854206,37.97454344293102],[127.00411421698685,37.97497306699143],[127.0046944963869,37.97530048474662],[127.00539356871016,37.97533030621181],[127.00567205398431,37.97524020185904],[127.00632506371429,37.975263825247715],[127.00717908508302,37.9737488263917],[127.00746202326009,37.97391633112193],[127.00784293993185,37.973916312157584],[127.00873588337166,37.97447370646176],[127.00902876844202,37.974472562507415],[127.00919488505431,37.97464597995049],[127.010028434442,37.97508230464373],[127.0103480317792,37.975343270638625],[127.01053708027212,37.9753719774612],[127.01148881865171,37.9764955181234],[127.01158632244913,37.9768007017449],[127.01207688724578,37.97748001584574],[127.0119620653659,37.97785559363765],[127.01161887063827,37.97820389496973],[127.01154071472597,37.97880272687518],[127.0111620247295,37.97975858711632],[127.01155384257012,37.979930864136826],[127.01167233575083,37.980210421019095],[127.0119512213911,37.98045420443115],[127.01182453791154,37.981276030927916],[127.01186908019875,37.98186612292724],[127.0120938195781,37.98261189690476],[127.01210134020987,37.98303589960767],[127.0118035469011,37.983785096920364],[127.01207657616216,37.98377214816704],[127.0123058335635,37.9839624281929],[127.01258729539022,37.98461106681278],[127.01302946486864,37.984745882824505],[127.01356464803794,37.98478383149669],[127.01479623188683,37.985369587141676],[127.01503474855559,37.98536393016611],[127.01548457668196,37.98552237497183],[127.01572438298537,37.985767569169575],[127.0164538571674,37.986125317696214],[127.0170046304699,37.98669029573353],[127.01710713752398,37.98696281252774],[127.01677940375505,37.98729112471793],[127.01657195917721,37.987929402537596],[127.01623181169334,37.988426080529806],[127.01617502604375,37.989089957070824],[127.01550288371698,37.9901669236061],[127.01559619667599,37.990698447001336],[127.01575255197211,37.99075417731169],[127.0158639888235,37.99122659138709],[127.01584235376738,37.991557961938284],[127.01606423858243,37.99196897980482],[127.01484434797528,37.99277207257716],[127.01362491579876,37.99328093776141],[127.0132373804448,37.99367485264811],[127.01163446060787,37.99328873324444],[127.01044357761042,37.993327124930445],[127.01005577707791,37.99313063466523],[127.00869277132709,37.99379430816167],[127.0079460293478,37.99378112262784],[127.00743962826422,37.99404410620586],[127.00626509606039,37.994063582654626],[127.00488402724551,37.993948763000446],[127.0043790362479,37.99409264380452],[127.00365934253072,37.994455559234424],[127.0030944112577,37.995252605020944],[127.002381108992,37.99560819676563],[127.00189566321909,37.99612397713858],[127.00131291956737,37.995874531032555],[127.00104983291986,37.995971388180465],[127.00046670887563,37.99640043956765],[127.0000058054165,37.99694944017857],[126.9996448643523,37.99720872894415],[126.99957706484601,37.99812541556075],[126.99875038091874,37.99881009943202],[126.99862566269401,37.99926280435479],[126.99818943531453,38.000158935749766],[126.99815543667356,38.0005764481292],[126.99759736626336,38.00082981480347],[126.9967966450874,38.00087990047101],[126.99665008476839,38.00080753668524],[126.99496018518823,38.00141642739215],[126.99481037187864,38.0017044390669],[126.99490444644903,38.002002027996014],[126.9945171607651,38.00207013396243],[126.99431130991515,38.0021852672976],[126.99430343936653,38.00268049460673],[126.99361105251263,38.002720711844916],[126.9934612542782,38.00279840606578],[126.99324789326347,38.003346540004046],[126.99333465551106,38.00372887846805],[126.9931503146963,38.004079944140415],[126.99279448024785,38.004257004164806],[126.99220356780002,38.00500191137434],[126.99196532802983,38.005171932843574],[126.99159787180731,38.00580424065135],[126.99056072344338,38.00655416539574],[126.99057155242322,38.00671042220727],[126.98917834823997,38.00775985521221],[126.98915171338236,38.00845496889254],[126.98932728520477,38.00870076604991],[126.98939720213842,38.00867965524048],[126.98939720766076,38.009758516095644],[126.98960212865722,38.010001498454976]]]}}
