{"type":"Feature","bbox":[127.10235453021112,36.89378173963929,127.51658769683394,37.15591037454552],"properties":{"regionCode":"41550","version":"vworld-20260909-3f8952dfda77-p3","name":"경기도 안성시","attribution":"국토교통부/K-Geo플랫폼 · VWorld 법정구역정보, CC BY 2.0 KR; 공공주택 복덕방 가공"},"geometry":{"type":"Polygon","coordinates":[[[127.263713355007,37.15591037454552],[127.26339510345015,37.15542217209695],[127.26320772786946,37.15478292742295],[127.2627384575526,37.154502297163454],[127.26158039543387,37.15410488198139],[127.26133163522137,37.15332740455717],[127.26063025831118,37.152346293456446],[127.26026483577901,37.152185607331994],[127.26008822331747,37.15199649310973],[127.25971643247622,37.151842039222885],[127.25926312211232,37.15192205763801],[127.25915485363788,37.151855042629784],[127.25863857088224,37.151849395153164],[127.25813991492217,37.15171916040774],[127.25730912172428,37.15175707946046],[127.25625659985485,37.15143443858364],[127.25583601932678,37.15145317874191],[127.25534908923686,37.151264941170716],[127.25521169440988,37.15088281694264],[127.25526728567117,37.15056302759244],[127.25519162004744,37.150109404080496],[127.25487248477668,37.14987409639987],[127.25410763667232,37.148223890696016],[127.25387882502758,37.147971000679405],[127.25371771025118,37.1469901934047],[127.25314369195553,37.146850000590526],[127.25275839119509,37.14645768447674],[127.251437840312,37.14605159190759],[127.2506195307358,37.14537476470907],[127.25077347803159,37.14493020240551],[127.25063838246933,37.14440351684997],[127.25078594393362,37.14406510110035],[127.25107344168518,37.142751995489725],[127.25145388536983,37.142472948330614],[127.25168010267387,37.141806886204236],[127.25227922697734,37.14147297416758],[127.25289878880056,37.14080481036966],[127.25330365304009,37.139716766172626],[127.25327561071177,37.1384461480078],[127.25378651916238,37.13799034379649],[127.25308042103141,37.13681682206403],[127.25234879213485,37.135893819320025],[127.25249141704843,37.13540086918755],[127.25229510141165,37.135143274968556],[127.25130764108522,37.134495925863305],[127.25050198693019,37.13411759253174],[127.25048642606424,37.134032258385076],[127.25139948978256,37.132923392523566],[127.25220017003812,37.13166192640373],[127.25218753799751,37.131126816700096],[127.25275618895697,37.13092112800887],[127.25305952198725,37.12986398800268],[127.25292437385271,37.12972719522287],[127.25291285721723,37.129263047599544],[127.25310990442233,37.12895180984934],[127.25287096912086,37.12865966623117],[127.25289017787969,37.12806672441451],[127.25194471317597,37.127006517405704],[127.25198543811821,37.12679082037352],[127.2515317525581,37.12592687656307],[127.25116142274918,37.12554570897012],[127.251625803622,37.124547069324294],[127.25120118486136,37.12409407091386],[127.25084735784763,37.12310827211468],[127.25014944945924,37.122666602980026],[127.24968815227662,37.12278450944356],[127.24869945452812,37.12255980268233],[127.24806357579591,37.12286618953687],[127.24775087418931,37.12256493647521],[127.24749953126488,37.122512804040724],[127.24778752057561,37.12211223921279],[127.24775663295422,37.12155538314566],[127.24772582334839,37.12210816873022],[127.24742788091625,37.122499048961394],[127.24618270592352,37.12233412473783],[127.24598157961748,37.122067188580864],[127.24548258540317,37.12208261440917],[127.24450670865741,37.122464097432946],[127.24388484456576,37.12244507877443],[127.24329926189262,37.122576159053374],[127.24212354277465,37.12200533316029],[127.24184797447101,37.122014685138744],[127.2414683156814,37.12215565149722],[127.2406983080576,37.122144712264124],[127.2402895408195,37.122020629210795],[127.23990076558921,37.12202534770653],[127.23894118194,37.12159456744272],[127.23787729066532,37.120942195653484],[127.23711703426312,37.12123040061937],[127.23642946817749,37.121112996265566],[127.23573130295449,37.12141581619593],[127.2352080484931,37.121160907445585],[127.2347664577942,37.12039519905927],[127.23488834391955,37.12005670826783],[127.23487780155041,37.11932570348733],[127.23432072252695,37.11860504040083],[127.23430384521924,37.118110094701265],[127.23366817585519,37.11751535225967],[127.2332686281914,37.11757792320931],[127.23249752306766,37.11724939326218],[127.23121400031084,37.11736579364808],[127.22958079115618,37.117227524508046],[127.22918961718213,37.11677154856828],[127.22881743720035,37.11672895300908],[127.2285594717232,37.116283384515945],[127.22850815842506,37.116033410737316],[127.22828066574662,37.115792966972776],[127.22753429867291,37.11565215561397],[127.22676557798941,37.11506394806549],[127.226781328248,37.1147403826406],[127.22668838442735,37.11453481532098],[127.22632542792836,37.1143566682422],[127.22589361422416,37.11388699399855],[127.22557798328249,37.11374273033371],[127.22527859302015,37.113468301943925],[127.224620707134,37.113515506695315],[127.22412302145726,37.1133862485381],[127.22337185908837,37.11287048001593],[127.22309320389029,37.11295711433647],[127.22171870085235,37.11290211855631],[127.22096334186325,37.11307570608795],[127.22027129147347,37.11357392332194],[127.21997505826117,37.113529595199225],[127.21922911435158,37.1132660940057],[127.21895574089919,37.112847772085196],[127.21810152598637,37.11250910787357],[127.21696922914973,37.1122369841121],[127.21625666547476,37.11197156074764],[127.21609299459682,37.111840282352],[127.21552870125794,37.111642104136855],[127.21482459003339,37.111067432245484],[127.21430356088725,37.11087796984262],[127.2140627107327,37.11090136711282],[127.21342532584971,37.11167117590244],[127.21314603326336,37.11182053335359],[127.21249630132628,37.11195756243579],[127.21165528669971,37.111597105432196],[127.20975508806904,37.11144192251064],[127.20878431091332,37.11127736718149],[127.20834687940744,37.11106981208688],[127.20862364181258,37.11063956732625],[127.20869269855002,37.10948618598172],[127.20883413077911,37.10932430425376],[127.20960005043545,37.10899984937853],[127.20947730366704,37.10857541103413],[127.20955502239609,37.108147200016184],[127.2096323090119,37.10797640732782],[127.2099382213603,37.10780689522515],[127.20977413251389,37.10692610948318],[127.20955691536875,37.106799657763275],[127.20954792247777,37.10583595080836],[127.20880800643155,37.105029489190365],[127.20838808983505,37.10438421864994],[127.20727071578047,37.1034566135386],[127.20635077521096,37.103106623648394],[127.20503470813586,37.102371094400084],[127.2043553756924,37.10229991182948],[127.20360364781163,37.1024337175665],[127.20257800076882,37.10130474789831],[127.20231002170881,37.10090825105794],[127.20219232785435,37.1003910968721],[127.20180735043743,37.09979046585498],[127.2009368479763,37.09918590577307],[127.20009597791685,37.09906399183201],[127.1999129265436,37.09801711003316],[127.19938671214433,37.09763114834355],[127.19910793649734,37.09706400404346],[127.19835602723587,37.09649923514127],[127.19747768522099,37.096261031686325],[127.19778045353522,37.09507317572787],[127.19771709716797,37.09456948721112],[127.19726532972072,37.09399756139345],[127.19721372964304,37.09344756927654],[127.19745588510561,37.093100192068704],[127.19721206251924,37.092446811605676],[127.19698191015902,37.0924476930746],[127.19648247044432,37.091681646500305],[127.19641166734394,37.09135790758051],[127.19597977635291,37.09127364466596],[127.19582451563275,37.09105407392085],[127.1958471651304,37.09059268320981],[127.19505565562831,37.09008727645191],[127.19503246242022,37.08927629416154],[127.19360245270363,37.08855857076053],[127.19337214423655,37.08831342767318],[127.19190709012352,37.08741096308126],[127.19120590276037,37.08753758363793],[127.19062433849595,37.087393985192904],[127.18952618814265,37.087356888273426],[127.18835790730418,37.08691281940944],[127.18816619844951,37.086476484989646],[127.18813484133341,37.086042239641],[127.18792904047004,37.0856958030203],[127.1879315179548,37.085349463539146],[127.18645962988765,37.084611414760154],[127.18602623873065,37.08458639844429],[127.18597592818867,37.083633078903055],[127.18523977523547,37.08399080564389],[127.18463591432007,37.08478179863794],[127.18387289305731,37.08521655334086],[127.18331291949606,37.085859687268936],[127.18245142495249,37.08616567143858],[127.18171623976404,37.086274053250186],[127.1813339072916,37.086258225140256],[127.18123481348138,37.086180427187614],[127.18048389158461,37.086407954612675],[127.18031387140465,37.086385600798145],[127.18021613463789,37.08627960003727],[127.17956282901201,37.0863198791816],[127.17933813537498,37.0865384175268],[127.17916063281521,37.086919168494134],[127.17883368531548,37.08699778931054],[127.17875133024371,37.08719855717184],[127.17852575355421,37.08734527495318],[127.1775300645876,37.087152542230584],[127.17730374614678,37.08721891159032],[127.17717293257506,37.087436511307196],[127.1766749640619,37.087655544320924],[127.17634371638005,37.087717407053205],[127.17614881929586,37.08751988645385],[127.17565745391317,37.0874770870917],[127.17542569978555,37.08736894001089],[127.17519295098025,37.08692712702166],[127.17475908321701,37.08694563412211],[127.17395872939673,37.086576520184785],[127.17378866537962,37.0864308598808],[127.17377173501896,37.08604412867877],[127.1730425893497,37.08586764077824],[127.17289282978966,37.085983052023956],[127.17253916004995,37.08590671683146],[127.17190467721899,37.08602801689722],[127.17143832123134,37.08594959081994],[127.17079929007308,37.085987769923655],[127.1702313336962,37.08621318907448],[127.16987513206003,37.08650310619679],[127.16919576727773,37.086394204939495],[127.16884920322241,37.08620831027895],[127.16859063815092,37.08621143711207],[127.16802290999895,37.086411029468],[127.16732859376356,37.08642862681224],[127.166913976043,37.08664057810185],[127.16671635602347,37.08660604817967],[127.16655729358645,37.08640248284245],[127.16633783342733,37.08628614059374],[127.1661063135272,37.08629261928475],[127.1657522155788,37.08647134807828],[127.16447762421355,37.087395676372225],[127.16415237710397,37.08744716463471],[127.16353336008268,37.08738307648038],[127.16328882720691,37.087463844278815],[127.16277935154949,37.087975298697586],[127.16269755612096,37.08830659226569],[127.16197426287228,37.08888577184422],[127.16188172995294,37.089163534605916],[127.1616700496086,37.08941048926466],[127.16102168581644,37.08954065149754],[127.1607587084642,37.08945819437012],[127.1604030099194,37.08920523707103],[127.16004069129,37.08914009867327],[127.15954871763013,37.08921541666559],[127.15888243061045,37.089648628900534],[127.15851664754751,37.08981627788064],[127.15812151606717,37.08989398709256],[127.15780209877136,37.09008954942267],[127.15645208695116,37.09023281290543],[127.15581797831544,37.090175662852786],[127.15543035005412,37.090257774797344],[127.15484443622287,37.09059244662282],[127.15463296164543,37.0908253450056],[127.15444051364365,37.09127134112617],[127.15413584625843,37.091404566917745],[127.15376774524637,37.091271244808254],[127.15306892087654,37.091262748303066],[127.15257214009291,37.09104322134088],[127.15081360047698,37.09072680358119],[127.15038883033253,37.09072586761033],[127.14961733496888,37.09089043537992],[127.14928378345974,37.09110260926707],[127.1488422286384,37.09117111793639],[127.14815156876217,37.091049587024095],[127.14775490332863,37.0908642935563],[127.14660447237736,37.09064237466001],[127.14662677949896,37.09069217271822],[127.14595002802498,37.090753632550886],[127.145443284912,37.090982135072466],[127.1449029977981,37.09102684272691],[127.14464421250418,37.09064448561818],[127.14411738411337,37.09019127416774],[127.14409255359303,37.08982966533615],[127.14308203720621,37.08916830002312],[127.14305537721935,37.08857168401167],[127.14292715870572,37.08831550976254],[127.14273306209432,37.08818618372758],[127.14251102855025,37.08771407851446],[127.14236669381785,37.0876940553894],[127.1408978112389,37.08785349578251],[127.14002549351896,37.08845407558723],[127.13967415579025,37.08842453263441],[127.13889731692738,37.088719387523966],[127.13718365604511,37.08906002483535],[127.1368769674731,37.089534632616996],[127.13691609549824,37.08980496337605],[127.1360391300688,37.0906438178318],[127.1359324576813,37.09083685489753],[127.13576677857336,37.09166918086532],[127.13541582068683,37.091834775725935],[127.13522271070596,37.09181499958655],[127.13484431506402,37.09209599877962],[127.13340493456677,37.09212988653488],[127.13291477891725,37.091741911868716],[127.13251111283647,37.09160588077119],[127.13215452383511,37.091368331741286],[127.1313659799057,37.09109628534183],[127.13102927512793,37.09110338710981],[127.1305525784767,37.091235926725325],[127.13017852544748,37.09115291155517],[127.12938354214425,37.09179612869046],[127.12889002917822,37.09173209865014],[127.12804790979781,37.091462251328124],[127.12781762527035,37.09111103721692],[127.12745882719098,37.09089149563221],[127.12685849003562,37.090720059406905],[127.12636614285992,37.09067025602442],[127.12494010715673,37.0908071970137],[127.1244663805548,37.09104299766598],[127.12445792147865,37.0909056299505],[127.1243559535994,37.0910103679489],[127.12384466249162,37.09092991779781],[127.12348633298583,37.09123682422223],[127.12355338309678,37.09061405409787],[127.12370903294106,37.09046443396481],[127.12375081639561,37.0903179860024],[127.12368277742578,37.09030139124866],[127.1239659544459,37.0900570210614],[127.12407839137374,37.08955481564048],[127.12429186674423,37.089171837051396],[127.12426199402627,37.08903705162577],[127.1240474089301,37.08883149589932],[127.12398314859661,37.0885855278994],[127.12404818303983,37.08823055493083],[127.12436134793737,37.087621535450985],[127.12518193409717,37.087082060197815],[127.12574641460958,37.08708843112455],[127.12594291998373,37.0869500964984],[127.12590534656351,37.0867860449333],[127.12552687287021,37.08639720190415],[127.12471481442654,37.08616980172145],[127.124731534803,37.08607841412521],[127.1243374998798,37.08572120311079],[127.1242511640288,37.08552115588819],[127.12435609972975,37.08511449507885],[127.12502541942926,37.084652316335315],[127.12567957520176,37.083711952110114],[127.1256115211077,37.083635485766024],[127.12571558002932,37.083309020615005],[127.12596295787273,37.08274613996784],[127.12622473800556,37.082461889575676],[127.12639271807524,37.08171645344738],[127.12633010439234,37.081565582960366],[127.12537361496514,37.08055763860273],[127.12521934738493,37.07976386978609],[127.12470180228466,37.079307950844324],[127.12439160631332,37.07867733212386],[127.12477517066615,37.078316497586414],[127.12486790197428,37.07808940627451],[127.12481847228511,37.07801995732827],[127.12449667348591,37.077883716083385],[127.12400371593304,37.077446062605596],[127.12304371870376,37.0773519263561],[127.12222993661597,37.076808021982664],[127.12173657298965,37.07664637436975],[127.12123998516215,37.07629197152116],[127.12092651733909,37.07616408537641],[127.12072796936063,37.07639783941555],[127.12029463001615,37.07648234079831],[127.11833254695681,37.076656256316134],[127.1175382673206,37.07652702038793],[127.11692366747457,37.07682480609765],[127.11587927220225,37.07614499846234],[127.11534173202388,37.07624693838071],[127.11480000515746,37.075946375658795],[127.11364041258682,37.07612359229779],[127.11314474096672,37.07639416213273],[127.1121710512397,37.07601616953218],[127.11032132313306,37.076428575645174],[127.11013395153795,37.07638680982323],[127.10980553551296,37.07601817357216],[127.1080763781879,37.076641802684385],[127.10777691159872,37.07665876014101],[127.10698172434817,37.076144343556436],[127.10618294965572,37.07595804664382],[127.10562890943602,37.076135219857804],[127.10494203678455,37.076082391102716],[127.10397909802673,37.07579170626653],[127.10377987809338,37.0752064394269],[127.10429499740914,37.07493059211149],[127.1046883602732,37.07446739012502],[127.10331607094206,37.07363273966313],[127.10269353273736,37.073097769122064],[127.10309992340075,37.07262581798181],[127.10303335240904,37.07232501471475],[127.10268342291668,37.07209653048089],[127.10280677154013,37.071827381152985],[127.10277548307026,37.071515328865075],[127.10305563273764,37.071130230978504],[127.10348161859524,37.070934766270916],[127.10456949094254,37.0707847228006],[127.10460627912373,37.0703897953604],[127.10397871876825,37.07003001580778],[127.10360881113027,37.06957595768843],[127.10279255715947,37.06900717638663],[127.10235453021112,37.06855451776296],[127.10294063708986,37.06771512559197],[127.10311688597648,37.06770191458901],[127.1034447630633,37.0667435775852],[127.10377063832748,37.06612091520579],[127.10490980130076,37.06569132682489],[127.10519037377814,37.065784855584226],[127.1058117559946,37.0652374031507],[127.10611488825151,37.06507721689144],[127.10638337297793,37.06497599442499],[127.10668323544654,37.06496719956765],[127.10726054151804,37.064751147245225],[127.10781247090327,37.06487536010099],[127.10842946538564,37.06485255507222],[127.10946275976343,37.06536396983804],[127.1097435088341,37.06519773314802],[127.11058945452007,37.06505230957709],[127.11093007768558,37.06519400487674],[127.1117785251246,37.06515318265461],[127.11277976505627,37.064755103733134],[127.11388479664038,37.06506682268303],[127.11470176640088,37.064772756246704],[127.11527177183241,37.06472352242924],[127.11559263644735,37.0639204982772],[127.1157583612762,37.06385073286493],[127.11688607382699,37.06377896693642],[127.11724283438592,37.06282563280364],[127.11821063279932,37.06271222401026],[127.11914768692195,37.061962093119774],[127.11946523100931,37.06216239989672],[127.11996595718358,37.062675123797256],[127.1203520907627,37.06289940954818],[127.12118377480365,37.06264735187781],[127.12222980988206,37.06290542222591],[127.12240199741215,37.06326165589454],[127.12262939779706,37.06349432594752],[127.12349792832292,37.06378659738306],[127.12517805755097,37.064606862992704],[127.12551203829591,37.06431097848977],[127.12568154451816,37.06398962260936],[127.12683936306078,37.06341930425129],[127.12706295107581,37.06337435006381],[127.12747578434617,37.063517000172844],[127.12796936238112,37.06326516675937],[127.12849582647381,37.0622129930664],[127.12808847399658,37.06133342798161],[127.12811927496895,37.061026101397914],[127.12833567986497,37.060531345500486],[127.12862324025572,37.06045786021205],[127.12896539040139,37.060187087050856],[127.12971596826779,37.059777019668914],[127.13015010988538,37.05919267970149],[127.13027171032857,37.05874716699509],[127.1301962954218,37.05819789863814],[127.12961959693007,37.058088045211036],[127.12970199406297,37.05797501986495],[127.1296835266395,37.05738467046014],[127.12924585193915,37.056599889424795],[127.12839501675722,37.05645287243104],[127.12825270318405,37.05633346495456],[127.12781706747886,37.056372068403626],[127.12795202631362,37.05580696210849],[127.12816768946206,37.055417553765835],[127.12776321019038,37.05451275563592],[127.12767074468681,37.05376778557388],[127.12751219172517,37.05336638607905],[127.12763774109922,37.05295862189419],[127.12496367535874,37.05207673136324],[127.1239269761847,37.05201067403824],[127.12324827707806,37.05111922416299],[127.12211823919469,37.050530755473105],[127.12168962989912,37.049585772675485],[127.12094625546914,37.048685611662506],[127.12048176199029,37.04774978533195],[127.12098603790042,37.04756955184299],[127.12094341388106,37.04685077738348],[127.1204965759681,37.046522589417435],[127.1192703507926,37.04611244916862],[127.11899148298535,37.04548405917373],[127.1184016013765,37.04537484808611],[127.11794423315531,37.04512102068281],[127.11690003848325,37.04418109425797],[127.11658498836394,37.04405334442429],[127.11619892720957,37.04338899475418],[127.11583627546405,37.04337601234274],[127.11529820474512,37.04296931015319],[127.11480478668898,37.04275776603265],[127.11439093545765,37.042320778222155],[127.11369093665736,37.04189021329727],[127.11304560604488,37.04182336061908],[127.11236044871258,37.04200601658982],[127.11195939403162,37.042007905693005],[127.11130236373847,37.04151639527105],[127.10981735581652,37.04089264364835],[127.10969352566352,37.04077641149992],[127.10956922774068,37.04029263721404],[127.10936421024641,37.040003216009225],[127.10788666821885,37.03885265936553],[127.10756978016848,37.038420664480675],[127.10709815627493,37.03763587707324],[127.10702745747726,37.03687751207111],[127.10616533039773,37.03663827127209],[127.10562029231393,37.0362020881424],[127.1055216974932,37.03545536601895],[127.10559594354851,37.03500293186422],[127.10610372117422,37.03465541293637],[127.10664143393336,37.03395529680368],[127.10721745044218,37.033509445655184],[127.10705070673065,37.03341949857083],[127.10687507026661,37.03303711526457],[127.1072957352907,37.03241003875166],[127.1075291794722,37.03222592736493],[127.10903994397489,37.0315152314892],[127.10983087639657,37.03044162359813],[127.11050045680607,37.02976951568873],[127.11226028250805,37.02893719902979],[127.11278007318404,37.0285945850315],[127.11314922294764,37.028713417034275],[127.11310613562722,37.027641238369064],[127.1125236450696,37.02696233449504],[127.11255443976303,37.02683385461796],[127.11271922828219,37.02679803773941],[127.11280490200637,37.02690594843606],[127.11428645768694,37.02712304284433],[127.11511203665289,37.02712943735712],[127.11560991395643,37.02740231945155],[127.11606660223984,37.0274782833367],[127.11616757550958,37.02706261658759],[127.11648284092618,37.02720281720838],[127.1168188902886,37.027075502663344],[127.11887678566713,37.031714062099695],[127.12185675971932,37.0347668590716],[127.1220780630742,37.03476719454187],[127.12238684118343,37.0350794060904],[127.12636160248644,37.03362618757819],[127.12656416344156,37.03391955644016],[127.1265509953488,37.03439517386675],[127.12686134239112,37.03428445371872],[127.12784768735136,37.03364804806914],[127.12792848684123,37.033133871887735],[127.12802698899631,37.03319708268528],[127.12802279799185,37.03354228218623],[127.12871880585058,37.03354646321268],[127.12921295719026,37.03365614423835],[127.13067124693544,37.033360280734215],[127.13223697597658,37.03329889749594],[127.13456272737866,37.033603691027366],[127.13505750163897,37.03387406609759],[127.13573675202103,37.03395046736131],[127.13698113290077,37.03385482583199],[127.1372755433312,37.033965917323336],[127.13773644560852,37.03378305445948],[127.13850349858237,37.03317927031108],[127.1402994191313,37.03276118971931],[127.14090891989005,37.03215938207176],[127.14180925058648,37.03263205641528],[127.14192007657296,37.03276449593078],[127.1428973693894,37.03265447349504],[127.14379859333478,37.03265570393235],[127.1440104606603,37.03166765676492],[127.14495865254277,37.03147965515457],[127.14491053078642,37.03154713669317],[127.14562532305847,37.03170574434424],[127.14602689499381,37.0316751223433],[127.1464993558008,37.03123485544992],[127.14719628748885,37.03092324878511],[127.14792845382084,37.03044038903004],[127.1488145563559,37.03030634843943],[127.14910783586689,37.030038399507184],[127.1498495820012,37.02976402168534],[127.15048930259093,37.02933480593584],[127.15078171137203,37.02897252419169],[127.15237671680475,37.02829610193501],[127.15271418590493,37.02779553211768],[127.1523169442681,37.02727333992988],[127.15233085352654,37.026804247253516],[127.15237613710164,37.026548246371966],[127.15300446226401,37.02609902559775],[127.15287762702005,37.02587294448381],[127.15248457275328,37.02561811239894],[127.15236218469093,37.025270259941564],[127.15259388865184,37.02483724930869],[127.15255935238075,37.02463955373144],[127.15209496124987,37.024266225181734],[127.15218344189533,37.023720746959995],[127.15212635084018,37.02339573857882],[127.15194284532718,37.023234763136585],[127.15186327472091,37.02302967866569],[127.15231722061596,37.02263410772572],[127.15233985506492,37.022043607933504],[127.1524686167301,37.021677191163405],[127.15234424713445,37.02141770936679],[127.15193948990485,37.02110666361823],[127.15172377562133,37.02078943770277],[127.15098169686509,37.02063609590599],[127.15036364147306,37.02005355400405],[127.1495385083589,37.01992920102356],[127.14945852390674,37.01967196559473],[127.14921008012861,37.01952027712594],[127.14915557762092,37.01940341619367],[127.1492229245127,37.0192132321306],[127.14832550382403,37.0183870157728],[127.1474882375572,37.018139061850285],[127.14686001422032,37.017531411451536],[127.14613150594936,37.01750779628996],[127.14573899300146,37.01707297165348],[127.14526023880104,37.016824773580204],[127.14528204914112,37.01641319818369],[127.14510947229556,37.016091671977655],[127.14511118996757,37.014907650190715],[127.14488289193325,37.014209958989696],[127.14443088324913,37.01336470824109],[127.14477648577065,37.01159159039515],[127.14504018288511,37.01135883520421],[127.14509157967721,37.01091298518652],[127.14520789769313,37.01084262427978],[127.1452209317788,37.0106115168856],[127.1448106101361,37.01004125777988],[127.1449813961341,37.00924141918031],[127.14616343557923,37.00939406470501],[127.14626726975114,37.00928086529776],[127.14639234536622,37.008544565787304],[127.14755487778062,37.008282775815935],[127.14765912371956,37.00810881051647],[127.14773108439458,37.00756531335149],[127.14844420344002,37.006795076387085],[127.14863882331682,37.006726548507785],[127.14861260262293,37.00630609462748],[127.14884057546928,37.00601150353394],[127.1492186991823,37.005892892740206],[127.14941088153367,37.00559576086057],[127.150124342533,37.00533669265359],[127.15051745107326,37.00544230035905],[127.15073582027247,37.005063086383274],[127.15117220172203,37.00487580697152],[127.15129251975053,37.00472865828243],[127.15143909891306,37.00448912613083],[127.15150921432874,37.003771931831125],[127.15212168115384,37.003020856624424],[127.15275596016723,37.00132623458085],[127.15334295863596,37.00042468221483],[127.15383173575287,36.99910218409305],[127.15410736255905,36.997803013925775],[127.15279768261743,36.99784779587212],[127.15277906030164,36.9978008215156],[127.14955053642257,36.997960281194956],[127.1445571130144,36.99717889537961],[127.14168249193985,36.99514841595022],[127.135661636956,36.99328966625062],[127.13570922207542,36.99265506404238],[127.13556585095552,36.992438134375384],[127.13552267267372,36.992165505793366],[127.13566270804702,36.99204972214643],[127.13574110311043,36.99179039333454],[127.13546067103566,36.991005262351294],[127.13545282339032,36.99088126330912],[127.13558260629435,36.99076109428934],[127.13546569993909,36.99047424891686],[127.13523040300913,36.99033664256327],[127.13495700565002,36.98991345977388],[127.13423952586481,36.98936738583459],[127.13384518590324,36.988691965528574],[127.1337652158588,36.988468152809865],[127.13383925501158,36.988405451705454],[127.13344466859894,36.988005635387225],[127.13106182905507,36.98675661077325],[127.1306200342327,36.98667343127703],[127.13121903265683,36.985721020306585],[127.13137862189234,36.98559442193656],[127.13425624184187,36.9854346539254],[127.13639208323048,36.984761556088245],[127.13641298466158,36.98293604109272],[127.14112158787391,36.97974239266953],[127.14112607883514,36.979003828442586],[127.14079777551557,36.979367946323265],[127.14062137766773,36.9792425448556],[127.14016641943587,36.979215385582066],[127.13995029185038,36.979261938800875],[127.13994984717759,36.9793658555889],[127.13883551581755,36.97936147030852],[127.13810099296202,36.979866762888264],[127.1376728022305,36.980065775078096],[127.13736497453334,36.98012638560339],[127.13642929553669,36.98012441629938],[127.136455686748,36.97971155602344],[127.13710461655246,36.979039885451215],[127.13716824559398,36.97849785405358],[127.13625358152602,36.978156942639814],[127.13518685633848,36.97793497094584],[127.13517909500786,36.9775814018343],[127.13393401611238,36.97759399362772],[127.13393477837067,36.976862521430384],[127.12600233806383,36.97684473036685],[127.12605601646989,36.97691230921631],[127.12595064450699,36.977035060052735],[127.12577954478239,36.9770957467485],[127.12570814690456,36.97684487597943],[127.12423078428178,36.97682556985167],[127.1241942989012,36.97664353453912],[127.12444221345534,36.97650328854961],[127.12449124654962,36.97636576653546],[127.12472888279468,36.9761790361632],[127.12503737819085,36.976111636546634],[127.12529112112246,36.97590712539506],[127.12421991298463,36.974978284044354],[127.12322642942257,36.974321329009264],[127.12265077920648,36.973230415259856],[127.12270820826738,36.97288756317593],[127.12221557814127,36.972408196561226],[127.12192896321716,36.971552401949786],[127.12101621250179,36.970948987503625],[127.12101873988102,36.9710487761726],[127.12082642490228,36.970992200652404],[127.120237611966,36.97035104324098],[127.12060645458335,36.969981837913856],[127.12073160206376,36.96959332859206],[127.12076218317307,36.96898622386692],[127.12119511966834,36.968347185256675],[127.12164843313954,36.9682313980447],[127.12223177879963,36.9682707193988],[127.12301344584404,36.96845304153203],[127.12353481396373,36.968465080363764],[127.12434512164208,36.9683663427006],[127.12503525730821,36.96797386364724],[127.12498833909181,36.96788082182514],[127.12551750906866,36.96768234468846],[127.12733162208195,36.96730234313637],[127.12906645833073,36.9665223123571],[127.12952881207362,36.96642798656186],[127.12995387180214,36.96646283668642],[127.13151522697407,36.966907930046204],[127.13235624150924,36.96699433517944],[127.13294966236391,36.966939650639254],[127.13349817137299,36.96677660629422],[127.13547886733399,36.965732378197806],[127.13582713014361,36.96559292087361],[127.1363218674892,36.96557672385636],[127.13679629961419,36.96566572418423],[127.13717372168175,36.96590525568841],[127.13707636099858,36.96590687821806],[127.13698365639459,36.96618894483247],[127.13674057958667,36.96644361629511],[127.13597977667332,36.966880974111014],[127.13574754850688,36.96716350429883],[127.13567416107946,36.96762689119767],[127.13591367964149,36.967892100190646],[127.13658850049997,36.96829744596939],[127.13728695365678,36.96857269177067],[127.1385137225605,36.96886114466016],[127.1399593785876,36.969455251950414],[127.1407016103139,36.96984335383651],[127.14368396692976,36.9710519089845],[127.14450627485633,36.97114649230741],[127.14529195651654,36.97105292862394],[127.14678573143237,36.97101817809913],[127.14722978031975,36.970879603384276],[127.14760369033888,36.97065076472785],[127.14825639897629,36.96989127851455],[127.14863954596139,36.96964311893985],[127.14891281582497,36.96955684791353],[127.14974058823783,36.969550296293804],[127.1502144200294,36.96941350193198],[127.15163096709531,36.969443312631384],[127.15238674084668,36.9693691394126],[127.15305671833407,36.96956426921474],[127.15416768857486,36.97023065682533],[127.15463247961141,36.97045792031731],[127.15486694779018,36.970474764974256],[127.15544449678656,36.97035721755317],[127.15622583941985,36.97001466242422],[127.15800915453124,36.96983525090135],[127.15889425126802,36.969928617361305],[127.15921765360687,36.96975085294706],[127.1580737292493,36.96883081453801],[127.15802964643241,36.96706509356019],[127.15777873723525,36.96667772350182],[127.15754168988491,36.96653689262309],[127.15692343475719,36.966434957481994],[127.15699727708642,36.96633449759838],[127.15656876459947,36.966297859271364],[127.1564103200962,36.96632050488655],[127.1556344017928,36.9668665691127],[127.15540503137422,36.96686515546346],[127.15570364348989,36.966229061722146],[127.1553659517821,36.96636840977454],[127.1552144256631,36.96615966429997],[127.15556833151513,36.96572013791014],[127.15529933393223,36.96576799920492],[127.15444772865038,36.96622739655491],[127.15440787949748,36.96607879479804],[127.15459546338944,36.96565116393001],[127.1549993866127,36.96528808288276],[127.15541846172277,36.96520635794888],[127.15528229752346,36.96470786997757],[127.15545134181379,36.96441141601087],[127.15599793479387,36.96428758292433],[127.15634300571195,36.96437615740182],[127.15678351377,36.9643582668071],[127.15705848541643,36.96420941259053],[127.15740569430808,36.964274823049195],[127.15845957392177,36.96382370259121],[127.15889284174192,36.96386924499384],[127.15907926397993,36.96438561367019],[127.15993844643572,36.964482368446895],[127.1608860548538,36.964325117310196],[127.16103612876267,36.96420529318714],[127.16165043557224,36.96407968021408],[127.16185193579727,36.96389116730923],[127.1623235837609,36.96372475979399],[127.16241114329301,36.963507373106545],[127.16315128970791,36.963290388093014],[127.16319438251128,36.96307338847635],[127.1633992199688,36.962985276213516],[127.16346152038615,36.962737808029814],[127.16357018670658,36.962654921667436],[127.16377930536568,36.96264536371326],[127.16394496154254,36.962456953024876],[127.16432965295334,36.96241776459195],[127.16474961697718,36.9621505099106],[127.16495503931795,36.96189461073618],[127.16555052208824,36.961662445741176],[127.16565841629385,36.962135512143654],[127.16621683175316,36.96218061390548],[127.16673514988834,36.96212659486512],[127.16740143843722,36.96220560863149],[127.16787788093261,36.962383670384824],[127.16845061718878,36.9624350937831],[127.16891127771929,36.96261641562535],[127.16921464149986,36.96264121248746],[127.16937100466123,36.96252574024271],[127.16966764841048,36.962535454098344],[127.16976827639425,36.962561686582674],[127.16965466349112,36.96258984719242],[127.17007798025011,36.96267399307317],[127.17046896908015,36.96288562916898],[127.17100067605065,36.96301774089857],[127.17114327250809,36.96313299795854],[127.17192814436514,36.963261722868644],[127.17213993459013,36.96316895425092],[127.17233757729566,36.963247519820584],[127.17316665795977,36.96286339154708],[127.17392764134787,36.962677595604646],[127.17399125800775,36.96257971114094],[127.17530694864755,36.96229440309793],[127.17560825322275,36.96235199959773],[127.17635167183299,36.9622767383449],[127.17660957593169,36.96235183724742],[127.17668936545255,36.96221663950119],[127.17778638464969,36.96270404875222],[127.17778694740905,36.96251185325894],[127.17805383285551,36.962588758257674],[127.17809746327505,36.96249274648242],[127.17821901486495,36.96252333743759],[127.17842899315504,36.96170251881347],[127.17859156682874,36.961455359112854],[127.17865467212962,36.96094822375117],[127.17872542564585,36.960807546398485],[127.17894371533613,36.96068552225512],[127.17909241802577,36.960345980283115],[127.1789764188819,36.95983636829093],[127.17919131793914,36.958058352476925],[127.17909888618347,36.957816794802014],[127.17924962422784,36.957601080508276],[127.17967197245473,36.95729561190128],[127.18006614135516,36.95721678842745],[127.18030072311315,36.95708527730321],[127.1805166418527,36.95668065860654],[127.18130851407474,36.956505625305006],[127.18132102876581,36.95665619130486],[127.18136452921853,36.956495201663486],[127.18206641597122,36.95616026674902],[127.18307063215796,36.955848914455075],[127.18405143500273,36.95581415410088],[127.18487883357291,36.9552510198094],[127.18514248726109,36.954989876138406],[127.18550120578531,36.95515022038912],[127.18563296997496,36.955295629968106],[127.1866100128109,36.955554241147276],[127.18736987648124,36.955481982923516],[127.18799508220037,36.955231438691925],[127.18831775197263,36.954520765604045],[127.18860301556131,36.95417080633678],[127.19016807492456,36.95282336145787],[127.19075507396656,36.95248905760916],[127.19215060424654,36.95218062971292],[127.19242804035115,36.952273584608385],[127.19302223076028,36.952234502880614],[127.19328814902528,36.95231784361683],[127.19358625466532,36.95230122426719],[127.19424880794264,36.95203027138769],[127.195468427251,36.9519498861731],[127.19757033481365,36.95229698709234],[127.19800312332447,36.952240053337434],[127.19883924276178,36.952298787531525],[127.20004852070295,36.95208858381646],[127.2004728608929,36.95212317065263],[127.20130687693562,36.952001637874275],[127.20216180604675,36.951697861090125],[127.2021272235111,36.95165740755898],[127.2032762213705,36.950865811731504],[127.2042912322454,36.94984278508206],[127.20453370176725,36.94858003717493],[127.20487858086356,36.94771313429301],[127.20570745253426,36.94701682164117],[127.20648387618827,36.94659736134973],[127.20688607755258,36.94613875152429],[127.20671963656945,36.94580988906473],[127.20661807041436,36.94513154200497],[127.20641212502446,36.944916227026276],[127.2062172120016,36.94392218695114],[127.20583147785926,36.943508603245036],[127.20627810529326,36.94291269747715],[127.20579275154034,36.94240238514929],[127.20574555624952,36.942015222326496],[127.20696121680342,36.94121996826813],[127.20779108084481,36.940860847510656],[127.2082664020843,36.94035386935461],[127.20911316362346,36.940157122702644],[127.20964670230035,36.939468882939806],[127.2096641918456,36.93930492508648],[127.2102397585835,36.93915803330497],[127.21125753253541,36.93855991252356],[127.2115659656618,36.937811025828914],[127.21158966596118,36.93737152770365],[127.21181562875373,36.93699029436295],[127.21152217542065,36.93653727073104],[127.21143964987833,36.93561964708202],[127.21063967529764,36.93501313467654],[127.21037573032132,36.934606090806376],[127.21017942293594,36.93416321649748],[127.21017178303927,36.93370459428757],[127.21047202752578,36.93340224106756],[127.21039001579348,36.933183998428525],[127.21004253831263,36.93283218917693],[127.20974507403255,36.932739082048734],[127.20986904306855,36.932084256124774],[127.20987148593937,36.93123527635772],[127.21046959789948,36.93054729761461],[127.21070217031019,36.9306000131897],[127.21167537570717,36.93013213793069],[127.21188599999621,36.93022844614071],[127.21202467142132,36.930169503042336],[127.21291566512444,36.930155028090276],[127.2136632363514,36.930248176535144],[127.21385439228602,36.930359668837426],[127.21482130731695,36.93012155936158],[127.2151023729767,36.93016962308609],[127.21527638510658,36.93041381957728],[127.21651288748237,36.930599771550696],[127.21674322694521,36.93069875945518],[127.21711941120499,36.92995467923448],[127.21716682520065,36.92964591010337],[127.21771456081412,36.92941632451744],[127.21856123914054,36.929688345147724],[127.21950569122275,36.930374122103],[127.22005336358094,36.930474555671985],[127.22034807907235,36.93045436329498],[127.22089734917476,36.930175538451984],[127.22117272929715,36.9298804733377],[127.22157603187162,36.929129230861214],[127.22201766504702,36.928599337733715],[127.22243702515385,36.92837945392321],[127.22264425817816,36.92841627547493],[127.22338822775441,36.92822450484226],[127.22434080817763,36.92759849809592],[127.2256562102851,36.92716117554942],[127.22649404113602,36.92612963885442],[127.22784576731979,36.92517909806591],[127.22839653950048,36.92451541193827],[127.22866778843246,36.924418530821185],[127.22905236826479,36.92447136832012],[127.22953318939355,36.92431883868031],[127.22976185141339,36.92432629126199],[127.23087110015544,36.92447125698119],[127.23126648416026,36.92469971457599],[127.23190535232435,36.92468638338144],[127.23248504707746,36.924175575577536],[127.2329294749923,36.92406676977409],[127.2337657951722,36.92361907506624],[127.23448577827881,36.92365313880875],[127.23495383549418,36.92390739289401],[127.23541102872977,36.92403126198299],[127.23580284787272,36.92401081473924],[127.23636242396333,36.923728632490466],[127.23714361542764,36.92199210271622],[127.23732924241013,36.920924157169],[127.23768018577735,36.92056374772573],[127.2379916904167,36.92036900030214],[127.23840725118347,36.92029802530079],[127.23942579191136,36.91946479763814],[127.23999595385237,36.919228784587254],[127.24082218738818,36.91912623792758],[127.24315698599234,36.91856850489596],[127.24354722149108,36.9182610150398],[127.24408455255771,36.917602914230194],[127.24502112334334,36.9178239631884],[127.24533318884309,36.917822982926396],[127.24625706141748,36.91823926765768],[127.2462952768304,36.918564954068856],[127.2466639363135,36.9187655117984],[127.24731703928715,36.91859382382849],[127.24817209172356,36.9185513511135],[127.24849417232008,36.91885192879416],[127.24895811567443,36.91904786734045],[127.24902906489423,36.91982390669583],[127.24891905806774,36.92121856401864],[127.249574225486,36.92149163576638],[127.25002826424988,36.92146003160019],[127.25047692384773,36.921328767835384],[127.2505707794427,36.921475198573546],[127.25128733612895,36.92174460365893],[127.2523030969755,36.92184811237798],[127.25261725470214,36.92199347719799],[127.25315002908026,36.92244391448994],[127.25334877668828,36.922155393787875],[127.253398575755,36.922178231809355],[127.25434197351119,36.92124897698738],[127.25509876693415,36.9202762855661],[127.25590660484663,36.91875314963938],[127.2570584259157,36.91766406735425],[127.25751994044634,36.91688715523789],[127.25784244050935,36.91652474369975],[127.25863740416743,36.91587931622523],[127.26190623581513,36.914667282401176],[127.2632850764623,36.91456892175081],[127.26465501226112,36.915208259206345],[127.26506150176343,36.91523737844411],[127.26575276345591,36.915060814538855],[127.26603247367741,36.91443515280558],[127.2664821410143,36.913965586767176],[127.26690430539955,36.913733561258205],[127.2673257222427,36.91375419230681],[127.26829754583272,36.91360645932012],[127.2682850814502,36.91382648895325],[127.26987274400062,36.913704858839104],[127.2703085257776,36.913274266254106],[127.27084650718612,36.91329345144701],[127.27252839952003,36.91357225824821],[127.27306183466888,36.91401662257825],[127.2743039996631,36.91344690810548],[127.27427836486137,36.91295343040811],[127.2733071445842,36.91225526177941],[127.27347225610013,36.91145472462811],[127.2736938964765,36.91102692008604],[127.27399345300033,36.91068276508417],[127.27402502959944,36.90960248580809],[127.27411673928496,36.90939446922949],[127.27459847090923,36.90868674148575],[127.27536098343752,36.90808734792403],[127.27689358426271,36.907108001351006],[127.27743935107412,36.90687112192852],[127.2781366736723,36.90671318408261],[127.27885698991938,36.90625326134377],[127.27913891681544,36.90481795651863],[127.27977016516104,36.90445065830306],[127.27964394763575,36.90294158567093],[127.27984201956255,36.90239822169586],[127.27983060502815,36.90199158980907],[127.27917481735598,36.90041137323384],[127.2803468790091,36.89959090377749],[127.28079784862292,36.89943673118185],[127.28183944165174,36.89847480189739],[127.28279488271983,36.89776405901102],[127.28310424366606,36.897749840237054],[127.2835565419695,36.897377705309324],[127.28350266336939,36.89732744108175],[127.28309543175274,36.897456742537564],[127.28270178546146,36.897417738420735],[127.28318219894732,36.89661329957429],[127.28458309802144,36.89534611835799],[127.28589214490285,36.89450025821429],[127.2866708820709,36.89413843467909],[127.28753046919766,36.893791291110475],[127.28805765704135,36.89378173963929],[127.28903934822999,36.89395490772561],[127.2903258562898,36.89433480532413],[127.28963999788394,36.89564941416771],[127.28974121568918,36.895914261129015],[127.29008148920545,36.896264763331146],[127.29011535405483,36.89669819861742],[127.29035220000057,36.89701361285294],[127.29020612236953,36.897402946671434],[127.29033572747379,36.89770555111222],[127.29055284723157,36.89797520820125],[127.29114006514025,36.89836170477907],[127.2918955875255,36.89868452596501],[127.2923854353268,36.89910064793675],[127.29294847293978,36.89975259026968],[127.29376790620879,36.90031699302951],[127.29423949255992,36.90110425926577],[127.29421843762204,36.901421165843885],[127.29452823271079,36.90174794804335],[127.29619630411479,36.9026661506602],[127.29645515040306,36.90269366511112],[127.29651878678713,36.90362224686153],[127.2966482992333,36.90392655675523],[127.29736436442572,36.90396540694202],[127.29760438139836,36.90495716516484],[127.29718232584108,36.90570608706149],[127.29732215763589,36.90618540431324],[127.2972857778694,36.90673658235906],[127.29853189790192,36.906952923881],[127.29896563101083,36.90783036012172],[127.29970557719824,36.90820394702579],[127.2990658266996,36.90896556107068],[127.29954578207331,36.90939687080236],[127.29989496629949,36.90947458795475],[127.29999711904975,36.90987909867068],[127.3003586257803,36.910084048548704],[127.30086878940395,36.91105222009555],[127.30151392581578,36.91172123271394],[127.30196593056596,36.91192915938448],[127.30195245412246,36.912178686663786],[127.30132794689492,36.91284585630825],[127.30145479408432,36.91307432571077],[127.30175464108534,36.91322358449704],[127.30209297667322,36.91391014654755],[127.30260584273022,36.914283598017725],[127.30285751899619,36.91501067836993],[127.3029056323154,36.915788587101844],[127.30320177463769,36.91593866537627],[127.3033565784211,36.91640655110586],[127.30290073795292,36.91688783026999],[127.30261262828826,36.91701321293307],[127.30234207765774,36.91749482466314],[127.30163059595709,36.91829362503569],[127.30064118819088,36.918914134164254],[127.30057251654922,36.919572179283364],[127.3009085809751,36.91979154381701],[127.30009802838136,36.92081344959171],[127.29963201244911,36.921694385067454],[127.29920178996372,36.921920419204724],[127.2984398302131,36.922746058872534],[127.29824286762846,36.92322631621214],[127.29839489319004,36.92344701565621],[127.29832762295183,36.9236919164039],[127.29837210552785,36.9240592889367],[127.29792402835415,36.92430531831023],[127.29800885979897,36.92440552386386],[127.29773792576769,36.92494334739627],[127.29783270403334,36.92522701564498],[127.29750849745693,36.92556199315287],[127.29741108918707,36.92606469342872],[127.29649799276527,36.926797500978964],[127.29537380835366,36.9292614204024],[127.29496098413152,36.93068073882401],[127.2956586673906,36.93128847399074],[127.29553239068711,36.93053899692802],[127.29641520112263,36.93011450512799],[127.29820422273,36.930127500958655],[127.30019701533318,36.92943797760876],[127.30073469869491,36.929674367176126],[127.30144662942125,36.929504680085394],[127.3021591279972,36.92969192867489],[127.30265945658081,36.92968627050376],[127.30335761024607,36.92999567089548],[127.30384412931787,36.93009524744078],[127.30463026292264,36.92954449374505],[127.3058984625857,36.929413275133605],[127.30741382059209,36.929867026735515],[127.30781102310894,36.92965230411936],[127.30906905326597,36.929378623763824],[127.3097745897198,36.92994365021217],[127.30999842592695,36.929783703213886],[127.31070086293379,36.93005797379382],[127.31128325898071,36.93056898724839],[127.31227788494304,36.93069060069845],[127.31275163516838,36.931059122918505],[127.31337992928968,36.93122653780528],[127.31457571047301,36.93115323843305],[127.31487814137184,36.9312349941024],[127.31488351740771,36.93252694548885],[127.31521761941944,36.933018297257256],[127.3152963011172,36.93345139596033],[127.31593857195901,36.93414916109236],[127.31608221415856,36.93449149352211],[127.31628629991013,36.93470979839391],[127.31727211180609,36.93452761225311],[127.31779842058039,36.93457916348589],[127.31828160078858,36.93421334639812],[127.31876962813814,36.93425035744011],[127.31897199154268,36.93453041354115],[127.31905056208917,36.93452140155985],[127.3192597204684,36.93471133136149],[127.32004459578417,36.93497937983577],[127.32028560949374,36.93538720988354],[127.32086613669249,36.93561381932342],[127.32133264405252,36.93560891495552],[127.32211658422112,36.93622844227424],[127.32291658291473,36.93653793410232],[127.32427407507,36.93592272643472],[127.32685576586215,36.935954471979514],[127.32698264992214,36.936286706553915],[127.32754851726416,36.93676171101332],[127.32784104863613,36.93677736991923],[127.32807134969974,36.936671079831484],[127.32935416582863,36.93733758799726],[127.33035835114856,36.937586664215914],[127.33157209067079,36.93875977345269],[127.33203482373747,36.93907591863276],[127.33239544250212,36.93918329510542],[127.33238829164276,36.93976148476767],[127.33322132891979,36.940354604283954],[127.33392233000731,36.940592235486776],[127.33660802737933,36.94175543378889],[127.33841599576428,36.94242175368591],[127.33885337952657,36.94250678683728],[127.33912210460382,36.94312579872221],[127.3397134394716,36.94317474473787],[127.34020540515314,36.943396461397654],[127.34062924223315,36.94311427287699],[127.34144348318996,36.94321740692025],[127.34195196564505,36.943133465499066],[127.34318397855287,36.944337083815796],[127.34253410385354,36.94573127250824],[127.34269399587882,36.9459241964371],[127.34241869820298,36.94634007611366],[127.3429566502294,36.94670382970925],[127.34320930092395,36.94721587168068],[127.34342831731199,36.94746448307248],[127.34312857189556,36.9477851028763],[127.34324659154139,36.9482833188163],[127.34412338024468,36.948420600818324],[127.34466309811226,36.94900450097385],[127.34485406651334,36.949342469754434],[127.3454342381385,36.94953332399488],[127.34583277432418,36.95002578115913],[127.34675947892907,36.95002833273223],[127.34675307652776,36.95035371173741],[127.34718799890219,36.95053439082139],[127.34788037528178,36.95102650664204],[127.3482847347445,36.95160748527353],[127.34905749666392,36.95200631568454],[127.34965606272803,36.95279174156214],[127.3495692954595,36.95282594084259],[127.35098176158628,36.95286400499794],[127.35246324737432,36.95257734592813],[127.35305803313636,36.952825287832184],[127.35394577325995,36.95269312170942],[127.35470348694236,36.95201198751822],[127.3551220920869,36.95182656596939],[127.35565573617374,36.951424592376206],[127.35573996488334,36.95065562297442],[127.356601682749,36.94917053646492],[127.35727615739106,36.94868845122836],[127.35756212360363,36.94770963046479],[127.35869414721756,36.948129048311756],[127.35948148090803,36.948823251685575],[127.35987303503569,36.94867418180549],[127.36036870794709,36.949076082154534],[127.36115009969173,36.94926445482833],[127.36172004856928,36.94952216828159],[127.36305503847225,36.94934196487289],[127.3634791136547,36.949048742695815],[127.36448105102274,36.94897287938145],[127.36572811868758,36.94916891895413],[127.36731951450918,36.95029281443073],[127.36787899433597,36.949754749747086],[127.36862648102948,36.949544071780984],[127.3693905279554,36.9500780320349],[127.36988259735436,36.94986647003527],[127.3720801703785,36.94991455197234],[127.37249399452278,36.94936462570823],[127.37313428011551,36.94896578874688],[127.37378464831426,36.948857577536884],[127.37475285078851,36.94857240116151],[127.37539857949545,36.9487233521558],[127.37572300374812,36.948672291405764],[127.37571545233756,36.949144805646675],[127.37588097552165,36.94949499379912],[127.3758511974902,36.9499053027306],[127.37673981895824,36.950365832635924],[127.37754092235677,36.95120511798095],[127.37758298155593,36.951432137391215],[127.37828038824625,36.952095735319126],[127.37839838525412,36.95264331559328],[127.37826216058679,36.9531885440015],[127.37880040879753,36.954105949789614],[127.3787374436251,36.954401831339695],[127.3785767589757,36.954597326728376],[127.37837121581595,36.95611808655002],[127.37878964816603,36.95699785086418],[127.37878623923771,36.95790844597736],[127.37934516648465,36.95828880458292],[127.3796868501134,36.95873661238337],[127.38059870499963,36.95890833024213],[127.38119611402074,36.95879460771377],[127.38165021745084,36.95908383123622],[127.38220484934186,36.95922659525649],[127.38269375608357,36.95981798781389],[127.38355969401658,36.95938773131194],[127.38390663450892,36.959448197630174],[127.38407432229761,36.95958804091613],[127.3848817181991,36.95963315962867],[127.38525699218201,36.96013426851205],[127.38517946936574,36.96076478383868],[127.38533894621584,36.961124994463184],[127.38577679730894,36.96150014853282],[127.38643104874804,36.96317856049782],[127.38729125172682,36.964486227290145],[127.38830432945292,36.96475056962239],[127.39009388508072,36.964014566644465],[127.39103705678068,36.96536028797465],[127.39165833375449,36.96542469700322],[127.39191564953464,36.96561287435339],[127.3924697286959,36.965580916284445],[127.39306740279787,36.96565579842952],[127.39446220561848,36.96545295856658],[127.39513420786002,36.965058296115764],[127.39581698235605,36.965054957819454],[127.39634753219121,36.96449268425837],[127.39705887617845,36.96471765544781],[127.39749513759932,36.96466930058308],[127.39805975170557,36.96488500734788],[127.39897951341294,36.96580808274534],[127.39951860626397,36.96595466485332],[127.40002342692823,36.96656466795954],[127.40046307349589,36.96695157807767],[127.40155874448446,36.9677044159791],[127.40054479899776,36.96854259323181],[127.39968673851246,36.96988949001101],[127.39837280706638,36.97065499933772],[127.39795430273001,36.971683335609555],[127.39741030947367,36.972565175922476],[127.39637466064083,36.97330354396586],[127.39640786817357,36.97365411848362],[127.39630131985146,36.97388205539314],[127.39670572473298,36.974624649933055],[127.39539545370043,36.97537617442087],[127.39503850614346,36.97618645788581],[127.39452506713857,36.97641479891566],[127.39434714637976,36.97700472733289],[127.39413185493349,36.97708228527371],[127.39292102884316,36.97795571917237],[127.39239310937354,36.97818535395165],[127.39130462408804,36.97805776335179],[127.39075627501852,36.97830916008479],[127.39055171553085,36.97871771424767],[127.39025009408908,36.97889438059302],[127.38951200605354,36.98010165117208],[127.38773131083711,36.980901744252776],[127.38683569306563,36.98108016437903],[127.38622589995187,36.98142324858183],[127.38620096196269,36.981894229834516],[127.38560260704385,36.98278672551245],[127.3853641188772,36.982947998367436],[127.38509948794146,36.98365852292046],[127.38515863254172,36.98420737981318],[127.38563621739047,36.98483472360758],[127.38628594457357,36.98503343120674],[127.38674883514389,36.98633519019048],[127.3878358609954,36.987080346627515],[127.38838460644092,36.98723035036082],[127.38857451371052,36.988193118102586],[127.38901637966296,36.988737706877245],[127.3892777390398,36.9895271923389],[127.38959512006392,36.98975110015611],[127.3899209083971,36.99013110896146],[127.39021662360172,36.99031103158169],[127.39021209697927,36.99066140964912],[127.3909011992691,36.99113239134516],[127.39125000283417,36.99168658552979],[127.39153432395211,36.992481594508014],[127.39217588899662,36.993464085440145],[127.391659168002,36.99398507297698],[127.39188667541531,36.994816149778885],[127.39207613318099,36.995043927599625],[127.39215718885993,36.995533502978304],[127.39263403222517,36.99607590991118],[127.39266423992026,36.99627660748203],[127.39249946852857,36.996711197323805],[127.39265492476721,36.9970351183078],[127.39305957008489,36.997459161736465],[127.39363770733698,36.99788590141113],[127.39416308390174,36.99840280760781],[127.39473452705133,36.99849370341414],[127.3954991243508,36.99876280161869],[127.39622954066874,36.99864160340696],[127.39667137209547,36.99849093407454],[127.39731272171656,36.998433095168835],[127.39766208283224,36.998613991934675],[127.39873865528936,36.998826186363694],[127.39937631041208,36.99932990493995],[127.39979937345758,36.999862375406394],[127.40027252651177,36.999833188531106],[127.40131746807789,36.999554605622855],[127.40167087831657,36.99929931286216],[127.40254645987356,36.99892459306026],[127.40415783114923,36.99881217002763],[127.40453646256682,36.99865329836821],[127.40561679125344,36.99859756069606],[127.40684572901556,36.99832947785031],[127.40737402295713,36.99853737637817],[127.40796346391271,36.99855452058116],[127.40950389841353,36.99979264674976],[127.41010153809663,36.999603707770085],[127.41127214049011,36.99992122933265],[127.41135613909418,37.00018383726875],[127.41318191791365,36.99997347388368],[127.41397709933939,36.9994829918964],[127.41459804637826,36.99966572101932],[127.41497060211177,36.99998164668024],[127.41581065546765,37.00033145535425],[127.4158267496375,37.000576253515895],[127.4174519498693,37.00122211562196],[127.41737094607781,37.0015366626945],[127.41856368632509,37.001639611424935],[127.41857289372382,37.00196400180642],[127.41907063846908,37.0024598110143],[127.41920822958599,37.002970454629306],[127.42015813341975,37.003481611176674],[127.4203534263667,37.00376594005893],[127.42124102834305,37.0039679595871],[127.4218047943573,37.003857238601285],[127.42240460550059,37.003523756081094],[127.42366061534085,37.00301018054193],[127.42457192188174,37.00360980758778],[127.42506801599971,37.00354765186249],[127.42538365444162,37.003317991948016],[127.42551187122217,37.00299850217708],[127.42570976007389,37.00282887559488],[127.42706300802658,37.00267300812251],[127.42880730450685,37.00219998055761],[127.42951339609581,37.00173177807108],[127.42942656450964,37.00141268792989],[127.42956179361565,37.00125510594768],[127.43090849528261,37.00200939526833],[127.43140943060376,37.00242114019317],[127.43141179514431,37.00306698896554],[127.43302825184851,37.00458908676098],[127.43369888234032,37.00468630518752],[127.43417206962603,37.00492398136205],[127.43444201866365,37.00523211745677],[127.43539471339467,37.005149274478484],[127.43623124698256,37.00533144855716],[127.4365864772477,37.00556432809733],[127.43669595968319,37.00594918506305],[127.4371613241797,37.00658985271319],[127.4369598336451,37.007832464416],[127.43689981159777,37.00781857736325],[127.43700686850059,37.00793397368641],[127.43706797149046,37.00825930031301],[127.43765578613154,37.0086613740102],[127.43784787396461,37.008547009709446],[127.43778453689346,37.00869669694702],[127.43846306178907,37.009998867291436],[127.4390542177559,37.010437362926126],[127.43955375677317,37.01053746201986],[127.44029620438559,37.011357157701816],[127.44055766558915,37.01149669680557],[127.44063275629165,37.01191190208417],[127.44085766684654,37.012107203395615],[127.44125131464047,37.01211182497804],[127.44140603999034,37.01189699792732],[127.44195906327148,37.01176135038109],[127.44458830506915,37.01199996548328],[127.4453378919518,37.01151623021342],[127.44577031629856,37.011332399378354],[127.44593864410925,37.01104790922546],[127.44625630951819,37.01081590534382],[127.44651589278345,37.01079298176693],[127.44664325616176,37.01070145266373],[127.44710628072336,37.01082578837503],[127.44716402009583,37.01196746224564],[127.44763301031985,37.01243653661696],[127.44827162473123,37.012616500901125],[127.44859887705583,37.01313699984986],[127.44857479466557,37.013560558440396],[127.4488772828455,37.01499655795848],[127.4491209622227,37.015276866461846],[127.44859069071674,37.01551112065915],[127.44866287060337,37.015678594476455],[127.44832793577004,37.01654305668801],[127.44865360421292,37.016652966425205],[127.44900755188617,37.01720804567948],[127.44942834023456,37.01745134416478],[127.4497233921526,37.018380223314026],[127.45008148610458,37.018343721922825],[127.45061107130846,37.01853319182595],[127.45093959637782,37.0192889872173],[127.45174371072103,37.019451431868795],[127.45199536929913,37.02000739782138],[127.45258898370601,37.020357710607996],[127.45334717385046,37.02001213764006],[127.45369528922866,37.02123812386949],[127.45436372630084,37.02125012855855],[127.45483923093548,37.02140665615436],[127.45524617496892,37.02109749932518],[127.4557838900664,37.02100909837923],[127.45604627571154,37.02103603170941],[127.45634515817126,37.02070080645282],[127.45682455685576,37.02065219591272],[127.45740076130829,37.02035939114233],[127.45835979568238,37.02049624556155],[127.45837875810241,37.02118154472999],[127.4587469526303,37.02177594737408],[127.45899455184403,37.021919830828125],[127.45903183981281,37.0223430966145],[127.45926025490094,37.02271093551341],[127.45903432031014,37.02310441717403],[127.4595062974203,37.02388900265742],[127.45924126720446,37.02443549059098],[127.45938651730349,37.024738622267215],[127.45973536259372,37.02508317201631],[127.45962380955142,37.025259284324726],[127.45950672594356,37.025835263966215],[127.4592927338711,37.026166703942536],[127.45911361575958,37.027462325464754],[127.45884366856788,37.02759153451819],[127.45835535755221,37.028277187700304],[127.45803881992354,37.02903021006857],[127.45796416971379,37.03000047392824],[127.45758310043904,37.03007573462776],[127.45685747457904,37.03005391062672],[127.45624083456192,37.030340170941166],[127.45634912182769,37.031162466711756],[127.45692106745972,37.031885070195884],[127.4575199407182,37.032346696162406],[127.45764760130584,37.032732944857436],[127.45811872887374,37.03305840495736],[127.45791998831875,37.03321116442065],[127.4579459169102,37.033271921509254],[127.45812118190764,37.033259759997854],[127.45833849481754,37.0334815631578],[127.45847160603596,37.034523978325936],[127.45963086167733,37.035663344750745],[127.45942168842603,37.03648154420617],[127.45949937295829,37.03674067088158],[127.45933297191768,37.03717470109231],[127.45969241249409,37.03815252250344],[127.4594779961992,37.03879544452247],[127.45885447073144,37.0394758148399],[127.45867545045517,37.03950243515784],[127.4576971017781,37.04028422205252],[127.45717985721463,37.0402461761679],[127.45707524109922,37.040634143786356],[127.45716974248565,37.041297040375966],[127.45682747369483,37.042255368735844],[127.45704730681706,37.04247375840235],[127.457375718852,37.04252299610867],[127.45753300272706,37.04287216981334],[127.45755034782229,37.043651134186995],[127.45833833434538,37.043983529647186],[127.45895998375654,37.04412876034494],[127.45915884587792,37.044323142546844],[127.45927396316667,37.04483392681073],[127.4598157670432,37.04512701517076],[127.46005906138988,37.04580151567412],[127.46029635559607,37.04617213055172],[127.46117177747297,37.04686811239434],[127.46190368982403,37.04687499324818],[127.46246862953998,37.04764603606395],[127.46339460138299,37.04818697941664],[127.46356079279548,37.04885221788727],[127.46350770222625,37.04821247079915],[127.46397686652045,37.04844985399],[127.46495366130709,37.04866540034199],[127.4651573157824,37.04884204252685],[127.46589456020543,37.04914036145968],[127.46704347586227,37.04996806864171],[127.46750612478102,37.05005431938661],[127.4680071078467,37.050315060484174],[127.46836425114601,37.05038938944932],[127.46834898818462,37.05101613525585],[127.46813154984515,37.05136247152977],[127.46797005927397,37.05190108056941],[127.46781447935551,37.052259962840196],[127.46744278635634,37.05252680335452],[127.4680731613226,37.05317967663027],[127.46823410802833,37.05349197685404],[127.46899196815363,37.05348783244062],[127.469672196646,37.053865502118875],[127.46999065266165,37.05386651157835],[127.47024565322205,37.053609189140694],[127.47103034511287,37.05379399718839],[127.47190555109417,37.05380938783676],[127.47235799668412,37.05320642522389],[127.47350059632818,37.052910627689236],[127.47391663176123,37.052991713811934],[127.47440878244514,37.05291714612844],[127.47469071028534,37.05300395168711],[127.47508137401255,37.05291518896305],[127.47637866961585,37.05348755899817],[127.47719295992644,37.05365406911171],[127.47752301627868,37.05352176541816],[127.47806806079736,37.053486341884806],[127.47853825956848,37.05336189465621],[127.47904337207066,37.05346420766636],[127.47927639951031,37.05340880134484],[127.47985029282351,37.05357751358705],[127.48136571867548,37.05362493337727],[127.48185982213138,37.05402704084882],[127.48255947124622,37.05398010890162],[127.48342836209177,37.05362811500358],[127.4843786646977,37.05386021916653],[127.48512091227326,37.05468633525465],[127.48582636127546,37.054922309045686],[127.4864815141948,37.05479697792593],[127.48705385614521,37.0544547580125],[127.48780760460649,37.05489640563139],[127.48820054700188,37.05538176872433],[127.4882467776566,37.05564162984164],[127.48870215920563,37.05583006487545],[127.48898162395908,37.0556369317793],[127.48935693276403,37.05578550441801],[127.4907564393665,37.05591860133029],[127.49084086062807,37.056015205593695],[127.49150022521646,37.0562568390934],[127.49215512875006,37.056171256952965],[127.49274325357113,37.056346641406755],[127.49359715873992,37.0567450884977],[127.49467400384202,37.05703564696519],[127.49535675862315,37.05695619619087],[127.49664122084697,37.05718679935757],[127.49734113900213,37.05741403262619],[127.49774184515951,37.057249646367126],[127.49788155994149,37.05727167098317],[127.49846120190848,37.05751933995963],[127.49971582970748,37.0584139689054],[127.5000209205073,37.058395561959976],[127.50002808518023,37.05829130209153],[127.50069676771143,37.05865181057682],[127.5011243363664,37.05875602208389],[127.5014132920605,37.05896520577018],[127.50147025501826,37.05921208981557],[127.50236096502077,37.0593488229625],[127.50242838465562,37.05972589140559],[127.50273562378047,37.059892695055595],[127.50328727819348,37.05976618283748],[127.50423852021734,37.06047056910843],[127.50477600224515,37.06049550938786],[127.50509245308524,37.06087061885928],[127.50506518912994,37.061225180935075],[127.50549308546903,37.0612229263375],[127.5060346583308,37.06155827840391],[127.50627990786661,37.06220447634367],[127.50656583804839,37.06223104413627],[127.50683224615709,37.06268435096564],[127.5071220705471,37.06283477414204],[127.50731771677903,37.063244355530706],[127.50729583928627,37.06360144165736],[127.50786262551786,37.06375129576919],[127.50835946433601,37.06445143201558],[127.50880843857557,37.06447276349239],[127.50934287673809,37.06566755409989],[127.50988042857796,37.06619536262511],[127.50989688728005,37.066468973172185],[127.50887165266778,37.066287577815324],[127.50812986326021,37.06605936112181],[127.50791955779242,37.06606442337314],[127.50804937425488,37.06612377399217],[127.50784018607033,37.06682193873081],[127.5078979991195,37.06730721220762],[127.5071677658136,37.06778861462078],[127.50707409599688,37.06839820502787],[127.50682063433752,37.068673932028354],[127.50676000703253,37.06898777823521],[127.50689518488879,37.06907712945432],[127.50690393026758,37.06962629959977],[127.50768532049214,37.06980294130294],[127.50836831142414,37.0701358120686],[127.50865502768823,37.069881912098516],[127.50884126406622,37.06982410753644],[127.50952210309086,37.06990879848918],[127.51009943359054,37.0701235169862],[127.51050660759367,37.07007824774674],[127.51082312591276,37.07021193775433],[127.51130671633894,37.070240648333396],[127.5120408615238,37.071323421500935],[127.51202462159542,37.07163592260903],[127.51226317364151,37.0718101900723],[127.51232549201865,37.07199268753978],[127.5127081756296,37.07196262045701],[127.51302671783034,37.07215334694021],[127.5130304915528,37.072446167683076],[127.51325705903609,37.07263629964078],[127.51337142578836,37.07303459349227],[127.51355065680387,37.07316138658276],[127.5135251406396,37.07340520877047],[127.51403258900756,37.0745237183948],[127.51397077480223,37.075283344039356],[127.5148507139902,37.07627975154356],[127.51472262712247,37.07672948258091],[127.51491462256239,37.076948812877745],[127.51462752743505,37.07713439923657],[127.51448665249852,37.077617827027154],[127.51408723903376,37.07791679871345],[127.5141145272497,37.078008957784384],[127.51390782624505,37.078277689788784],[127.51362896014685,37.07840651862711],[127.51272028519787,37.07832357071903],[127.51283409724557,37.07853397048829],[127.51279193994024,37.07872616914479],[127.51328189269753,37.07918306866512],[127.51422437425647,37.07950015487862],[127.51467998424123,37.079800140616626],[127.51473903804353,37.08025806012857],[127.51530942980342,37.08069587587089],[127.51590115877421,37.08134372832089],[127.51658769683394,37.081670294693744],[127.51626316337561,37.082418301571],[127.51540594938379,37.08307829910032],[127.51474778908492,37.083093301438154],[127.51439459682888,37.083246308538286],[127.51434550462433,37.08358874981479],[127.51487004473529,37.08372570260331],[127.51518567571722,37.08399539756727],[127.5154765283349,37.0845171888603],[127.51540727696076,37.084801355678756],[127.51563560267634,37.08523636493824],[127.51570541252423,37.08569804109151],[127.51537611925487,37.08584812724816],[127.51541149128902,37.08633289360427],[127.51550099562178,37.08648378128928],[127.51566008585282,37.08649336963082],[127.51584849389867,37.08723913348103],[127.51559949663215,37.08770795498011],[127.51604413689935,37.088394172010425],[127.51579844509948,37.08869999691658],[127.51572844642747,37.089300899066025],[127.5149438865067,37.08956822925125],[127.5151636004305,37.091055108847065],[127.51477404621455,37.0918302517767],[127.5149622341934,37.092349298010404],[127.51479929418686,37.092568672160894],[127.51483899262213,37.093429946364076],[127.51416337751272,37.093977439582424],[127.5135883598618,37.09399165929362],[127.51334102442009,37.094260141837246],[127.51362883460004,37.09498726448372],[127.51360530375214,37.095297241396246],[127.51374975072947,37.095562965838475],[127.51339452657453,37.09563648192272],[127.51309247726581,37.09554079297176],[127.51285258199287,37.09665995150318],[127.51252306762443,37.09701973774691],[127.5120541769388,37.097944453275765],[127.5119096829845,37.09844811373542],[127.51159853615846,37.09823492981341],[127.51178209645781,37.09863016985743],[127.51199467872352,37.09979196285598],[127.51149028626452,37.099632532199244],[127.51194485520406,37.10020049493672],[127.51302717860368,37.1003560485233],[127.51453245020407,37.100822822138866],[127.51485146711634,37.101015868404545],[127.51532994958374,37.101691824073974],[127.51548138298601,37.101746232591],[127.51570626747406,37.101999423002674],[127.51547924412421,37.1029048014258],[127.51529296296086,37.10306141252943],[127.51425510743249,37.10309020722528],[127.51416798488465,37.103190285106756],[127.51417883768987,37.10345195010604],[127.51376820011686,37.10392718583155],[127.51417423357798,37.104472726741804],[127.51389649312507,37.10469437545384],[127.5135298340785,37.105257746619095],[127.51364397108243,37.10547397684465],[127.51362586887714,37.10569792942177],[127.51312026203746,37.1057918069522],[127.51266296321849,37.10564237305249],[127.51226268790883,37.105740778823225],[127.5117236690741,37.10542808328256],[127.51123334686164,37.105455939767246],[127.51071439521435,37.10534161474733],[127.50838742844446,37.1059153620739],[127.50775794922977,37.10571638790789],[127.50760830826238,37.10616545239689],[127.50708252428169,37.10700328900748],[127.50669564494662,37.10729669881762],[127.5065567145442,37.10754612231056],[127.50570456461293,37.10799182264592],[127.50509629012733,37.108120429827984],[127.50486761061809,37.10826860690909],[127.50466337200142,37.10853467113808],[127.5045337317528,37.10901355894429],[127.50439958119878,37.10918345582329],[127.50377038576673,37.1095952670683],[127.50361818059865,37.110268204519905],[127.5038867058243,37.110658621715565],[127.50415672629282,37.11158489993611],[127.50411725411637,37.11222103759195],[127.50420726496685,37.112633274501846],[127.50389651137772,37.112897961764276],[127.50370626738562,37.113336114861234],[127.50378241883428,37.11346885640513],[127.50371358535511,37.11429414078651],[127.50307200649348,37.11468224988144],[127.50249104914604,37.115175730855064],[127.50074365212818,37.11552914049276],[127.50006324810113,37.116093056468934],[127.49991333884988,37.11638537965476],[127.49994618396389,37.11688147903824],[127.49981253754449,37.117367978047376],[127.49986232367932,37.11763828845344],[127.49962121761651,37.1189371241065],[127.49970950187023,37.119132318891296],[127.49942880205793,37.11995081155892],[127.49950353382275,37.12015963593862],[127.4992175187934,37.1205875136295],[127.49832920082513,37.12112373487019],[127.49886231726798,37.12168240802182],[127.49877901577683,37.12239130535866],[127.4989991807942,37.123268077733],[127.49822355695062,37.12393970175158],[127.49787012021032,37.12405853066614],[127.49701371872995,37.12470632957939],[127.49682787675972,37.12455632780057],[127.49651803379297,37.12445179899142],[127.49610514526542,37.124503816339875],[127.49595996522787,37.12460052526256],[127.49489493153841,37.12420785092281],[127.49427284812104,37.12426357558069],[127.4934150735333,37.124007580691256],[127.49314253894504,37.12383527605291],[127.49272573326621,37.123776568501526],[127.49244777491784,37.123605956603924],[127.4923906024314,37.12335143583545],[127.49206256734736,37.1231417971437],[127.49102490086857,37.12346395523499],[127.49058922874015,37.12379370747403],[127.49031310426726,37.12428688138925],[127.49003373120004,37.124544431132335],[127.49005088715576,37.124804511420045],[127.48963075117442,37.12512315582156],[127.48935458056629,37.1255453222327],[127.48899201860495,37.12571806502838],[127.48871192812057,37.125661970128434],[127.48803408504021,37.12511956197854],[127.48727431984942,37.12491724840138],[127.48611456392734,37.12500773838738],[127.48588596144799,37.125177683885205],[127.48550764839045,37.125210035417524],[127.48506622188864,37.12514690800416],[127.48496145651164,37.125221559702396],[127.4848693823187,37.12555781514607],[127.48427812602755,37.125886135921235],[127.48411471681017,37.1258056079789],[127.48364328521089,37.125906151782495],[127.48319663577189,37.125676397517665],[127.48280809233906,37.12582998949805],[127.48243159672494,37.126210758801676],[127.48227974123444,37.12660381102285],[127.4819306528338,37.12650626034398],[127.4816242688247,37.1265814731135],[127.48108064844241,37.12639628926384],[127.48065021867231,37.126505192902556],[127.48051971507128,37.12683165816769],[127.48031235369511,37.12685381696292],[127.4798847043134,37.127119944580734],[127.47978958748617,37.127332132528416],[127.4792822021879,37.12777643772977],[127.47890271635927,37.1276374434132],[127.47864422865824,37.12766625169757],[127.4779409193607,37.1273139727982],[127.47744892064645,37.12758021482966],[127.47681699666806,37.12710156322945],[127.4766858403237,37.1271134182719],[127.47656271558226,37.12699994983434],[127.47594196746279,37.12713271335578],[127.47567967246093,37.12706464742715],[127.47553865827271,37.1273087870195],[127.47483078115306,37.12740944504135],[127.47423291960006,37.1277243190519],[127.47400615187408,37.127727676927655],[127.47360670084173,37.128118157427394],[127.47256992231112,37.12875680589364],[127.47246916499016,37.12893866272063],[127.4719164891412,37.129083878575514],[127.47164398327637,37.1294294374119],[127.4708218562342,37.12964819361187],[127.47020836532998,37.12971114064999],[127.4695509165676,37.12944953383656],[127.469018499719,37.129806647930046],[127.46879965831774,37.12943636701617],[127.46839201942797,37.1293425380575],[127.46772492167568,37.12947632783545],[127.46702004305932,37.12967938673747],[127.46650585122414,37.13049571557706],[127.46628003492998,37.130669734377896],[127.46533883690988,37.130190347552755],[127.46448391924918,37.13015008033672],[127.46407125253597,37.130502214095245],[127.46367626890199,37.13035944352884],[127.46343360876949,37.130500549806925],[127.46280829810783,37.13060309046177],[127.46243259720795,37.1305604879308],[127.46169987685155,37.12997833980222],[127.4614487465976,37.130055843889224],[127.46116550002245,37.129949626896995],[127.46003688001788,37.130399747007345],[127.45950252915242,37.13021229502847],[127.45844151090508,37.13027428827049],[127.45810791463222,37.13079247106522],[127.45832608975165,37.131509720047184],[127.4577433408278,37.13194051105791],[127.45754033051838,37.13242013064738],[127.4571114498744,37.1326762507359],[127.45682187566183,37.13298022252627],[127.45659864749045,37.133104879873045],[127.45549978404418,37.133371419755235],[127.45484978870853,37.13310355061545],[127.45455555272275,37.13310841403698],[127.45438898041492,37.13438533225219],[127.45397185923778,37.134838622543995],[127.45365924090208,37.135417547396074],[127.45276284727167,37.13566969998423],[127.45260236844784,37.1366690426616],[127.45266453909606,37.13745007756327],[127.45238027252805,37.13828225555157],[127.45157414550506,37.138634159536245],[127.4516361922815,37.13920654259163],[127.45114417472246,37.140114487040016],[127.45126623366653,37.14081018227561],[127.45121744665688,37.140947989543456],[127.45045339122886,37.14127540241162],[127.45044191273597,37.14138619131161],[127.44973572940023,37.141996985485],[127.44952200627262,37.14272268295044],[127.44985551672396,37.14315090939135],[127.44810934290719,37.143957749915174],[127.44771350704696,37.144667931682264],[127.44749710598408,37.14486306574646],[127.44743657056331,37.14513918917345],[127.44669098773657,37.145503904546025],[127.44594724209003,37.14566626513216],[127.4455324070926,37.145978147059154],[127.44477112376545,37.14601368033865],[127.44436086997743,37.146979910447044],[127.44317881877276,37.147709851762684],[127.44284733098542,37.14780461194857],[127.44223403291481,37.1482495531643],[127.44171856854993,37.14842275210817],[127.44039146861849,37.14848358701093],[127.43875672961767,37.14797172945171],[127.43755141677505,37.14814755355409],[127.43707218863307,37.14862288940189],[127.43680046595625,37.14876744079414],[127.43585955925326,37.14835152487818],[127.43455904445247,37.14860659195372],[127.43423929446858,37.14839379700173],[127.43368015530903,37.148305651077536],[127.43329782646171,37.14863825889707],[127.43261817939647,37.148973590369934],[127.43235839987875,37.14898613439628],[127.43182158281819,37.1485160607334],[127.43143265583844,37.14855072133885],[127.43019459107606,37.14827486718721],[127.42916599684685,37.14752952155621],[127.42748674840439,37.14674859721891],[127.42783036308676,37.14642110454705],[127.42747938195065,37.145241047992826],[127.42666764031847,37.14364293349329],[127.42551165942926,37.141930224880376],[127.42578090572997,37.14110177133951],[127.42585819484366,37.13928857448181],[127.42681357592363,37.1372575259189],[127.4265182184193,37.13669220574729],[127.42482037491548,37.13540198140036],[127.42499709720526,37.13343851616508],[127.42380789357853,37.13177096438261],[127.42387895512503,37.13112072367403],[127.42108306174006,37.13004567037772],[127.42171369373413,37.128718112093836],[127.42165602313263,37.12810258224627],[127.42121914658148,37.12708442356295],[127.42133180375549,37.126778906824285],[127.42108122273066,37.12640644337755],[127.42102131468734,37.12614150215679],[127.42087131939319,37.12611896570463],[127.4201352725203,37.12552162156612],[127.41959469852085,37.125329865905165],[127.41930167778696,37.12502220021338],[127.41885117888796,37.12508450559589],[127.4180823324022,37.125060828274755],[127.41788046550835,37.124944828632195],[127.41777503412071,37.124658643669804],[127.4175920307632,37.12447487855856],[127.41755288666522,37.12396840441088],[127.41733552713596,37.12354768473334],[127.41687212135886,37.12295295275037],[127.41618500153432,37.12275544472875],[127.41569249288219,37.122724474146295],[127.4153102630873,37.12286166887977],[127.41449974468563,37.12275719800599],[127.4142886940471,37.122200371195824],[127.41391290053465,37.122002092101305],[127.41373256763447,37.12178032786993],[127.41359030274218,37.12139366653832],[127.41365816391517,37.12081472217057],[127.41341573190327,37.12030546597872],[127.41311955108475,37.12027035516923],[127.41289436395294,37.119697253594964],[127.41238892156747,37.11952822465245],[127.41230319277231,37.11927309419536],[127.41243717620851,37.11904168036112],[127.41256473019578,37.119026621550645],[127.4128325479401,37.118789194224014],[127.41281583414387,37.118424132005316],[127.4124336223302,37.11830588088451],[127.41270557697383,37.11687520481239],[127.413073848066,37.116283419491474],[127.41391721591069,37.11632168733668],[127.4145486583144,37.11658633373966],[127.4149299948751,37.11643578154084],[127.41514736343929,37.116192940171025],[127.41507106053518,37.115223339766914],[127.41566928672519,37.11485384891852],[127.41613548161097,37.114693347298186],[127.4165480475483,37.11464928827692],[127.41870009881568,37.1156996006732],[127.42017309922451,37.115689198535335],[127.42061826324017,37.115248592349936],[127.4218732849663,37.11458944748131],[127.42225437106833,37.11416447762407],[127.42259970814415,37.11396826494614],[127.42367365008282,37.113571856209845],[127.42506980591233,37.11326936299028],[127.42556489596669,37.11275479858852],[127.42568981977593,37.1124576408657],[127.42553185555062,37.11196696787922],[127.42510056749508,37.11185248558213],[127.424118861437,37.111866599689236],[127.42384240185854,37.11153175911839],[127.42369360520821,37.11055559053647],[127.42393737643954,37.10949356085471],[127.42404516755221,37.10944778342215],[127.42441086287819,37.10951071130009],[127.42350588677306,37.108588684106955],[127.42257071538072,37.10799628176688],[127.42176124509639,37.10726876809063],[127.42102449533172,37.10651986134107],[127.42099995790753,37.106391932571746],[127.42140793969659,37.10524832935623],[127.42196407337501,37.10459759610351],[127.42213201549703,37.10393417520622],[127.42265633181078,37.10307030227692],[127.42307201576621,37.101969037732786],[127.42331642335925,37.10156309404645],[127.42366848709331,37.10119808989088],[127.42364566361482,37.10079495687614],[127.42376245765081,37.1002767292706],[127.42409226648385,37.100022720264164],[127.42355428629872,37.098987788184935],[127.42287317303996,37.09898937535752],[127.42220371207421,37.09799563678935],[127.4222050650419,37.09775099016122],[127.42125264636255,37.09733655204075],[127.42033100783709,37.097617551527904],[127.41945049288789,37.09750604501882],[127.41922897394532,37.09729076857759],[127.4191768584605,37.09697417862148],[127.41840369742349,37.0968942694018],[127.41728405370482,37.096521285085856],[127.41693293908696,37.09652410451357],[127.4165583911399,37.09616123311744],[127.41597333081414,37.09602624581014],[127.41611383780953,37.09525018861107],[127.41651462302893,37.09457555407504],[127.41624584945217,37.09387795647803],[127.41603272194524,37.09362211559061],[127.41640353046002,37.093144773704736],[127.41651416922491,37.0927223250364],[127.41653261023441,37.09158536602731],[127.41619648541051,37.09108632335431],[127.41612063300548,37.09075951979535],[127.4158503903747,37.09062237425658],[127.41585997243452,37.090301129813156],[127.41606281274517,37.08997898564761],[127.41599454725232,37.0894879198984],[127.41535174619558,37.08891962558979],[127.41498608348397,37.08916457078678],[127.41466495805295,37.089215640487],[127.41307627741135,37.08986864476049],[127.41294015329704,37.090090206297525],[127.41268358237075,37.09024436935125],[127.41208284994667,37.09093199521523],[127.41147642489511,37.09101918101106],[127.4105580106784,37.09169330147479],[127.40991721134694,37.09159145079543],[127.40945928202957,37.09186423496252],[127.40938899254238,37.09229475768282],[127.40891066120322,37.09291111260655],[127.40799126641902,37.09356745405795],[127.40746523790125,37.09378541579521],[127.4070743705363,37.09378627300258],[127.40687880886615,37.09392347925379],[127.40633563110251,37.09406362021891],[127.40634865742587,37.09398496285685],[127.40590586839497,37.094058655677514],[127.4054906509697,37.09430212579495],[127.40495506069108,37.09437256803833],[127.40418867987024,37.0939811911877],[127.4037434865541,37.09390788709029],[127.40305718881545,37.09403967575612],[127.4026153008203,37.09399569358925],[127.4024362190328,37.0937882359096],[127.40175406604318,37.0936983321783],[127.40123381329715,37.09445438765851],[127.40061698084882,37.09499192579222],[127.3996159914101,37.09520709190605],[127.39945030244259,37.095334476566606],[127.3989262274061,37.09540966086442],[127.39822634118796,37.09623636584415],[127.39801120910921,37.09627384267692],[127.3977905892441,37.09688642536906],[127.39793008800254,37.09758867662671],[127.39781454765321,37.09812645000167],[127.39647689478404,37.09982221803727],[127.39649347484067,37.10024163059239],[127.3966522149565,37.10075102136448],[127.39693594811875,37.101223516999774],[127.39684257078534,37.101790604729885],[127.39645190384667,37.102242329887765],[127.39616041992535,37.10212143701962],[127.39584417444449,37.1021018420835],[127.39544895006617,37.102858927288416],[127.39513198654141,37.10290910927598],[127.39479025050385,37.103294148513505],[127.39428735205091,37.103629004972085],[127.39428188534627,37.10375651592783],[127.3936415044138,37.1046346359657],[127.39414427283097,37.105443358994506],[127.39390209944983,37.10586177401493],[127.39354349045331,37.10617012804257],[127.39334185811187,37.1066235175381],[127.39292303663278,37.10668753796301],[127.39225327212901,37.10662934814035],[127.3920524120586,37.10691295247169],[127.39120035968746,37.10703120705533],[127.39089162630096,37.107614524707635],[127.39053449963264,37.10793441816183],[127.39019310718865,37.10794052065458],[127.38998797782982,37.10785321669674],[127.38950225359194,37.107897656067536],[127.3889718318072,37.10721990110651],[127.38835577017463,37.107148641823564],[127.38715377422999,37.10737373490798],[127.38697081980094,37.1059472068561],[127.38640898622526,37.105618036957566],[127.38595599697135,37.1055760554041],[127.38550617818653,37.105656245501144],[127.38461721672915,37.106025464399906],[127.38396980916485,37.10595707244019],[127.38319305755984,37.105600318524964],[127.3825642791761,37.10572276018721],[127.38217308821972,37.10594366326255],[127.38163364631173,37.10597095302982],[127.3812035484837,37.10583592193393],[127.38078426531723,37.10583175119555],[127.3800158802481,37.10531124979604],[127.37927293941607,37.10511067651713],[127.37905901878027,37.10490961170126],[127.37902445971847,37.10355580504555],[127.37885296343904,37.10305655507326],[127.37866003062626,37.10278996817398],[127.37825592011902,37.10256300738893],[127.37739149294455,37.10179452474052],[127.37690879116603,37.1011658021914],[127.37648054166023,37.1013005528992],[127.37604320064048,37.10133664940133],[127.37569049083329,37.101695183309026],[127.37516023342091,37.102006150361035],[127.3747374442501,37.102087013200915],[127.37423811132481,37.102694560142126],[127.37413035624226,37.10293072778245],[127.37421661356316,37.103220114175656],[127.37414416392407,37.10375455624193],[127.37382650174833,37.1045070540253],[127.37368987954207,37.10516083934385],[127.37306524813802,37.105873398842114],[127.37230208294966,37.105854758224424],[127.37130893776441,37.10629092129125],[127.36976619884737,37.10653829192683],[127.36934347925441,37.10676376933837],[127.36928418326441,37.10702273777524],[127.36894554908761,37.106859936024975],[127.36923502390725,37.10624937717392],[127.36889862971516,37.10683286841926],[127.36806451005393,37.106831429432226],[127.36739788872097,37.10694313871975],[127.3672714619214,37.10680249199324],[127.36706643807634,37.10685196695064],[127.36652543124292,37.106738149099215],[127.36598912178253,37.10679537066522],[127.36524394376295,37.10667603368475],[127.36453800137008,37.106443265338164],[127.36421286757627,37.10673184557291],[127.3637954040408,37.10687207036041],[127.36294370560756,37.106869845001505],[127.36256706824597,37.10737924656161],[127.36171127074343,37.10740615069369],[127.36139443561893,37.10754860267262],[127.36044339357248,37.10752847607587],[127.36031688006385,37.107423139722265],[127.3590181851704,37.10757553920591],[127.35800868418981,37.10710409681428],[127.35789131951552,37.10659801287679],[127.35733856457945,37.10601148531612],[127.35674007209967,37.10600869046282],[127.35670026520636,37.10569767740845],[127.35588309713447,37.10456720003741],[127.35535140910261,37.104222081598955],[127.35515349325526,37.1041909030521],[127.35490496401634,37.10384846283845],[127.35493085779676,37.10317100045478],[127.35466431905387,37.10262025403315],[127.35484420746266,37.1024300840706],[127.35473709671463,37.10216192272105],[127.35445154924628,37.10192004432329],[127.35445450841695,37.101149751788306],[127.35426075524323,37.10077110386411],[127.3537425662884,37.10059278562345],[127.3532684869141,37.100243392824815],[127.35280679383331,37.10022990318746],[127.35183398097499,37.10043444234936],[127.35167207227623,37.10106387754194],[127.35131630312706,37.10105825780284],[127.35066404316333,37.10128004549853],[127.35022288010282,37.10183377634852],[127.34952304233614,37.10251501783302],[127.34883829360668,37.10268162293894],[127.34732388397343,37.10381400162606],[127.34708075299288,37.103709943179815],[127.34603201511705,37.103714265066955],[127.34537595487849,37.10334516071528],[127.34476600800839,37.103318637080385],[127.34440781057275,37.10376355333069],[127.34344514128382,37.10421789410605],[127.3426729295125,37.10506434781075],[127.34198624553707,37.10637729908223],[127.34121240108153,37.10744840307354],[127.34073777943412,37.10766618196732],[127.339722840497,37.10955629348423],[127.33981987439775,37.10995014914716],[127.33818143010896,37.11027447471282],[127.33762251567941,37.1107391975519],[127.3371825787947,37.11069217987807],[127.33635485020675,37.11144133249656],[127.33599202444073,37.11156487627242],[127.33530518169906,37.11164404287235],[127.33515311915069,37.11181610287533],[127.33361527961901,37.11197787894863],[127.3329084915244,37.11265899317788],[127.33234887385873,37.11415532531794],[127.33212532904233,37.11449891147746],[127.33227433304342,37.11482602393233],[127.33169793482351,37.115240421242575],[127.33154652505465,37.115568162419166],[127.33103223775049,37.11596817680178],[127.33135669942027,37.11666624191799],[127.33087366552972,37.11691296774468],[127.33045985314929,37.116837206976314],[127.33030460140613,37.11725351490127],[127.3301470538539,37.11851032497619],[127.32893969525887,37.11925677987896],[127.32839011627235,37.11917679559133],[127.32763843077122,37.11936336356459],[127.32714845851913,37.11966349136124],[127.32644922004197,37.119337704950226],[127.32579639748505,37.11859465046621],[127.32527639716545,37.11851963500396],[127.32516529088733,37.11814978830012],[127.32455629116114,37.11775715692147],[127.32438415096185,37.11739517868511],[127.32386022468086,37.117167747445045],[127.32327040749242,37.11617033645218],[127.32238253315053,37.11604660529317],[127.32197633382422,37.115897883083385],[127.32187390349014,37.115628843431374],[127.32127755467658,37.11524278547393],[127.32059205197572,37.1145474010964],[127.3200345149829,37.114252529557696],[127.31998342439167,37.113263697574084],[127.31886943814833,37.1123092853928],[127.31864399397821,37.11184967392664],[127.31788988213225,37.110902959563504],[127.3164666526704,37.11019114541181],[127.31590391983356,37.10976094235785],[127.31579744543657,37.10871090525977],[127.31534104515252,37.10869177924544],[127.31419034730385,37.10900873454458],[127.31363165524373,37.10883070065201],[127.31303613188446,37.10882973608601],[127.31309355485543,37.10899467923293],[127.31291881197885,37.10909413732161],[127.31200141548089,37.10700264188077],[127.31060818394688,37.105314434625456],[127.31042849140154,37.10541957821589],[127.31040727035808,37.10537242677287],[127.31040781726688,37.10550520763218],[127.3101857526956,37.105704238676026],[127.30998890464153,37.105638984706644],[127.3096696807089,37.10573789997181],[127.30842460801195,37.1055245196541],[127.30787301631979,37.10575011936888],[127.30755682354669,37.10616216200368],[127.30707020199333,37.10634173744127],[127.30589777493819,37.107116465015984],[127.30546494444876,37.10709237272421],[127.30469513849363,37.107864854570444],[127.30405851247096,37.108295000937765],[127.30434395652581,37.10894400249795],[127.30419953469506,37.109222719052696],[127.3039402564127,37.109303752382445],[127.30384649468067,37.109507148056494],[127.3039086248442,37.10989493560756],[127.30365905082853,37.110165905540214],[127.30332816137819,37.11112675360444],[127.30318070403023,37.11124016954936],[127.30162639642862,37.111299182637204],[127.3010165955526,37.11147808516715],[127.29999667341689,37.111410276694144],[127.29940876585029,37.111774585811006],[127.29954445988785,37.11236025438163],[127.29941485185202,37.11271035572273],[127.29978314966515,37.114038577740196],[127.29972518093231,37.11481266786864],[127.29915154570264,37.116095577509896],[127.29911384122555,37.116878219840345],[127.29871970362757,37.11686598611436],[127.29796702478471,37.117178978253015],[127.29749007858351,37.11761707670573],[127.29737144448976,37.1179056991136],[127.29757400172582,37.11831619278833],[127.29740908727051,37.119966678546284],[127.29709002729085,37.12048161172121],[127.29654956474134,37.120853189556065],[127.29601056852127,37.12075182683998],[127.29544185120263,37.120986893572926],[127.2944595996032,37.121592158842105],[127.29415244085442,37.12216689594041],[127.29289196290993,37.12343906894353],[127.2929316629044,37.12529197601118],[127.2928621298776,37.12567046991391],[127.29263447869188,37.12572889875081],[127.29235818654631,37.12620239194165],[127.29246022105677,37.127049177199325],[127.2919562518615,37.127491568108624],[127.29131247781368,37.127753201085795],[127.29072246527721,37.127577925164175],[127.28978476610256,37.127628142958216],[127.28919299885717,37.12791261751724],[127.28909381593499,37.12849731059568],[127.28865051264741,37.12965914768195],[127.28822784043207,37.13038974367042],[127.2879951657509,37.131705853633015],[127.28759048355333,37.13181017182848],[127.28699793867128,37.132353503900234],[127.2866042443582,37.13223574632253],[127.2856681909838,37.13218407381202],[127.28485886930133,37.131597702640875],[127.28410065567866,37.13149290412832],[127.28390230584115,37.13188481416664],[127.28324012645807,37.13270706237001],[127.28251243500945,37.13391691470575],[127.2811709289627,37.13376644161028],[127.27986946137443,37.134203790082076],[127.27930138366233,37.13429469675411],[127.27772371524158,37.134324551699905],[127.27705141065998,37.134074163541165],[127.27588456276702,37.134338242912825],[127.27526978046974,37.13366685472392],[127.27468296706529,37.13376148070223],[127.27424293076528,37.13364813718365],[127.2734545194451,37.13453529860547],[127.27288554281921,37.135371845835685],[127.27285541192933,37.135737836894],[127.27235783515341,37.136176396924334],[127.27255682083414,37.136791835942795],[127.27213210611838,37.13751912435848],[127.27224400025594,37.13827798350253],[127.27206529483561,37.13871596445963],[127.27204682663267,37.13938860448696],[127.27215138816068,37.140167695266086],[127.2718228914822,37.14094246452239],[127.27190422233168,37.141324471377864],[127.27225721224174,37.141608051599555],[127.27250997077559,37.142097863480956],[127.27265471166365,37.14261144541329],[127.27364674383949,37.14320401698535],[127.27272630371897,37.14393968869561],[127.27243012137758,37.144659219027346],[127.2713805609088,37.14528309051919],[127.27113784444744,37.14534604595252],[127.27059263812481,37.1460056959196],[127.26893423657012,37.14719296913725],[127.26902072158467,37.147532684034616],[127.26900782539425,37.148225930813425],[127.26884295610235,37.14827746799001],[127.26898008728435,37.14827862775625],[127.26888555469873,37.1486479258335],[127.26832230826183,37.14884667065407],[127.26795922513784,37.149398421601546],[127.26872842540057,37.14986276717191],[127.26862326388644,37.150537264349836],[127.26911400974615,37.15092803055098],[127.26941821159343,37.15165069457273],[127.26930268029892,37.15270380348942],[127.2690621712129,37.152995340348994],[127.26889246148153,37.15343134075198],[127.2689644899477,37.15381656676652],[127.26888598926702,37.15429240722789],[127.26742676370759,37.15485358763425],[127.26659695133523,37.155368738899774],[127.26606582725083,37.15530700833368],[127.263713355007,37.15591037454552]]]}}
