{"type":"Feature","bbox":[126.97916708287386,37.185836530340765,127.07590250041554,37.240203327982535],"properties":{"regionCode":"41595","version":"vworld-20260909-3f8952dfda77-p3","name":"경기도 화성시 병점구","attribution":"국토교통부/K-Geo플랫폼 · VWorld 법정구역정보, CC BY 2.0 KR; 두꺼비집 가공"},"geometry":{"type":"Polygon","coordinates":[[[126.98420530457719,37.19829489562578],[126.98371913702124,37.197540477602004],[126.98387520093134,37.196591222643406],[126.98495986427167,37.194871832802725],[126.98493105283873,37.19415120844803],[126.98560095535491,37.19449210280873],[126.98687892182727,37.19481772518727],[126.98779222084671,37.194504712031176],[126.9883450668517,37.194472418182194],[126.98965719275884,37.194810980433274],[126.99018747981847,37.19440287659349],[126.99127433274865,37.194445054278006],[126.99315509859854,37.19412312296865],[126.99471587387175,37.19420954289155],[126.99519409102764,37.19356938528416],[126.99572080024434,37.19319793797946],[126.99682359049623,37.19282425986484],[126.9970336796054,37.19221331371422],[126.99760720954684,37.191893156252156],[126.99784973085485,37.19118677981328],[126.99828747159184,37.19077204992379],[126.99878413962107,37.19048979159261],[126.9992635902146,37.18960217179903],[127.00010063459689,37.18967028578111],[127.00069216756057,37.190014878518596],[127.00170691792071,37.19028575371894],[127.00202384194142,37.18979326781589],[127.00297722146078,37.189311839685004],[127.00357182433635,37.18869184769112],[127.00405809740718,37.188732286200604],[127.00457191545884,37.18841694373708],[127.00493919556261,37.188323558198825],[127.00526487338888,37.1878010042882],[127.00564701981435,37.187783331034105],[127.00601850755879,37.18750052393525],[127.00591546540659,37.18702500033968],[127.00594949054855,37.186491336005744],[127.00643962334254,37.18650790488838],[127.00722228620218,37.18593119963347],[127.00834283431175,37.185836530340765],[127.00887199965534,37.18622817476558],[127.0089566814443,37.18660688852672],[127.00913108540361,37.18684087031013],[127.009525456008,37.18703034345022],[127.0097845124054,37.187300639694094],[127.0098633866705,37.18766105288337],[127.00973390344541,37.1878457765333],[127.0093003268011,37.188116119866955],[127.00909200358444,37.18839095262902],[127.00917103003972,37.19027864002544],[127.00910911327095,37.190548957923994],[127.00846157094112,37.1911481934918],[127.00820820379147,37.19175641428249],[127.00784784539943,37.19221146240951],[127.0077803125306,37.192743083173795],[127.00789295999525,37.19296383342358],[127.00832097363013,37.19321610244821],[127.00952052526736,37.19365753987895],[127.00980773087645,37.19364400441717],[127.00992033459352,37.1934052193141],[127.00994279791361,37.19284206399829],[127.01017931053792,37.19267084818129],[127.01052280790263,37.192594233628526],[127.01096203155505,37.192368937879536],[127.01121542938891,37.192332866533654],[127.01149702377433,37.19242746197196],[127.01160863657942,37.192666509032634],[127.01153655931736,37.193301473241],[127.01167738813857,37.19361232207061],[127.01235322420041,37.19391861771801],[127.01261795760453,37.19434658993937],[127.01349095591121,37.19501778390707],[127.01421180834967,37.19505375062751],[127.01518599312783,37.194522025200385],[127.01546188098126,37.19426068975857],[127.0159968762401,37.19424710985116],[127.01671795570982,37.1954454102269],[127.01648150406022,37.195837386155794],[127.01804718392812,37.19617958422656],[127.01861590721732,37.19583260094697],[127.0193424025577,37.19587304085915],[127.0209645113415,37.196598127167654],[127.02133630918712,37.1969945254908],[127.02228257310409,37.19746290690034],[127.02308798246284,37.19768351901884],[127.02420312673898,37.19783648833319],[127.02509865225153,37.198048059018916],[127.02537476261479,37.1985255576433],[127.02646202842166,37.199480441353494],[127.02712660842049,37.19951183608013],[127.02736321775481,37.19971001456501],[127.02729572771138,37.199984847969795],[127.02687923208838,37.20025609833709],[127.02672710145897,37.20059768987661],[127.02673277546072,37.200723834937506],[127.02687362610355,37.200872468238174],[127.02703693270809,37.20080485480372],[127.0272282967892,37.20043537604089],[127.02735781110798,37.20040382029411],[127.02757193177192,37.20067408681889],[127.02783093485694,37.200471294476465],[127.02830400837416,37.20042614519002],[127.02827577989797,37.20023241792339],[127.02937905755834,37.20005590111344],[127.02977369014485,37.19969144308266],[127.03047766781604,37.19964622078576],[127.03082128424195,37.19984887136848],[127.03138451033561,37.19989378291598],[127.03163800467274,37.200033371663125],[127.03236452725874,37.19999715188016],[127.0328996232803,37.20016370460177],[127.03515787302995,37.200138594308726],[127.03572152175077,37.19998637254411],[127.03680249647249,37.199950860626046],[127.0370559150588,37.199883206492935],[127.03723035272316,37.199581303982974],[127.03753997724341,37.19930188628691],[127.03748918510216,37.1990811457034],[127.03782697472288,37.19881973957768],[127.03859453955184,37.19855397282099],[127.03907128382623,37.198475260503294],[127.0393756037675,37.198535425520056],[127.03956706708014,37.19849480812926],[127.04013050860625,37.19795513403061],[127.04051307052423,37.19820166980673],[127.04063274133442,37.198190087959276],[127.04082836988646,37.19803937745732],[127.04094652360229,37.1978185821189],[127.04129810343157,37.197704698595814],[127.04147467979818,37.197484459751784],[127.04207077834951,37.19747609369327],[127.04252968043859,37.197685960317976],[127.04253004390056,37.197634416927905],[127.04376492663103,37.19720373381395],[127.04426048713094,37.197140482856135],[127.04510297786342,37.19655364940403],[127.04597766923146,37.19627484723493],[127.04636049186965,37.19604944157075],[127.04673218324825,37.19604930027469],[127.04715463033133,37.19616627417382],[127.0476558238692,37.19612102774381],[127.04785843975363,37.19619275295934],[127.04838789378675,37.1960396462465],[127.04880466108273,37.19607552242132],[127.0489284990762,37.195980863149394],[127.05005484417946,37.195993931668575],[127.05022411925668,37.196218555881835],[127.05061269592233,37.19648025727541],[127.04990796338612,37.19689682467732],[127.05053339052154,37.19719075880865],[127.050034867546,37.197897203274096],[127.05028855993844,37.19795152221779],[127.05011750342088,37.19818721582235],[127.05056211772438,37.1984173396883],[127.05097859036236,37.198497900154145],[127.05097470636905,37.198414645212786],[127.05136740317573,37.19865163565458],[127.05106397900161,37.19954632039213],[127.05129830634101,37.19960460985274],[127.05123481114605,37.19965527524241],[127.05152835385508,37.20000448675555],[127.05156839220096,37.200252707685586],[127.05194159845027,37.20029760163921],[127.05254846791475,37.20074705316817],[127.05294773398752,37.20139395668565],[127.05334612438543,37.20131040036971],[127.05342457043845,37.201708717827],[127.05333585601514,37.201943118352325],[127.05299725756537,37.20228214882726],[127.05313737171153,37.202592677865894],[127.05288309299358,37.20302880378297],[127.04907879529884,37.20523524758766],[127.04905010460506,37.205828866876445],[127.04893246725578,37.20649703806415],[127.04881607480172,37.206636295871185],[127.04871832067734,37.20758170995514],[127.04883960082643,37.209133258543346],[127.04911580391061,37.20999391458539],[127.04938191942027,37.2103910773135],[127.05034771803241,37.21145003949666],[127.05070609758725,37.2119994373388],[127.05093702434841,37.2116217140826],[127.05113613669266,37.211522335890194],[127.05097173895746,37.21130146888868],[127.05109096904903,37.211189779804585],[127.05128904553726,37.2112305139848],[127.05125134663083,37.21094967468154],[127.05147202236085,37.21075270388295],[127.05148649081326,37.21065547522107],[127.05113761955536,37.210518212807266],[127.05107642191224,37.210306493273116],[127.05118158561999,37.209877282313116],[127.05150923042487,37.209434822299066],[127.05149074186056,37.208902133237046],[127.05203644129415,37.20891550749246],[127.05291898721394,37.20845145079746],[127.05334464793573,37.20854019829926],[127.05357500881759,37.208357095338215],[127.0539334432612,37.208321796560675],[127.0543528099936,37.20843072660183],[127.05440452045049,37.20859658563189],[127.05384306816472,37.20942291161387],[127.0537514086923,37.20997204787206],[127.05420168747878,37.21045651959743],[127.05428528853317,37.21031042327589],[127.05439442927786,37.21027901829698],[127.0546535659897,37.210643644612276],[127.05412047745865,37.21080174533418],[127.05425276196168,37.211001988397705],[127.05447293717248,37.211066945473426],[127.05453817396099,37.210918694694456],[127.0547510522744,37.21085994129872],[127.05553275107883,37.21067433291075],[127.05617428607631,37.21062150778427],[127.05682572784457,37.21040612636647],[127.05705658392846,37.21013390328704],[127.05725198005142,37.21005262750567],[127.05754171114236,37.21003032515116],[127.05789997874604,37.210216851305795],[127.05837651889465,37.210230499564645],[127.05880040640398,37.21063432308324],[127.05872181217933,37.21098477674207],[127.05828073075827,37.21109068130668],[127.05784932073874,37.21137231005653],[127.05702594785674,37.21167983733615],[127.05573676620557,37.21255787012703],[127.05556082689726,37.21260408393307],[127.05524510641277,37.212531152997165],[127.05483938959429,37.212642344830066],[127.05501656093527,37.21274471350688],[127.05478251225638,37.212984406285045],[127.05462526345954,37.213338766923634],[127.05407084843169,37.21380034810279],[127.05333782213101,37.214207708107985],[127.05302348117478,37.21457975957195],[127.05277871921939,37.21473849430569],[127.05296659724172,37.21492630723979],[127.05337568175894,37.21497298303571],[127.05382097985081,37.21515529337885],[127.05411802574729,37.21538363916345],[127.05486559451639,37.21561892738338],[127.05548381499489,37.215990507489096],[127.05553107023104,37.21623341597036],[127.05532266075109,37.217227036047085],[127.05512148477492,37.21752825555427],[127.05518288839838,37.217656635257114],[127.05661239819901,37.21860845237925],[127.05651249866783,37.21867405862174],[127.05654847329511,37.21872048161241],[127.05710804157384,37.21915686530889],[127.05738294452978,37.219270772712136],[127.0578219581321,37.219771624246924],[127.05828069573532,37.2201550147746],[127.05865547312042,37.22034019685062],[127.05898981208574,37.22074424235505],[127.05938461165984,37.22095361436276],[127.0596700320713,37.220957222892096],[127.06017360181167,37.22129042300277],[127.06151852790565,37.2202698062199],[127.06291739966343,37.2171673426143],[127.06412214336483,37.21214195808442],[127.0704915973932,37.21314740790461],[127.0703677694368,37.21375018739536],[127.07054553410016,37.213859650710724],[127.07045206810264,37.2141534450299],[127.0706588978521,37.214136745289096],[127.06861373401853,37.2224922021534],[127.06839893493243,37.22244213564909],[127.06842185981705,37.22275640590002],[127.06856781252381,37.22267495933302],[127.06848003014828,37.223046147885825],[127.07079387456452,37.224371960456864],[127.07077202493223,37.22462876991493],[127.07108219385668,37.22484276556429],[127.07294879303089,37.22591704667687],[127.07306278334418,37.22587471905718],[127.07306892430364,37.22617286972637],[127.07492986682774,37.22588231650673],[127.07590250041554,37.22559107902754],[127.07555334682509,37.22591454618548],[127.07529459978394,37.22633819678868],[127.07535691571583,37.22668956380465],[127.07482314156252,37.22819012784982],[127.07428466431938,37.22811358316999],[127.0737979566997,37.22824059453514],[127.07331214525634,37.22874407603207],[127.07259292304715,37.22912349642253],[127.07156813096013,37.229041328462976],[127.07100386766767,37.22887722103339],[127.0706214681266,37.228901944073776],[127.06970217776927,37.22864820334811],[127.06973065676104,37.228990591280656],[127.06955635484081,37.22938714926735],[127.06887277765789,37.229886770363066],[127.06888902991054,37.23034630059396],[127.06937188893087,37.23101813770775],[127.06947948221905,37.23162177277022],[127.06929941696019,37.232285266556445],[127.06865119262642,37.23276825973569],[127.0685974675262,37.23293892007024],[127.06870899437,37.233217052842775],[127.06866981296834,37.2335099129477],[127.0683522704467,37.2338220775458],[127.068140310641,37.23426877920474],[127.06795487700487,37.2344471180041],[127.0679345534712,37.23495480205017],[127.06772572863993,37.2351655459528],[127.06797396367723,37.235521867073615],[127.06793157233605,37.23678476938743],[127.06748168438924,37.237805438547134],[127.06731019197714,37.23863166948339],[127.06749898705995,37.24007238841973],[127.06757686626118,37.24012865991165],[127.06772335165769,37.24010154694318],[127.06765172189407,37.24014241302921],[127.06691727438076,37.24018478230974],[127.06650477051303,37.240078002073034],[127.06594331940295,37.240203327982535],[127.06514695432001,37.240126332341674],[127.06449224219068,37.2392768857343],[127.06413182099226,37.239111510993254],[127.06331833966185,37.238952283286125],[127.06310896009052,37.238732205522034],[127.06247455754243,37.23834536640925],[127.06153724985155,37.2374805684775],[127.06003904818458,37.23672838308107],[127.05997502188276,37.23657637335731],[127.06002129663405,37.23630265984777],[127.05984761324216,37.23576155431841],[127.05943600446672,37.235174666147444],[127.05831644411336,37.23418379470855],[127.05596037194222,37.232763222957146],[127.05560851393784,37.232684543220806],[127.05457098793076,37.23206582702963],[127.0537166600944,37.2317877313074],[127.05288254205463,37.23142486882188],[127.05269686950193,37.23127598927993],[127.05245430726536,37.23138535397657],[127.05250934669624,37.23154103900945],[127.05377532733449,37.23233001431264],[127.05358607043541,37.233398118141615],[127.05343458104511,37.23354432428118],[127.05152817598108,37.23432511168294],[127.04958039086658,37.23406798669622],[127.04803182569461,37.2332649948714],[127.04770533621374,37.23321725042916],[127.04766082491797,37.23327415042089],[127.04670396716767,37.232872430429595],[127.04663936721954,37.23291844400844],[127.04607727856508,37.23284535727338],[127.04607682395411,37.23415983019698],[127.0461492874008,37.234261323036726],[127.04606650582114,37.23426290399796],[127.04614879332229,37.23441722108923],[127.04607499276119,37.23447578041223],[127.04607592721258,37.23568041575106],[127.04568176739913,37.23541936111236],[127.0456528331867,37.236027411280446],[127.04435115423004,37.23603916130931],[127.04379332175445,37.23680424500267],[127.04387005429173,37.238292761179295],[127.04394244224865,37.23853926853214],[127.04404752796326,37.23857190250476],[127.04255167315546,37.23899949575739],[127.04123549350123,37.23909474287584],[127.03922127352955,37.238923978763026],[127.03761905645203,37.23860116734791],[127.0374352035408,37.23853802368066],[127.03736621800675,37.23833395096294],[127.03720106713715,37.23828359575699],[127.03732134003855,37.23725683744482],[127.03753857220767,37.237070362545126],[127.03740152913002,37.236700662720935],[127.03722539424648,37.23684390298305],[127.03611525113287,37.23663248548773],[127.03585607307186,37.23667310770335],[127.03558004736627,37.236839879690756],[127.0348362304736,37.23676350300762],[127.03462766126074,37.236569838079475],[127.03484722613463,37.23614178281318],[127.03471754772548,37.23595710618221],[127.0340751911971,37.23594376896812],[127.03272812424065,37.23501155591291],[127.03240680213065,37.23464221397132],[127.03233338230807,37.234223249693585],[127.0316289302909,37.233881035877914],[127.03151614028488,37.23362877339408],[127.03135271543887,37.23356574190724],[127.03063714198143,37.23357943565614],[127.03044553699438,37.23349388385089],[127.03012419159745,37.23301641084757],[127.03019156250761,37.23237666526029],[127.02990972814037,37.23207037059182],[127.02999092598203,37.2312191475943],[127.0297063761699,37.23117219941012],[127.0293348927529,37.23122606134336],[127.02869448203104,37.23111949989445],[127.0284934556556,37.23126089202654],[127.02684467061725,37.23060124430994],[127.02632580151258,37.23063852207674],[127.02608993765257,37.23087396800735],[127.02521086459906,37.23101240279251],[127.02380223691434,37.2308234578872],[127.02340786901199,37.23093165628111],[127.02320009961026,37.23089367963214],[127.02358231692571,37.230233308735116],[127.02348216300771,37.22969018027163],[127.02379837079114,37.22967153272235],[127.02379763253838,37.22953694446494],[127.02401544833467,37.22960758087883],[127.02426947108803,37.22945743703209],[127.0242701382449,37.229352699970754],[127.02401057435918,37.22920802446107],[127.02391996867071,37.22883664178387],[127.02407761687273,37.22847647497499],[127.02371681768837,37.22773713126038],[127.02388860719404,37.22757181202854],[127.02413491116947,37.2275185407601],[127.02414491659432,37.227441103413135],[127.02403466717263,37.22731780800441],[127.02367669960675,37.22722410423881],[127.02340618915659,37.22695384234088],[127.02310174325561,37.226215044772836],[127.02327981485728,37.22588162704502],[127.02307062332294,37.22574678849603],[127.02270512676994,37.22509134715082],[127.02256052271832,37.22490863280506],[127.02187133911502,37.22454383165129],[127.02147877671318,37.224719601506706],[127.02118084847478,37.225281396399446],[127.02071929323341,37.225521374325155],[127.01971648649901,37.22562064723705],[127.01869752021135,37.22587364960818],[127.0157784341598,37.22580533290399],[127.01524712142589,37.22598025172741],[127.0140465075199,37.22670291155018],[127.01357431050977,37.226684651446746],[127.01267671495667,37.22643302472277],[127.01138318499913,37.226361047355226],[127.01093247687452,37.22641937240784],[127.01071840334141,37.22655454537335],[127.01068364715304,37.22650548639784],[127.01057278902705,37.226562314568575],[127.01028056477749,37.226543712058906],[127.00939594348894,37.22675938433088],[127.00940141271128,37.22658412251916],[127.0090279357095,37.22645182897396],[127.00887832908518,37.226307870070684],[127.00869160329657,37.22624667383668],[127.00825494821137,37.22634305682517],[127.00840188971928,37.22618697006427],[127.00835901180463,37.225896801339466],[127.00909200111877,37.22517550039942],[127.0090837728688,37.22480932684777],[127.00948722102432,37.22458161627769],[127.00901608163791,37.224403412131615],[127.00859137101578,37.22439030111219],[127.00727891021907,37.22408819916031],[127.00624651281885,37.22413314384562],[127.00541913960079,37.22397710470894],[127.00464691947555,37.223978046753864],[127.00398713062218,37.224097351248304],[127.00329397011035,37.22347096886253],[127.00293809953824,37.22291222894839],[127.00322571508529,37.22212246229982],[127.0031141098684,37.22091540151042],[127.00328410928238,37.220511444058424],[127.00322961102972,37.21953321078265],[127.00420925386408,37.21763330028011],[127.00408666363607,37.2166844874855],[127.0038840733906,37.21677930840777],[127.00383451718922,37.2169405869551],[127.00340056950793,37.21707906686387],[127.00317514833255,37.21703530662823],[127.0025320413371,37.21756876698634],[127.00241506685599,37.2181018064627],[127.00090912675836,37.218740647256645],[127.00026829004621,37.219134613886474],[126.99959974525636,37.21892959092409],[126.99919291028645,37.21865377471233],[126.99885172014514,37.21863978338145],[126.9975745861503,37.219158495761086],[126.99584436274681,37.21691671395446],[126.99542792335833,37.21673261937904],[126.99494930707844,37.21628259527134],[126.99327140656017,37.216572590096355],[126.99249736759758,37.21620637715859],[126.99176772868536,37.2162529663787],[126.99101933601855,37.216421316312605],[126.98972927793538,37.215685313716236],[126.98903568956209,37.21487216896124],[126.98817028792084,37.21475335331267],[126.98774858635366,37.21480441222058],[126.98512355683921,37.21449946275766],[126.98467157341537,37.21438880540548],[126.9843866257966,37.214063325962506],[126.98441850013003,37.214001564085905],[126.98429072560887,37.21393008388464],[126.9830009336008,37.21383752351526],[126.98180763838008,37.21318055197017],[126.98079556345476,37.21289435229044],[126.98005887886679,37.21292472149939],[126.97980625508683,37.21232608563521],[126.9797086246342,37.21127233388815],[126.97937722665463,37.21072072588773],[126.97916708287386,37.20986659651658],[126.97927104915698,37.20941397692794],[126.98030316297367,37.208072052808305],[126.97975155829147,37.207660896672714],[126.97989499268178,37.206964425116475],[126.98095910765545,37.20629758971695],[126.9816238353092,37.20553562718917],[126.9817830947106,37.20498118733209],[126.98271050519661,37.20439644331081],[126.98341857013399,37.20329053068075],[126.98410369087587,37.202776452309216],[126.9845329901575,37.20266430752737],[126.98514378268753,37.20237985262218],[126.98509881663868,37.2016981701445],[126.98539605968726,37.2008895864078],[126.98513101361216,37.20058533933385],[126.98489346013749,37.20009815637354],[126.98489807180974,37.199048358562685],[126.98420530457719,37.19829489562578]]]}}
