{"type":"Feature","bbox":[127.13258123702866,37.26499329075178,127.44664364968963,37.53587202522603],"properties":{"regionCode":"41610","version":"vworld-20260909-3f8952dfda77-p3","name":"경기도 광주시","attribution":"국토교통부/K-Geo플랫폼 · VWorld 법정구역정보, CC BY 2.0 KR; 공공주택 복덕방 가공"},"geometry":{"type":"Polygon","coordinates":[[[127.34627595519166,37.53587120278727],[127.34381313619978,37.535709369657695],[127.34294514991322,37.535497237081195],[127.34118647580031,37.534906222854566],[127.34042146671547,37.534744675523335],[127.3343288318327,37.534811123675425],[127.3314285596578,37.53540700262426],[127.32864737318855,37.535454671285606],[127.32745147660795,37.535621264420364],[127.32642045798126,37.53566039040275],[127.32548488973137,37.5354860333326],[127.32425926126174,37.53504534351088],[127.3232389911178,37.534501045100676],[127.32235084695424,37.533858262949174],[127.32090326088584,37.532533928544524],[127.31993800840283,37.53192479771955],[127.31909946449993,37.53127663130643],[127.31820318310231,37.53077593359729],[127.3173560233887,37.53014126546415],[127.31668686422212,37.52937321021515],[127.31495775754684,37.528521878666396],[127.31298833640618,37.52850322445465],[127.31020656324887,37.52767409909032],[127.3089674354237,37.52713053824614],[127.30890370207926,37.526913872287246],[127.30911131295716,37.5256010471245],[127.30906618859663,37.52317638889674],[127.30931743490214,37.52146063227916],[127.30933121222459,37.52070891668933],[127.30903317676066,37.520055913814204],[127.30850271108895,37.51970886150389],[127.30768008621153,37.51954600796728],[127.30677039992946,37.51951174608391],[127.30669202477056,37.519438021599925],[127.3066561979028,37.51583414388176],[127.30676550427766,37.514720407547095],[127.3054103848905,37.512233383942615],[127.30216457179854,37.50863771104607],[127.30050407652672,37.50772794785488],[127.29484105660288,37.5056779832342],[127.29262883104212,37.50549925029442],[127.29125871172891,37.50552555816952],[127.28910495368237,37.505994281815475],[127.2870501291765,37.50720475256238],[127.28564459535772,37.51440405683822],[127.28356203810361,37.51440469921115],[127.28275643208197,37.51337342041005],[127.28192629268518,37.513188041493876],[127.28098632715175,37.51326380874899],[127.28029347836485,37.513138117730385],[127.27998965989437,37.51252629291734],[127.27935862366392,37.51233766839424],[127.27859987464758,37.51151627503336],[127.27797275399159,37.5112749909895],[127.27797380779181,37.51064419194185],[127.27757208127777,37.510318036790096],[127.27788110912576,37.50970903346396],[127.27640514440996,37.50853535419899],[127.27614862364146,37.508407109078405],[127.27463301990925,37.50837765498241],[127.27422131788654,37.508171711217166],[127.27332360102587,37.50801819508639],[127.27263563564887,37.50753744659124],[127.2720525931961,37.507702999474795],[127.27116018797206,37.50775571996713],[127.2706133042668,37.50754196445679],[127.26898224533679,37.506590360139334],[127.26831894931554,37.50632439903227],[127.26792052868387,37.50628322321499],[127.26741635341249,37.50651389649788],[127.26534596293139,37.50669921440013],[127.26477582991063,37.506894327155756],[127.26289010936829,37.50699457078006],[127.26213740961903,37.507361612431254],[127.26066572982216,37.50721208709828],[127.26037279818077,37.507115871169376],[127.25730653781804,37.50668279209739],[127.25637571684885,37.50647387426864],[127.2546479438226,37.50630503682747],[127.25482275735659,37.50566528020915],[127.25425640612237,37.50505213149487],[127.25424152601425,37.50484216751289],[127.25366988540964,37.504112864179675],[127.25322710228998,37.503248617257725],[127.25349647464215,37.502644780833464],[127.25365456235404,37.50247837087389],[127.25385861154248,37.50191326231646],[127.25431176414754,37.50121763495843],[127.25469468781509,37.50024591984671],[127.25463018988945,37.499876568969384],[127.25472982716146,37.49947955713832],[127.25494670732563,37.49911870964406],[127.2551425066131,37.497590884123916],[127.25506998701597,37.497002147898215],[127.25548923272532,37.49639447960613],[127.25599752567143,37.495856508792556],[127.2569504245534,37.49538505985367],[127.2579811014722,37.49464665913465],[127.25789130475874,37.494451544057554],[127.25789478105153,37.493850544127525],[127.2583316923892,37.4934071808537],[127.2582660440512,37.49317055705418],[127.25847704063472,37.49274918192463],[127.259074876666,37.492237804935534],[127.25907038441889,37.49172613186514],[127.25921278054861,37.49129472740307],[127.2591713991119,37.491069027555874],[127.25856907871203,37.48983051287772],[127.2571968330363,37.48851235858577],[127.25701398417195,37.48841226450981],[127.25595108644767,37.48855324851213],[127.2543393226157,37.48707277236286],[127.25387254794524,37.48674612274194],[127.25363958048777,37.48647641161971],[127.25351553769478,37.486164334145194],[127.25369265758967,37.48562283615158],[127.2535951452644,37.485057304623425],[127.25312106750215,37.485166337586726],[127.25261201353334,37.485099537912845],[127.25179024664246,37.48525149740349],[127.25150480691478,37.48541290183595],[127.25046598074977,37.48552719776977],[127.2495504334813,37.4859236717904],[127.2492429833941,37.48628749082049],[127.24854372665358,37.48632127691185],[127.2470572447207,37.48619628955948],[127.24634064443693,37.4860610390951],[127.24522385541458,37.48544904552721],[127.24441826963123,37.4851209478067],[127.24437730207191,37.484805735998066],[127.24486664310844,37.48425235584129],[127.24498351934143,37.483929239234946],[127.24495563746875,37.4824821390496],[127.24512779800445,37.48168171441168],[127.24696830546497,37.4810392494257],[127.24702274111253,37.48051286292306],[127.24675926796354,37.47940627019602],[127.24637238951352,37.47908498437811],[127.24610117730575,37.479098735437944],[127.2458314731871,37.47894069026592],[127.24536034551706,37.47856540640763],[127.24542000313662,37.47779237782356],[127.24475015912361,37.47716637494757],[127.24461790673928,37.47663953711296],[127.24435586270387,37.4765770032083],[127.24324712815319,37.47667548566492],[127.24266515705783,37.47658181139193],[127.24234494573733,37.476613483494134],[127.2419589938396,37.47681822883656],[127.24149353282402,37.47681218358091],[127.24124861688145,37.47688398586787],[127.24067560770894,37.47670026035946],[127.23919520187042,37.476434309154875],[127.23868367550122,37.47601653250396],[127.23841291581807,37.47640392176868],[127.23814383973347,37.4766120320654],[127.23758941321772,37.476636990405304],[127.23739504626168,37.476753700338136],[127.23696473096474,37.4768508119872],[127.23638503778065,37.47682595292369],[127.23514628972353,37.47693609164164],[127.23438104256877,37.477347807729224],[127.23408004021654,37.4774181260023],[127.23305431736439,37.477432663252706],[127.23249462152442,37.47726031606676],[127.23225877351405,37.477406153149815],[127.23194474810974,37.47747001873134],[127.23178327825276,37.477406603447065],[127.23142885386675,37.477439864653064],[127.23124000709194,37.477320957700414],[127.23029698749856,37.47755830048248],[127.2284029119815,37.47749816184555],[127.2279666226599,37.4779665813118],[127.2269867325845,37.478329254210394],[127.22598564504074,37.4798260528516],[127.22534388377363,37.479689633541255],[127.22436830146826,37.479718282210385],[127.22405444891176,37.479503399243875],[127.22321094905263,37.47946144162367],[127.22287691000743,37.47971476120643],[127.2224463346499,37.4797352427285],[127.2221812668924,37.47984571504863],[127.22137270321264,37.479948457983056],[127.2214257126746,37.480094159145004],[127.22110617376289,37.480236129565384],[127.22105476113556,37.4804852523638],[127.22044085594489,37.48093308950339],[127.22046246136647,37.48123883915609],[127.22038037381334,37.4814156787471],[127.21959986352138,37.48193831623285],[127.2193194968168,37.481997216437485],[127.21901155350537,37.48188108612716],[127.21872067608751,37.481660127044506],[127.21783511665386,37.481472595382186],[127.21600393446559,37.481849525776234],[127.2155651080939,37.48233172700637],[127.21391219569739,37.481903183635325],[127.21307776335524,37.48190931939517],[127.21151532841365,37.48159102624444],[127.21092804810945,37.48128440438276],[127.21041059228472,37.48116548907754],[127.2097346174308,37.481382361242254],[127.20949832985896,37.48123432957683],[127.20902067430369,37.48112003991165],[127.20766568390437,37.48102991518515],[127.20667251163381,37.48038923932031],[127.20644784735175,37.48040037928986],[127.20605002081246,37.48055579534175],[127.20499977230136,37.4803320527461],[127.2045511161831,37.48056383219804],[127.20404643417858,37.48060310718808],[127.20379247147241,37.48093968098555],[127.20371229538995,37.48130689492986],[127.2031359961867,37.48191413381213],[127.20316321827906,37.48243034253651],[127.20333950988075,37.48264309129822],[127.20332386529927,37.48288753315991],[127.20268466894457,37.483138162890874],[127.20224976699933,37.483025557895544],[127.20210316410677,37.48375178671132],[127.20215478377584,37.48409207793568],[127.20204218665639,37.48412373303266],[127.20184656413784,37.48413230186695],[127.2017221934485,37.48376384847005],[127.20097019760593,37.483748506434225],[127.20032614248683,37.48349736570041],[127.20031615110663,37.48338391066098],[127.20074669348091,37.4829391195975],[127.2010255417158,37.48233644565643],[127.20080644155051,37.482124297127186],[127.20034188952235,37.481375519467655],[127.20024002387068,37.4807064274179],[127.20003811842106,37.48066226723445],[127.1997007415193,37.48012828804723],[127.19946262749498,37.4799768299228],[127.1987679486153,37.479994106757864],[127.19838963750432,37.47960517548578],[127.19778760414039,37.47961201985678],[127.19752117204607,37.479733348851234],[127.19727744231093,37.47969070293632],[127.19656261749215,37.479888621137526],[127.1959618431607,37.4802267368226],[127.19590900184417,37.4805552299921],[127.19559740180215,37.48074368929841],[127.19538376772849,37.480832428052345],[127.19500424709156,37.48084927620022],[127.1941985787884,37.48117324312142],[127.19390404033886,37.48138287912337],[127.19316734460196,37.481455897035374],[127.19220527682023,37.48110457501546],[127.19179423981359,37.48072699025174],[127.19032626336936,37.480699537870294],[127.18919327412523,37.480352078792585],[127.18867279155614,37.48034995855826],[127.18845272629466,37.48038825081093],[127.18740331203459,37.48112272440406],[127.18703934859965,37.481013375240224],[127.18679428676832,37.480814483022996],[127.18628825805855,37.48092143245006],[127.1858931182188,37.48115261778936],[127.18565689787548,37.48118383662641],[127.18552709151305,37.48149721703947],[127.18524383177828,37.48159489193541],[127.18506101985477,37.481763825518705],[127.18470787686006,37.482784397933926],[127.18439274596652,37.483349486218756],[127.18395782336009,37.48351685736961],[127.18397734211025,37.48388999921162],[127.18387431078693,37.483984330907475],[127.18345949832039,37.48385800258702],[127.18316062852503,37.4838920590972],[127.18282516094943,37.4840817401178],[127.18137528375516,37.484405270787654],[127.18084316809356,37.48432101531726],[127.18041443552734,37.48461412334894],[127.1798731839378,37.48485397517957],[127.17879520738997,37.48501292022333],[127.17840085614314,37.48537719060837],[127.17858068740212,37.486086452227404],[127.17862041901031,37.48683333042141],[127.17877609068158,37.48714346457596],[127.17874500533274,37.487200569856164],[127.17770344832425,37.48722056288925],[127.17758717321749,37.486910405054424],[127.1776690108416,37.486615737795304],[127.17748057718902,37.486019790831314],[127.1771131300702,37.48575846034117],[127.17710706075599,37.48544116322988],[127.17700148882832,37.48531468533902],[127.17630116189545,37.48527438673932],[127.17590268106073,37.48542472005374],[127.17567146718574,37.48533410589595],[127.17583319725637,37.484658459160876],[127.17571932428261,37.48450024009705],[127.17571665461024,37.484119788113574],[127.17608557191711,37.483779007771446],[127.17611673591523,37.4836011041868],[127.17568149163452,37.483189611410445],[127.17554381976126,37.482402042976425],[127.17584471749065,37.481679366131935],[127.17578019294378,37.48138709431693],[127.17609509501973,37.48091298332015],[127.17610499820616,37.48071837133355],[127.17594644382804,37.48049495128311],[127.1757746645532,37.48048185008683],[127.1757243709751,37.480406547163966],[127.17565030825328,37.48001207200021],[127.17503250350626,37.47983366342304],[127.17503882343925,37.47970628083811],[127.17531636479177,37.47939144044916],[127.17551542256376,37.478848583423705],[127.17543356954194,37.47838013764792],[127.17556135419574,37.47819936987469],[127.1754221363866,37.47801370808562],[127.17506514014784,37.477885470174904],[127.1750757511304,37.477703435086816],[127.17528142298995,37.47752351721918],[127.1753493982898,37.476833385366334],[127.17539510056109,37.476752607885004],[127.17660426183016,37.47629112219583],[127.17672463841836,37.47614066469837],[127.17703842921557,37.47597684853725],[127.17723275312603,37.47544884336747],[127.17747799169074,37.47536109796016],[127.17757187284577,37.47522756612052],[127.17816046674184,37.47509449218076],[127.17880537712871,37.47482086504484],[127.1794991821322,37.47430728973436],[127.17997673830192,37.4742217301974],[127.18047005532952,37.47400842996298],[127.18059976367852,37.47368911445066],[127.18094775508466,37.47345950653878],[127.18105861038212,37.47320476219355],[127.18097978651384,37.47236064078732],[127.18108355831339,37.472130360181275],[127.18100405459573,37.4718575396583],[127.18137023935658,37.47122699362624],[127.18132790620345,37.47094617021121],[127.18147798989644,37.470839029115034],[127.18192945582348,37.47085802740397],[127.1820830113578,37.47014183361632],[127.18177551671123,37.46911343775642],[127.18186019152122,37.46841022750975],[127.18219153080823,37.467784726102394],[127.18200153970652,37.46712184829754],[127.18195125629289,37.46587316665312],[127.18141230217942,37.465216953711035],[127.18157967857914,37.46437002840904],[127.18221620692091,37.46376210307267],[127.18302758560806,37.46322301397264],[127.18327220171697,37.462966943823446],[127.18356087023498,37.4628675859175],[127.1838785187059,37.462950896900836],[127.18461524717644,37.462536561038256],[127.18457950755173,37.46222273701441],[127.18443078473959,37.462112670408445],[127.18429144749122,37.461734799536615],[127.18437384472402,37.461464594530355],[127.1839381063324,37.46028974827269],[127.18465690432915,37.45930397155847],[127.18475891916705,37.45883440315801],[127.18738087681997,37.458163996287595],[127.1880766107536,37.45829328654179],[127.1893885251016,37.45835309742363],[127.18971479851704,37.45785323290272],[127.19049886483637,37.45744914436642],[127.191656750368,37.45705910539373],[127.19169829503217,37.456570334212905],[127.19147755518807,37.456193194645174],[127.19099164349316,37.45576562038977],[127.19124088469904,37.455325222454945],[127.19189346574242,37.45514040507634],[127.19215436876574,37.45491057579707],[127.19265340327533,37.45440555519165],[127.19329610596235,37.45345560315933],[127.19390096051592,37.452935930414654],[127.19417531595997,37.45199953078073],[127.1948397401191,37.45116713059798],[127.19466491794682,37.4504096068917],[127.1946331901202,37.44973956294059],[127.19478713671093,37.449238902867826],[127.19507595060003,37.44903655142828],[127.19542581285296,37.448922579214354],[127.1953642303305,37.44736071729005],[127.19519304053568,37.44694537827219],[127.19525376620886,37.446509570333134],[127.1953779208868,37.446310189731285],[127.1952601423952,37.44534115501249],[127.19556129076997,37.44480596825958],[127.1954468069591,37.4443845776546],[127.19575378815875,37.443963825494166],[127.19584248028572,37.44356002822263],[127.19567693545841,37.443247072995405],[127.19533145990249,37.44288662566779],[127.19523820496288,37.44246885527915],[127.19481080537,37.44175125534664],[127.19474208068762,37.44141820110815],[127.19456016383339,37.441344382875236],[127.19411484153106,37.440497314950726],[127.19409468070792,37.43967708054683],[127.19371244079058,37.43930875251099],[127.1936844081753,37.43915931882623],[127.19399540992187,37.438673873518766],[127.19341928304623,37.43789551088021],[127.19370204526454,37.437669314342486],[127.19413849254414,37.43619440128188],[127.19375526739718,37.434785716553264],[127.19385307294381,37.43376170514325],[127.19440076823642,37.43256580452348],[127.1945774586748,37.43191880269259],[127.19451598818029,37.431291682519145],[127.19542991015732,37.43094492974199],[127.19489320970658,37.430096706675585],[127.19439726535491,37.42978628492062],[127.19444068199392,37.42922620759431],[127.19392249234127,37.42819010024757],[127.19406502396173,37.42790156253003],[127.1934029096134,37.42615041454016],[127.19386465070359,37.42583329077479],[127.19412150035969,37.42581861786639],[127.19448759410383,37.42536200335643],[127.19432852415014,37.42462204841264],[127.19388635302002,37.42419851999963],[127.19292193192288,37.423691445292725],[127.19255895451884,37.42337008470243],[127.19254824424222,37.422991542447505],[127.19183696107173,37.42223899823878],[127.19135725704326,37.422048915916406],[127.19106759522948,37.42209215903511],[127.19035370256512,37.42193288775955],[127.18949284041848,37.42141370193791],[127.18934468875942,37.42138989679029],[127.1892299310379,37.42119410852302],[127.18878129799091,37.42090573393836],[127.18853204345496,37.420437853221785],[127.18805994133176,37.420404450980534],[127.18784884926804,37.42030943867199],[127.18794081664075,37.42019051424346],[127.18771816065637,37.41973569259895],[127.18706561484758,37.41900342210254],[127.18557622772269,37.418539099926306],[127.18532209543206,37.416876474519476],[127.18536686746116,37.41637346011634],[127.18531096765838,37.41621845676149],[127.18495439499739,37.41592894061265],[127.18473933737631,37.415479027807876],[127.18409356444324,37.41544895212779],[127.18315670805323,37.41499992501766],[127.1821130214411,37.41521218082109],[127.18183401644409,37.415545402697326],[127.18109544712388,37.41548148281613],[127.18049674314312,37.415763200309726],[127.18038486854327,37.41615184969035],[127.17921909307475,37.41570700373289],[127.17880651639561,37.415631289299476],[127.17839470268645,37.41530544190114],[127.17800386995658,37.4151139498035],[127.17761034999747,37.41508268307139],[127.17724062692376,37.41479973292094],[127.17727995756304,37.41429508417369],[127.17778218512338,37.41395687773984],[127.17770231274633,37.41338469091859],[127.17790807097492,37.4130050620008],[127.17791095357845,37.41248121701964],[127.17738352143081,37.411844945016824],[127.17752349502453,37.411498414151666],[127.17759944591548,37.41063924893657],[127.1771873665888,37.410180084598785],[127.1773311419186,37.40985452485286],[127.17701053619245,37.40944792356081],[127.17687433230797,37.40905761761198],[127.17620450301985,37.408379822767806],[127.17610873066239,37.40799475723602],[127.17579258798007,37.40764087368832],[127.17531595818734,37.407325507988226],[127.17516495479136,37.40657159066365],[127.17442697401412,37.40613404244969],[127.17416317511078,37.40572507841576],[127.17384039019184,37.405526808450645],[127.17397406660012,37.40515758450091],[127.17363990967537,37.40480433314752],[127.17364330475274,37.40434876655442],[127.1733313246046,37.403891748532885],[127.17317032032818,37.40313801517316],[127.17337333592864,37.40290947842601],[127.17306228566989,37.402674988881856],[127.17185362361022,37.402120756488635],[127.17143130681146,37.401431497140095],[127.17167446421682,37.40102642905984],[127.17063186306018,37.39864463681241],[127.1707419703933,37.3984011621154],[127.17036172478633,37.39786143720656],[127.16938425403343,37.3972092813032],[127.16906355750817,37.39670803442452],[127.16915801260019,37.39624071404283],[127.16863628946366,37.395718440212235],[127.16819851497087,37.39557809474244],[127.16841149871559,37.39394055256442],[127.16854980342441,37.393681189953554],[127.16860900611883,37.3931965248685],[127.16825224883857,37.3926471750924],[127.16855251608433,37.39238491716496],[127.16958465769892,37.39198585277227],[127.16984602091844,37.391726323050456],[127.1704235671076,37.39159034760647],[127.17085748552654,37.39131508872215],[127.17129523640222,37.39146874042025],[127.17209137590278,37.391371582726386],[127.17238513963298,37.390048480538084],[127.17269585543852,37.38998681405897],[127.17299996770598,37.388836147358774],[127.17340126900517,37.38863374734704],[127.1744005950963,37.38855302000484],[127.17472482939661,37.38825086748488],[127.17544458249635,37.3879621076766],[127.17598333927391,37.38750532889958],[127.17674384082046,37.387383801254934],[127.17726067505895,37.38708988022353],[127.17703687225703,37.386548884590354],[127.17675419624223,37.386137908526266],[127.17658233768644,37.38525369651247],[127.1761601971041,37.38478936873596],[127.1750129195682,37.384146499104325],[127.17443205071042,37.38371248300287],[127.17417047487578,37.383186220737],[127.17338431217539,37.38270333135466],[127.17262674411693,37.382551042291524],[127.17208857584122,37.38234908151574],[127.17125553363118,37.38248765815292],[127.16975274028265,37.38122728344095],[127.16911843108203,37.3808760225357],[127.16872844321789,37.38081001691786],[127.16792116389884,37.38027427506488],[127.16708190445323,37.38031060094603],[127.16672454959505,37.380212872651974],[127.1662708916375,37.380273053095166],[127.16443651323159,37.37969481670114],[127.16301487234196,37.37995998981119],[127.1618003615268,37.37964459283531],[127.16156817767705,37.378836550889766],[127.16136222641035,37.37854992971262],[127.16086930128299,37.37733870872937],[127.1612367916054,37.376337425917654],[127.16117068266585,37.37582878349868],[127.16074711263853,37.37467186379704],[127.16083593067215,37.373711178030135],[127.16045800401496,37.37317669825502],[127.16068488586365,37.37286210008725],[127.16057566444216,37.37265675204456],[127.1595954358336,37.37205440227912],[127.15918459191009,37.371508087581496],[127.15884489888515,37.37144326153953],[127.15836815163914,37.37099162883151],[127.15822403251497,37.370477401184054],[127.15745404689557,37.36946044076458],[127.1569097960364,37.36919463564922],[127.15617620849332,37.36847770194451],[127.15483868465707,37.36796553742088],[127.15466276825465,37.366870703999155],[127.1547455271081,37.36644415711612],[127.15416525479728,37.36574479521921],[127.1539448497191,37.36516702306907],[127.15355463577511,37.36488658726718],[127.15325867647097,37.36455196766142],[127.15309403506605,37.364013719786534],[127.15278878448655,37.3634625171252],[127.15219889525478,37.36312681078684],[127.15178640981459,37.363019384498266],[127.15125752697841,37.36243979180826],[127.15073898522981,37.36222224531889],[127.15052920383583,37.36150045053388],[127.15019242539918,37.36130779659552],[127.14966599035843,37.361160561495275],[127.14894765120884,37.361146845360395],[127.14802765461964,37.36070366838317],[127.14753071652775,37.360716419676535],[127.1473772961867,37.360631590217196],[127.14726527696637,37.360678905151325],[127.14721455490535,37.36064770302723],[127.14730589061834,37.36059174439832],[127.14710066946726,37.36047761207571],[127.146074659499,37.360072735059404],[127.14570443896805,37.360024579023474],[127.14548017822781,37.35980292211313],[127.14504058010556,37.35956852400812],[127.14405937036518,37.35944899142974],[127.14354315280025,37.35962503111284],[127.14207683404777,37.35944843540541],[127.14180197363424,37.35963928347735],[127.1416043880227,37.36000768159767],[127.14095927452259,37.35993280418593],[127.14024952537766,37.36015069521023],[127.13980509499751,37.360123255761756],[127.13965649376034,37.359946604351755],[127.13931443300572,37.359949706369946],[127.13821039492986,37.35947003112949],[127.13730731223062,37.35946704377829],[127.13625648574494,37.35897175907224],[127.13582078693571,37.35852391457164],[127.13523978751019,37.35842029869953],[127.13481819788205,37.35789773234183],[127.13481276893881,37.357661815397044],[127.13460657559519,37.3574095096469],[127.13425137682104,37.35652316843291],[127.13372898713085,37.35592273760043],[127.13361035582133,37.35534150404989],[127.13384947299609,37.35472406632813],[127.1342684088498,37.35410501000518],[127.1343696101285,37.35322312826756],[127.13456281311832,37.352848835961424],[127.13429585565596,37.35177101890836],[127.13375806946635,37.351498676601445],[127.13319726790361,37.351372805769486],[127.13288828099206,37.351155228363034],[127.13266186840676,37.35030844811084],[127.13274635143905,37.349597809060505],[127.13258123702866,37.34955373512798],[127.132831582745,37.3488769234379],[127.13320653829227,37.34844150355146],[127.1340794765737,37.347904600936396],[127.13424827823793,37.34670383709027],[127.1350692648867,37.34654997314806],[127.13602260291749,37.345772933294384],[127.13638993589147,37.34535423361309],[127.13653909407176,37.344822712264985],[127.13732590752794,37.34452003408985],[127.13701935651376,37.34390291298972],[127.1364220282431,37.343534998067575],[127.13654129036229,37.343294657572734],[127.13646803781184,37.34303033637509],[127.13608866725305,37.34243897861259],[127.13629607780074,37.341756855326004],[127.13636057607965,37.3411348619473],[127.13666001745568,37.34097326294354],[127.13702584792419,37.34098309870233],[127.13704339296206,37.3407928536857],[127.13792705583313,37.33979770694912],[127.13869545797162,37.33970362577271],[127.13933433568434,37.339302656294834],[127.1397990199581,37.33913209104018],[127.14021032591248,37.3387643068143],[127.14088234905158,37.33762245283936],[127.1412808581147,37.33728593829985],[127.14142987753762,37.336839872725875],[127.14226777308818,37.336615443567105],[127.14333150916644,37.33673987546241],[127.14404669215146,37.33668251254853],[127.14435295245052,37.336761145746706],[127.14474397216695,37.33715055509128],[127.14545243377849,37.3369223019997],[127.14612615547394,37.337116534411585],[127.14599398674461,37.33666574477101],[127.14629821259521,37.33675519250899],[127.14706898964003,37.33681231124735],[127.14742398194791,37.33708060209181],[127.1480588989115,37.337266070768514],[127.14842962666637,37.33746370781088],[127.14798867779372,37.33762148426191],[127.14891332431964,37.33811713177087],[127.1491283271205,37.33862928501154],[127.14961400652587,37.33882450633995],[127.15050786396661,37.339447657669844],[127.15126746138333,37.3397990170322],[127.1517447142035,37.34013696097705],[127.15200340084516,37.33999235374009],[127.15291875515585,37.33991198348099],[127.15384288804762,37.340139161539724],[127.15429462521617,37.340342986150745],[127.15498016581525,37.34015182921086],[127.15632255624891,37.34074039385238],[127.15827335175388,37.34095334205508],[127.1588353360096,37.34116589389265],[127.1595164023104,37.341997946504286],[127.16149400771329,37.342774745097806],[127.16176812359004,37.343034659696904],[127.1619106281694,37.34331779410331],[127.16210701943695,37.34339962058074],[127.16320217257261,37.343368501545385],[127.16344593829922,37.343463884109354],[127.16377575857032,37.34343622994912],[127.16464388443815,37.34355101577043],[127.16541802358864,37.34338857484827],[127.1657650536772,37.34340767005392],[127.16601542234054,37.34357913939944],[127.16693989629131,37.34338935733311],[127.16740035067959,37.34314865388492],[127.16786653473268,37.343174632736236],[127.16814146703288,37.34336826134358],[127.16867192348722,37.34337325274085],[127.16931632069,37.34371586637101],[127.16946793002218,37.343878402620255],[127.1702105100087,37.344125713433115],[127.17082523272919,37.344198204142394],[127.17099093370445,37.344126361263434],[127.17165872968725,37.344172321400514],[127.17220957156192,37.34450174991569],[127.17286991763804,37.344599306787075],[127.1732006914335,37.34451299560454],[127.17392536627617,37.344601970004625],[127.17428430883373,37.34437370374871],[127.17439056915914,37.344524686460126],[127.17471793642005,37.344365996536546],[127.17554793374836,37.34444724983638],[127.1767935837349,37.34423978913788],[127.17727973658434,37.34448047052385],[127.1780124944185,37.34368594777018],[127.17851159372671,37.343389847466646],[127.17867092416806,37.34317536266857],[127.1788375337807,37.34319089348122],[127.17994536770162,37.34361190487759],[127.1812412872862,37.343701197697484],[127.18206124216574,37.34399049224441],[127.1825390894366,37.344282153636286],[127.18377272000103,37.34480668087797],[127.1843485340239,37.34481315463794],[127.18501867675201,37.344978643439084],[127.1855602258895,37.345482401649214],[127.18590043942811,37.34552230842729],[127.18652308317432,37.345320996504825],[127.1867868715435,37.3453944479201],[127.18771647499172,37.34578496144321],[127.18864239832746,37.345999402733476],[127.18999434179271,37.3466556508559],[127.19040209239635,37.346725440370946],[127.19079033800749,37.347013942220244],[127.19182518984397,37.34724357202714],[127.19284222526417,37.34626353975747],[127.19539876369456,37.34481865564185],[127.19603238705253,37.34433991998738],[127.1961687538547,37.343804442513246],[127.19727171099623,37.342713957553],[127.1975856618824,37.3420693761218],[127.19814967617103,37.341210586325936],[127.19808476378424,37.34068592304982],[127.19820922832527,37.33935027574151],[127.19786811271914,37.33884277101436],[127.1977669576126,37.338543628618076],[127.19769686335356,37.337322221902284],[127.19753332597868,37.33731669125346],[127.19721871735108,37.33690834368052],[127.1968063267475,37.336152573193765],[127.19667897163612,37.336191653654666],[127.19705590956517,37.33577748860682],[127.19716659971388,37.33466919212684],[127.19735735192589,37.33435019383983],[127.19728343017793,37.33360634103311],[127.19786381320226,37.3326561688696],[127.19901789980203,37.33199579081338],[127.19955812976761,37.33108667250831],[127.19961137076747,37.33070570393714],[127.19953496006731,37.32991089379099],[127.20021097167553,37.32887166597898],[127.20046973696955,37.328635484828176],[127.20065735864488,37.32863383777288],[127.2018381355622,37.32825910804711],[127.20187913223087,37.328388254291056],[127.20237911241817,37.328737988403056],[127.20347093663214,37.32918906285674],[127.20412376730084,37.32911611076515],[127.20500621759793,37.32966486630527],[127.20547538896466,37.32983704672407],[127.2061651611539,37.33038220040929],[127.20763241068234,37.330602604827746],[127.20805250505632,37.33058678615707],[127.20872772955772,37.33136416259684],[127.20879476596305,37.331878078042266],[127.2085570295657,37.33223466996675],[127.20846788736885,37.33267023776347],[127.20940763858853,37.333603426698616],[127.20996938598901,37.333808268388616],[127.21063227255753,37.33428206426772],[127.21109277989943,37.334378740485896],[127.21121768941177,37.33565576175609],[127.21153979847777,37.33602588254103],[127.2114306042881,37.33637934641077],[127.21146484732475,37.33666164207998],[127.21166822470174,37.33680314571484],[127.21178245671317,37.337366431323545],[127.2127565697705,37.337385375072905],[127.21333715488343,37.337618811442475],[127.21407620513683,37.33804193763256],[127.21447342122926,37.33842256532951],[127.21453442989053,37.33865529779026],[127.21482094143173,37.33902120967181],[127.21521500509131,37.33881051290651],[127.21585954632774,37.33901646686006],[127.21568780577836,37.33929061714688],[127.215830547307,37.339771935443885],[127.21608902750921,37.33991502582592],[127.21618927866633,37.340302284578996],[127.21681983429849,37.340825695651326],[127.21719930232638,37.34099554869528],[127.21726171309406,37.34210137639696],[127.21783005630436,37.342633490303676],[127.21853190786004,37.34413966842968],[127.21883984233219,37.3444651561865],[127.21888471082698,37.34475361668359],[127.21871512153685,37.34503945278075],[127.21881784765928,37.345475671043246],[127.21874523277681,37.34548614020902],[127.21935379856465,37.34599762288356],[127.21907506066563,37.34613355033093],[127.21994047037512,37.3470602308271],[127.22054281099031,37.347371265513495],[127.22170114777731,37.34673243739852],[127.2222055744706,37.34612555969991],[127.22235115981123,37.34636749130982],[127.22227483584207,37.3465069676993],[127.22268987824799,37.3473791285027],[127.22255443540791,37.34794544812681],[127.22203986766053,37.34877326748398],[127.22153422048159,37.34944005287761],[127.22065408880154,37.34990716047618],[127.22048968935009,37.350356571337436],[127.21997369498702,37.35056567879002],[127.21858880443013,37.35175597963442],[127.21792718706592,37.35218876935505],[127.21735662513535,37.35297365609102],[127.2169930411584,37.354464948578666],[127.21661836192597,37.35468722574084],[127.21656255956317,37.35494528863785],[127.21745774284393,37.355514715588626],[127.21789837854678,37.35548282338945],[127.2185070651562,37.35574272598283],[127.21921098274063,37.355341904945455],[127.21951107660986,37.35449254502645],[127.2206369346658,37.354388414826815],[127.2217199095104,37.354496997499616],[127.2226525412069,37.35445852989497],[127.22361396538471,37.35494917455326],[127.22452240732088,37.3552440511847],[127.22482149968138,37.355211798067955],[127.22509009462831,37.35546517303118],[127.2252919857199,37.35608807069345],[127.2255988028948,37.3563379637419],[127.22582022253138,37.35665587315647],[127.22604208985385,37.35678960482045],[127.22638571847291,37.356792204735214],[127.2275009847995,37.357439608948155],[127.22769543783316,37.357824708679466],[127.22821380729114,37.35825754019295],[127.2282968805456,37.358654331692954],[127.2289492309911,37.35915739169372],[127.2300184209276,37.35920191174315],[127.23035861358188,37.358834783593196],[127.23039196191026,37.35851338763721],[127.23095567595493,37.35830923272589],[127.23108090847205,37.35836738465669],[127.23173501629392,37.35816232278529],[127.23226423497232,37.35824767157662],[127.23263903536795,37.35809596698685],[127.23314355656738,37.358137272001784],[127.23367744946546,37.35800336112664],[127.2337522837503,37.35790383992627],[127.2344242234996,37.35784763109992],[127.23517475194298,37.358026291858955],[127.23534070859664,37.35835273418858],[127.2357458709319,37.35877604378933],[127.2361889821644,37.359056752679],[127.23738152610392,37.359389421665185],[127.23775651235385,37.3599034701263],[127.2379401649155,37.3604426154504],[127.23872993617351,37.36013235514272],[127.23864792630847,37.357705519161385],[127.23910278570362,37.35566674603674],[127.23992307711893,37.35545550072522],[127.24023771556851,37.35527687929474],[127.24086421469633,37.35428045288514],[127.24115134015545,37.3541872399762],[127.2414290321362,37.35419800231663],[127.24221730612189,37.3535949428271],[127.2423140076637,37.35361165790644],[127.24259715258805,37.35377156379617],[127.24313974977368,37.354357108533144],[127.2437852711023,37.35462996821354],[127.24429857755015,37.35475537468176],[127.2450509396093,37.35542005847072],[127.24556661358719,37.35546181227111],[127.24605365410413,37.355375328815356],[127.24722365555839,37.35565275041544],[127.24724689202361,37.35524282968672],[127.24784286285787,37.354911800049926],[127.2480780256085,37.35458285152534],[127.24867672399127,37.35464556534247],[127.24892623301987,37.35439382050957],[127.24895615261987,37.354169602787856],[127.24968672323992,37.3537209714011],[127.24999778837112,37.35326579792161],[127.2500179284841,37.352914158998566],[127.25078819085194,37.352565620648654],[127.2513467911235,37.35259931276657],[127.25196010974139,37.35211337545285],[127.25218760825868,37.35183015329404],[127.25226668268802,37.351270065358705],[127.25270049124585,37.351100744263206],[127.25358894939698,37.35046596105247],[127.25411503127792,37.350786195479735],[127.25455724570546,37.35078651349104],[127.25542707957244,37.35044820717126],[127.25626914396457,37.35001056561451],[127.256366239482,37.349823150840145],[127.2567927914703,37.34951992024479],[127.25716856496882,37.34954212358363],[127.2578272031784,37.34982675098884],[127.2584528346916,37.34965827538894],[127.25918657016871,37.34937196545816],[127.25990421917874,37.34897131153731],[127.26020791113879,37.34898555108458],[127.26071376019907,37.348753485520845],[127.26150419073305,37.3482450098108],[127.26306793266721,37.34584470549309],[127.26332576444457,37.34489867558265],[127.26372306031631,37.34426882056151],[127.26368372477923,37.34406954055555],[127.26428111984967,37.34349336236879],[127.26466879334619,37.343390045413486],[127.26472324412772,37.343069592883054],[127.26494487727673,37.34261776347941],[127.26586120077965,37.34252405855335],[127.26652573871618,37.34286750657808],[127.26727569151507,37.342980237218775],[127.26807223033371,37.34293015006947],[127.26873799992102,37.34229545689802],[127.27060624723013,37.34241295217527],[127.27159160369001,37.34269468040055],[127.2729423154146,37.34245557663991],[127.27384849737076,37.34281911901665],[127.27513195285943,37.34269747488999],[127.27536338384581,37.34297840873375],[127.27589705857916,37.34316667537569],[127.27608985472115,37.34350403724354],[127.27739860732393,37.34432266221857],[127.27918581672273,37.34494163293382],[127.27994856313313,37.345629886981406],[127.2806591384338,37.34605607963144],[127.28123938895205,37.34593935157693],[127.28235654874237,37.345315253555604],[127.2831170060016,37.34510950021389],[127.28269536412252,37.34418947136001],[127.28319866834816,37.3430252568323],[127.28307933726666,37.34211521207739],[127.28291303036393,37.341780275337655],[127.28327239807986,37.341177225201704],[127.28320179291514,37.34072243870093],[127.28292294743483,37.34028186371432],[127.28317823974656,37.33960120415778],[127.28343613138077,37.33819763784581],[127.28288157480479,37.337104845554116],[127.28296613734369,37.336296951528404],[127.28254751559933,37.335994266798856],[127.28224243796734,37.33547632673763],[127.28160050619755,37.334907691398726],[127.28087286188985,37.33458666435793],[127.28064550488637,37.33348716347427],[127.28036549007365,37.33282581486784],[127.2798558780764,37.33212082950395],[127.27983335109622,37.331560007258105],[127.27950834964983,37.331274814090236],[127.27949837678169,37.33028251481715],[127.27936791110314,37.32994337749219],[127.27989637334902,37.32895807687215],[127.2796001660771,37.328287375472506],[127.27961542869068,37.3280046798607],[127.28084447095918,37.32766487477836],[127.28126407377835,37.32773859720424],[127.28155277496995,37.32745367886951],[127.28192250026638,37.327260901568245],[127.28181646111044,37.32711480778291],[127.28177630468014,37.326558252542426],[127.28110383895479,37.32512406378367],[127.28123533055876,37.324711246931884],[127.28123423651321,37.324151074104805],[127.28178334548373,37.32270340701394],[127.28159163677664,37.32249031848662],[127.28155190923313,37.32231259519806],[127.28242058225956,37.32166507254826],[127.28263333318074,37.32083058863716],[127.28311302403658,37.32008789763278],[127.28280658968886,37.319452736339514],[127.28333743643977,37.318451625912886],[127.28316793406202,37.31736393378636],[127.28295416546736,37.316711515727235],[127.2830129273789,37.31587268438883],[127.28192540783354,37.31548692435986],[127.28141788976045,37.31478611028615],[127.28092076064377,37.31427537918903],[127.28011661314122,37.31366189304539],[127.2790651899123,37.31178618733612],[127.2784836319249,37.31104230309696],[127.27839954675501,37.31072239245816],[127.27844499657034,37.31040919633176],[127.27771160107304,37.30934188036102],[127.27727831822526,37.30885120043096],[127.27722878954415,37.30846865921692],[127.27725325064412,37.30813954766723],[127.27900261617368,37.305681011136976],[127.27847713675256,37.304772214344425],[127.27975871153419,37.3026580958944],[127.28000809229036,37.30132662307877],[127.28043797669763,37.300610735468425],[127.28026996920615,37.29899805970088],[127.28118718621151,37.298279597024234],[127.2813221454144,37.29785908212141],[127.28155471146587,37.2976107137202],[127.28123133963886,37.29650613719671],[127.28059699453149,37.295752976940584],[127.2806100720942,37.2953945006134],[127.27922662456615,37.29428548142862],[127.27891102815457,37.292094030174454],[127.27837497074407,37.29085748857529],[127.2777334555591,37.29028167040688],[127.27765725181543,37.29000969301723],[127.2783389577302,37.28893558871874],[127.27867737546332,37.288822267354874],[127.27888497260781,37.28844939398327],[127.27890994082719,37.2882066366626],[127.27849489098975,37.28657065378029],[127.27883640054188,37.28609797753479],[127.2794497761135,37.285895826185275],[127.27972716758063,37.285618953811934],[127.27962455347276,37.285567709454725],[127.27972515785702,37.28542522889865],[127.27976574723051,37.284544370215556],[127.27967038186257,37.283952832488836],[127.27996090107844,37.283727837718146],[127.28008992265188,37.28245129944817],[127.27987344582746,37.28171698229158],[127.28042990270745,37.281110505758384],[127.28061612470256,37.28111619451834],[127.2808433760829,37.280550153278874],[127.28128006580427,37.280180628595424],[127.2808838037278,37.27889461315687],[127.28131614082831,37.27870988313299],[127.28142766757901,37.278441895939736],[127.28167030470796,37.278182717406814],[127.28173753132133,37.27794554092383],[127.28128679895242,37.27774056020877],[127.28105692411548,37.27741093899271],[127.28073223909333,37.27721012652266],[127.27985857313377,37.276921952132824],[127.27917939235957,37.27649909023852],[127.27899482873529,37.27653660998617],[127.27836743300789,37.276227674165234],[127.2778292045824,37.276183735237545],[127.27722416046836,37.27586763311694],[127.27687732280168,37.27548417914427],[127.2763287741665,37.275170612668546],[127.27603738480488,37.27488582535123],[127.27587316775671,37.274408894298375],[127.2760222461967,37.273613830333716],[127.27644060764003,37.27342681635144],[127.27676343922414,37.27290589924604],[127.27697119182837,37.27293505988895],[127.27743344473609,37.272847493533334],[127.27767171600723,37.27264154959418],[127.27876467185258,37.27213815531559],[127.27906833056709,37.27222378027259],[127.27956646016943,37.27166669373467],[127.27969460011923,37.271370476292034],[127.27935787064222,37.27070068418841],[127.27925882053223,37.26980961710121],[127.27956885442326,37.269677779103034],[127.28037210877677,37.26958165035819],[127.28089004774152,37.26934009739093],[127.28168255297717,37.26872348939399],[127.28234101042564,37.2690367737758],[127.28266217473119,37.269105066171434],[127.28343862910782,37.26897526499694],[127.28420632947365,37.26915181248678],[127.28481319325005,37.26907835146581],[127.28507765581482,37.269283485774636],[127.28517564132713,37.269626732925275],[127.28568327702105,37.2701212633027],[127.28726113049572,37.270711082877526],[127.28742180753261,37.2708788011483],[127.28793734365887,37.270899594395004],[127.28815268361483,37.27103264257671],[127.28860187694919,37.271046268852174],[127.28944665099053,37.27131535490743],[127.29032380898283,37.271480367975734],[127.29075677238838,37.27141166131627],[127.29113161374111,37.271581310498],[127.29190660512234,37.27144366137358],[127.29209559629531,37.271650579876244],[127.2926177717932,37.27118014106236],[127.29284931233158,37.271237740267885],[127.29318009051032,37.27108137222682],[127.29324083247324,37.27062128112165],[127.29376561491152,37.27037664605446],[127.29452136003562,37.26970466286274],[127.29510362473424,37.269415152506525],[127.29523854114774,37.26901668752619],[127.29521909255027,37.268752419165565],[127.29545024516221,37.26843856532272],[127.2954471563619,37.26808190824435],[127.29522044354947,37.2671464988492],[127.29526061977083,37.26691911428544],[127.2955870620616,37.26681081079013],[127.29612822940145,37.26643153667577],[127.29633975661123,37.266028572530125],[127.29635538527813,37.26572902242611],[127.29658075964433,37.265341755175854],[127.29650736060758,37.26527638924221],[127.29695877249297,37.2652488368349],[127.29749326231602,37.26504001967929],[127.29834333423842,37.26499329075178],[127.29952112262747,37.26520873375383],[127.29957606731409,37.26527623535456],[127.30020224748309,37.26520712507477],[127.30093327348152,37.265713901848976],[127.30131581428809,37.26571121466434],[127.30145402690627,37.26588944798778],[127.30223988699365,37.26621884438912],[127.30265537719143,37.266968023134105],[127.30236461728201,37.26806583002886],[127.30246510547335,37.26906417990973],[127.30263073978716,37.26947027567329],[127.30304886368704,37.269966608830714],[127.30347427363425,37.27025335716299],[127.30374366052035,37.27070648367971],[127.30411955245738,37.27091591378991],[127.3049098974857,37.27111339779054],[127.30532015064996,37.27098039908684],[127.30721768627183,37.271550704963644],[127.3076418782355,37.27199872742523],[127.3086686551869,37.27219725170897],[127.3086889786635,37.27244046607821],[127.30927276074924,37.272526305501145],[127.30972824621803,37.27280836901521],[127.30985444162594,37.273056182757124],[127.31019766455623,37.27293611899946],[127.31051955164597,37.27297844697613],[127.3110116345649,37.27365507983483],[127.31155341961063,37.27365025567015],[127.31202589520677,37.27384829082409],[127.3126797116801,37.2738773787411],[127.31308289161522,37.27369697704521],[127.3138541973357,37.273703009436396],[127.31407532400557,37.27373115970908],[127.31446238084794,37.273957306243354],[127.31522190382975,37.273677461102594],[127.3157923885029,37.2740133212121],[127.31622782273233,37.27406339647904],[127.31666164450368,37.27390046323036],[127.31704587680531,37.27363148317225],[127.3174535773109,37.27359115472932],[127.31755044668827,37.27375994158368],[127.3179227761495,37.27385403867901],[127.31833258128984,37.27408445314786],[127.31898315993372,37.27464613490446],[127.32011268391707,37.27448917781512],[127.32085742417462,37.27459395190269],[127.32107868779275,37.27440821233477],[127.32138390635556,37.27441451611666],[127.32180162707922,37.274194371146436],[127.3226285683839,37.274205744763144],[127.32266876039957,37.273990067497785],[127.32323634590422,37.273596359107586],[127.32336721215104,37.27315640074416],[127.32364289757375,37.27284010118431],[127.3239833699874,37.272672709478556],[127.32455640031954,37.2726075343157],[127.32476848146743,37.27269810383191],[127.32559956746958,37.27272480104275],[127.32586595659612,37.272596666116605],[127.32599933877579,37.27237643019558],[127.32686233767517,37.27208296459351],[127.32748955137497,37.27167858715608],[127.32820782931826,37.2717534220869],[127.32865293808212,37.27121645747263],[127.32915417866072,37.27084923557494],[127.32975571694325,37.27062614914771],[127.33004925931182,37.270390193002626],[127.33049671308336,37.27029608105891],[127.33216319838427,37.27054015332843],[127.33292454282346,37.270412780631375],[127.33392879052269,37.27080363298457],[127.33396112324579,37.27071833191655],[127.33448387074665,37.270856152541896],[127.33513113872364,37.270743908294065],[127.33581919376735,37.270983101094295],[127.3367044249198,37.271088192035045],[127.33731809783414,37.270634170280736],[127.33796663943069,37.27070583588223],[127.33808832469887,37.2706248023851],[127.33820642015598,37.270725356445624],[127.33842867802929,37.27060226363104],[127.33879319902171,37.27056850913076],[127.33878354549132,37.27090961487153],[127.33938034027608,37.27160662287708],[127.33988134361634,37.27169133191879],[127.34005816724513,37.27182072902998],[127.34001747575059,37.272034190605424],[127.34011973569325,37.27234900407434],[127.34053676048305,37.27269285229327],[127.34165355142153,37.272916959387196],[127.3423294224191,37.27274825396361],[127.34239782177386,37.27288729231815],[127.34285504580176,37.273164105445616],[127.34328797093639,37.27311306513591],[127.34343332405675,37.27334205632141],[127.34423153634361,37.2739638640591],[127.34453735395087,37.27391592756393],[127.34497606488534,37.27399875745396],[127.34504380833137,37.2742329001419],[127.3453550020659,37.27449943107266],[127.34572920889514,37.27539815918589],[127.345732463658,37.27566487870113],[127.34626798500058,37.27586421327487],[127.34684227581182,37.276333042076516],[127.34700162056691,37.276234885554935],[127.3479058513621,37.27615866556011],[127.34819584673964,37.27626394993198],[127.3482771359329,37.2764272309803],[127.34908116718405,37.276827279657645],[127.34915020364816,37.27697618156584],[127.34871719687247,37.27761017123391],[127.34904129384515,37.277932561368935],[127.34827548452073,37.27771650653147],[127.34825299899319,37.27858621847171],[127.34849460763728,37.27875211144847],[127.34843355296883,37.279273698476175],[127.34772254393738,37.279547644338116],[127.34756853621266,37.279743907947214],[127.34683106669776,37.28012930303514],[127.345235080005,37.28080536795604],[127.34512893874768,37.28107072186926],[127.34510436017337,37.281616943034116],[127.34400966923236,37.282256438166044],[127.34288242851352,37.28345565581341],[127.34270537892687,37.28414252453429],[127.34268886227444,37.28499287128392],[127.3424616181837,37.28558054594359],[127.34252240698926,37.285722067074936],[127.34231922819409,37.28640547667037],[127.3419623851246,37.286650610202294],[127.34182805836635,37.286926909482126],[127.34033101750033,37.287652881410764],[127.3401206625538,37.28808922932561],[127.34059511779526,37.28870208256815],[127.34155139296436,37.2892125464214],[127.34179668088647,37.28987834955257],[127.34307734948123,37.291184591435886],[127.34351578312935,37.29099022660335],[127.34435628869187,37.29105374218424],[127.34467580165932,37.29101143384392],[127.34505274218652,37.291217908079524],[127.34580337537157,37.29115666485017],[127.34656061741126,37.290518262234826],[127.34729018858721,37.29035620958317],[127.34781467806853,37.29047939768358],[127.34817903974702,37.290167450107745],[127.34863561310583,37.2901626715329],[127.3488052336934,37.29044658166826],[127.35013240104355,37.29071068985025],[127.35051679518651,37.29059172989689],[127.35097192684553,37.291369460143855],[127.3513423294745,37.29175010303052],[127.35161995015649,37.29157246499654],[127.35268388033646,37.29205204852344],[127.35322127419097,37.292043127082],[127.35411263176033,37.29266126458892],[127.35395991745153,37.29323837811218],[127.35441054970822,37.29419842754634],[127.35512827796647,37.294205423290826],[127.35607999519534,37.29452671020722],[127.3569857408248,37.29432020906384],[127.35705242500323,37.294698528555315],[127.35722643813025,37.29502534005934],[127.35745707509977,37.29512322674619],[127.3572831988929,37.29584848149403],[127.35751372154277,37.296288300284935],[127.3571859778452,37.296856641718406],[127.35744843974202,37.29764020533252],[127.3571091230413,37.29822357498719],[127.35687910878072,37.29907976273812],[127.3565686901829,37.29930850034064],[127.35503473867153,37.29993432431994],[127.35440388762711,37.30061128827685],[127.3543487111343,37.30101968993754],[127.35442046680758,37.30152380656204],[127.35648093516508,37.30300317233489],[127.35670888981028,37.30346611888188],[127.35700981136344,37.3036147768915],[127.35749956248675,37.304301957234365],[127.35786681357648,37.30585176829899],[127.35846580935588,37.306078741866905],[127.35900033689519,37.30659195488053],[127.359572663602,37.306801724873615],[127.36120009826932,37.306492396496],[127.36153202307082,37.306623943777524],[127.36165030786263,37.30701990831059],[127.36184480953226,37.307174247108314],[127.36282049382564,37.30739320609233],[127.363141349365,37.30768489594694],[127.36414823488074,37.307647872950234],[127.36487951348279,37.30859721779696],[127.3646254836647,37.309392304177855],[127.36487403351923,37.30975376102876],[127.36485380574426,37.310055521388996],[127.36457903603683,37.310237480174784],[127.36450368544048,37.31064162269697],[127.36390834358735,37.311380061725174],[127.3640092357138,37.31200752142679],[127.36351442757697,37.312450573179866],[127.36352551960614,37.313342865653695],[127.36372081774833,37.313847336199665],[127.36344889578665,37.31525716042553],[127.3634035380583,37.31595216771322],[127.36451669467925,37.316109015407605],[127.36507498452468,37.316599762868144],[127.36657099532938,37.315827587068135],[127.36718407149482,37.31567170818345],[127.36733448097046,37.315268892386094],[127.36766871018739,37.31509769342321],[127.36876737015936,37.31496749541838],[127.36918599413681,37.31503821359255],[127.36931229496861,37.315190591428724],[127.36980256603428,37.31523834328],[127.36991209200436,37.315933736148374],[127.37086964830985,37.316438765210066],[127.37130561404543,37.316422860007634],[127.37199691475513,37.31698299874674],[127.37243424062392,37.318600205725716],[127.37267765849897,37.318837871571205],[127.37317071813017,37.31911676767408],[127.37346660892929,37.31911821659101],[127.37394050778497,37.31965603414959],[127.37446089978509,37.319617261377424],[127.37589824149387,37.320734720823026],[127.37695220597966,37.32080732904101],[127.3772791483404,37.32026177742006],[127.3778358895375,37.319595576397944],[127.3783393047956,37.31947395078799],[127.3786080483652,37.31923712417576],[127.38060164813427,37.31952365042043],[127.3810507398988,37.31911100475859],[127.38148970846973,37.31902552794746],[127.38196958089318,37.31905627997634],[127.38268623738269,37.319282166211934],[127.38405536482333,37.320218260926616],[127.38459647788093,37.32024568567147],[127.38490231161816,37.31989819881653],[127.38533170998281,37.31965493652291],[127.38618481861222,37.3194172513479],[127.38654506905543,37.319001988038174],[127.38702036111282,37.31882014668724],[127.38824489001308,37.319551699903634],[127.3892532483928,37.319538200378815],[127.3908833646108,37.31981140747963],[127.39158447635846,37.32033662881765],[127.3923177630719,37.320657237255176],[127.3923926299449,37.321326274626315],[127.39232490598586,37.322000013678164],[127.392681773462,37.32227082260838],[127.39376871695741,37.32359940253991],[127.3948341964802,37.323883236726886],[127.39597839296331,37.32483875312716],[127.39665030223027,37.325119071199175],[127.39777753363622,37.32582888237974],[127.39763878315685,37.32598032263214],[127.39778689358558,37.326060169853854],[127.39793967722724,37.325928090834644],[127.39860852867247,37.32636811470955],[127.39883515764406,37.32638620313959],[127.3992899221401,37.326579323286246],[127.40003996631421,37.32744241728576],[127.40109396998062,37.32743843189061],[127.40152066159219,37.3272037153887],[127.40226525967327,37.32711597824888],[127.40362117323848,37.32669428495724],[127.40461946498456,37.327195741862795],[127.40510168761644,37.32735244011419],[127.40538375598886,37.3282477308909],[127.4056375845007,37.32832701096094],[127.40652287663919,37.32941434233987],[127.40680061706051,37.33009200287639],[127.40675937490768,37.33056005258169],[127.40728273397964,37.33121507470117],[127.40832681326263,37.33103112449234],[127.40847860230579,37.33119096508881],[127.40921297122959,37.331511874805514],[127.4092660959099,37.33173126211462],[127.41008524456785,37.33202301545774],[127.41027548511984,37.332176991441635],[127.41078651938525,37.332309961821494],[127.41100103660098,37.33274133127153],[127.41130612328945,37.33306704037006],[127.41253298227454,37.3340100866405],[127.41276215961386,37.334111959873304],[127.41336548143894,37.33400749920848],[127.41355097651577,37.33414586151151],[127.41492069482939,37.33419779383501],[127.41545982425484,37.3339976296323],[127.4158168523552,37.334276039276375],[127.41600565616122,37.33456803689048],[127.4165446334444,37.33465621384379],[127.41703472532892,37.335349997307404],[127.41713998041367,37.33601084875401],[127.41996422853867,37.33802940012932],[127.42048510583774,37.33818727125963],[127.4205777230154,37.33899485912066],[127.42103326711629,37.33992129100663],[127.42133576250633,37.3401640694326],[127.42120980387932,37.340563739836064],[127.42124879634132,37.3411079948997],[127.42094226580231,37.34150401657543],[127.42116937937224,37.34233196559704],[127.42102958568255,37.34253802038062],[127.42144424537116,37.34294733121854],[127.42245543418763,37.343472850929295],[127.4231035422064,37.34363344742595],[127.42515547748081,37.344082977894274],[127.42600872964975,37.34403492247065],[127.42622499298275,37.344447793323624],[127.42653183774715,37.34464712301158],[127.42663787988816,37.34523830427046],[127.42768363097896,37.345465876705],[127.42792503249362,37.34562419094181],[127.42834013407507,37.345746918584496],[127.42861443854687,37.34620267758967],[127.42964371504577,37.34632958794477],[127.43071201049597,37.34721054289004],[127.4310280428218,37.348176462152885],[127.43134829796578,37.34825836482063],[127.43233923560554,37.349116400646395],[127.43291693112575,37.349312753030375],[127.43286498125012,37.34942517370715],[127.43312320676078,37.34947189476567],[127.43374570023518,37.35032356050573],[127.43382513828914,37.35104486606957],[127.43441576454317,37.35227488815047],[127.4344532249903,37.35264832916518],[127.43491940782484,37.3532921368329],[127.43522252412676,37.35354696721091],[127.43515034334185,37.35426502630246],[127.43568702450236,37.35460999414036],[127.43577240736286,37.354803390215785],[127.43602601111566,37.354979145200375],[127.43636573585775,37.35506104292927],[127.43688003048635,37.35542692711725],[127.4377608176046,37.355586901747465],[127.43803217700722,37.35570505941515],[127.43815616452281,37.35621537872726],[127.43846073960522,37.35651752615032],[127.4391823372731,37.35658856099496],[127.43993615170196,37.35724971794619],[127.44040345351158,37.35734754040974],[127.44250306395097,37.35834786405247],[127.44354369384823,37.359568367070075],[127.44416850138661,37.359976109029354],[127.44466668744148,37.360477480558764],[127.44523979493694,37.36059677733696],[127.44585510230216,37.36103662417434],[127.44576304832967,37.361804144317276],[127.44587685304401,37.36356338586534],[127.44508430390331,37.36363076703678],[127.44466134105664,37.363323277921104],[127.444242010731,37.363156834499264],[127.44399752635968,37.36333871633857],[127.4439036162124,37.36376698590005],[127.44406862692126,37.36465300158029],[127.44400905183753,37.36563994908264],[127.44438136474159,37.366483832018105],[127.44445678492596,37.36717558276588],[127.44377389917511,37.36873869739362],[127.44368636416995,37.36992559432443],[127.44378802305536,37.37104874123856],[127.4435827891858,37.37138640556503],[127.44365802261038,37.37182922215213],[127.44437507426655,37.37271591973651],[127.4442676248815,37.37310304688522],[127.44423355755595,37.37387050142967],[127.44432289955058,37.37465884865429],[127.44409377118745,37.37493399131083],[127.4440372962413,37.37525232319812],[127.44374798359127,37.375322674304],[127.44365739070582,37.375464732819324],[127.44359251719922,37.37558968441625],[127.44373256328032,37.375580712032196],[127.4437073264008,37.375870677559064],[127.44345449192316,37.376066312643026],[127.44368504829706,37.37653568031826],[127.44364254382143,37.3766436352288],[127.44390516689427,37.37700142619941],[127.44407184795132,37.37824137679994],[127.44482233948105,37.37879992288507],[127.4451778837646,37.379251276522076],[127.44587601493163,37.37985951194103],[127.44649694030788,37.38011616457235],[127.44664364968963,37.38048991076657],[127.44525161629873,37.38118570245184],[127.44505190825296,37.38185360438168],[127.44497792619254,37.38295389730464],[127.44472554918818,37.383153930227415],[127.44440836143339,37.383782527800314],[127.44445995981569,37.3839931983469],[127.44484354440547,37.38444879866523],[127.44461401754263,37.38524617660996],[127.44464503041702,37.385657678368574],[127.44389836948196,37.38637219792491],[127.44382971581797,37.38668544852322],[127.4433144279298,37.386854673631284],[127.44328569665225,37.38725040521246],[127.44261995516979,37.38730839277283],[127.44234567953703,37.38740329947426],[127.44195538958253,37.38732265464025],[127.44139189470546,37.387071685656636],[127.44059177565127,37.3870224638587],[127.44014479073103,37.38733061087332],[127.43911338231271,37.38720046714833],[127.43881703444976,37.38706931428798],[127.43839487646942,37.38705142980175],[127.4379191591913,37.38715755873333],[127.43736500339948,37.38687094736525],[127.43691918816265,37.38699527983915],[127.43656119016593,37.38668019890758],[127.43628567222564,37.38675241928935],[127.4359258219891,37.38700422113144],[127.43556941115959,37.38705168184195],[127.43541513089038,37.38673245913934],[127.43496750461941,37.38662276419465],[127.43449851299233,37.386815053562295],[127.43385129043291,37.38688575479573],[127.43312180786856,37.38739406566674],[127.43254268275615,37.38724391594049],[127.43054394793455,37.38779086329337],[127.42955963656614,37.38785119117455],[127.42960164977431,37.387405391828274],[127.42927244317475,37.38734331359853],[127.42871336335021,37.387100675136686],[127.42818391369772,37.38731234041613],[127.42726835796138,37.38717801191537],[127.42661765976543,37.38656483661796],[127.42619014188753,37.386422346611866],[127.42573749199191,37.3864004534508],[127.42506481237248,37.38595519797703],[127.42438225115427,37.38578745762947],[127.42387556853834,37.38601817888528],[127.42343105593358,37.385793299492335],[127.42285560352863,37.3857895471165],[127.4215901026876,37.38610073425263],[127.42094672451391,37.386663724884684],[127.42025528252827,37.386890670751825],[127.41978056070478,37.38787587749882],[127.41962363134648,37.388492964470856],[127.41899403037476,37.38842933346045],[127.41853237778983,37.389136678036195],[127.41814027771991,37.38947890228885],[127.41755503915635,37.39051916971422],[127.41697831280754,37.39111775693276],[127.41665018457904,37.391709033477404],[127.41513907745527,37.39347244085229],[127.41476981952209,37.39374241161004],[127.41461964562444,37.395209283530036],[127.41379565342822,37.395929533799716],[127.41352740545499,37.39726629507345],[127.4135777966109,37.397829365798536],[127.41295136746795,37.398111581495755],[127.41257485715164,37.39901371860718],[127.41221261443076,37.40045830202752],[127.41247322053243,37.40130013680974],[127.41271169101644,37.40161824656101],[127.41282309867766,37.401945573471835],[127.41268363087525,37.40229101871255],[127.41296649508826,37.40286800312147],[127.41286132407365,37.40337835800889],[127.41225452278408,37.40437699104306],[127.41218775431132,37.404998485113985],[127.4120277952013,37.4053801839406],[127.41153958342674,37.40571735075185],[127.41150148941948,37.406256888769605],[127.41118785171507,37.40668276509321],[127.41012741822799,37.407558212083046],[127.40950017807315,37.4075516114634],[127.40869178076544,37.40816726194669],[127.4074013576659,37.408545249136914],[127.40604307110043,37.409133061906545],[127.40586452790083,37.40946499917654],[127.40533291031821,37.40955128748562],[127.40473613767541,37.40982932740633],[127.40410898002011,37.410238223651675],[127.40306171865099,37.4111768870084],[127.4025440772658,37.411781543335486],[127.40171201203968,37.41224833713438],[127.40023051244331,37.413279271475616],[127.39944430005022,37.41396136071823],[127.39889361298847,37.41427314151538],[127.39822616717687,37.41573296734488],[127.39873479202284,37.416670712184256],[127.39958289668908,37.41774322926202],[127.40080461226873,37.41861274997503],[127.40120319258351,37.41947853888652],[127.40115387729988,37.42037499976794],[127.40079940639423,37.42094526459742],[127.40032806232347,37.42149641254638],[127.39960291426944,37.421680599518744],[127.39925767625259,37.4216913116504],[127.39900301015913,37.42181122644749],[127.39871231690014,37.42214330508103],[127.39834450067035,37.42283589137236],[127.39842945344398,37.42367004374041],[127.39808403758573,37.42418201035102],[127.3977353940409,37.424399511002946],[127.39727859525308,37.42489562810984],[127.3967571888069,37.42516144808951],[127.39561147454359,37.42611877042001],[127.39408068588615,37.42655829232784],[127.39385460771389,37.42670584334227],[127.39303817213896,37.426989556915544],[127.39219152901181,37.427448977028334],[127.39192722583948,37.427901659761154],[127.39129542012338,37.427942549219495],[127.39092889403257,37.427875470024716],[127.39066394653922,37.42796287519227],[127.39045262705996,37.428453753463124],[127.39017039464514,37.42859873408699],[127.3900119498476,37.42884811139649],[127.38898877742976,37.429127302965554],[127.38899902619582,37.43060055552853],[127.38784514248576,37.43152965473681],[127.38755760921431,37.43195047049717],[127.38678250251638,37.43222739069665],[127.38600463942826,37.43262767995027],[127.38459598410049,37.43409866453207],[127.38428616748006,37.43423360234126],[127.38404083942437,37.434709714015064],[127.38379239439747,37.43485588416242],[127.38381209456153,37.435747912505654],[127.38363709404143,37.43633027440582],[127.38386298542471,37.4368137638378],[127.38407167926191,37.437008656868],[127.38402658305138,37.43724604763564],[127.38381390363523,37.43750987336705],[127.38371901222426,37.4378053934326],[127.38374708673842,37.4381023377996],[127.38359449772544,37.438219743234406],[127.38340458444836,37.43895331362605],[127.38342541080222,37.43936475438877],[127.38318151958357,37.43960324288148],[127.38292384940432,37.440154930725896],[127.38298040213729,37.440354644965716],[127.38273834516062,37.440552078476166],[127.3826505927297,37.44078223327127],[127.38278547446055,37.44110386240596],[127.38248729765975,37.44148389436595],[127.3824463265156,37.441997462554895],[127.38261901162848,37.442344421988466],[127.3826510596233,37.44270562033724],[127.38225992065617,37.443190594692695],[127.38152421671428,37.443574870969485],[127.38117912235052,37.44362971392546],[127.38067052543006,37.44353231636841],[127.38029743352833,37.443657617790734],[127.37943675331074,37.44377426784041],[127.37923364166562,37.44365973371516],[127.378706910249,37.4436234187839],[127.37819510316541,37.44338827721596],[127.37795238884557,37.44342958923029],[127.37716532650153,37.44368538987585],[127.37703774627039,37.44393889505],[127.37643082658568,37.44428115763057],[127.3760069651114,37.44422081017578],[127.3755346054232,37.444422625427805],[127.37543772086042,37.44471437042672],[127.37506930200978,37.444721059173794],[127.3745335739804,37.44444453766855],[127.37323255301905,37.4445836250524],[127.37278784918331,37.44489519230053],[127.37218872826342,37.4448557706143],[127.37209890577316,37.44494381165025],[127.37204374508356,37.44600885021154],[127.3722759024739,37.44628557986547],[127.3723531336062,37.44668645215739],[127.37264188137841,37.44697064064701],[127.37249077443144,37.44715051459636],[127.3724625503612,37.44804882962493],[127.37254337808838,37.44823728415702],[127.37252235453953,37.448531487977306],[127.37269821371426,37.448701766790094],[127.37266693958827,37.44891797811097],[127.37242887903705,37.449121237191804],[127.37213320385489,37.44970238130462],[127.372255996626,37.45033569668336],[127.37237191618715,37.45045729283821],[127.37218174257762,37.45116142786597],[127.37224043587257,37.4518495547889],[127.37160754082328,37.45232964527748],[127.37139665067507,37.45278829433068],[127.3711725995476,37.45285138801328],[127.37057768000588,37.45352374653768],[127.37055695067932,37.45393972196295],[127.36943872160825,37.45487180779087],[127.36884865508289,37.45516339757504],[127.36835941003321,37.455780632949136],[127.36766386918686,37.45640556026961],[127.36754875122853,37.45657613326728],[127.36776426735044,37.45688742930276],[127.36785674731357,37.45724078427668],[127.3689107288833,37.45689440323498],[127.37058849485594,37.45672532866919],[127.37121831852413,37.45637248386896],[127.37170788848061,37.456730470116824],[127.37169869323365,37.45707092301377],[127.37189450013761,37.457168355678675],[127.37240255781374,37.45785567731202],[127.37309069144918,37.45800562067687],[127.37338969399401,37.45797967900097],[127.37459889210125,37.45841683416781],[127.37480285843051,37.45810074259272],[127.37509615546169,37.45811405975019],[127.37613310813967,37.45841875866184],[127.37664552093283,37.45847977852579],[127.37698596301672,37.458664961615575],[127.37722317750477,37.458524067794],[127.37755550828581,37.4585129723704],[127.37791273744412,37.458763420534396],[127.37887551907794,37.45865148369732],[127.37894443570407,37.45849501115093],[127.37946640320654,37.4584154180678],[127.37972794967526,37.45847938813824],[127.38072403359656,37.458457248624775],[127.38102414445547,37.45835072407655],[127.38170683491133,37.458316309956096],[127.38302298896603,37.458516251921424],[127.3830580518151,37.45867220243428],[127.38399235702882,37.45906274873937],[127.38399305695076,37.45935334468546],[127.38536383667257,37.45998864637114],[127.38502186154881,37.46032499292067],[127.3849805454211,37.46104159229508],[127.38509367725423,37.46159928573177],[127.38550543441426,37.46184034451112],[127.38551967666304,37.46237499629142],[127.38537881810437,37.46279982416258],[127.38565801955423,37.46318679759191],[127.38574568379204,37.46348215736451],[127.38673480570304,37.46436397867632],[127.38741139642666,37.466000796661326],[127.38751356286875,37.46607176879223],[127.3873285938979,37.46645323321464],[127.38726489453182,37.466839664257215],[127.38714079391946,37.4669022289596],[127.38700868965778,37.46728590839621],[127.38696488241816,37.46782229772437],[127.38677239834061,37.46810413624001],[127.38675401651787,37.468725327322055],[127.3865557555578,37.46941093261129],[127.38661666638353,37.47015883862038],[127.3869102421923,37.47057978426874],[127.38693306908885,37.470893147802464],[127.38741651217744,37.4715086362084],[127.3875507876531,37.47196813133714],[127.38746751958371,37.4722474318474],[127.3877663271425,37.472560507806],[127.38797145829695,37.472959079333414],[127.38811803887681,37.4730566094778],[127.38869646874254,37.474239879717786],[127.38860081150199,37.47452835781639],[127.38865576236475,37.47501197843603],[127.38882957577914,37.475307421902706],[127.38877989039534,37.475829010563096],[127.38820502549315,37.47619612061319],[127.38794315289493,37.47741032229522],[127.38772832761398,37.47754905728878],[127.38741781308077,37.47816449822559],[127.38673282812223,37.47821191901719],[127.38629817589783,37.47846962493806],[127.3862046975193,37.479022590007375],[127.38627333722944,37.47953479073819],[127.38653956258902,37.4797658495115],[127.38647180094594,37.48017012065093],[127.38626703220665,37.48039338937714],[127.3855726050608,37.481800742145005],[127.38532169062044,37.48212148357211],[127.38486198598561,37.482227879353076],[127.38408065292698,37.48298409394194],[127.38377438641358,37.48347826413086],[127.38376740041318,37.48453280447697],[127.3834216743079,37.48470223661822],[127.38367213548639,37.485494431225206],[127.38329027369024,37.48562050760234],[127.38383522968772,37.48620375045527],[127.38349457702962,37.48636304194351],[127.38335640202601,37.487215161864235],[127.38323953557538,37.48735761762609],[127.38315010698702,37.48717705007498],[127.38180438139533,37.48726311892553],[127.38160009566516,37.48746743840596],[127.38153998791661,37.48802346454854],[127.38049188299749,37.48922287601307],[127.38051332797497,37.48971859769771],[127.38037500600313,37.49001632549817],[127.38037339400937,37.49035753479058],[127.38063993016884,37.490829621637175],[127.38071928518063,37.49136843292695],[127.38101329483953,37.49163270568262],[127.38090227677166,37.492068693398416],[127.38139448232734,37.492445628413044],[127.38145581097345,37.49352933709874],[127.38160752528053,37.493834611024056],[127.38199820988689,37.494157458765436],[127.38221641294146,37.49458608905435],[127.38214236425871,37.49497083580642],[127.38265730451087,37.49523486122017],[127.38294791556466,37.4955090046085],[127.38374301055283,37.495634881415924],[127.38405748806143,37.495942787309524],[127.38524705596497,37.4963321332151],[127.38667096408915,37.497256198992964],[127.38564578850549,37.49813689719867],[127.3843229190768,37.49968358519439],[127.38453874683876,37.50013529247429],[127.38349360092687,37.50099310598468],[127.38291177404776,37.50168623640592],[127.38155718543007,37.50398642245808],[127.38083698995425,37.50488465879106],[127.37995861321374,37.505698495556324],[127.37919130099614,37.5065794449859],[127.37879857144262,37.507260869486295],[127.37834669401173,37.50859281523225],[127.37621050678163,37.51196804311346],[127.37529520128419,37.51323067393676],[127.3746153604144,37.51464984766381],[127.37370618493787,37.51770934746868],[127.37260572183519,37.51997718168834],[127.37075098715886,37.5224488992078],[127.3693611728524,37.52477689630068],[127.36797010269474,37.525690320374494],[127.36666059097418,37.52747738029673],[127.36396434503409,37.530665676990715],[127.36328796271098,37.53115350766794],[127.36036416882398,37.53260173071806],[127.355267209301,37.53481826870404],[127.3531726737567,37.53537082027385],[127.35103776470496,37.53562395812918],[127.34961689263216,37.53587202522603],[127.34627595519166,37.53587120278727]]]}}
