{"type":"Feature","bbox":[126.78653554005793,37.92821671993875,127.19215586395191,38.281112284800315],"properties":{"regionCode":"41800","version":"vworld-20260909-3f8952dfda77-p3","name":"경기도 연천군","attribution":"국토교통부/K-Geo플랫폼 · VWorld 법정구역정보, CC BY 2.0 KR; 두꺼비집 가공"},"geometry":{"type":"Polygon","coordinates":[[[127.09560901826504,38.2810049967489],[127.0954066613005,38.28033812433241],[127.09530894795374,38.27961358918814],[127.09487296410532,38.279194429337544],[127.0942918879655,38.278813521108624],[127.0938078262831,38.27862322103273],[127.0932756301728,38.27862364625885],[127.09250171987738,38.27877680859665],[127.09177585148342,38.27866296591322],[127.09071093734164,38.27824428080745],[127.08993683750178,38.27824487669126],[127.08930792786964,38.2782834941839],[127.08853415232161,38.278551043975135],[127.08776023304308,38.2787041761432],[127.08708266346872,38.2785139928415],[127.08655001550582,38.27813301122903],[127.08567789958698,38.27706579778938],[127.08480674037385,38.276799467460954],[127.08306505076841,38.27680071425806],[127.08229113867641,38.276953809216124],[127.0803566795941,38.27764162678866],[127.0795827118066,38.27775656764818],[127.077889256342,38.27764329104605],[127.07696977854638,38.277415071638636],[127.07638889105274,38.27711035086397],[127.07643635174415,38.27623315420032],[127.07696667935866,38.27447847731578],[127.07711096855625,38.27367749156298],[127.07696522947782,38.273105523334706],[127.07619034720528,38.27230513811735],[127.07570617772502,38.271924075265225],[127.07522181780197,38.27135232243443],[127.0738181992722,38.2706667359767],[127.07323753096746,38.270514549542234],[127.07289859391581,38.27020965875661],[127.07222023562056,38.26910408665563],[127.07144473800216,38.26757905430075],[127.07091206668305,38.267007312402605],[127.07033113876523,38.26655000973103],[127.06989555915871,38.26632144300992],[127.0690732117032,38.26632193037482],[127.06839587658907,38.26620791440854],[127.06810524644185,38.26578856855618],[127.06786238690476,38.26472085418659],[127.06723263285629,38.26372963683334],[127.06674856937728,38.26334853604101],[127.06597428178948,38.26296759688743],[127.064135507658,38.26220586212041],[127.06331300928552,38.26197748204839],[127.06186192736943,38.26201639385675],[127.06113662491411,38.26232187555042],[127.06031441849413,38.26243671440166],[127.05905662348441,38.26224666553717],[127.05823383495611,38.26163687322846],[127.05774967984892,38.261065047175414],[127.0572172528716,38.260607654192654],[127.05692664787718,38.260112005743046],[127.05678103635952,38.259463734504266],[127.05639373221634,38.259006268661814],[127.0557646788538,38.2586633294503],[127.05315306971036,38.259045919177744],[127.0504927467257,38.25897081792775],[127.04933195539365,38.259047588093544],[127.0472523788671,38.25946795826171],[127.04618826512421,38.25946838218923],[127.04507571152634,38.259354401315136],[127.04391465519127,38.259011602000264],[127.04265656104258,38.25813489846032],[127.04217259458159,38.257639281813304],[127.04139812822912,38.25660983896733],[127.03970445537222,38.25508491394258],[127.0371393340447,38.25169149208613],[127.03588133511742,38.2505858871764],[127.03501056487491,38.25009035872192],[127.03423663751154,38.24982362260004],[127.03399461250935,38.24936604033397],[127.0339459489738,38.24871771131832],[127.03331674110102,38.24761189538136],[127.0320589047688,38.246582524249284],[127.03051092787122,38.24551507722083],[127.02983375355558,38.24517201154969],[127.02896319441709,38.244943402266756],[127.02809267031292,38.24479106246719],[127.02741565679568,38.244829360511766],[127.02673869987227,38.24502020630075],[127.02572330266557,38.24543994928755],[127.02548119951004,38.244562831553296],[127.02519082178935,38.243914551412416],[127.02446511149886,38.242923121475215],[127.02407799690026,38.242160444228674],[127.0236423598015,38.24086384590159],[127.02330371919389,38.24040625944287],[127.02277164615282,38.23991057127864],[127.0211756138791,38.238919285708114],[127.0188543968293,38.23827133836948],[127.01841912624323,38.23796630380534],[127.01803215806997,38.23743243396855],[127.01551751846822,38.23640306969023],[127.01329292241378,38.23457272411241],[127.0128093053974,38.234038847705776],[127.01276082691479,38.23331423248745],[127.01251894474478,38.232589638274206],[127.0120836534974,38.231788787655105],[127.0120834010708,38.23026327060371],[127.01188992192498,38.22976749776961],[127.01145471332262,38.229348024189036],[127.01126126022783,38.228966663353845],[127.01072935157849,38.22847092049351],[127.0092786945655,38.22683111143682],[127.00879517187222,38.226411631507005],[127.00845668577483,38.22591586347],[127.00787648100086,38.22549638602484],[127.00700617069572,38.22469554339748],[127.00555567717606,38.223131965441524],[127.00478207410453,38.221797170039316],[127.00410513065593,38.21950891606686],[127.0035733181262,38.218555483607815],[127.00265479074821,38.217602057711325],[127.00197799911484,38.21703000097605],[127.00154292166656,38.21653421346985],[127.00139789495215,38.21619097295513],[127.0008384816854,38.21556542343046],[126.99992002617256,38.216290048899346],[126.99682625348693,38.21621372904073],[126.99590778539772,38.21628997761462],[126.99508598321957,38.21655691157355],[126.99392581352173,38.21655685793374],[126.99295901966347,38.216404251162416],[126.99252398443606,38.216137258062865],[126.99204057852377,38.216175365108],[126.99141213421895,38.21636601013731],[126.99078371057546,38.21636596284953],[126.9895752303799,38.21617517172141],[126.98856014758361,38.21579369665681],[126.98706178553743,38.2148019532008],[126.98667517489369,38.21422983845619],[126.98488737117144,38.21068278447625],[126.98280965325924,38.207478901550765],[126.9814083532812,38.20591502632675],[126.98010366351876,38.204770669561555],[126.97899251758092,38.203016123716466],[126.97870271747695,38.2023677238388],[126.97730127107357,38.20187166631896],[126.976480139937,38.200345979397085],[126.97590036006605,38.19981192875744],[126.97498232406653,38.19916338880241],[126.97440257743328,38.19859119066611],[126.97353276030329,38.1983240312681],[126.97135844834517,38.19714123839944],[126.9697159893409,38.19550088636294],[126.96749385287373,38.19351710757583],[126.96715576473007,38.19309749420001],[126.96686607422062,38.192525340180616],[126.96609325358166,38.191724218016965],[126.96527198140956,38.19122818188751],[126.96396771205872,38.19027433377155],[126.9673030920299,38.18783446608814],[126.96889805620674,38.18699585915436],[126.9702998260037,38.18585207493487],[126.97030015119375,38.185051172399795],[126.96996257149651,38.18344928160115],[126.96991555547125,38.18028379556268],[126.96812841201067,38.17898662405328],[126.96750081751217,38.17784230310051],[126.9670664479363,38.17681244887499],[126.96629435223785,38.17479090102975],[126.96624751677383,38.17158727076099],[126.96605450475188,38.17109141743672],[126.96561999773381,38.170481077574294],[126.96407464032356,38.1693364655663],[126.96301206898808,38.16887847659929],[126.95919732462504,38.165902422111614],[126.9568793774429,38.16456675251308],[126.95407910951339,38.162201112879266],[126.95147076844091,38.162047509994],[126.95084335001218,38.16124634299023],[126.95055393887884,38.1606360075737],[126.95055429910327,38.16010207122916],[126.95074794713236,38.15945380001302],[126.9507483828153,38.158805448160486],[126.95031472380683,38.157241590155515],[126.95031516398134,38.15659323770511],[126.95055684852201,38.15632637141786],[126.95132998806288,38.15583089462252],[126.95229621777908,38.15548804538131],[126.95326255978473,38.15495449658403],[126.95727312609993,38.15205750402539],[126.95838427922435,38.151523964038496],[126.96108946317595,38.150533292214085],[126.96418124160171,38.1489324603754],[126.96514735633356,38.148513228867756],[126.96703134267335,38.14748403337618],[126.9679975894575,38.14668339305116],[126.9686741322576,38.14569197585596],[126.96915742228717,38.14485305706689],[126.9693513434042,38.143060598622625],[126.96920667601589,38.14256476041065],[126.96891716966105,38.14199260667744],[126.96804842781444,38.1408482179249],[126.96539434722266,38.1368429222589],[126.96520161098346,38.13596567924527],[126.96476724769586,38.13550788695818],[126.96428454516446,38.13516449422428],[126.96148457906884,38.1339050373738],[126.95965022195361,38.13298909621483],[126.95844309192599,38.1329886757899],[126.95395201317204,38.13386418811837],[126.95187584844693,38.133672662943546],[126.94975086118446,38.134281990301474],[126.94902651633322,38.13435795510557],[126.94835053767517,38.13431952120647],[126.94762640931792,38.13409036871426],[126.94603316990643,38.133822678179875],[126.94535733947042,38.1335935340199],[126.94443999966519,38.13347868892571],[126.94183236826183,38.133744396619335],[126.94077020565979,38.1335913110857],[126.94043229987406,38.13347672460062],[126.93994966291973,38.133209509473325],[126.93951544066753,38.132789762244585],[126.93922614182354,38.13229381184296],[126.93874428101354,38.13111126572497],[126.9383118446122,38.128593894107],[126.93787775620906,38.12805972461856],[126.93696092305365,38.12744901893255],[126.9363334624041,38.127219849109565],[126.93203652126121,38.12710302595678],[126.93102272125911,38.12698801942597],[126.93025033091317,38.12687314839193],[126.92914034200538,38.12637668220633],[126.92865783081515,38.126071280562144],[126.92754937353497,38.12404925660149],[126.92586090911004,38.12275149021756],[126.92513712121428,38.12236964533297],[126.92455829265924,38.12187347289904],[126.92393143298264,38.12114843471114],[126.92258083212269,38.1200415322638],[126.92045814814057,38.11866712276063],[126.9193970042281,38.11782734980776],[126.91857649562397,38.11767422948002],[126.91756310345701,38.117330275087355],[126.91152947991797,38.11671566741881],[126.90863391421159,38.115988817475255],[126.90786200985421,38.11560682767709],[126.90747630111903,38.11522513837774],[126.90723541607895,38.11484356158069],[126.90713959368588,38.11427140609385],[126.9068987625447,38.113851689915364],[126.9062239696629,38.11305024168084],[126.90511420623224,38.11266796369056],[126.90482487235393,38.11243889731358],[126.90458435741976,38.111790344625504],[126.90352419716247,38.11041648593895],[126.90241631390575,38.108661190934356],[126.90087401975065,38.106943658143145],[126.90054255488552,38.10221417490298],[126.8996763938987,38.10030650090833],[126.89904943900066,38.09996271497715],[126.89827754093155,38.099733217833524],[126.8963467945863,38.09988408536189],[126.89296696687315,38.10083452397643],[126.89069736612123,38.10163334862114],[126.88920059139821,38.10201333392862],[126.8877522978528,38.1022407922975],[126.88693191231789,38.1021637280781],[126.88630441034579,38.102201261356065],[126.88586978834337,38.10235339478241],[126.88480694122508,38.10300071715327],[126.883986067905,38.10322874149038],[126.88316549282557,38.1032660671042],[126.88239342677144,38.103150880239525],[126.88147699785792,38.10276857235574],[126.88118802420408,38.10238689372661],[126.88017601634098,38.101432396480504],[126.8787298500061,38.10036302846102],[126.87844210075598,38.0992567066629],[126.87839472181128,38.09872271561726],[126.87796105741293,38.09830273972853],[126.87743055372857,38.09807335472254],[126.87709335761198,38.097691614806976],[126.87685473542811,38.096089536976606],[126.87646897009903,38.09589843798181],[126.87521464617961,38.09563014083203],[126.87487753719957,38.09521025604261],[126.87468514771015,38.0948286630665],[126.87454141007817,38.09421828888302],[126.87372368714972,38.092653722582874],[126.87363097831748,38.0904415725904],[126.87329482514488,38.089487740165744],[126.8729578212677,38.089029710206006],[126.87242799760807,38.088457053475075],[126.87194597150808,38.08815141902622],[126.87049931289647,38.08757775142404],[126.87021038775167,38.087234182774644],[126.87006656837296,38.08670008055376],[126.86968168159623,38.08605129443566],[126.86924800462143,38.08570756235367],[126.868731595504,38.08552655276928],[126.86873248214111,38.08503074874465],[126.86887778823163,38.08472579996419],[126.86955401212975,38.08434516406587],[126.86974743108853,38.08411654626302],[126.86960334940174,38.0837349971898],[126.86888058019554,38.08316211019391],[126.86859174937379,38.08278039987476],[126.86859236382146,38.082437150203035],[126.86840017645291,38.08197926839769],[126.86806323725446,38.081521224628716],[126.86796742114966,38.08113972847936],[126.86845341510822,38.07919519041241],[126.86874318646609,38.07904295857455],[126.86908093414831,38.07904333546868],[126.86941908876732,38.07881487857583],[126.86975771410356,38.07831944836425],[126.87053023829846,38.07801519074259],[126.87082033574472,38.07767226024649],[126.87067606002189,38.07740512873463],[126.87038677016103,38.07729039398454],[126.86971142661191,38.0772133692205],[126.86932577896214,38.077022247042024],[126.86903683315602,38.076716813705126],[126.86894115359515,38.07625904033789],[126.86928119647291,38.07496269631597],[126.86952331130655,38.074467159391126],[126.86942749610006,38.074085663921],[126.86918674041739,38.0738184231337],[126.8681256674718,38.07362654318933],[126.86774017882382,38.073359137367426],[126.86750005016516,38.07274864403559],[126.867888002892,38.07164305134176],[126.86774690900188,38.06962152927146],[126.86760334654142,38.068973005341284],[126.86721836813652,38.06843862546085],[126.8667365639204,38.06809483038888],[126.86596489402335,38.06797953576271],[126.86557937393435,38.06775026140871],[126.86553259775913,38.06694928989943],[126.86567829910838,38.06641551053554],[126.86548582248234,38.066148318107615],[126.86495544995202,38.065995153840255],[126.8639415412538,38.06645165263999],[126.86316946621653,38.066565173796704],[126.8627355062725,38.06645025088991],[126.86259114071808,38.06625938701966],[126.86273693189884,38.06568747279343],[126.86317266242234,38.06484892343285],[126.86312648272855,38.0637428393217],[126.86235615042295,38.06294102047534],[126.86202098360053,38.06160576314934],[126.86168417825105,38.061147698584655],[126.85889158193407,38.05843651036255],[126.8582178957766,38.05759664149701],[126.85807584068914,38.05622346523997],[126.85803504729382,38.05237137291565],[126.85823003471107,38.05130371432278],[126.85828098625562,38.049892629272954],[126.8582341534866,38.04916793163435],[126.85789868213537,38.04806149236691],[126.85785273869848,38.04687912570912],[126.8581463782019,38.044667412040994],[126.8581479242025,38.04386649278646],[126.85680077556815,38.042224877852526],[126.85632030894351,38.04130895251197],[126.85632187380872,38.040508032603306],[126.85646773865128,38.03989798540772],[126.85637248309519,38.039287641638914],[126.85598744090993,38.038905779500105],[126.85536128910573,38.0385236196309],[126.85473484175584,38.038294012437184],[126.85406093281618,38.037682951319674],[126.85348264414868,38.03749153697061],[126.85276014803028,38.03707110328938],[126.8517488704975,38.036383327890626],[126.85146038822214,38.03596343264934],[126.85141347640138,38.03531500807732],[126.85180093415646,38.03447643548859],[126.85180177947113,38.03405690573333],[126.8517547894969,38.03344661941881],[126.85122699513153,38.032149219718065],[126.85093830085373,38.03184374128834],[126.85026316301877,38.03188102267788],[126.84968422666597,38.03203284036065],[126.84910489774931,38.032375351490316],[126.84799507502986,38.03275531390152],[126.84712712909054,38.03275418745668],[126.84606638582665,38.03271466494189],[126.844910171411,38.03221733619558],[126.84433243341076,38.031797042056326],[126.84351287971579,38.03171967575751],[126.84245166483635,38.031908954166326],[126.8415355916557,38.03186958403154],[126.8409572984966,38.03171624613743],[126.83941663837697,38.03064625486093],[126.8377318759094,38.02934720992542],[126.83720267118899,38.02881252939012],[126.83527964316869,38.02629266329342],[126.83210494215739,38.02300819974295],[126.83119073747257,38.02220596584189],[126.83003672572595,38.02086943049041],[126.82926649403164,38.02037250397266],[126.82777534455896,38.018921037438176],[126.82739145221723,38.01815769046092],[126.82619431864208,38.01472339128292],[126.8252822726088,38.01308205104063],[126.82460965634489,38.012127566758316],[126.82422519626792,38.011631181863095],[126.82364764601559,38.011248923589115],[126.8234557398197,38.010867242991345],[126.82350577328612,38.01010453195019],[126.82365139109196,38.00968521723804],[126.82486030427548,38.00808517214784],[126.8249100484843,38.0074368781008],[126.82462146919084,38.00716947324748],[126.82385077845751,38.00693948536664],[126.8223098713012,38.00628879795416],[126.82023998849488,38.00514147278286],[126.81870046564242,38.00395678877783],[126.81644018760659,38.001893757886734],[126.81576635682042,38.00151131080699],[126.81436984665949,38.00101330237485],[126.81388805591804,38.000936262465885],[126.81374403891006,38.0007071979232],[126.81379349116648,38.000211464819856],[126.81355317835322,37.99994410794307],[126.8127342067666,37.999790249489116],[126.8119637289339,37.999522043736334],[126.81104895741207,37.99913918432947],[126.81037517962652,37.99875670660242],[126.80960422748333,37.998679181538556],[126.80854340247278,37.998868157365656],[126.80762766166876,37.99886666229551],[126.80700140206675,37.99875121829922],[126.80618315991208,37.99833033932784],[126.80555720843228,37.99810047025746],[126.80478636947686,37.99798477516588],[126.80329065476586,37.99859251321256],[126.80199047005456,37.9981707980087],[126.80141231972756,37.99809354415924],[126.80001224235669,37.99896837725279],[126.79943346320898,37.99911994882071],[126.79683208587662,37.998657812313496],[126.79567642212821,37.99827441534712],[126.79490559664757,37.99815865611102],[126.79317041982789,37.998193756610114],[126.79196615542598,37.99796279623505],[126.79134144182457,37.99731332038738],[126.79091298406163,37.99544372913122],[126.79048053418552,37.9949852868025],[126.78855747023266,37.99334185161202],[126.78779450950228,37.99051816025575],[126.78653554005793,37.98800267353634],[126.78680157120652,37.988017723679114],[126.78698643998159,37.98816982070218],[126.7879400140438,37.98805943874209],[126.79011853669684,37.988138520804114],[126.79043599400553,37.988854988796355],[126.79143228051001,37.98902456940396],[126.79186080424722,37.98969539329127],[126.79247909864293,37.990127811145804],[126.79261520340404,37.99030373129079],[126.79271301311998,37.990624300884505],[126.79316949006024,37.99142101220169],[126.79299441087961,37.991878486862525],[126.79307158536524,37.99226320912665],[126.79366523020717,37.9923025475051],[126.79393083693328,37.99260285356505],[126.7942125109934,37.9927576329352],[126.79458530433764,37.992834588785165],[126.79639386603861,37.99369503776738],[126.79699679365228,37.99327378076322],[126.79721873163739,37.992846228512064],[126.79742489570057,37.992777043703356],[126.7979357239766,37.99272640526971],[126.79841578202631,37.99279987764292],[126.799147749102,37.99240894999554],[126.799816055143,37.99226876994652],[126.800456804572,37.992451736476],[126.80065295857099,37.99233721361321],[126.80090820081196,37.99199747961914],[126.80075400756311,37.991748873715814],[126.80089872820017,37.990982302972604],[126.80123055130508,37.990820136525976],[126.80150330966067,37.990069177650874],[126.80080397363783,37.98966031722263],[126.80062189658635,37.98937508961752],[126.80017828910704,37.98768454427721],[126.80020973695214,37.98749878204292],[126.80070809245916,37.98685715928192],[126.80094744667583,37.98667738428747],[126.80097495405161,37.98611238123419],[126.80139944608794,37.985286517332476],[126.80174878184857,37.985012040644065],[126.80200334167988,37.98400963828623],[126.80221208314079,37.98390243893139],[126.80263473008033,37.98315341644928],[126.80274820685004,37.982624883199584],[126.80271967686978,37.98225545573902],[126.80352344503704,37.98209971323227],[126.80396570104983,37.981856645021004],[126.80465320836775,37.981678460706746],[126.80472204354696,37.98134326106556],[126.80501259667905,37.980764336135586],[126.80546730333285,37.98051283489719],[126.80624788082118,37.98024217170278],[126.80640291465753,37.979387399283915],[126.8063048580582,37.978872305402895],[126.80647242087859,37.978455904868326],[126.80647795037017,37.978048241140634],[126.8072140188154,37.97757929104047],[126.80660583019218,37.97663006192264],[126.80647476063355,37.97616108458235],[126.80655868572197,37.97583069336525],[126.80695228257198,37.975678476422225],[126.80732528850133,37.975241576509866],[126.80744109684673,37.97522768656228],[126.8077056700017,37.97483706653412],[126.80798596254816,37.97475729172499],[126.80836819526337,37.97479986659432],[126.8087113556624,37.975094357478675],[126.80931792688455,37.97530566162805],[126.80937514230476,37.97504983820871],[126.80976367277643,37.9745178015906],[126.81006628325791,37.974472121028356],[126.81073775508766,37.97420546688843],[126.80933414397579,37.97324792310015],[126.80900087367552,37.97311674416578],[126.80707846705178,37.9726763496327],[126.80568448235141,37.97287195651104],[126.80589058700524,37.97213691977783],[126.80637908991734,37.972129847602886],[126.80666859386051,37.971995189166414],[126.80706476214888,37.97146486637676],[126.80702716905941,37.97129278197509],[126.80747504733878,37.971042956243494],[126.80793233209761,37.97113914522301],[126.80817447007128,37.970961330539595],[126.80866346038647,37.97090216773531],[126.80900308121115,37.97070648495458],[126.80900198479664,37.96996716698687],[126.80882858226443,37.969500095304966],[126.80919407198816,37.968998706867],[126.80993364585065,37.96926568574722],[126.81024158725536,37.969007730667784],[126.81163423509334,37.96880756141865],[126.8118743926317,37.96883891782399],[126.81219846935116,37.96921670229603],[126.81251077882817,37.96933404666672],[126.81336941273162,37.96900771013662],[126.81394404637544,37.96889967023172],[126.81407809171401,37.96884301883008],[126.81442812700385,37.968315119036745],[126.81467718215578,37.96827131614755],[126.8150425415566,37.96787238844384],[126.8148789379019,37.967315807912094],[126.81542435619706,37.966728817451596],[126.8157847888973,37.96686734648474],[126.81630155184817,37.96685211636985],[126.81654397304735,37.96626154493606],[126.8174101437019,37.9660993218926],[126.81731524607302,37.965721910181095],[126.81744601953481,37.964834144303495],[126.81757666467453,37.96463811864524],[126.81852186380789,37.96407763934008],[126.81876147891147,37.96410278852865],[126.81849142265604,37.963591372094974],[126.81795143128227,37.96294580118803],[126.81753810721438,37.9622041525668],[126.81690281625126,37.962062387446174],[126.81681702685692,37.96160418496635],[126.81686801787068,37.96097614816977],[126.8177261215827,37.96110418877586],[126.81819534581196,37.96088305906777],[126.81814330319222,37.96014844374564],[126.8184438262592,37.95998702459306],[126.81829569792293,37.959710888222006],[126.81854031464843,37.95964989357434],[126.81897918290694,37.95919363446108],[126.81886366602312,37.9588846087422],[126.8188578172777,37.9585222564332],[126.81982443584816,37.958322457976934],[126.82021881624343,37.957802493892665],[126.82054432586183,37.95766814030207],[126.82073720630015,37.957459255659096],[126.8214263242855,37.95782546633098],[126.82219583207768,37.95840070337838],[126.82262836905888,37.95833800859323],[126.8227271100034,37.95816417200973],[126.82371394943455,37.95820395713741],[126.82394042661628,37.958291859324625],[126.82469299937115,37.95904357253563],[126.82511583662419,37.95932040116585],[126.82546244876588,37.95905936825393],[126.82563852238358,37.959112839444906],[126.82564093723263,37.95921673853344],[126.82591804936382,37.95946969212602],[126.8261560931001,37.95948045981515],[126.82647274030407,37.95978527833521],[126.82707929606316,37.960045201686654],[126.82725636315988,37.960205658181245],[126.8275852419786,37.96030157987956],[126.82787073056089,37.96024879197843],[126.82831282827314,37.95983248634381],[126.82918645320048,37.96092754693946],[126.83016554082798,37.96156329233974],[126.83043750362546,37.96182411018798],[126.83046208846189,37.962184519057004],[126.83065596397533,37.96261471123378],[126.83120226686191,37.963343839491955],[126.831218892855,37.963614988726114],[126.83081861693019,37.96454912029602],[126.83211099982792,37.9642866215307],[126.83266902831718,37.9645684048369],[126.83291353703285,37.96455721334999],[126.83307917789767,37.964433285527384],[126.83309678555139,37.96425055879819],[126.83275022083765,37.964051326708734],[126.8325701357558,37.96380528660204],[126.83262034222957,37.96370034693525],[126.83282958201788,37.96364039272011],[126.83457383358551,37.963961871788904],[126.83577662939076,37.96407224265888],[126.83593941026847,37.96403390187158],[126.83577975859346,37.9637870482554],[126.83578772920346,37.96019458731996],[126.83751105067685,37.96299102973776],[126.83824221193379,37.96659575220359],[126.83910264661215,37.97547415536066],[126.84012728487497,37.97898691911838],[126.84110170586814,37.98069015057897],[126.84143195712906,37.981106719759595],[126.84143101181913,37.9815419723961],[126.84505970820933,37.98462350985],[126.84711267855992,37.98607895023859],[126.84908830299939,37.98661645928971],[126.8509022190429,37.98648703638418],[126.85280328921299,37.986002957925194],[126.85514628945919,37.984636493767624],[126.85850284296878,37.98241646792045],[126.86003696764202,37.981038782193735],[126.86420206550723,37.97813598619898],[126.8650006168995,37.97744095180518],[126.86756520454955,37.97579577157657],[126.87006638967405,37.973843022385935],[126.87245519337644,37.97109362054832],[126.87383124318497,37.97024346722539],[126.87559883491437,37.969390341974226],[126.88129298096666,37.966995608848976],[126.88287439011837,37.966596301707305],[126.88537412734435,37.966237301600614],[126.88622706445214,37.9661379127371],[126.8869842163621,37.96623662699933],[126.88698403126911,37.96635487249893],[126.89180638962789,37.96738089488151],[126.89267169812427,37.967939145899855],[126.89405428151298,37.96948382216483],[126.8951673884824,37.96927339428124],[126.8955147033506,37.96974331642186],[126.89564102209525,37.971799514365976],[126.8954909821589,37.973868688651066],[126.89537578912585,37.97421036914354],[126.89428382981919,37.97413899740531],[126.89328041894962,37.97747037510423],[126.8928534515675,37.980468087079885],[126.89265229880955,37.98107349324234],[126.89217761508844,37.98467674792876],[126.8924262544088,37.99188408407096],[126.89294856400922,37.99328493399527],[126.89562400516542,37.99490312333476],[126.89711404073923,37.99496048555628],[126.89832438480165,37.99467916872503],[126.90401696114668,37.99439037899779],[126.90624365581571,37.99357405839174],[126.90860195028898,37.99189825537975],[126.90971308011721,37.99122259073581],[126.90971491868176,37.989747608759785],[126.90995803352679,37.98905634464386],[126.90971581634616,37.98902828552756],[126.9097167288555,37.98829544127852],[126.91213054349254,37.98829729956054],[126.91662268503639,37.98662800998188],[126.91780476869825,37.98629635285402],[126.91784734334615,37.98640561945499],[126.9187648079295,37.98618920974493],[126.92110315514692,37.98552555283021],[126.92679684186055,37.98335639838098],[126.92774087942438,37.98319200761318],[126.93248964369606,37.98177706035043],[126.93818161811058,37.98087342955707],[126.93818141804377,37.981106824669226],[126.94387091501677,37.983215660816064],[126.94627010131194,37.984714598559336],[126.94955988670003,37.98652892709749],[126.9531582762583,37.98832132858071],[126.9552495449641,37.98957192052278],[126.95769330696305,37.9919267982103],[126.95983803048888,37.99553126746871],[126.96016252054456,37.996427520148345],[126.96578566708047,38.00043536851557],[126.96942758943962,38.00274165014885],[126.9706500182625,38.00470035535567],[126.97091865065626,38.00556812137369],[126.9718126291339,38.005130844581586],[126.97197387923768,38.005424531533244],[126.97204805343245,38.006346022945856],[126.97213220346616,38.006346041996],[126.97217392558247,38.00609689384101],[126.97221801243774,38.00752880143769],[126.97263230453214,38.00726960986778],[126.97314023025169,38.00728746970962],[126.9734226098445,38.00720533188254],[126.97356112814796,38.00692325849286],[126.97360587878403,38.007603744663996],[126.9738858509401,38.00778175290402],[126.97393197289111,38.007668576470316],[126.97447251921315,38.007546234639705],[126.97453378398315,38.00737676861866],[126.9748895432888,38.00704857050667],[126.97529452453044,38.006879744307476],[126.97630032170862,38.00720231822035],[126.97736187723154,38.00735062558157],[126.97822257889167,38.00801354630814],[126.978722248586,38.00831094399972],[126.97898464750187,38.00836026584294],[126.97913451362706,38.00874233864975],[126.97953713442158,38.00873172148557],[126.9801573946937,38.008614147822236],[126.98051197778823,38.00798019901363],[126.9808009562802,38.00778598405235],[126.9809736004728,38.00753094673443],[126.98125544800583,38.00740909176027],[126.98125911938665,38.00702028139351],[126.98221379250272,38.007012838799284],[126.98281728551545,38.00837332665314],[126.98305620012995,38.00845332024426],[126.98308398383627,38.00899697713486],[126.98323288618573,38.00908596599524],[126.98380933301938,38.00909449667421],[126.98430119596222,38.009406792255355],[126.98449440027842,38.00942822640287],[126.98509367433935,38.0092486852908],[126.98540481389942,38.00936135349006],[126.98608432955709,38.00916577316298],[126.98621506052349,38.00932880188948],[126.98610499418923,38.00988425999855],[126.986847629012,38.00981621449971],[126.98692768815486,38.00988042850845],[126.98686557041317,38.00995248516102],[126.98738687898492,38.009952548851],[126.98938158379306,38.01059074041247],[126.98960212865722,38.010001498454976],[126.98939720766076,38.009758516095644],[126.98939720213842,38.00867965524048],[126.98932728520477,38.00870076604991],[126.98915171338236,38.00845496889254],[126.98921032036523,38.00803633015947],[126.98913688143547,38.00781193490267],[126.9893973893187,38.007545063468335],[126.99057155242322,38.00671042220727],[126.99056072344338,38.00655416539574],[126.99159787180731,38.00580424065135],[126.99196532802983,38.005171932843574],[126.99220356780002,38.00500191137434],[126.99279448024785,38.004257004164806],[126.9931503146963,38.004079944140415],[126.99333465551106,38.00372887846805],[126.99324789326347,38.003346540004046],[126.9934612542782,38.00279840606578],[126.99361105251263,38.002720711844916],[126.99430343936653,38.00268049460673],[126.99431130991515,38.0021852672976],[126.9945171607651,38.00207013396243],[126.99490444644903,38.002002027996014],[126.99481037187864,38.0017044390669],[126.99496018518823,38.00141642739215],[126.99665008476839,38.00080753668524],[126.9967966450874,38.00087990047101],[126.99759736626336,38.00082981480347],[126.99815543667356,38.0005764481292],[126.99818943531453,38.000158935749766],[126.99862566269401,37.99926280435479],[126.99875038091874,37.99881009943202],[126.99957706484601,37.99812541556075],[126.9996448643523,37.99720872894415],[127.0000058054165,37.99694944017857],[127.00046670887563,37.99640043956765],[127.00104983291986,37.995971388180465],[127.00131291956737,37.995874531032555],[127.00189566321909,37.99612397713858],[127.002381108992,37.99560819676563],[127.0030944112577,37.995252605020944],[127.00365934253072,37.994455559234424],[127.0043790362479,37.99409264380452],[127.00488402724551,37.993948763000446],[127.00626509606039,37.994063582654626],[127.00743962826422,37.99404410620586],[127.0079460293478,37.99378112262784],[127.00869277132709,37.99379430816167],[127.01005577707791,37.99313063466523],[127.01044357761042,37.993327124930445],[127.01163446060787,37.99328873324444],[127.0132373804448,37.99367485264811],[127.01362491579876,37.99328093776141],[127.01484434797528,37.99277207257716],[127.01606423858243,37.99196897980482],[127.01584235376738,37.991557961938284],[127.0158639888235,37.99122659138709],[127.01575255197211,37.99075417731169],[127.01559619667599,37.990698447001336],[127.01550288371698,37.9901669236061],[127.01617502604375,37.989089957070824],[127.01623181169334,37.988426080529806],[127.01657195917721,37.987929402537596],[127.01677940375505,37.98729112471793],[127.01710713752398,37.98696281252774],[127.0170046304699,37.98669029573353],[127.0164538571674,37.986125317696214],[127.01572438298537,37.985767569169575],[127.01548457668196,37.98552237497183],[127.01503474855559,37.98536393016611],[127.01479623188683,37.985369587141676],[127.01356464803794,37.98478383149669],[127.01302946486864,37.984745882824505],[127.01258729539022,37.98461106681278],[127.0123058335635,37.9839624281929],[127.01207657616216,37.98377214816704],[127.0118035469011,37.983785096920364],[127.01210134020987,37.98303589960767],[127.0120938195781,37.98261189690476],[127.01186908019875,37.98186612292724],[127.01182453791154,37.981276030927916],[127.0119512213911,37.98045420443115],[127.01167233575083,37.980210421019095],[127.01155384257012,37.979930864136826],[127.0111620247295,37.97975858711632],[127.01154071472597,37.97880272687518],[127.01161887063827,37.97820389496973],[127.0119620653659,37.97785559363765],[127.01207688724578,37.97748001584574],[127.01158632244913,37.9768007017449],[127.01148881865171,37.9764955181234],[127.01053708027212,37.9753719774612],[127.0103480317792,37.975343270638625],[127.010028434442,37.97508230464373],[127.00919488505431,37.97464597995049],[127.00902876844202,37.974472562507415],[127.00873588337166,37.97447370646176],[127.00784293993185,37.973916312157584],[127.00746202326009,37.97391633112193],[127.00717908508302,37.9737488263917],[127.00632506371429,37.975263825247715],[127.00567205398431,37.97524020185904],[127.00539356871016,37.97533030621181],[127.0046944963869,37.97530048474662],[127.00411421698685,37.97497306699143],[127.00410370854206,37.97454344293102],[127.0038424642334,37.97421206878328],[127.00376918298856,37.97391645881208],[127.00356165606782,37.97385987469736],[127.00325933147822,37.973630702901026],[127.00275482684741,37.973469389879746],[127.00276887825775,37.973270339025156],[127.003022802823,37.972757653931644],[127.00341152042914,37.97229169850817],[127.00346751470721,37.97141048524881],[127.00374580067432,37.971123020883404],[127.00312393430356,37.97006951411289],[127.00307129087851,37.969702109497874],[127.0021183320296,37.96859003132386],[127.00172073618279,37.968285411063185],[127.0002692095019,37.96839998472788],[126.99889005353718,37.968319725676764],[126.99769462646738,37.96759388837151],[126.99747948258617,37.96753166221138],[126.99523828590078,37.96756337652496],[126.99363329193294,37.96787297452168],[126.99164067174753,37.967916741558156],[126.99092072250548,37.967677934586554],[126.99116847237832,37.96732602761712],[126.99118107677566,37.96623505964119],[126.99132743081842,37.96609824998753],[126.99058125320947,37.96543121639593],[126.99001355914388,37.96505840453976],[126.98956710702727,37.9648970396651],[126.98925349328972,37.96462756645165],[126.9894640010444,37.96368302051103],[126.98902787032004,37.963526726650265],[126.98833531369604,37.96255223562375],[126.98837836886233,37.96238670324568],[126.98820901717109,37.96183486567326],[126.98858800661746,37.96131152399189],[126.98862667333819,37.96085063862382],[126.98826123282554,37.960209814292675],[126.98834998735931,37.96003048544374],[126.98865369899356,37.95980754039876],[126.98877465482072,37.9595009587038],[126.98877685748437,37.95909469313097],[126.9885557900898,37.95847387540283],[126.9887934238039,37.95789420861723],[126.9890687147565,37.95751191109633],[126.9888414070571,37.956967952803296],[126.98850991800637,37.95646311668677],[126.98823685827554,37.956370452999266],[126.98788251646995,37.95638421046398],[126.98658669496453,37.955971035473475],[126.98604246838302,37.95606556210448],[126.98506453549726,37.955723076705524],[126.9843207830958,37.955250540981005],[126.98368657609653,37.954698069329496],[126.98192949724832,37.95415779125725],[126.98121118154644,37.95377224283864],[126.98046413310355,37.9531668047862],[126.97831547695208,37.9520216532151],[126.9779633082174,37.9519824452301],[126.97779736287143,37.95167919682142],[126.97728397992975,37.95156253096267],[126.97719930616793,37.951183002601326],[126.97759554638364,37.95072614298643],[126.977276269981,37.950136526980316],[126.97738693858783,37.949860360909106],[126.97711699544011,37.94960383191285],[126.97699878988135,37.94901706518631],[126.97702740556096,37.94846384712319],[126.97672454327262,37.94778723970088],[126.9769628923268,37.94736779870306],[126.97675104292995,37.94669148853788],[126.97726765451037,37.94606095380876],[126.97643606143589,37.94558609841303],[126.97625127562328,37.94533492402375],[126.97630113591784,37.944547746371036],[126.9757961583128,37.94445163289608],[126.97579144579704,37.94420133648787],[126.97546958853917,37.94401544963253],[126.97510398330394,37.94339992038797],[126.97469920536861,37.94296935886261],[126.97434619095114,37.942954070987575],[126.97366676765418,37.942588753211],[126.97300395283185,37.942490610241904],[126.97250283468821,37.942084510436366],[126.97483823987032,37.93949210620056],[126.97551236123087,37.93888412846913],[126.97833165987659,37.9378219575668],[126.97887948163006,37.937842331508556],[126.97994816691438,37.937362317669624],[126.98066962178771,37.937902676766214],[126.98159274798786,37.93801150710242],[126.98321457528087,37.93864761307263],[126.98354321946744,37.93860745514098],[126.98408083738431,37.93874988314614],[126.98489848809012,37.938721135180096],[126.98562754392772,37.938533161655656],[126.98612072414925,37.93854549840771],[126.98650714740818,37.9376428294921],[126.98706214083101,37.93705701372687],[126.98712979765554,37.93679461751927],[126.98738245978828,37.936454285192745],[126.98855387385899,37.93602133713377],[126.98883423145581,37.93604062985583],[126.98931553795354,37.936355741674106],[126.98955148773277,37.93627633966352],[126.9908494628555,37.93620688558195],[126.99138669299042,37.936588931855475],[126.99284863976875,37.9364943468912],[126.99268842098537,37.93532647970292],[126.99380783822672,37.934517785058894],[126.99416858877566,37.93396084661644],[126.99512595600392,37.93382090290545],[126.99575056744963,37.93397235015177],[126.99610885502803,37.933858699889875],[126.9964800922878,37.933581598829754],[126.9972920591007,37.93389716881388],[126.99768884118429,37.9341415116784],[126.99827902393159,37.93464919085482],[126.99847599669333,37.93519991208065],[126.99921673625853,37.93584474490225],[127.00002999909904,37.93632096748671],[127.0009032861428,37.93631702914398],[127.00136213568285,37.93606173869728],[127.0012666425048,37.93562873212655],[127.00134743040377,37.93524395895771],[127.0009858962201,37.934636674565766],[127.00109642977309,37.93350364635841],[127.0012813453668,37.9334886630162],[127.00148831437075,37.933338198694415],[127.0023803812087,37.93333303369056],[127.00414698162952,37.93255283765658],[127.00445519401411,37.93229917670048],[127.00445897274174,37.93147790996402],[127.0052477677863,37.931669559459245],[127.00543052269936,37.931196997845596],[127.00631343658188,37.929712242471766],[127.00861360123287,37.929060277801426],[127.00946395515655,37.928504467049116],[127.00969181573349,37.92821671993875],[127.01028201079136,37.92850031241449],[127.0106801101938,37.928563343787474],[127.01108962631818,37.928860618591905],[127.01170382605926,37.928761466008055],[127.01263662452207,37.929554201203494],[127.0136717389618,37.92984239898695],[127.01410405416432,37.93036489412361],[127.01441125966613,37.93091442936341],[127.01427479028473,37.931085621868135],[127.01420660672684,37.93142798300369],[127.01457066696656,37.931842371100444],[127.01503707936413,37.93210358796466],[127.01531014915885,37.9325179817654],[127.01532170123754,37.93346396450926],[127.01589062846358,37.93438284586652],[127.01597042998672,37.93529277885557],[127.01634593560851,37.93586931742114],[127.01655078303479,37.93640085431785],[127.01685799984224,37.93670712861707],[127.01755192924517,37.93686920343168],[127.01808664820952,37.937184456505506],[127.0185303180759,37.937319532326306],[127.01928122950439,37.93781493311039],[127.01995268848478,37.93900405901757],[127.02024850077197,37.93917518958532],[127.02040797889427,37.94002204427502],[127.02148874296192,37.940202047511036],[127.02242143939762,37.939724391228935],[127.02353630699956,37.93982328968477],[127.025038115839,37.940408606145375],[127.02509507279461,37.940642836555575],[127.02549337965836,37.94109322084068],[127.0260622503491,37.941264274069624],[127.02642649230764,37.941894855544724],[127.02651794153093,37.94319217718505],[127.02743949654709,37.94337216462],[127.0277695471384,37.94375048177996],[127.02765603153105,37.94445323234326],[127.02738314607214,37.944894748816345],[127.02732648742038,37.945534420613605],[127.02740625147034,37.945894776052185],[127.02722446955835,37.946606550321036],[127.02722460692307,37.94698494061936],[127.02791880816454,37.94757039163926],[127.02872691045536,37.94845311860186],[127.02865872293937,37.9486603486474],[127.02872711659633,37.949011695043254],[127.02893196744095,37.94917381572058],[127.0289549042048,37.94966031228759],[127.02835202787396,37.95001181300901],[127.02812466056882,37.950516384498506],[127.02835241329805,37.95107490875232],[127.02827299673017,37.95169656966614],[127.02836410050261,37.95193979918734],[127.0280343345414,37.952453406210246],[127.02792069820414,37.952849836852856],[127.02757944922254,37.953102164829275],[127.0278526053474,37.95334536306915],[127.02777311754878,37.95378683278671],[127.02846747590475,37.95456147939592],[127.0285813528734,37.9548497499211],[127.02844485400442,37.954948887312966],[127.02852460332868,37.95523716619068],[127.02883205287982,37.955876748669496],[127.02925308836441,37.95598476640688],[127.02993576149892,37.955885494368914],[127.03031120163372,37.955750268232414],[127.03091426718605,37.955777150601186],[127.03103937945882,37.95566900344562],[127.03124421185402,37.95570499436599],[127.0318929883404,37.95622736192015],[127.03245062633577,37.95647047235898],[127.03261003028605,37.95670466585024],[127.0333726250216,37.95724502091819],[127.03407804808246,37.95712770640624],[127.03501119805324,37.957361682172916],[127.03562557657519,37.957226366580514],[127.03595542665518,37.95693797206023],[127.03636505590772,37.956937856584716],[127.03730973163094,37.95745109792566],[127.0377080214418,37.9575410729328],[127.03840205695761,37.95741472712162],[127.03892552661671,37.95753168429675],[127.03928979185214,37.95781085355384],[127.03951738209055,37.95783780806596],[127.03971101045602,37.958207127318026],[127.04046235142555,37.958855549842134],[127.04099752179283,37.959540077180364],[127.04152110360776,37.95981017750516],[127.04182847343846,37.960062332596436],[127.04161248348309,37.96044980619261],[127.04180671487822,37.961882215174384],[127.04231900310376,37.962287454907475],[127.04276329905369,37.963179219563514],[127.04282036735013,37.96348550994982],[127.04267255310832,37.96370178905248],[127.0431965190196,37.96459352269581],[127.0431740941376,37.96519715011144],[127.04344752289936,37.96573761009431],[127.04395970962564,37.96589058325762],[127.04397133845988,37.966323024059065],[127.04414239658047,37.966944602463414],[127.04458635292849,37.96716066271613],[127.04443874496576,37.96774631955788],[127.04509941168247,37.96878214149369],[127.04507675714999,37.968962335785214],[127.04543020387216,37.9700613389739],[127.04507752846767,37.97026867868941],[127.04489570371075,37.970719208615286],[127.04463467976277,37.9719715918662],[127.04466912771339,37.97249412214253],[127.04496538343541,37.973088618332916],[127.04550037831106,37.97323256905809],[127.04610396771287,37.973881007133784],[127.04620654551451,37.97413322791414],[127.04654803163926,37.97420517144838],[127.04733334290921,37.97421387780993],[127.0473791979633,37.97473639696371],[127.04778918031091,37.97515066317843],[127.04826724300234,37.975222547165664],[127.04893890032456,37.9754655284757],[127.04938292198256,37.975681570726856],[127.04954237546754,37.97586169076777],[127.04942895732863,37.97647436576764],[127.04945327353916,37.978861808512654],[127.05045502706194,37.979077617545855],[127.0511267157858,37.97930256700983],[127.0521512265667,37.9794913260376],[127.05262976110045,37.98019383951211],[127.05308517807575,37.98038283100297],[127.05325612000628,37.98068006484764],[127.0536775228833,37.98104925870487],[127.05464486810276,37.9808416133241],[127.05569154547334,37.98017445218773],[127.05616946875297,37.98001206463125],[127.05668187886447,37.9802911110085],[127.0574442107231,37.97992137364504],[127.0579221973125,37.979849069984326],[127.05861648579503,37.97982170503053],[127.06001630396655,37.97959578925611],[127.06076751095065,37.97958640507153],[127.06224689034622,37.97923429032348],[127.06414762972086,37.97917022814475],[127.06407792449359,37.97750355336677],[127.06365552259749,37.97598121471558],[127.06405379282488,37.975890907923365],[127.0647480397729,37.975863511916415],[127.06545346502085,37.9756018616474],[127.06561264734853,37.97542159004445],[127.06613602777034,37.97523210980648],[127.06704669736875,37.97541179125097],[127.06833274484013,37.97534800451794],[127.0689477383648,37.97578910565293],[127.07015433349221,37.97595958413659],[127.07039330365143,37.9759143941449],[127.0707576123569,37.97602229594798],[127.07091688657388,37.9759501287264],[127.07161116614982,37.975958724900046],[127.07196390625698,37.97586842195882],[127.07218020623033,37.97592234424977],[127.07333046302034,37.9766694146703],[127.07500292961228,37.97603773798618],[127.07540135453803,37.97610956468534],[127.07636930592399,37.976622479524764],[127.07680186952608,37.97668526914694],[127.07998836481923,37.976349838616464],[127.08040955856794,37.97642163592598],[127.08084201981082,37.976385308340255],[127.08161542584106,37.97588927555977],[127.0823770173574,37.975005848260054],[127.08325348084158,37.97509533433412],[127.08406204632195,37.975527214661504],[127.08484716595966,37.97535548623839],[127.0851768878487,37.97505794638869],[127.08536996165691,37.97469743770613],[127.08618863815451,37.97402115845156],[127.08619975066495,37.97378690946384],[127.08659803913288,37.973741576270484],[127.0871211850361,37.973407853173],[127.08716642687034,37.973164570363345],[127.0881448062229,37.97283051608044],[127.08878169410343,37.97245165239713],[127.08915690092128,37.97214505891875],[127.08938396606187,37.971685418519655],[127.0902259587174,37.97152261930527],[127.09123391363374,37.97162792311524],[127.0914602050754,37.972042574706016],[127.09123531597356,37.97239712109881],[127.09238583296626,37.9738869921206],[127.09275808682256,37.974530202478526],[127.092270592404,37.97576841056651],[127.09220286386864,37.97619599742068],[127.09241619727919,37.977117023967615],[127.0917456785901,37.97778672417477],[127.09146602792589,37.978209742454474],[127.09075973890792,37.98035009307671],[127.0906673059272,37.98086747451048],[127.0901854605364,37.981662309307126],[127.08979615819905,37.98328549965903],[127.09047500962413,37.98375030737026],[127.0907705031521,37.98463270960019],[127.09184583775655,37.984593257251746],[127.092407599289,37.98495517920098],[127.09292307524117,37.98497963262001],[127.09376398144617,37.98480772995296],[127.09447401223932,37.98504846410382],[127.09606204288256,37.98508626307691],[127.0969454954884,37.985307015808374],[127.09746471769637,37.985962978485205],[127.0974543465374,37.98604934934839],[127.09753995433579,37.98602932549946],[127.09754052609382,37.98647189346449],[127.09825753823324,37.98659846808696],[127.09853148088911,37.98684161251943],[127.09983778631084,37.98728630563993],[127.10055950074384,37.988019108290075],[127.10082223331844,37.988553780856115],[127.10083126600206,37.98881256723087],[127.10073329073332,37.98906792240951],[127.10079752058218,37.98923840423161],[127.1005463678629,37.98966452688287],[127.1007230763687,37.989681117517485],[127.1015292754801,37.989462437106184],[127.10236453014912,37.98940219277594],[127.10289956427276,37.98923401598624],[127.10438498173501,37.98943354275801],[127.10469938401792,37.98896577680527],[127.10503918034115,37.988712888043764],[127.10720312743082,37.989075585912424],[127.1074843114745,37.98892295081284],[127.10777555363703,37.98898567404513],[127.10897948255545,37.98852962005957],[127.10958812465334,37.988735109187274],[127.11143668093486,37.98887924559134],[127.11214598166893,37.988759274911935],[127.11248221525345,37.98843175242756],[127.11252933420906,37.98827890342027],[127.11303925795511,37.98787364126167],[127.11320544894487,37.987486657986004],[127.11319614115818,37.98710911793595],[127.11364824735948,37.98626851697336],[127.1148096165497,37.98624523697081],[127.11541888761714,37.98585590621018],[127.11614851970609,37.985872075709125],[127.11740398184332,37.98521907186609],[127.11730902495187,37.98486932842491],[127.11806959887684,37.98381473992595],[127.11787071186886,37.9832040520083],[127.11801275047857,37.982775004711364],[127.11839755992162,37.9824893179897],[127.1187700513091,37.98193531992586],[127.11868236658125,37.98165368425463],[127.11900213537275,37.98124890472743],[127.11919128813142,37.98116203283662],[127.11941264809424,37.98028035487961],[127.11985268586693,37.97976759380674],[127.12027228726056,37.97893978009426],[127.12233893631931,37.979992730221944],[127.12257136461015,37.98026656298999],[127.1232255673109,37.98031168061949],[127.1238174756541,37.98050454908029],[127.12442763653489,37.980931834817966],[127.12483680558256,37.98187114357659],[127.12557660644852,37.98243304570295],[127.12721625736926,37.982836280479106],[127.12755861210215,37.983036811022565],[127.128392096848,37.98327668603491],[127.1293082114747,37.983904378389965],[127.12980291984502,37.98394157877789],[127.13073869770153,37.984545255660294],[127.13079453450933,37.98514617708593],[127.13174486695071,37.98612155915129],[127.13188199020574,37.98691566579241],[127.1315958324346,37.98744693139457],[127.13250868617719,37.9880789072924],[127.13270152321839,37.9883511774616],[127.13323546727658,37.98840719488833],[127.13420987967191,37.98882761367319],[127.13491661878369,37.989522237823174],[127.13538576547195,37.989639378739675],[127.13603617168778,37.990122875218894],[127.13635363115345,37.990167704789826],[127.13685962119999,37.99047791568874],[127.13807324580408,37.99095983075251],[127.13861038179132,37.99107282920858],[127.13960199812882,37.99158763708861],[127.14056918801644,37.992203819809056],[127.14135553072968,37.99195931451866],[127.14166440281386,37.99164950123691],[127.14180810997496,37.9916888583562],[127.14241086182648,37.99150861988628],[127.14292854695375,37.99153674821177],[127.14298250476583,37.99146856020626],[127.1438089603104,37.991902306605375],[127.1439424696606,37.99210703261793],[127.1447016118774,37.992160593554885],[127.14502551300968,37.99243659028233],[127.14506429891803,37.99302778931086],[127.1452840629064,37.993747187081645],[127.14596260341561,37.99439409141625],[127.14592703691882,37.99464355602749],[127.14611268715203,37.99490369434405],[127.14629365120008,37.995566477032945],[127.14700861463355,37.996127419074554],[127.14700070521978,37.996339064250726],[127.14733348840592,37.9968365019551],[127.14598913974542,37.998360141330004],[127.14563925571296,37.998981513933884],[127.14548358647302,37.99949870555877],[127.14558565675803,37.99986174289767],[127.14549497827234,38.000271015660225],[127.14558263765164,38.00072145045123],[127.14552448710084,38.00102677137633],[127.14567404035562,38.00139638864083],[127.1460834668013,38.001713394083126],[127.14610827523755,38.00207867323663],[127.14634333017293,38.00244363484826],[127.14645854346998,38.00285041231294],[127.14696296983965,38.00341349692271],[127.14694296749555,38.00441234391485],[127.14714881353825,38.005048544370105],[127.14707768773083,38.00645877880291],[127.1473073336438,38.00703795741133],[127.14668877783906,38.008945852432795],[127.14681859433004,38.00941168368656],[127.14667968449926,38.00995854248717],[127.14679267212463,38.01022227322616],[127.14605845000878,38.01196241186373],[127.14625569382972,38.012666554820576],[127.14617651309743,38.01312131712988],[127.14633200848249,38.01356299034119],[127.14665703788852,38.01407749186188],[127.14665252595545,38.014475351768745],[127.14682751615072,38.01459044502899],[127.14735613045646,38.01473277051522],[127.14725062658619,38.01516477996267],[127.14620306317923,38.01521680397456],[127.14533174923282,38.01569762042762],[127.14434472910382,38.016429531283876],[127.14349562017566,38.017256935490956],[127.14295376420249,38.01793928776381],[127.14024217505617,38.02019799243644],[127.13948316164591,38.021037460196794],[127.13885389245225,38.02204454898924],[127.13847057427216,38.02301753630517],[127.13840726115129,38.02405713266458],[127.13865745128864,38.025174060071016],[127.13780421493026,38.027093672048395],[127.1365961947819,38.028021460335836],[127.13591307342779,38.028740445871264],[127.13526455472162,38.02961295613429],[127.13511274085474,38.03044992830993],[127.1352293549191,38.031354305461065],[127.13560623365818,38.03197576974602],[127.13712115099192,38.03388132612948],[127.13744899089552,38.0349350924492],[127.13762409411245,38.035973122935395],[127.13747493473848,38.03711434152446],[127.1374767324934,38.03808812947138],[127.1369674610373,38.03852755238087],[127.13669354786238,38.03803109433366],[127.13600715351471,38.03846059589597],[127.13458139823109,38.03889201204346],[127.13384871293627,38.03901318250394],[127.13303556271276,38.03890615645874],[127.13045229253176,38.03767632269502],[127.13036803384641,38.03817180126656],[127.13020045096353,38.03817310206122],[127.13015355765316,38.038103296455695],[127.12975353301523,38.03805552052595],[127.12929935339388,38.03785509761575],[127.12911015672735,38.03787431283886],[127.12843737942187,38.037691528814875],[127.1282056089585,38.0374871123096],[127.12712395817272,38.03735759592481],[127.1262422245346,38.03741627421937],[127.12620711987573,38.037485204235765],[127.12572791987026,38.03744998987153],[127.12543516182207,38.03757177394912],[127.1248777156679,38.03795012749261],[127.12436024949876,38.038192770677036],[127.12406739294339,38.03843846791226],[127.12409524504875,38.03858186940288],[127.12359196169868,38.03898173762302],[127.12317081249033,38.03839371333083],[127.12116950069468,38.038877532504664],[127.11889116432575,38.03871320043816],[127.11712618431356,38.03887707207833],[127.11507409966896,38.039274122623084],[127.114637910739,38.039794289060076],[127.11512909279351,38.040369122256266],[127.11764229540994,38.042568910119776],[127.11807338592506,38.04356474066463],[127.11776795881134,38.04411138460355],[127.1162575926848,38.04526594961879],[127.11309206625698,38.04869265820396],[127.11189157109918,38.05112493286554],[127.11290125284262,38.0530193503014],[127.11348010244424,38.05467845333289],[127.11398334089043,38.05647357240921],[127.11572145183703,38.06029297397028],[127.11750143881297,38.06112355695581],[127.1178167080779,38.06143705113713],[127.11819527920952,38.06137131482788],[127.1201314393895,38.06153748682829],[127.12028782138478,38.06165017750441],[127.12207823644707,38.06132303975731],[127.1226233462145,38.061372863353725],[127.1238037317824,38.061123909482426],[127.12519216575039,38.06008433560996],[127.12601368523444,38.059700220065636],[127.12658670390005,38.05954868244165],[127.12827798339808,38.0602755560993],[127.12940804457848,38.06092922382948],[127.13035649574297,38.061701115890486],[127.13236985943354,38.06396021601226],[127.13378688372518,38.06482555958009],[127.13424008619856,38.06519900826039],[127.13493402800793,38.06544504536195],[127.13559570457814,38.06535022769282],[127.13658224384652,38.065472335169076],[127.13754450381677,38.065934708182674],[127.13819463691222,38.06645026157006],[127.13829344282856,38.06799160949385],[127.13810062535168,38.06910630427487],[127.13846883781471,38.07013972534178],[127.14173306686935,38.07282310339368],[127.1424776506707,38.07301638502568],[127.14337548570848,38.073051452254774],[127.14445121068727,38.07245687066459],[127.14630552781618,38.070448824578456],[127.14749070129625,38.06949969943977],[127.14761817597548,38.068472981164525],[127.14705031134856,38.065919405732906],[127.1461423022065,38.06278072560224],[127.14634620774247,38.06071933252019],[127.14760095866603,38.05843795167639],[127.14797695387584,38.05812738788143],[127.14890734325026,38.05780110521857],[127.14929509261505,38.05780880778523],[127.15180856566111,38.05881809254309],[127.15371035013283,38.06056044217588],[127.15516712470988,38.062097459299416],[127.15677164027294,38.06332706766331],[127.15853615296493,38.06337206671549],[127.16054535868794,38.063052938323786],[127.16230932037162,38.062504091094354],[127.16402507556694,38.061736723590485],[127.1652189274135,38.06154981809403],[127.16636257492034,38.061622549217645],[127.16774684710387,38.06225902230941],[127.16825708917365,38.06327354896054],[127.16954848175567,38.064744136740686],[127.17079867212202,38.06554848479816],[127.17286233756293,38.06630925468762],[127.17444496732512,38.06633343184499],[127.17626949428711,38.06609796557291],[127.17842821672805,38.06546052415719],[127.17908816336289,38.06511438098652],[127.18012789535487,38.06486337953441],[127.1835402093533,38.063780647216355],[127.18501396519532,38.06384298689678],[127.1873315613983,38.064445262999364],[127.1888040477381,38.06453942636002],[127.18880563456511,38.06516167929177],[127.18908853237697,38.06516122923749],[127.1893003836367,38.06561686929056],[127.18928280765326,38.06631001273832],[127.18965004516433,38.06711005475676],[127.18996943182213,38.06744820395909],[127.19026321209941,38.06923658977603],[127.19016547407591,38.069828778830555],[127.18979021693353,38.070616050441004],[127.18985982825423,38.071329311026],[127.18969577148391,38.07187831737638],[127.18972010853794,38.07212918143155],[127.18953478454479,38.072584636601235],[127.18961946717607,38.0731177484811],[127.18959448336464,38.074376322719104],[127.18940776193966,38.07525879984081],[127.18953495489863,38.07639851353205],[127.19003441685493,38.07686625249584],[127.1903727561555,38.077546752517385],[127.1907542525742,38.077894989321294],[127.19052139911358,38.07844512380636],[127.19089289680548,38.07955502264289],[127.19107497515338,38.07970255875989],[127.19101461500672,38.07987581072109],[127.19123840280506,38.08027738131484],[127.19167237484514,38.08073534963559],[127.19193256499616,38.08150225038425],[127.19192833953464,38.081969613122325],[127.19215586395191,38.08243888093768],[127.19209280195724,38.083380446252136],[127.19175118323069,38.08403750056508],[127.19167740893327,38.084521931031084],[127.19109343882421,38.085079920911625],[127.19102494268087,38.08569725755175],[127.18962972715218,38.08642427422353],[127.18937973267376,38.08663756343428],[127.18922533081124,38.08707058664706],[127.18902073756935,38.08718403578703],[127.1888624421695,38.08743773172958],[127.18816557559559,38.08753524644752],[127.187237479688,38.08906372780513],[127.18695953099733,38.08938166346726],[127.18664902290972,38.08956266775535],[127.18666700430772,38.090021092311346],[127.18520357713726,38.09069819473611],[127.18480050483825,38.09108849289977],[127.18409633966293,38.09157576420743],[127.18429720954113,38.09225887920176],[127.18419201879603,38.092507801110294],[127.18452913184521,38.093170802960046],[127.18451805608954,38.09356344497744],[127.18388552605906,38.095345942313344],[127.18399217033974,38.09651505270284],[127.1835410684815,38.097342631150376],[127.18332483626,38.09798314930683],[127.18313813256592,38.10041862949638],[127.182938745872,38.10113440939595],[127.18307832713757,38.10180284683094],[127.18291148849625,38.10194158271906],[127.18273710760019,38.10294762976778],[127.1827257135886,38.10332207342757],[127.1831338374885,38.10511419691575],[127.18275450689607,38.10682057334333],[127.18294440925463,38.10874560226089],[127.18269795989242,38.11409011618363],[127.1825000177717,38.11506003914402],[127.18212189925387,38.115809527706546],[127.18121998201218,38.117206508364475],[127.18062642750017,38.11837222841106],[127.17821548648662,38.11885336584361],[127.17696407802103,38.1192168812843],[127.17580121598047,38.119616999302316],[127.1749237068138,38.120118136497084],[127.17311898588783,38.12020487096073],[127.17202538426477,38.12142996467452],[127.17130207270347,38.12182699394094],[127.17228245554988,38.12238253973234],[127.1728134134742,38.12318197492516],[127.17337854864778,38.12335447284077],[127.17393951329697,38.12402868846242],[127.17377669735707,38.12454443196302],[127.17426629254426,38.12552656033478],[127.1742124522829,38.12610364021941],[127.1746606624436,38.12695476454036],[127.17496721306755,38.1280258080784],[127.17554241793019,38.128909120040134],[127.17552073007174,38.12952669278559],[127.17509823690855,38.13044917367261],[127.17487091848949,38.131626782922446],[127.17482277463716,38.13309769632699],[127.17454640618203,38.13389163309841],[127.17450611314315,38.1348807292422],[127.17470516950195,38.13526831839239],[127.1747420761625,38.135839686041415],[127.17452072449416,38.137436793193835],[127.17459844927326,38.138419173225856],[127.1739943437445,38.14051309813913],[127.17289173500647,38.1411840023187],[127.17293862014589,38.14169093386756],[127.17316824732974,38.142292411909466],[127.17381284250168,38.14297107499434],[127.17395947576155,38.14365157987662],[127.17380708788347,38.144269689132265],[127.17424243607073,38.14489448385762],[127.1749710938214,38.14540641786358],[127.17567987795049,38.146568163329135],[127.17556233272535,38.147355164882555],[127.17672891694637,38.14914651934269],[127.17630644365336,38.14979969482909],[127.17621837038703,38.150630184474736],[127.17691004639865,38.15184332035188],[127.1770216237599,38.15247171754016],[127.17685508437066,38.15307091847219],[127.17617378094153,38.1536715796214],[127.17548628488146,38.15468532605157],[127.17535845935649,38.156109030896886],[127.17480361091836,38.15848732606228],[127.17505264390142,38.159115481239425],[127.1745777061188,38.15957769432514],[127.17431635836942,38.16030266420381],[127.17346549939062,38.16094131510841],[127.17331677900962,38.161348881083434],[127.17392732493738,38.16202948737424],[127.17439478475383,38.162856417393336],[127.17465261226775,38.16351474995491],[127.17469302303174,38.1647121659142],[127.17456749762528,38.16507973459584],[127.17405327501818,38.1655236595199],[127.17389777590827,38.16605952502493],[127.17352742300426,38.16680810722585],[127.17330075642099,38.167621055836065],[127.17291311553123,38.16842617613344],[127.17281544317082,38.16926526782868],[127.17248487934407,38.16990537508728],[127.17260144828184,38.170360616688555],[127.17312377813037,38.171287866071886],[127.17370539188036,38.17190875739352],[127.17421163323438,38.17218816558638],[127.17392850293514,38.17285424368811],[127.17409649694683,38.174776981834896],[127.17441944221488,38.175341997673904],[127.1745242147969,38.17577261431035],[127.17520015365197,38.17633612549637],[127.1753089115,38.17797314022345],[127.17503413816631,38.17897326444916],[127.17521053115637,38.179381256721165],[127.17498655819101,38.17992541200077],[127.17458210994987,38.180382553158836],[127.17586281157018,38.18156282920491],[127.17654651604167,38.182485957598125],[127.17755180173131,38.183180831265496],[127.17763280725056,38.18368879022159],[127.17893692187249,38.184421369460324],[127.18020084918938,38.186007375658576],[127.18055972936429,38.186145998969124],[127.17994528841648,38.18695717667171],[127.17913830266586,38.18741378302784],[127.17556155266755,38.19123950277132],[127.17474093135723,38.192268707596924],[127.17393878262611,38.193703069988025],[127.17259637704396,38.195370447996474],[127.1697001196123,38.19765158635768],[127.16961660198835,38.198124051143324],[127.17259579496563,38.20127626979754],[127.17345589847703,38.201672557108814],[127.17379006754393,38.20294074583499],[127.17422873036826,38.20317168391475],[127.1751351421328,38.205484036752445],[127.17366678708484,38.207793465612106],[127.17211607127612,38.20969052310886],[127.17185131818331,38.21151955904887],[127.17204889224979,38.21195865140342],[127.17116632752473,38.21349263822819],[127.16821253148822,38.21455582656559],[127.16643154700496,38.21539622178299],[127.16470078001612,38.21566108662787],[127.16446069073923,38.2159693150639],[127.16243170787344,38.21739803960101],[127.1610161458028,38.21826350716485],[127.16069962720132,38.21903872536801],[127.16008385267712,38.21919435758927],[127.15971372611057,38.21954632207774],[127.15967799247207,38.21981917451045],[127.16027152735225,38.21990304830904],[127.1605527823886,38.22022115867314],[127.16043072694401,38.22047693077354],[127.1608886948941,38.221026636952686],[127.16133647182093,38.22230321502297],[127.16179884605188,38.22275076519673],[127.16184200385571,38.22363143343335],[127.1602012284451,38.22540402044013],[127.1600687083243,38.22600416318055],[127.1607642683295,38.22835274008418],[127.16174674819823,38.22961879686056],[127.16191790427081,38.23007804832484],[127.16222203514188,38.23194724200937],[127.1629112565179,38.23244093580558],[127.16248092973741,38.23334013222922],[127.16149246369731,38.23476686149877],[127.16273269361777,38.237003757336424],[127.16335088987627,38.2383334488486],[127.16329360224778,38.23848137245542],[127.16184405322251,38.238896370862875],[127.16005836433933,38.238996748799366],[127.15901772696965,38.23921266706909],[127.15842287597548,38.23918834667253],[127.15778615752784,38.238922752079],[127.15509238089378,38.23997788238103],[127.1538594563772,38.240306012475074],[127.15357709344505,38.24061547225971],[127.15353869344433,38.2411928540782],[127.15324378957163,38.24186661037463],[127.15133986709132,38.24198894447067],[127.1507101145681,38.24227447120796],[127.14892257276715,38.242343755724704],[127.14734021651877,38.24165216826188],[127.14765627077288,38.241199612690174],[127.1473501017784,38.240596274935314],[127.14729340545847,38.24006124752682],[127.14634082490903,38.239330755776514],[127.14543093778482,38.23935404403175],[127.14472857384631,38.23907551240091],[127.14443595926214,38.23862868821208],[127.14370289447392,38.238156883654725],[127.1435827276931,38.23789602531864],[127.1432330079211,38.2376760835957],[127.1433010265945,38.23727504510346],[127.14299962860369,38.236654499933685],[127.14274611990668,38.23661473331757],[127.14206987747795,38.23735475818426],[127.14092923424822,38.237686210852665],[127.14052831785467,38.23758487648138],[127.14001383679977,38.23771478830818],[127.13935109717754,38.23724219889033],[127.13894749459108,38.236584855721674],[127.13778129052486,38.23634845356507],[127.13724074637146,38.236090715765364],[127.13692404914204,38.236262428531205],[127.13638137360026,38.23628313380344],[127.13572589589816,38.23648428796165],[127.13507867568191,38.236500781914856],[127.13475884814213,38.23563620634312],[127.13489500289921,38.23470856285801],[127.1350947653532,38.2341253906124],[127.1345258923987,38.233650433918235],[127.1325874262684,38.233553615348036],[127.13218478610568,38.23324871784816],[127.13115662581487,38.23275353341578],[127.13058115317779,38.23275127479735],[127.1295512195126,38.23354664050631],[127.12795898502947,38.23348501674169],[127.12770511792304,38.2336560440316],[127.12737639472473,38.23368907174414],[127.12720589284393,38.23389421350412],[127.12670142942406,38.23409028123385],[127.12608385651741,38.23385846439874],[127.12572264035704,38.23392065654171],[127.12561947457442,38.23370175289128],[127.12534487178924,38.23361089052774],[127.12520147467335,38.23333418171067],[127.12478584508516,38.23340184264187],[127.12304884119513,38.23280388122177],[127.12215388047457,38.23350150252169],[127.12083024148548,38.23388663327945],[127.12071622638409,38.234590356919405],[127.11961440099371,38.2349519522133],[127.11930891405774,38.23529139603062],[127.11849272642479,38.23577778890892],[127.11679951843509,38.23699683057998],[127.11573362419195,38.23656625834496],[127.11509953034718,38.23656566590399],[127.11441698473338,38.23635098504838],[127.11432759888213,38.2365221593635],[127.11356975732228,38.23681805936119],[127.11350039824977,38.23709725593921],[127.11311229003121,38.23752476974363],[127.11265469844827,38.2378041454294],[127.11234562207278,38.238140882314205],[127.11226786852983,38.23842631944721],[127.11249019729253,38.23933913871358],[127.11201499512826,38.23962156295211],[127.11188292388997,38.24044231121008],[127.11133572755828,38.24104471517537],[127.11080825702564,38.24121696940384],[127.11054584286649,38.241568944724236],[127.10990029430381,38.241840155634954],[127.10989056320031,38.243048473964606],[127.10957298536833,38.24419190685492],[127.10966737716413,38.2444792663482],[127.10962593647817,38.24477284686068],[127.11000714171288,38.244943889395344],[127.11135720909574,38.246715428123395],[127.11156581427664,38.247387678523225],[127.11143128564677,38.247764907070746],[127.11069942018106,38.24894715988861],[127.11027252952644,38.25126922082206],[127.11058898147947,38.251866311504905],[127.11096959624459,38.25220906058764],[127.11068417090165,38.252661406696],[127.1102529753223,38.252898440694615],[127.10968734481825,38.254563162146916],[127.10890736963599,38.2561136741465],[127.10806931781602,38.25829864351571],[127.10800377477393,38.2611277132264],[127.10919128595941,38.26324151145173],[127.10933324235147,38.26575961215225],[127.10907991049238,38.26732953053854],[127.10827152717373,38.26810907827276],[127.1080933210881,38.26841237721264],[127.10884933971363,38.26915642963376],[127.1093385661634,38.2693631275295],[127.1105457314504,38.26936201229616],[127.11045191461558,38.26980201968003],[127.1106574527734,38.2700301018383],[127.11072945835211,38.27097526391376],[127.11041457672947,38.271351628957746],[127.10965293912524,38.27165439025724],[127.10531109840633,38.272191780858414],[127.10362952303207,38.27259578687948],[127.10204911983678,38.273154618286604],[127.1016775168926,38.273388062652515],[127.10140474272693,38.27367876679511],[127.10081381430459,38.27458640016347],[127.10077475937838,38.275019700986874],[127.10101697962497,38.27559855299999],[127.10174373921775,38.276316528330945],[127.10222037122206,38.27657648720181],[127.1036367232328,38.277737060538385],[127.10395482662624,38.27807481175971],[127.10451534428766,38.27911341113601],[127.10453702908133,38.27942569338428],[127.10432054686049,38.27987127565817],[127.10395722774008,38.280377257045345],[127.10364071828724,38.28058945359359],[127.1032114509575,38.28078750603703],[127.10060060617027,38.28104028511755],[127.0979269638616,38.281112284800315],[127.09560901826504,38.2810049967489]]]}}
