{"type":"Feature","bbox":[127.9216980695349,36.81576809626526,128.33343079439163,37.25844004234527],"properties":{"regionCode":"43150","version":"vworld-20260909-3f8952dfda77-p3","name":"충청북도 제천시","attribution":"국토교통부/K-Geo플랫폼 · VWorld 법정구역정보, CC BY 2.0 KR; 두꺼비집 가공"},"geometry":{"type":"Polygon","coordinates":[[[127.98002307509077,37.25809421684236],[127.9799416389416,37.25827769604042],[127.97969883888611,37.25844004234527],[127.9784245134319,37.25789615149883],[127.97803529225702,37.257914031657066],[127.97756706675261,37.25778199368689],[127.97727950935281,37.25753939068995],[127.97658729234314,37.257548389670625],[127.97626252581155,37.25733709518919],[127.97475978138445,37.25680526236349],[127.97432094400892,37.256751167121124],[127.97402293917462,37.256567379789395],[127.97352469741739,37.25646828737117],[127.97245633387091,37.256477251567624],[127.97202422745072,37.25664431801737],[127.97139203361229,37.25656828185109],[127.96948650205805,37.25589728594246],[127.96871492608331,37.25476286777013],[127.9671744523322,37.25400815778844],[127.96647706923143,37.253260597712256],[127.96598821193537,37.25303412143474],[127.96559368979743,37.25244760061238],[127.9650203343177,37.25207989179803],[127.96472030848034,37.25158534847089],[127.96403022737957,37.2511732014828],[127.96273687161603,37.2509912357994],[127.9621312977987,37.250826132130555],[127.96166187626763,37.250811622780674],[127.95942910383866,37.249876731086275],[127.95848080985013,37.25004516676813],[127.95821253326253,37.250155382453926],[127.95665654020702,37.25025017938188],[127.95603631317154,37.2498620457393],[127.95550899159642,37.24976384191509],[127.95439570361704,37.249190217384196],[127.95393768220437,37.24903737909912],[127.95234138072328,37.247863973251036],[127.9518367563217,37.24774177563537],[127.95144442576402,37.24744552056954],[127.95062862697034,37.24733592263704],[127.95009637882663,37.247128703704234],[127.94813111306568,37.246915587339615],[127.94790968907637,37.245336452857565],[127.94732565130339,37.24425144270267],[127.94726272879694,37.24246391157039],[127.94706795716621,37.24169469936879],[127.94666931716127,37.241286357512095],[127.94536478651456,37.24067939238774],[127.9443576993835,37.240662953697964],[127.94366299182515,37.24051043673862],[127.94092190962876,37.24055737957369],[127.93888105712837,37.24074323781588],[127.93739058044855,37.24025911233997],[127.93638013997811,37.23959289132324],[127.93531806893894,37.238615955056744],[127.9344288984488,37.23797119328874],[127.93372484967513,37.237258049938454],[127.93188313546891,37.23590239053171],[127.93070976596478,37.2349607417212],[127.93028077742537,37.23452466589423],[127.9279905588975,37.23305840337568],[127.92575582213776,37.2320205757541],[127.92488452912772,37.231511078153964],[127.92220209362394,37.22651266525791],[127.9216980695349,37.22539025589701],[127.92191422205899,37.22407546355281],[127.92264806770494,37.22239253762968],[127.92358711857852,37.22164656432544],[127.92602105003246,37.22089790042931],[127.92714500754273,37.22044101114203],[127.92725980175214,37.2179499112484],[127.92950205441156,37.21197240582103],[127.93062158698108,37.21086494531029],[127.9323732667519,37.20721773706824],[127.93250401094605,37.206236192748214],[127.93178013617593,37.20567945060474],[127.93160720971169,37.20539628613766],[127.93154408006622,37.20457624858552],[127.9313958338087,37.20409978490337],[127.93156591430653,37.20374208284296],[127.93152611802579,37.20290110152633],[127.93134542700945,37.20185022896803],[127.93070817498975,37.20129338242835],[127.93105147679437,37.20050858348526],[127.93103257145681,37.200145308327976],[127.93123153957063,37.199335971113655],[127.93151930532095,37.19874143414287],[127.93182433454773,37.196713540374716],[127.93165581552385,37.19636648759801],[127.93279125026474,37.193020413611706],[127.93346753198726,37.19236153328735],[127.93368943375627,37.19172098745869],[127.93389708041386,37.19164426381613],[127.93428815255305,37.19039265898124],[127.93464318026477,37.190050378248934],[127.93551632092063,37.18951841551581],[127.93586269092442,37.189410256534586],[127.93582630199035,37.1886999319905],[127.93513976657866,37.18799182206048],[127.93546247874721,37.18713363781164],[127.93477711152445,37.18599101938076],[127.93476368343514,37.185832465990686],[127.934391722948,37.18578973344115],[127.93358669721115,37.18547257790382],[127.9335068826853,37.183539337523165],[127.93270456372508,37.18223789491381],[127.93319719378403,37.181088183831505],[127.93405680743649,37.18035630329983],[127.93315030524933,37.1785235035471],[127.93321489929875,37.17823055292766],[127.93307688982506,37.17780485330001],[127.93324659085039,37.17745611422603],[127.93339900170336,37.17734103646113],[127.93345718960381,37.17688777547181],[127.933829585981,37.17569569269328],[127.93258347915193,37.17520940944472],[127.93254421448823,37.17507423141557],[127.93187621491236,37.17473484813088],[127.9311885612764,37.17332923540246],[127.9310356409571,37.172538395528036],[127.93079283055846,37.171928924927066],[127.9302933789597,37.17143523459409],[127.93001426052696,37.171335877613],[127.92993695104651,37.171148828917154],[127.92952528539787,37.17090721153008],[127.92910542842304,37.170851175817745],[127.92830943478032,37.17042898843138],[127.92740907630842,37.16974177530358],[127.92714718672141,37.16817042729821],[127.92695788215764,37.16798034940205],[127.9265481544242,37.16657928580048],[127.92671941237289,37.1664123409236],[127.92635924498465,37.16552218881108],[127.92677916678737,37.16524360517069],[127.92773076335295,37.16423622057703],[127.92960260503514,37.16445170517471],[127.93159091100547,37.16369199349923],[127.93302439697405,37.16412001658326],[127.93398019842648,37.16337770034713],[127.93466607185196,37.1632966250816],[127.9373077566323,37.16401640376485],[127.93928621112885,37.16392468374695],[127.94025330537706,37.16321949445728],[127.94167826841716,37.16259447942822],[127.94259068959488,37.16191203167418],[127.94380998562085,37.161977109343034],[127.9453794461414,37.16257794298904],[127.94638471730204,37.162330134381186],[127.94741884153348,37.16264370067937],[127.94909331648525,37.16211655533091],[127.95015143067155,37.161573688324836],[127.95220106370019,37.16227101184389],[127.95312673872392,37.16226208021988],[127.95437750847282,37.162137508160306],[127.95501540822477,37.16148353731959],[127.95704806040862,37.16095296410004],[127.95958383700928,37.16066411677796],[127.95962322153511,37.15966912937839],[127.95983655599201,37.159379554708366],[127.9604120183229,37.15898131808718],[127.96091442178052,37.15893983294451],[127.96207955445502,37.158482526185125],[127.96358762271183,37.15770930526716],[127.96463437183081,37.15768049481344],[127.96538024626402,37.157987467880574],[127.96553299821629,37.15753714147665],[127.96647773142271,37.15715233183766],[127.9667966798774,37.15712288528733],[127.9683241674993,37.156209086021164],[127.96808358774753,37.15567536451541],[127.96819343443933,37.154939069081706],[127.96897894606674,37.1539502720167],[127.96892741547295,37.153297480931556],[127.96978369595018,37.15160011599834],[127.97031772987154,37.15115276739294],[127.97113039865789,37.15073120362147],[127.97117189781474,37.14991037897774],[127.97138785204648,37.149712532953664],[127.9710516684439,37.149283299347424],[127.97129898379644,37.148661717486156],[127.97173285793754,37.14813248692278],[127.97139550026624,37.14758619604653],[127.9714882052983,37.147013416142016],[127.971426996614,37.14674553994352],[127.9715769474821,37.146105102939124],[127.97080996602936,37.14462012908884],[127.97034288864617,37.14320269286758],[127.97055344694147,37.142164085699456],[127.97096105452742,37.14174676220908],[127.97195657047739,37.141781954528255],[127.97271738566232,37.1415949876315],[127.97346526516775,37.141656055256135],[127.97374091487812,37.1415388428714],[127.974368354924,37.142038355595545],[127.97493829210462,37.1421830847317],[127.97531007891305,37.1418874886761],[127.97540980100953,37.14162345252166],[127.97646995699647,37.14129055136155],[127.976964264408,37.14142618745387],[127.97751754246711,37.14103648567717],[127.9775883901972,37.14068857574549],[127.97797758153737,37.14042360510438],[127.9783423034336,37.13974452361617],[127.97828779303363,37.13950079595237],[127.97842063727875,37.139118956676974],[127.97877553302538,37.138801116895145],[127.97939650183423,37.13790088603632],[127.9796169036571,37.1371068300056],[127.98036628318512,37.13693190141269],[127.98077800419108,37.13630748170469],[127.98082438372843,37.135981055797274],[127.98074930275439,37.13561384498367],[127.98153701762081,37.134541095113036],[127.98127646312946,37.13346524314368],[127.98179106014119,37.1324866455821],[127.98260245466763,37.131425342690655],[127.98442404030214,37.13174876606945],[127.98583543629375,37.131844729021914],[127.98655094247484,37.13151425664356],[127.98657989751032,37.13077907066066],[127.98704600781134,37.129223217525364],[127.98689290765955,37.128724677391645],[127.9861183476377,37.12770339127239],[127.9852798639871,37.1269840758893],[127.98492123760903,37.12501563806841],[127.98520909241869,37.12435367611896],[127.98541436840027,37.12431814031641],[127.98605853806562,37.12391498239563],[127.9861727002952,37.12343605208637],[127.98577871829464,37.12239677935084],[127.98592878120553,37.12068976666613],[127.98518730331658,37.11960462512043],[127.9852898001797,37.119166842215925],[127.9845079069961,37.118991013521516],[127.98447582678116,37.11807959842688],[127.9850434874989,37.11704509634708],[127.98509510709673,37.116426711864726],[127.98472434134858,37.11583090648773],[127.98459174833702,37.11485631410142],[127.98546350383393,37.113547956182515],[127.98507582391841,37.11320843957066],[127.98503905983463,37.1125570981133],[127.98570871703436,37.111988780663275],[127.9858302158343,37.11164331237736],[127.98720965140272,37.111147670593205],[127.98787885594913,37.11136978453528],[127.9886651472654,37.11116805987012],[127.98943770668016,37.11114634377414],[127.98993544706657,37.11126598658794],[127.9913151704436,37.11097483644793],[127.99174524402967,37.110781895451375],[127.99266622498665,37.110570371310864],[127.9931018412387,37.11019301391262],[127.99381218777332,37.10936851689592],[127.9942883376509,37.10946518397147],[127.99512665815533,37.109880039274834],[127.99541024715158,37.11021202201598],[127.99679951887576,37.10937457445071],[127.99881425312363,37.10833511995439],[127.99919735964023,37.10598790817003],[127.99968410033263,37.10510959364179],[128.00006753028808,37.10279879202912],[128.00076671755528,37.101720561491994],[128.00107687294445,37.100613508738526],[128.0022940943189,37.09989971440514],[128.00344581805447,37.09869683629287],[128.00442524881745,37.09903743224326],[128.00653460492353,37.099023771236936],[128.00894970663848,37.098653302819905],[128.0102092017127,37.09815721422389],[128.01123975419003,37.09814432579809],[128.01263246936648,37.09829202123145],[128.01107658682295,37.09961781463722],[128.01110875236853,37.10079051797697],[128.01045533148294,37.101803872346714],[128.01181859244025,37.103350851547575],[128.01209507988023,37.10495491599787],[128.0115584065995,37.10626743858908],[128.0116928929977,37.10776563679476],[128.01229717336113,37.1094270622303],[128.0130701892418,37.110613904753905],[128.0140802380955,37.11103651971884],[128.01518195905064,37.11130760172443],[128.01590987104987,37.11235970621776],[128.01762841365436,37.11433466680897],[128.0184669679228,37.11591289115376],[128.01970383457433,37.11776701571167],[128.02173054586788,37.11648282315543],[128.02247301049346,37.11613460370122],[128.02424819680863,37.11553962547084],[128.0260118268811,37.115350752213395],[128.02674855691615,37.11510855949754],[128.02803577663647,37.11483657007182],[128.03243674214798,37.11415068470169],[128.0337537813655,37.11386099928661],[128.03500980085903,37.1130981226604],[128.03586717615337,37.112424162273655],[128.03586347675468,37.112152177003075],[128.03626690800203,37.11194399022643],[128.03818685152788,37.11153162637382],[128.03799856343926,37.111138591335134],[128.03811104812092,37.11113887772955],[128.0382063772672,37.11133728639787],[128.0383525713724,37.11188000649765],[128.03862131970703,37.112112623789415],[128.03991059536492,37.11231273672721],[128.04060486328194,37.1127484684659],[128.0415092413655,37.11365451424851],[128.04244635833064,37.114415891979384],[128.04278552436247,37.11454165191205],[128.0431886594413,37.11529283818429],[128.04363273826345,37.115469697481586],[128.04460208642496,37.115664344167996],[128.04512716851528,37.115640567558714],[128.0457117453379,37.11548736558652],[128.0459696489815,37.11517601062674],[128.04591771540936,37.114438009519155],[128.04630413023327,37.113247146891524],[128.0464684642216,37.112153026009054],[128.04622756816144,37.11210957372479],[128.04704641907506,37.11051379907565],[128.04725831178317,37.11062718916043],[128.04811237784264,37.10940306361021],[128.04845593183956,37.10851720302017],[128.04848954082271,37.107945644099345],[128.0478918727175,37.107032322420714],[128.0476521691412,37.10684284535028],[128.04737716957203,37.10670927426183],[128.04707235040237,37.106665143344614],[128.04609123108452,37.106768704557716],[128.0455519985168,37.10662587683875],[128.04534717676677,37.10478550270701],[128.04664972532396,37.10311269314432],[128.04838291612262,37.101347815906394],[128.0486942657935,37.10156377915363],[128.0500140535689,37.10033410043775],[128.05098902491633,37.09968441066634],[128.051728717,37.09902256780099],[128.0523377132564,37.09805283916816],[128.0525392144882,37.09709759592948],[128.05274355210975,37.09695453169196],[128.05364544568016,37.09713202465398],[128.05625041765506,37.09721974495971],[128.059399172771,37.09766392860999],[128.06170734994373,37.09751036838851],[128.06228460722198,37.09731408049887],[128.06273169322333,37.09704739042625],[128.06310631923324,37.096705839419926],[128.06330087537447,37.09623419759546],[128.0632743485807,37.09596467030776],[128.06185318413927,37.09446654250072],[128.05961759975054,37.09149983964239],[128.05896386795706,37.08948413365545],[128.05894732037046,37.0892450691778],[128.0590670635798,37.08901491728787],[128.059288810758,37.08887745297804],[128.06062083730612,37.088618297887805],[128.06091998461312,37.088488184354226],[128.06063247812094,37.08674630830609],[128.06169295470914,37.086620031626715],[128.06292342624366,37.08709905380674],[128.06330002071826,37.086956260477],[128.06451426328414,37.08677058368407],[128.0652868432159,37.08625008301056],[128.06682331770728,37.085687578824086],[128.0680025310623,37.08623632684548],[128.06840026523008,37.0861608295182],[128.06904633013207,37.086348912960155],[128.06936903651507,37.08610016474557],[128.06982156415907,37.08592556094609],[128.07022600265918,37.085661369400576],[128.0714134968447,37.085622937736794],[128.07184673612645,37.08569031816759],[128.07273839067742,37.08532258007618],[128.0728788458802,37.08510362522248],[128.07330493231683,37.08487792633883],[128.0733902510312,37.08454599409649],[128.07444523446082,37.08449640381514],[128.07560887169254,37.08420657548905],[128.07637743363776,37.083411093421546],[128.07663542117643,37.08326395029239],[128.07699237784493,37.082817690858214],[128.0777117975814,37.08246503888809],[128.0789449273804,37.08225876315866],[128.08067622998297,37.080475915825104],[128.08089279673482,37.080011722973275],[128.0814470390311,37.07988484937582],[128.08194507460158,37.07944985405472],[128.08238404749315,37.07865789302674],[128.08242415656778,37.07801357687535],[128.0828851095388,37.07773938515735],[128.08389111331425,37.07688894435107],[128.08434151615216,37.076667371425685],[128.08516730208584,37.075961755013665],[128.08520082999792,37.07571180473493],[128.0850573874677,37.07533070576028],[128.08519619714582,37.07494968182765],[128.08409559533186,37.07414824708561],[128.08276676264515,37.073831174202525],[128.0830215849529,37.073139469267545],[128.08303651206023,37.0723402554798],[128.08218431342448,37.07137272417501],[128.08206037584594,37.07084942212412],[128.08300455648802,37.06971147730751],[128.08396387085864,37.068345877959274],[128.0844149911935,37.06704826373574],[128.085236437403,37.06623375252104],[128.0854401325947,37.066133825533896],[128.08577245616254,37.06572518476895],[128.08553474702853,37.06472669079301],[128.08561949783382,37.06414653305129],[128.0854817437096,37.06360135982502],[128.084896661208,37.06310983516442],[128.08470377917263,37.06222296443139],[128.0840498651327,37.06178706421501],[128.08412818267593,37.0608931038605],[128.08368506927002,37.06046234882297],[128.08311335929199,37.06009945225274],[128.08304844657536,37.05983104511647],[128.0827364960922,37.059429329071605],[128.08258133361514,37.059057465351444],[128.08258484970048,37.05878239745596],[128.08285752634168,37.057978335218905],[128.08291199437414,37.05740631949547],[128.08378360089498,37.05616151892241],[128.08366157184776,37.05590920213088],[128.08374166429675,37.05553508768421],[128.0834889583782,37.05466442719462],[128.08328836102308,37.05436050415031],[128.08309605043092,37.054226896119246],[128.08303953682045,37.05385694731085],[128.08197642287232,37.05143850481174],[128.08182940325477,37.050917879325155],[128.08147397590957,37.05052771231174],[128.08114642632484,37.04998080530495],[128.081155708759,37.04901880850137],[128.08075321771886,37.04839197759091],[128.08157087517637,37.04837848925172],[128.0821498718051,37.048231712193534],[128.0827972965252,37.04759721311593],[128.08282041838675,37.046211145558075],[128.0840408680073,37.045213493770795],[128.08435155556538,37.04469456327683],[128.08448646854157,37.04439809127927],[128.084241500902,37.04359677509936],[128.0844804701508,37.04258879827294],[128.0839939880768,37.04221689752671],[128.08350887718234,37.04201324954142],[128.083811611759,37.04066041976088],[128.08351539017212,37.04043992117326],[128.08361983630272,37.039494745820456],[128.08349697140892,37.038953513130835],[128.0838220393831,37.03821601483317],[128.08424227397427,37.03772458114019],[128.0857054320285,37.036917641907635],[128.08650335720588,37.035862590933554],[128.08671707250073,37.03499723953743],[128.08773414610218,37.03339474634067],[128.0884449407824,37.031925629292786],[128.08884083633714,37.031365690477614],[128.08864442517586,37.03077688783222],[128.08810602907673,37.030380914837124],[128.08739494339892,37.03007512918101],[128.08685980550658,37.02893121625106],[128.0861796841153,37.02817867134873],[128.08724278647847,37.02781550393359],[128.0876616515896,37.02741013607866],[128.08790978475392,37.026751360205026],[128.08807082289294,37.02560814925356],[128.0887359133369,37.025345119940106],[128.0889429397411,37.024898692673915],[128.08942053068225,37.02486540971359],[128.09011594558862,37.02439703045251],[128.09025142026726,37.023780378012006],[128.0905069926918,37.02329245901568],[128.08962258215072,37.02305808148854],[128.08885562647805,37.02316034894427],[128.08774250795818,37.02274121253009],[128.08744561056076,37.02216319165778],[128.08657129413842,37.02163678906281],[128.08636757184,37.021582760166176],[128.08636069698613,37.021107143760034],[128.0860971970448,37.02046488626324],[128.08561987775175,37.02001254318604],[128.08629410079766,37.01968402979352],[128.08748504947297,37.019264909691735],[128.08891173364924,37.0179297570586],[128.08878819303138,37.01709735587548],[128.08823277613885,37.01635452710957],[128.0881905570141,37.01603389675155],[128.0876502154991,37.01511542293155],[128.0867828593353,37.01436879478131],[128.0865403379671,37.01305029077266],[128.0866711582524,37.01136016079131],[128.08639731472505,37.010820938494426],[128.08525524754685,37.01035355854939],[128.0842067798458,37.010181389772264],[128.083269254561,37.00957050197304],[128.08238313136587,37.00926921331394],[128.08203603799896,37.00905709170771],[128.08103852608662,37.00876496401518],[128.08032628303755,37.00814382709257],[128.0801475608331,37.00760425633853],[128.079772402089,37.00739898804054],[128.07970662752192,37.006612039029726],[128.07910105693878,37.006310827833964],[128.07854253279172,37.006358020975064],[128.07833167715958,37.0062710655022],[128.07743358631433,37.00630500692468],[128.07720380208477,37.005956707194876],[128.07660360912018,37.00559926370637],[128.07651117461705,37.00536890532403],[128.07651334142508,37.00452153842306],[128.0761760082898,37.00345800028199],[128.07640748259448,37.00287654849913],[128.07645229112057,37.00207267367571],[128.07726120697555,37.001365379901785],[128.0785395310166,37.000854263190924],[128.07861953828848,37.00038345108452],[128.07902707703914,36.999452583167425],[128.07888834723028,36.99818475624377],[128.07906085096357,36.99701047042168],[128.0788339699681,36.996768558534036],[128.07878004184747,36.99637770334544],[128.07954286946256,36.996147401322254],[128.07957087784177,36.99540613883622],[128.08006654875038,36.99537082080879],[128.08082473487445,36.99551810473854],[128.08275375093308,36.995164195309464],[128.08401792573608,36.99542864756685],[128.0846854512553,36.994999884339514],[128.08472429297063,36.993860039356335],[128.08461504134286,36.99302670882126],[128.0848732341774,36.99277137943615],[128.08511505295934,36.99171449475013],[128.08517908360125,36.990778071653125],[128.08497132331215,36.99041270709664],[128.08516079187123,36.98984344422097],[128.085412116955,36.98940519470323],[128.08612117608922,36.98923262154],[128.08684949917776,36.98920893570291],[128.0876818212044,36.989054237566314],[128.08935886831793,36.98898146729548],[128.0895524381421,36.9872572521638],[128.0901124911125,36.98563853231052],[128.0907979459783,36.98565095571015],[128.09095972901207,36.9839345127691],[128.0911520676857,36.98320532421698],[128.09029200947188,36.98008939647696],[128.09087947753497,36.98008474506706],[128.09086072826125,36.97948723539307],[128.0901593416765,36.979526799433316],[128.08987087313622,36.97823242514468],[128.08889983583072,36.97833480612082],[128.08833489895193,36.97716368878697],[128.08952593280077,36.977012002596375],[128.08898852949704,36.97569290910778],[128.08779688861597,36.975682068030686],[128.08753607667495,36.974550368844916],[128.0888392750859,36.97443605420969],[128.0883939865177,36.973541784285906],[128.08783355685742,36.97206908082013],[128.08673238857423,36.96807609495858],[128.08673886369925,36.967300585744304],[128.0869577060325,36.96730607375878],[128.08757627713547,36.96228265544733],[128.08778484255882,36.96129066249468],[128.08814821478845,36.95603188866822],[128.0883851898859,36.95408688405217],[128.08838379288662,36.953302841148506],[128.08814910840823,36.95228446601918],[128.08755646966765,36.950476295421225],[128.0853621512868,36.94820394941632],[128.08559865977412,36.94754290575352],[128.08519888468362,36.94739775814398],[128.0839123281212,36.947233654268466],[128.08360019664815,36.94729296712602],[128.0835488029172,36.94847717530701],[128.0825105628109,36.94853343993568],[128.08164956647335,36.948693451983154],[128.0795895411901,36.94937230596873],[128.07962968223237,36.94946036982209],[128.0773710096028,36.95001392646659],[128.075227567138,36.95038262282157],[128.0739688512707,36.95108841103265],[128.07135154370596,36.952814849460694],[128.06936883232797,36.95395246028398],[128.0687228615385,36.954444188983],[128.06768790085522,36.95489468929222],[128.06685952293154,36.95538323407267],[128.06606997108966,36.956155683190175],[128.06549500973614,36.957011463583726],[128.0652905257221,36.95752833873133],[128.06461498001238,36.95821536675039],[128.06397894727974,36.95867167873766],[128.06305476181436,36.959205970751924],[128.0608083352597,36.95970129344063],[128.05948965796037,36.95978883631353],[128.05819264527733,36.959759342709305],[128.0564000943328,36.959298730681745],[128.0552526343249,36.95894335020299],[128.05417910192156,36.95850487604021],[128.05227133106428,36.95740788955654],[128.05185426240908,36.95699366898382],[128.0490024451751,36.955935745359156],[128.0462642659811,36.95508534694804],[128.04408091130549,36.954775900897694],[128.04249722567369,36.954697985721516],[128.04249097908715,36.95372511497775],[128.04279152710131,36.952116861097764],[128.04291673377065,36.95211799876764],[128.04297861735375,36.95149976408643],[128.04300087637498,36.95114154851894],[128.04286092467078,36.95114333409633],[128.0428620319911,36.950964793612975],[128.04314757115907,36.95095906281017],[128.04314139791572,36.94963752168649],[128.04281047406204,36.94873357134323],[128.04247620805788,36.94884728648095],[128.04188174915922,36.94873425023712],[128.04217998753847,36.94769182548332],[128.04202769435025,36.945822346833516],[128.0422611067191,36.943840439780736],[128.0427353000824,36.94222513634041],[128.0427637257494,36.94156957627402],[128.04237985368758,36.941556309275214],[128.04249138867857,36.94152503910263],[128.0425879062754,36.940247261312635],[128.04279626501204,36.939752131294945],[128.04312868727737,36.93926750058625],[128.04368276266726,36.93875891189761],[128.0449753203061,36.938075007015414],[128.04532902324974,36.937773679625465],[128.0456686792071,36.93741622348641],[128.04640287861505,36.936338002151295],[128.0465193554948,36.936439939370345],[128.04817998835486,36.935529283070856],[128.04949734956693,36.93514234752132],[128.050099535942,36.93505538701687],[128.0511816977579,36.934640567625735],[128.05314136860278,36.93437704719707],[128.05589224368342,36.93348528734134],[128.05754938935956,36.932629377349485],[128.05798119446143,36.93227769766424],[128.05910499188644,36.93124953671541],[128.0601634094632,36.92992129507549],[128.06028492994616,36.929631139223915],[128.06083887538927,36.927629911479656],[128.06106212680393,36.92619841570469],[128.0610301915818,36.923128437962525],[128.06144948577304,36.92141090967341],[128.06243360631876,36.91994247056126],[128.0636291318757,36.91901533377813],[128.06541647253047,36.91808683347471],[128.066888445485,36.91710962111149],[128.06782205520054,36.916754901954214],[128.068898610484,36.916029264657254],[128.07085231606231,36.91501767774998],[128.07206719600373,36.914013183154076],[128.07235359440108,36.91355468889715],[128.0724869180412,36.913108866804784],[128.0721706073395,36.91172726240949],[128.07216131529262,36.91109790376957],[128.0719477787356,36.91112646119715],[128.07181544235922,36.91141246651397],[128.07184076346994,36.91099772913879],[128.0706197696383,36.9113237938401],[128.06997541767865,36.91120428074725],[128.06786873624193,36.91005035806968],[128.06687853880425,36.90924606422909],[128.06726412175178,36.90847993501596],[128.06751917258956,36.907411421917494],[128.06765707189606,36.90722532422793],[128.06770881284598,36.90678622939153],[128.06811388503814,36.905880287318745],[128.06823551205372,36.90534624501352],[128.0686779692527,36.9047805860936],[128.0677642779468,36.904140324522594],[128.06721892485052,36.90343811106101],[128.06715551619084,36.9028447471506],[128.06728922115894,36.902462396294965],[128.06682660054176,36.90156701069924],[128.06704761710114,36.901122823465556],[128.06723534449515,36.90038990302988],[128.06684327613365,36.89984263867925],[128.06762785200885,36.898675599674476],[128.06712095578888,36.89768961622372],[128.06683605555222,36.89733301417814],[128.06642136685417,36.89711032616378],[128.06574512409125,36.8963274994451],[128.0660301473177,36.89568793235484],[128.06616813977377,36.89483451101799],[128.06668050585674,36.893643763539416],[128.06565328580638,36.89251248349635],[128.0648318155025,36.89186275742231],[128.0630231090475,36.89070047322477],[128.06263197292165,36.89023409879114],[128.06220345093365,36.8900742388044],[128.06146973313315,36.88927575321648],[128.0604788460503,36.88862930104535],[128.06031329233465,36.88821779924963],[128.05969107538223,36.887714320696496],[128.05917279200304,36.887075484138485],[128.06048850987602,36.88672035841307],[128.06098082766343,36.88627583442332],[128.0610268909937,36.88550663932323],[128.06079652257094,36.88480319982931],[128.0599494785766,36.88425180645194],[128.0588237988074,36.88373699486442],[128.05820426228843,36.883322804596276],[128.05694972460878,36.88311816214262],[128.05568106881555,36.88244505520487],[128.05558866697993,36.881489537576726],[128.05525260076084,36.88066037155445],[128.05538168365223,36.880317871213634],[128.0551428051903,36.87992564538478],[128.0543852043355,36.879638948714316],[128.05326907849718,36.87851352704174],[128.0527230523554,36.87668163655737],[128.05284291151827,36.87625995589735],[128.05252898566602,36.875431799663204],[128.05198554710006,36.87482084038363],[128.05174072675445,36.873755223493724],[128.05106758944618,36.87204650921367],[128.0504731868747,36.87168079405528],[128.04860760625317,36.8713141057671],[128.04791133392084,36.8712436890387],[128.04564638455733,36.870439809587054],[128.04501235465654,36.86909007313651],[128.04512414604707,36.8684195954501],[128.04493330731097,36.86691394669211],[128.04436905098893,36.86595480145454],[128.04362035697648,36.86508293458452],[128.04450948534964,36.86350915431261],[128.0440705560083,36.862510025804255],[128.04259895529856,36.86111530244767],[128.0397663688803,36.86014573575362],[128.03858441746954,36.85982712317619],[128.0380054563581,36.85896094626094],[128.0369834376756,36.85794400485293],[128.03589989784004,36.85595393400695],[128.03600153030618,36.85567279642266],[128.0358650430822,36.85514289722084],[128.03657136277022,36.854152791146234],[128.0366620522281,36.853342275661895],[128.0369667495438,36.85209311581453],[128.03771020333636,36.852270448045616],[128.03835206213412,36.85219571771858],[128.03846887345892,36.85192708083441],[128.0389657479649,36.851639594496206],[128.03940244247784,36.85122211812776],[128.03975519963083,36.85106717322858],[128.03987651731688,36.85081788943023],[128.04129521222475,36.85123466873972],[128.04213881034673,36.85109531595627],[128.04338817420313,36.85013361925772],[128.04336227050638,36.84927274509345],[128.04693941985937,36.848363267929145],[128.04721715684852,36.847912598499654],[128.0494813980126,36.84706626603001],[128.05152115642775,36.84611663838216],[128.0528619559047,36.84602070481132],[128.05530791142237,36.84456329471981],[128.0567173954049,36.84423087348963],[128.05708328248468,36.84393157488863],[128.058365447331,36.8438457466848],[128.0584405642972,36.841503050191164],[128.05876561793713,36.84114757467831],[128.05892627103614,36.84066698039604],[128.0590218900441,36.839609058154046],[128.05934971722135,36.83951499444986],[128.0597547815176,36.83907689902897],[128.06048021771392,36.8388637369486],[128.06089615548922,36.83847619226255],[128.06275761693652,36.838169379854016],[128.0639296122556,36.8404330798923],[128.06423721538542,36.84085409439273],[128.06624294427658,36.842857316781995],[128.06679222429221,36.843748816621314],[128.06697438190022,36.84422688700897],[128.06880583157206,36.845800886713455],[128.06954490202668,36.84602568818376],[128.0698166670318,36.846273861367706],[128.07047248536745,36.84632295527067],[128.0720581955428,36.84663608587834],[128.07472602811154,36.84787330291575],[128.07536750743728,36.84778967392719],[128.07621839227403,36.84795634637466],[128.0771437662974,36.84824744465101],[128.0773294824556,36.84820151706965],[128.07778577890852,36.848871842699346],[128.07850349228906,36.849071327762985],[128.0790847062792,36.8493389003648],[128.08063010623317,36.84978776576019],[128.0817243861253,36.849950370835856],[128.08240775772813,36.849721883293505],[128.0838728510399,36.84997152634831],[128.0853867231461,36.85068349860321],[128.086898942653,36.851780006409776],[128.08710332882245,36.85181240223462],[128.08752483359066,36.8513643992577],[128.08920296156452,36.85000393569452],[128.09031308532258,36.84965543183229],[128.09095598462207,36.84955785277028],[128.09144494779002,36.84921529042182],[128.0917911717381,36.84662403419501],[128.09214069693067,36.84569926558803],[128.09284878796686,36.845132957640665],[128.09292519656293,36.8449086782122],[128.09279962649015,36.844025504644506],[128.09306295093438,36.843500926632736],[128.09370115044788,36.84273203242741],[128.09370943990038,36.84178450778256],[128.09422672196467,36.840158109144916],[128.09441635951558,36.83867317642707],[128.09462029154835,36.838249738089175],[128.09459173268047,36.83783847722647],[128.09438725852365,36.83728970564613],[128.09402367403462,36.83703807635128],[128.09397370424756,36.83681522876106],[128.0945108245136,36.83631446726821],[128.09458769338372,36.83563151439947],[128.09477947227597,36.835283537626964],[128.09580329524644,36.83491433737778],[128.09615916188346,36.83486220365442],[128.0969617156469,36.83450142977638],[128.0970620689377,36.833735375698225],[128.09750112274867,36.83350709698499],[128.09881546255326,36.83372662147366],[128.09955192472725,36.833404795721044],[128.10060851000048,36.83330377262029],[128.10203529992904,36.832326428426086],[128.10431280181686,36.83197307700266],[128.10619172778087,36.83135119201417],[128.1067568632304,36.830944044015204],[128.10726685464658,36.830782896120176],[128.10783747101132,36.83081904121775],[128.10946297452045,36.83065977145481],[128.10988618947383,36.830800264539235],[128.11055106096987,36.83078746262244],[128.11294178490417,36.830528972896495],[128.11502540930024,36.83153811887061],[128.1165240254816,36.831837807132686],[128.11819417886545,36.831669937257765],[128.12137174363951,36.83244797991575],[128.12170760784915,36.83262912720945],[128.12301255521754,36.83275625229273],[128.12652620648205,36.833795318217284],[128.1280906304667,36.83309996022345],[128.12951219928925,36.831834278452774],[128.13056485605654,36.8317255623246],[128.1340908167332,36.83169151762939],[128.1349400355762,36.83221906354079],[128.13520857899132,36.83311659920414],[128.1349173123421,36.834233944127696],[128.1354687298255,36.8347603823443],[128.13732390416712,36.83499776813437],[128.1393699086944,36.8347887327839],[128.14048787245594,36.83449831080347],[128.1404953981856,36.833826682957394],[128.14023013107922,36.83263066476337],[128.14079160119596,36.832261568242025],[128.1420032414895,36.83189717319909],[128.14577353525857,36.83210769227336],[128.1464665369724,36.831481570773626],[128.14676593494283,36.82961793568111],[128.14705206194296,36.828948296128665],[128.1481699019348,36.82865780098154],[128.15049680862447,36.828226693831176],[128.1508807163895,36.82710996014927],[128.15125880844303,36.82651561279262],[128.15191142334263,36.82629637824677],[128.15293964090293,36.825706660656124],[128.15518096159437,36.824603167895674],[128.15678194777107,36.822599497424555],[128.1584569067243,36.82231284503151],[128.15920230627333,36.82209424482645],[128.1605188255822,36.82061092208178],[128.16350118939343,36.819661772785466],[128.16415208936894,36.81959172176034],[128.16554264980235,36.81982540821755],[128.16915318083454,36.820895578248845],[128.1758535500758,36.82449217735409],[128.1865814871772,36.82275486697098],[128.19126211117492,36.81954346949558],[128.1930449408596,36.81976077686284],[128.19365041327566,36.81952306907722],[128.19938618298335,36.81840523063108],[128.20404214617267,36.8178283642471],[128.21093376036455,36.81619594258516],[128.21419928985407,36.81576809626526],[128.21627771342384,36.82310571227786],[128.21608337123183,36.82338060538216],[128.21625592538246,36.824205749270554],[128.21619575269457,36.82467010499715],[128.21632639285727,36.8264094202229],[128.2161720658942,36.82797566872926],[128.21560866563814,36.829557068283556],[128.21560166003795,36.830630862227046],[128.2152956972888,36.831163447534735],[128.21526525790708,36.8329011583667],[128.21556757447664,36.83439727678202],[128.21499243424913,36.83520717705557],[128.21468003671197,36.836153170790006],[128.21431839389348,36.83658517534234],[128.21405870968212,36.83716901840679],[128.2132912062643,36.83796803295419],[128.21271926874647,36.838948282698375],[128.21299741319382,36.84112231071543],[128.21295902524295,36.84145396976743],[128.213443883955,36.842625495202796],[128.21353658752582,36.843066873235486],[128.21408068819812,36.84387756139368],[128.21428723764046,36.8449377795007],[128.21408532804827,36.84594254782276],[128.2141530838024,36.84660934552611],[128.21395053351824,36.847890705281166],[128.21438234300595,36.848595763460935],[128.21433100265654,36.84893983576106],[128.2141225160578,36.84936799345041],[128.21654722492138,36.84910305994439],[128.2185624577819,36.84810625763382],[128.21907978402027,36.84814851178442],[128.2205406475878,36.84775149514227],[128.2213836511487,36.847684654067635],[128.22304195114447,36.84764717067919],[128.2245311277727,36.848635613542584],[128.22504137678058,36.84874098873558],[128.22731013074454,36.84788520440759],[128.22937810022214,36.847588953540374],[128.23074931089062,36.847857454458705],[128.23207932424012,36.84779105661092],[128.2324484499041,36.847905886834546],[128.23508520067938,36.84806538019474],[128.236513999332,36.84848195424472],[128.23676414902644,36.850242671826756],[128.23692808811327,36.85061224038863],[128.2373388701278,36.851155444691344],[128.23614915469906,36.85197726092234],[128.2349523647616,36.85307778690863],[128.2343422064222,36.854611041073944],[128.23419326662378,36.854815491877524],[128.23398934510706,36.85614616573479],[128.2344123850742,36.85643258803936],[128.23427814307018,36.85781600945067],[128.2349781074938,36.85838031389196],[128.23521889861973,36.85904268913996],[128.23503536234915,36.85949083202393],[128.23512466631152,36.86113375315359],[128.23458568354764,36.862223293726196],[128.23443485630975,36.86300105416358],[128.2357765397769,36.863481404686176],[128.23700360291403,36.8646028706713],[128.23918620088682,36.86523344384398],[128.23921279839672,36.866989180405135],[128.2390517674816,36.86762798809809],[128.23949298613013,36.868380862801054],[128.23963674099838,36.86898145072832],[128.24091852527386,36.86950959463864],[128.2408754151813,36.87012733366953],[128.2404563548138,36.871072709656914],[128.2402351511809,36.871973429439066],[128.241840851291,36.872328743436384],[128.24210667302657,36.87277216582553],[128.24283004298175,36.87344816234812],[128.24262040858412,36.87482982974515],[128.242701658001,36.87587932084394],[128.2425099480595,36.878017242438844],[128.2426822763162,36.87817508316958],[128.2430988584996,36.879060776005375],[128.24404985583303,36.88032637483638],[128.24480329284893,36.88095592865737],[128.24569183243523,36.880990812014886],[128.2465251717459,36.881581962221475],[128.24708302921175,36.8820790093975],[128.24760685075563,36.883140679788795],[128.24822023893526,36.88323968868642],[128.24906060699078,36.88364454003641],[128.25013666796556,36.88445631802349],[128.2509263324193,36.88474933167076],[128.2506186806247,36.88511435870632],[128.24968153356164,36.885679096444186],[128.24947408659813,36.886057545306066],[128.24870886826764,36.88660650281487],[128.2482898309194,36.887502822152044],[128.24724056700936,36.888489392318824],[128.246520688248,36.88856542196508],[128.24429092941182,36.890258488173025],[128.24377303026895,36.890934406827824],[128.24370062741693,36.891861180496356],[128.24350261377862,36.89259535187443],[128.24384368303078,36.89372409435129],[128.243924388226,36.8948263538057],[128.2442652661894,36.89531033634949],[128.24378924799123,36.896238561556586],[128.2445115866723,36.89794303619468],[128.24515970557212,36.89855292205778],[128.24514161915417,36.89955200060263],[128.24524631284163,36.90009942920965],[128.24507893411337,36.9003630846166],[128.24586589502007,36.902380273479395],[128.24571164535556,36.90279955596165],[128.24585816503026,36.903509938794635],[128.24628747501578,36.904315565974656],[128.2462130720963,36.90443552226667],[128.24623192170728,36.904963617393484],[128.24617276257834,36.905229969345385],[128.2458916629231,36.90559796896819],[128.24598510829657,36.90630349943056],[128.24584472261418,36.90682968348733],[128.24560696352594,36.90697391373255],[128.2456259118257,36.90706092397419],[128.2454457875427,36.90710647437463],[128.2452318066546,36.907046617473554],[128.24523670993457,36.90723000813605],[128.24504390842145,36.90717627760944],[128.24382152896072,36.90760583976757],[128.2433336531862,36.908426270118326],[128.24319334647973,36.90846400492654],[128.24263070761816,36.90970640671992],[128.24224783949867,36.91093931098238],[128.24224687103631,36.911644205099776],[128.2418372785053,36.9120438673487],[128.24036817176716,36.912856739188975],[128.24001358512578,36.913392961370356],[128.23942520367234,36.91335619847943],[128.23832302304768,36.913787869455824],[128.23794858245017,36.9137890268993],[128.2366795654466,36.9166552929623],[128.23704530886465,36.918800410768306],[128.23682178821753,36.919293204448],[128.2368675052994,36.91996913988175],[128.23677461366574,36.92053931790175],[128.23725785624936,36.92160402041816],[128.23721033536754,36.92239637014728],[128.23645874365081,36.923294603855894],[128.23652037342075,36.92492053325316],[128.23636677109144,36.92498150302784],[128.23600900757882,36.92537643078328],[128.2365837382528,36.92720448861837],[128.23647959765242,36.92798864379139],[128.23621053620326,36.92884898620186],[128.2362150254449,36.929621809044285],[128.23608722848712,36.93052072378114],[128.23618116013273,36.93074590181824],[128.2361277854812,36.931865453986184],[128.236509682465,36.932508561638635],[128.23647404707816,36.933143118716465],[128.23629566348254,36.933594723565825],[128.23663555512206,36.93398489132109],[128.2370901309518,36.93406761970381],[128.23726435917882,36.93427253356839],[128.23758770776115,36.934432170735434],[128.23873308738874,36.93479316990543],[128.2386968991796,36.93564633247559],[128.23927509882625,36.93583589186281],[128.23971831231754,36.93583325123729],[128.24066719529463,36.936019192865345],[128.24146672901355,36.937576295500186],[128.24215618770813,36.937631274487835],[128.24279827999158,36.936967766963136],[128.2432458651522,36.93697442282461],[128.24384365340345,36.936804782741014],[128.24451034431436,36.9367709554795],[128.2451593029735,36.93708608599968],[128.24522113186177,36.93725774521021],[128.2455653259076,36.937469269250386],[128.24703918744052,36.93785676545016],[128.24734617085247,36.939198989178784],[128.24648112022012,36.940100412883616],[128.2454445456566,36.94062272323226],[128.24548441894933,36.9410200777583],[128.24484553863857,36.941861833541694],[128.24567836261622,36.942287456793025],[128.24624095161312,36.94245943875047],[128.2465718898482,36.94284451138697],[128.24752736001702,36.94475346477868],[128.24835466435619,36.94446809989437],[128.24931450619272,36.943979204768965],[128.25000148535784,36.94332900182755],[128.25104447265693,36.94207316010437],[128.25193908596356,36.94254928648004],[128.2520627051064,36.94283616803169],[128.25236754343734,36.942733448333485],[128.25287604970646,36.94269451831779],[128.25291203894758,36.94280780361775],[128.25302706599604,36.94280935853854],[128.2532283125968,36.94297679211779],[128.25370015038195,36.94309789119558],[128.2538061222193,36.943064613889426],[128.2540524259311,36.94319611571703],[128.25439251276137,36.94354878384633],[128.25510095809403,36.94396002260917],[128.25581696967132,36.94398863864349],[128.25615173679137,36.94453434775415],[128.25646086515457,36.94480748811232],[128.25658679127784,36.94504346075945],[128.25682281331703,36.94511558920916],[128.25692152623583,36.94529791236655],[128.2566428862367,36.94521314358727],[128.25718218860757,36.94551157509445],[128.25724213688935,36.945808520257266],[128.2574186548278,36.94596075471004],[128.25753233622825,36.94632635055694],[128.2578886407734,36.94651162490451],[128.25805866706042,36.94682879820573],[128.25805695748397,36.947243385299814],[128.25867608037754,36.94765551129968],[128.2591008951438,36.948148061336894],[128.25985741514938,36.948776411766744],[128.2604660074905,36.94897366439999],[128.26112536818985,36.94930389895703],[128.26160751336656,36.94912420168291],[128.26223170855488,36.949239837997474],[128.26249554568827,36.94917174500564],[128.26241364898584,36.949040939925716],[128.26264406805404,36.94896474457345],[128.26300137221392,36.94901580312128],[128.26275221562338,36.949212341214235],[128.26295206092678,36.94923318568955],[128.26352879205496,36.94949023689485],[128.2635378729679,36.94959571412017],[128.26458277776746,36.950888805304814],[128.26474040463756,36.95170236563356],[128.2644216493633,36.95203679966346],[128.26449815979106,36.952302724101294],[128.26327956429395,36.9527715965723],[128.26280357893057,36.95311291409393],[128.26157739262823,36.953307057315406],[128.26093652000588,36.95418563904765],[128.2596579856605,36.95484879349424],[128.26040747916136,36.95563534338578],[128.26188699575837,36.956284855445645],[128.2626990918949,36.957351503919504],[128.2655264862837,36.959967644491456],[128.26659182455163,36.9607836240544],[128.26569438169327,36.96109668209951],[128.2651233954238,36.9614423819932],[128.26454626493293,36.96194590437539],[128.26446462858718,36.962557241862164],[128.26392535998548,36.96322136069818],[128.2638893016171,36.96354207492272],[128.26328042305198,36.96388682524679],[128.26305151370823,36.96416800727519],[128.2619761726921,36.96466185269348],[128.26194150999575,36.96485521828969],[128.2626107206589,36.96601000601669],[128.2623013474477,36.96682821932966],[128.261590600135,36.96767358530505],[128.26074277695753,36.96798046636216],[128.26001101642848,36.96845768547867],[128.26008427552244,36.96900877357767],[128.2603566773602,36.969502187812125],[128.26028129875237,36.969851509543936],[128.26046968064992,36.97085438270015],[128.26028735293795,36.97136739947177],[128.26029176161927,36.97183072899744],[128.26003505786397,36.97240301252353],[128.25999491297728,36.97275495326387],[128.25938194109324,36.973002570361324],[128.25977446176168,36.974312829330074],[128.25971893789603,36.975240202586576],[128.25989110118664,36.97575631113585],[128.25950795819426,36.97776968929301],[128.2592217803815,36.978438023841946],[128.25934724200036,36.97863963080915],[128.25855003270684,36.981123181744245],[128.2579739981854,36.98148426475982],[128.25701829392153,36.9847327151431],[128.2564881268304,36.984837387792524],[128.2564203765488,36.985399950713614],[128.25607568838944,36.98582435160663],[128.25607571248077,36.98617398287317],[128.25583661532082,36.98649892170027],[128.25628160754292,36.986750241966035],[128.25652164591554,36.98713750162493],[128.25710754087694,36.98754620694365],[128.2575778005323,36.98844687950723],[128.2574380017261,36.98943832519539],[128.25749712117096,36.98976044630677],[128.25793109783882,36.990274658183274],[128.25805669140965,36.99073517895607],[128.25777308697207,36.99157372964975],[128.25809514551327,36.99181688354077],[128.25851054056315,36.993325336023],[128.25803081068656,36.9941733268259],[128.25676939765376,36.995753046144316],[128.25485527896444,36.99644504344865],[128.2546157995838,36.99646546899937],[128.25390821871204,36.997482243899306],[128.25425300550975,36.99784807683245],[128.25492207554092,36.99778593401595],[128.25600303231712,36.99803044782914],[128.25713232157835,36.998931487507726],[128.25760206988767,37.00015229366178],[128.2574992885223,37.000709335538],[128.25699374288448,37.001198214044656],[128.2570631593748,37.001800160200254],[128.25687351727774,37.00203369105603],[128.25732409074408,37.0023500010064],[128.25699979256964,37.00259486027272],[128.25677642781167,37.00307253406472],[128.25658208156335,37.0041142612063],[128.25582919915692,37.00474894911884],[128.25606653650425,37.00554193673927],[128.25508414889885,37.00694716978563],[128.2552417502355,37.00714144885387],[128.2549715443247,37.007479444563856],[128.25401921303813,37.00782350422052],[128.25408933705992,37.00800608481903],[128.2545028482871,37.00829563939955],[128.25383305065736,37.00923743366465],[128.2539694861271,37.009370701865755],[128.25288348194658,37.00971593870408],[128.25233425629247,37.010068440541964],[128.25205820234177,37.01045614568662],[128.2510535320137,37.010614115878475],[128.2505628910319,37.0113275170051],[128.2505413502458,37.011705670806435],[128.24971377063,37.01208667829338],[128.2488855205998,37.01263206714483],[128.24837571106332,37.01324350155106],[128.24832891335717,37.01439739186655],[128.24709103018037,37.01507393253843],[128.24628969923592,37.01636469046977],[128.24589441405425,37.01673821598699],[128.24564695030412,37.01749629435821],[128.24570725777335,37.01828473460322],[128.2450854100744,37.01886840439204],[128.2447877357244,37.01934155644397],[128.24437924298465,37.01968434562831],[128.24452428065774,37.019989712636466],[128.24390443888814,37.02108354675377],[128.24345442364577,37.02109154830865],[128.243352343838,37.02152059603163],[128.2425314631341,37.02190357577408],[128.2417204204001,37.02254586254736],[128.2409892812154,37.023257968118095],[128.2409338164294,37.023452382638744],[128.2404017558738,37.02412261622946],[128.23991405303528,37.024118706491755],[128.23890090032424,37.024709347817684],[128.23849256085114,37.025088509604444],[128.23747544452203,37.02524533241245],[128.2363212246638,37.024981234452525],[128.23456666057425,37.02486320229958],[128.23275973289591,37.02517522792087],[128.23166179171767,37.02493178152975],[128.2305626062165,37.024589135053205],[128.23032616454347,37.02463523055344],[128.22928368891718,37.02451652681956],[128.22873286875014,37.02463377981299],[128.22804632630195,37.02448428220782],[128.22765387417448,37.02484421201559],[128.22659839985883,37.025338444613716],[128.22656265007944,37.0261339313621],[128.2250523429847,37.027212477437004],[128.22526647941504,37.02807762421272],[128.2248133192079,37.02860286529241],[128.22442939918804,37.02934930378365],[128.22433502813777,37.03010663422403],[128.2240741680569,37.03056371214766],[128.22402762216882,37.031288913170435],[128.22440565542604,37.03258827887787],[128.22477924600665,37.033183107543316],[128.22465781756262,37.033863065780395],[128.2243838171426,37.03429890857649],[128.2237411777965,37.03477602134967],[128.2219223572768,37.03570015402058],[128.22165776801845,37.03598029805976],[128.22098463246385,37.036102034319335],[128.22017540721004,37.03641110701269],[128.21943467582523,37.03649695729529],[128.2181168220208,37.03710811274027],[128.21807378291717,37.03726205863052],[128.217067124223,37.037386949975286],[128.2170631259635,37.0376705944015],[128.2177021105663,37.0380608974184],[128.21769616679381,37.0385444861968],[128.21807262181585,37.0390503843319],[128.218174786024,37.039527811044856],[128.21881225400725,37.04012878005334],[128.21916053229734,37.04082668122036],[128.2198759880699,37.04164769058607],[128.22076990748937,37.04201971723032],[128.22030213775352,37.0425632747206],[128.21931345460996,37.044477556844726],[128.21891495301466,37.04582879506462],[128.2193636420027,37.04631794392832],[128.21997399222045,37.0463412668728],[128.22030100926105,37.04698993397398],[128.22006944288285,37.04769393130974],[128.22014295230133,37.04872215844627],[128.22065439066415,37.04945166045541],[128.22107223415776,37.04959382576964],[128.2209785956247,37.05008417185214],[128.22000401023368,37.05095349901814],[128.21881439078825,37.05180524924365],[128.2189579451371,37.05317277381601],[128.21862010380363,37.05330647160834],[128.21814723420664,37.0540447457266],[128.21781319301294,37.05437325459804],[128.21860463989412,37.05482502251732],[128.21896872447064,37.05490708977294],[128.2196133631551,37.05490994169715],[128.22128280236836,37.05561658008652],[128.22190087161596,37.05614452083772],[128.22180508499267,37.05680463992251],[128.22192527359059,37.0572735328916],[128.22225817856392,37.05781958084292],[128.2233712349227,37.05832914682824],[128.22427559669646,37.05839992790166],[128.2249957694898,37.05877525111766],[128.22478917457218,37.060359555171324],[128.225192586991,37.0610549118794],[128.2252433176352,37.06209173762217],[128.2253513521298,37.06233471651287],[128.22800635004035,37.06290127492758],[128.2286410142405,37.062899197134946],[128.22995062514974,37.06330698890149],[128.23056523750535,37.06321790080971],[128.2309545535596,37.063769212490854],[128.23155924264333,37.063841015001366],[128.23177031462032,37.06394436890462],[128.23213141300207,37.06429889106601],[128.2327577206105,37.064555316580396],[128.2332073106987,37.06495571416138],[128.23343106357095,37.06494117204202],[128.2339165161222,37.065066415181626],[128.23467727335907,37.065031892390934],[128.23540770382377,37.06489384072475],[128.23673154545676,37.06546620384467],[128.2369040125644,37.06595738480393],[128.23760880217782,37.06707885181596],[128.23820400863846,37.06716309707526],[128.23843233354145,37.0678312375021],[128.23859751036352,37.06990492193993],[128.23853485843566,37.070186653450726],[128.23823581345204,37.070562689247545],[128.23818447852108,37.07126315491451],[128.23868490992712,37.07234830788151],[128.23933057429207,37.072859684851046],[128.2393575470102,37.07364468635997],[128.24076448781886,37.07423761289182],[128.24126290241105,37.07459245459872],[128.2421186882197,37.074849835388726],[128.24280129904946,37.07546319624057],[128.24415806379068,37.07627496757205],[128.245817371275,37.07657002203577],[128.2468476509099,37.076924402140776],[128.2477156932038,37.07644933062547],[128.2492525797016,37.075076779632205],[128.25085707735144,37.07611221716452],[128.25096908611786,37.077997283635284],[128.25161224898088,37.0785859782637],[128.2520889823508,37.07925563386112],[128.25278241912716,37.07978001025324],[128.2540997750056,37.08023794303039],[128.2551029926315,37.0815544498484],[128.25521443572714,37.082028296893746],[128.256307876865,37.08258730184972],[128.25713929518727,37.082789364996636],[128.2582829099821,37.08280717615901],[128.25840215048376,37.082633698393344],[128.25969185968373,37.08254048793212],[128.2601435311805,37.08259665047371],[128.2604640734832,37.08195140444703],[128.261507883984,37.08214096951891],[128.26176441346846,37.08266297097724],[128.26230097684854,37.08278805783455],[128.26349735433604,37.083719413755105],[128.26402928109368,37.08389716750799],[128.26432260084226,37.08391013718023],[128.26509800832298,37.08430541740465],[128.2654983352696,37.0848371129553],[128.266258857356,37.08489129236637],[128.26680070907895,37.085772943648706],[128.26761268953774,37.086303545970175],[128.268132822977,37.08718011766819],[128.26879983888514,37.087529778957645],[128.2691136315625,37.08758333045513],[128.26960802028978,37.08752941711012],[128.26959028533537,37.08807889572799],[128.26992700000417,37.0882369505682],[128.2698776147945,37.088349712710226],[128.26909035680706,37.088672816666744],[128.26896696358742,37.08866730069289],[128.26894415341127,37.088475909499074],[128.2685615983718,37.088524929967754],[128.26813404304923,37.08841100666725],[128.26754596458292,37.08807164591039],[128.26731136717456,37.08764198307652],[128.26692309774864,37.087431996877484],[128.26662818998514,37.087861514228045],[128.2659402193439,37.08837099927437],[128.26538012313333,37.08832350298686],[128.26496021190195,37.0880482066054],[128.26457093763526,37.08804040667897],[128.2643594481423,37.088159789484635],[128.26473258762377,37.08879062614967],[128.2645015210453,37.08914217031091],[128.2639683332089,37.089630363425314],[128.26294480265219,37.09029603027275],[128.26233315767624,37.09029393067885],[128.26200629349748,37.09181803582727],[128.2616524655305,37.09205155950414],[128.26121536232856,37.093662943052365],[128.2613194589928,37.09511557495057],[128.2615278300874,37.09565524225334],[128.2605586495402,37.097139448964526],[128.2596115559453,37.0991309012826],[128.25845703973468,37.09947442773358],[128.25636983768894,37.10023974353778],[128.2563669378437,37.10146051998192],[128.25784456170751,37.102376700051444],[128.258110968654,37.102910265241256],[128.2591080632795,37.10412934308723],[128.2600452102959,37.10431251125347],[128.26058860042133,37.10482862836263],[128.26172122772226,37.106235371725816],[128.2622506069946,37.10669998444478],[128.26320053849201,37.107073002731184],[128.26312641790605,37.10729548316493],[128.26287226732347,37.107472485141585],[128.2627773043834,37.107704079242076],[128.2628442517255,37.10790296621488],[128.26266098352863,37.10806906798841],[128.26323907105655,37.10861448283395],[128.26384894947344,37.10792521297961],[128.2640090626028,37.107917732715144],[128.26446093843197,37.108351427963655],[128.26556547451523,37.1078675691969],[128.26592672494235,37.10832261410131],[128.26671932600044,37.10852590139011],[128.2669233841313,37.10866742447544],[128.26637013489895,37.10968927665301],[128.266398646487,37.110009547823694],[128.26731274467238,37.1113274400616],[128.2671781512969,37.11165678529791],[128.26711360052707,37.112867588918284],[128.26723429946884,37.113040931136595],[128.2673523232073,37.113583315220325],[128.2685309703037,37.11355966919746],[128.26932581428312,37.113020683246596],[128.2701853877631,37.11275476632513],[128.27022624032583,37.113034034247356],[128.27049239911682,37.11346142332418],[128.27016759373132,37.114320639323374],[128.2701716257926,37.11484751753618],[128.27036383792625,37.1154601557842],[128.27080415500006,37.11593718638899],[128.27178297605653,37.116226500264844],[128.2729827271018,37.1171313695761],[128.27402042604717,37.11711285576263],[128.27445896621083,37.11648124369418],[128.27723864187206,37.11582172054191],[128.27755076216613,37.11587472618561],[128.27869806329883,37.11389847868837],[128.27781604578803,37.11137296478794],[128.27775728425732,37.110819337019905],[128.2782813997274,37.11032591833368],[128.27926145760748,37.10992956269766],[128.28052000323592,37.108167084708285],[128.2820983393565,37.108965322147206],[128.28463943647787,37.10692722068222],[128.2858316420156,37.10547120049316],[128.28595926493276,37.10413692881631],[128.28680159259267,37.10289569434381],[128.28708722838778,37.102180026386414],[128.28836662996167,37.101639089987025],[128.28899587932457,37.10152622049602],[128.29066213140123,37.10084977442105],[128.2926138324688,37.099658611036155],[128.29315117380875,37.099176433704535],[128.29343993331435,37.098412517872234],[128.29398476972526,37.09805594593897],[128.29535402696263,37.098578917110196],[128.29702120547947,37.09887024475496],[128.29786281048138,37.098781423122944],[128.2984326908054,37.099094957077014],[128.29877061257517,37.099418320517955],[128.29913774737844,37.09900767494418],[128.29999217934792,37.098497334673006],[128.30067698607203,37.098532040806916],[128.30125997553915,37.09892364774965],[128.30191739833447,37.09917433136225],[128.30297228241955,37.09987092368636],[128.3038262755341,37.10032550581369],[128.30403092391134,37.10100841136643],[128.30459804965534,37.10197237205628],[128.30451681219273,37.10243789938954],[128.30468436906068,37.10298263936285],[128.30601741154337,37.10514360740335],[128.30569288508354,37.10574384128081],[128.30569471109146,37.10679031007234],[128.30614078696658,37.107792669501876],[128.3064997447628,37.10896670752871],[128.3069633704253,37.10927375234464],[128.30841886180133,37.10985521069476],[128.3083326694912,37.110297919607916],[128.30840331989583,37.11066656543237],[128.30886015932387,37.11123015530588],[128.30895016062888,37.111904135578044],[128.30837357232951,37.114509463185385],[128.30728274979,37.114820828382975],[128.3058239847852,37.11550706456326],[128.30495050143702,37.11619570499129],[128.30418473938963,37.117307876049786],[128.30380403952304,37.118602958207155],[128.30331712745323,37.12195520961847],[128.30354554578057,37.123044288890625],[128.30356140855034,37.12456943277682],[128.3033102851963,37.12489913425414],[128.30334436535173,37.126392848669404],[128.30309746057043,37.12694025586795],[128.30373152168912,37.128279492354444],[128.30344861772195,37.12892756546912],[128.30220306345706,37.12951649662997],[128.30108763718934,37.13130298495312],[128.3000109443926,37.13204730678248],[128.2996401991299,37.133684271342055],[128.2981956160681,37.13417796136016],[128.29785955599533,37.13405136350936],[128.29634517399987,37.13398324979865],[128.29615656516162,37.13403007164727],[128.2956266082112,37.13595655659609],[128.29383635199684,37.13757173835007],[128.29260723021002,37.13925750919074],[128.2906784662209,37.13983039739583],[128.28993460207434,37.14019397306393],[128.2889334224681,37.14119691692456],[128.28835266606214,37.141399963024625],[128.28766117991765,37.14149119000991],[128.28651770862834,37.1418603124882],[128.28566232546362,37.142402719450885],[128.28500737754894,37.14232979658518],[128.28469655972341,37.143124142216706],[128.28190509487783,37.14305567379199],[128.28000444374547,37.142444243653436],[128.27764900109756,37.14413105079116],[128.2774363121169,37.145145208467646],[128.27680296127764,37.14610131149828],[128.27530791363466,37.14644388248863],[128.27429202584332,37.14693482853209],[128.2735012280013,37.14742151899168],[128.27231784733038,37.148920869615715],[128.27246391201854,37.15029007300331],[128.27234224884785,37.1510865566458],[128.27193217150227,37.15163817040862],[128.2718922085032,37.15212299133506],[128.27115878409438,37.15301029885178],[128.27053140439457,37.15412813157447],[128.26771656771726,37.15551363865846],[128.26719014918135,37.15593555551961],[128.26678385918973,37.15604816624356],[128.26614579800128,37.155944229778584],[128.2660739464732,37.156858618121255],[128.26617256917297,37.15717690655537],[128.26595984189746,37.157915346760106],[128.26554472143016,37.15854082223608],[128.26512512259725,37.158964662844696],[128.26453773757845,37.16043153152572],[128.2653390056691,37.16074559716095],[128.26644628129546,37.161314975878426],[128.27046855118041,37.161778634166595],[128.27055321311184,37.16192717460749],[128.27020772673103,37.16340335441623],[128.27010989536635,37.16484799648743],[128.27082987154517,37.16635741007824],[128.27297849194022,37.1679224581071],[128.2733157111814,37.1682950479999],[128.27334650797604,37.168514999204795],[128.27381031630256,37.16926992449849],[128.27372095717269,37.16961575391357],[128.2750614326825,37.170192258322224],[128.27597061540524,37.171066490785144],[128.27645913608464,37.17226499971603],[128.27628722774148,37.172676853533446],[128.27845300769496,37.17210104479436],[128.2803538237381,37.17308466052087],[128.28108172123083,37.17331838323179],[128.28177961447204,37.17261315800263],[128.28214659351823,37.1723489479957],[128.28241763102943,37.17169975770925],[128.28430423156595,37.17159379092699],[128.28505261437562,37.17164096081084],[128.28642014012192,37.17127982625893],[128.28774938164688,37.17121874304046],[128.2896149914318,37.17004182422808],[128.29140385796387,37.17022985175001],[128.29166129144704,37.17052271654221],[128.2922156191105,37.170405562375294],[128.29401949925756,37.171023950898594],[128.29489661312408,37.17111195655558],[128.2959548733512,37.17150807823121],[128.2967800695936,37.171344172791464],[128.29833540919265,37.171578535884976],[128.29757563771028,37.17292144205571],[128.29732862483388,37.17447944644674],[128.29713333122885,37.175056347376454],[128.2973270833249,37.17613675524256],[128.29609910044047,37.17840353439816],[128.2957811443661,37.18098662130348],[128.29574670068598,37.18232780699746],[128.2956106452811,37.18325143549224],[128.2976018932849,37.183653796728926],[128.29988928132266,37.18356515858816],[128.3005628784049,37.1842068702942],[128.30066032536803,37.18441574012331],[128.30202527443228,37.1860290149833],[128.30259839437656,37.186605820440455],[128.30435479851138,37.18690385371147],[128.30488653036528,37.1867917781634],[128.30593939681435,37.18707459603112],[128.30634270714418,37.18625913488792],[128.307606966296,37.1860332110419],[128.30832948537906,37.186577881108256],[128.3085776253659,37.18751289436308],[128.31040380187608,37.18738546069626],[128.31104737333806,37.189851106874514],[128.31283135398402,37.1898346970713],[128.3138174503535,37.1899455271188],[128.31416601743666,37.19007088338147],[128.3129851659013,37.191222327384445],[128.31368772742312,37.193384726150455],[128.31313975812375,37.194353023237966],[128.31287392430772,37.195119396432816],[128.31324271732956,37.19580638245445],[128.31306670418866,37.19650869234821],[128.3134337156114,37.19677532016744],[128.31368549505163,37.196703192619495],[128.31440414022546,37.196830401430795],[128.3150945415672,37.196767284597904],[128.31592547281335,37.19654666986168],[128.3173596169685,37.1965487845011],[128.31777226722176,37.196422900762414],[128.3187362402472,37.196447071665446],[128.31949764907446,37.19599879812622],[128.32077714136298,37.19569643103082],[128.32173935557728,37.195575541075385],[128.32185988598343,37.19665597560832],[128.32157141359974,37.19704525244436],[128.3215271486119,37.197527661248934],[128.32175480546556,37.197901519222],[128.3224589124171,37.19834029578678],[128.32368506974515,37.19793468819593],[128.3242863515769,37.19750959755267],[128.32466874075152,37.197485394830075],[128.32472206449245,37.19723222767196],[128.3249093641801,37.197006395137635],[128.32513023562984,37.19708694446776],[128.32569651151894,37.19694115378085],[128.3261037788574,37.197245770453705],[128.32640714748587,37.19728424669187],[128.326870772677,37.19807296861011],[128.32724700995394,37.19824625838842],[128.3274196519241,37.19847261687504],[128.32736461412574,37.199288601610824],[128.32751014016168,37.19961171308586],[128.3281110695187,37.20024290678602],[128.32835297903046,37.200899110628335],[128.3286990197888,37.20138273428186],[128.32939703470987,37.20187210822009],[128.3295809393204,37.202185523323536],[128.32971373804307,37.20286892221725],[128.32968022494362,37.203307654378925],[128.32930345756142,37.203918613999726],[128.32929684708773,37.20435196836169],[128.3292323854961,37.20430447130027],[128.3288848367636,37.204586524602554],[128.32876807884668,37.20459182685824],[128.32867682337871,37.20472975001817],[128.32871737644348,37.206136528177936],[128.3289886856205,37.206719194722076],[128.32928240409382,37.20696834777895],[128.32948314067144,37.20727550101973],[128.32970094754984,37.20740603399072],[128.329868635162,37.207921793155656],[128.32994570161168,37.2079126846275],[128.3298632123,37.20804178213938],[128.32994693550665,37.208434671984854],[128.32986071397843,37.20967007682693],[128.33004360970924,37.21039827922041],[128.33045058205306,37.211117061134644],[128.33057845153706,37.21172787690805],[128.3308542668427,37.21227201772524],[128.33116367761937,37.21277318292356],[128.3321075817096,37.21383432047966],[128.3326860079388,37.21437891286411],[128.33289117027246,37.2144704436411],[128.3331230350453,37.21479750457431],[128.3333790332824,37.21561791033938],[128.33343079439163,37.21689788662441],[128.33026257943308,37.21665662203803],[128.3290272562509,37.21683513744445],[128.32764608827156,37.21737062854093],[128.3270591614757,37.21857486760519],[128.32582618385229,37.21849426472223],[128.32485596429422,37.21830266888076],[128.32448650708236,37.218512725626155],[128.324368910731,37.21880423344134],[128.32405339709044,37.21915846475783],[128.32369297896125,37.219272264010485],[128.3230767834027,37.21930841538224],[128.3217421229002,37.219128861019634],[128.32132245336797,37.219218723171004],[128.32006202089428,37.21987102401164],[128.31925554206276,37.22074498560384],[128.31871656694713,37.221639037877125],[128.31638929995464,37.22241687366738],[128.31664999211216,37.22329003471265],[128.31460783327947,37.22275102823334],[128.31409270602524,37.22253269808284],[128.31373816013533,37.221973525229174],[128.3126615632934,37.221463405438556],[128.31096260972768,37.21973334270661],[128.3101620518441,37.21920124090144],[128.3098910976207,37.218474361930504],[128.3095388491649,37.218175649717075],[128.30906719704038,37.21757426467755],[128.3082013726727,37.217553071335516],[128.30793089401797,37.21710305211548],[128.3062657475354,37.217027588416826],[128.3054572290981,37.217251324030194],[128.30503437739245,37.216616686577034],[128.30422477275678,37.216469437778834],[128.30360086621974,37.21648807305433],[128.30325500160149,37.21665471840158],[128.30196266548353,37.21686492300604],[128.3012957921256,37.216841801839415],[128.30125997906586,37.21656941359908],[128.30036821519397,37.21634353534499],[128.3001631834325,37.216438947868745],[128.2999904261205,37.216241930677626],[128.29887224914836,37.21609598084559],[128.29806343053417,37.21628447617153],[128.29709379797876,37.2163699869045],[128.29613234761172,37.216016818267164],[128.29499948138107,37.216010220003874],[128.29467522062927,37.215643639698285],[128.29360373755424,37.2159417554065],[128.2925789824588,37.21513426295133],[128.29128218248414,37.21461149659475],[128.28981534559165,37.215058192863914],[128.2881686341182,37.215095473699435],[128.28773113915238,37.21443181647902],[128.28689227977895,37.21403835465354],[128.28637361706888,37.21346516555689],[128.28621281807162,37.21294434950061],[128.28539853765852,37.21220897874077],[128.28463032907894,37.211733286117],[128.28404129441685,37.21076216073318],[128.28393946486142,37.21025393809995],[128.28253232420786,37.21036347260722],[128.28130733007845,37.210010761464865],[128.2804248438802,37.20948285093986],[128.27979880364683,37.20985955933819],[128.27850476382625,37.21017849250073],[128.27816346602572,37.21000608397472],[128.27608432358738,37.20994412452295],[128.27557657096034,37.2097386219545],[128.27487998803494,37.20967702624159],[128.27451897897367,37.20983255132686],[128.2740954882302,37.20988321408859],[128.27283825700627,37.20986152287474],[128.27237351155898,37.20942245189218],[128.27096050610186,37.20875838096082],[128.2703093144418,37.2086775553077],[128.26992565104004,37.208425569555835],[128.26847382185704,37.207927313423],[128.26714484593137,37.20912294762672],[128.26680384544414,37.20971930088996],[128.26661902311113,37.21060968328199],[128.26553167877262,37.21124387880714],[128.2642165222131,37.2123163943623],[128.26266542694057,37.213362148984636],[128.26173112912682,37.21417657175079],[128.2598451962848,37.21641588341373],[128.2589667212861,37.21791433952663],[128.2585617137744,37.219059104838315],[128.25842804701693,37.21971110562078],[128.25817814545454,37.219942354968325],[128.25782356504487,37.220907611352686],[128.25788656930104,37.22124729735627],[128.25717781004872,37.221943759428115],[128.25698069149064,37.22189623456006],[128.2565232977635,37.22155341084349],[128.25597895557618,37.22148477199099],[128.25569078905605,37.22159631713518],[128.25541366147678,37.221917665834894],[128.25537945816328,37.22207648138988],[128.25552944280312,37.22216376696629],[128.2562531053296,37.22186386628587],[128.25691590187498,37.22219956723567],[128.25707580781597,37.22235048129847],[128.2568696623822,37.22256378543915],[128.25676275650736,37.22285563845556],[128.2560567364597,37.223438110200675],[128.25530092503277,37.223814019608014],[128.25523520810867,37.22404010740024],[128.25391752895547,37.2249693288011],[128.25399244698932,37.22587279388474],[128.25320678752732,37.226695606642174],[128.25268701507727,37.22704057486931],[128.25283938035582,37.22730427534932],[128.25278288662642,37.227806386254585],[128.25260633419097,37.22794632739735],[128.25190038753678,37.22821309717387],[128.25158511563444,37.2289056168511],[128.2509041966944,37.229544591175774],[128.25022136989884,37.2297184119836],[128.24801882681817,37.22885627437391],[128.2472656631109,37.228460002790605],[128.24662247186004,37.227882562695264],[128.24553629275366,37.22731433541216],[128.2445044797813,37.22656935738537],[128.24432760205772,37.22653182758372],[128.24370700085282,37.22701555587375],[128.24260001899327,37.227220474939024],[128.24233990107572,37.22739613303627],[128.2420362368083,37.22717733936208],[128.24179043733088,37.22719445336996],[128.24148418054162,37.22756877872833],[128.24133975873676,37.22763639547781],[128.24112041178458,37.22755158213032],[128.24102183426334,37.227619626396404],[128.24093065035348,37.227570638598976],[128.2405555499376,37.22801812523202],[128.24035692246676,37.22845916504902],[128.2399616171568,37.22851096949726],[128.23972109827454,37.228740151796764],[128.23923467214948,37.22889561737014],[128.23913118602943,37.2290536951733],[128.2375753786657,37.22889794889985],[128.2374105418988,37.229313774255175],[128.23702539196464,37.229262808768844],[128.23661644450513,37.22894690538762],[128.23627151624115,37.22888339322156],[128.23567243335387,37.228639350799064],[128.2353071231545,37.22827888924915],[128.23495149956605,37.227749789705534],[128.23447420269682,37.22735179433597],[128.23365413788147,37.22754349987363],[128.23300055908416,37.227019197194316],[128.23169473286873,37.22702047296265],[128.23075573827873,37.22735697471714],[128.2301764172083,37.227304527522676],[128.22997132506106,37.22734939920688],[128.2297826638889,37.22753703576218],[128.2292187488788,37.22756720036407],[128.22870172285604,37.227980964339466],[128.22854874150667,37.22801924375815],[128.22834491584385,37.22909183908321],[128.22868790317847,37.23019053065118],[128.22839023807154,37.23049158844529],[128.22813230967913,37.23055864689787],[128.22721756271397,37.231208600562894],[128.22688394494332,37.231798406041584],[128.226869108179,37.23230565764964],[128.22628568560634,37.23276807336837],[128.22544496651065,37.232872601769216],[128.22490214032808,37.23280079059271],[128.2243886075163,37.23287757093022],[128.22408623850222,37.2338468365173],[128.22366920587353,37.23387044932564],[128.2228040100494,37.23581621296671],[128.22282960992422,37.23636781228305],[128.22199290436885,37.237315965294854],[128.22188464591423,37.238120587137836],[128.2203636506675,37.24032968146254],[128.2200994604689,37.240218146219846],[128.21871251277247,37.240746198548386],[128.21773254949025,37.24086098842094],[128.21754874739003,37.24113308995518],[128.21591731872348,37.241774973074854],[128.21483899559942,37.24186841285442],[128.21468723716205,37.242387016247704],[128.21509265678367,37.24364544585033],[128.2147501573573,37.24606440371153],[128.2131343494862,37.245840862781755],[128.21210027300324,37.24535975407521],[128.21150463072655,37.24565089689792],[128.21036207025506,37.24578702833696],[128.20891152436275,37.24682585163857],[128.20820463489179,37.24789612827035],[128.20783720342374,37.248857259111595],[128.2066756829863,37.24870868532536],[128.20569473254324,37.24873238685898],[128.20493054611583,37.24885999710675],[128.2044122547632,37.249090933231145],[128.20384276078644,37.249027664116724],[128.20346751181657,37.24913651374256],[128.20150307982206,37.2489980460813],[128.20081367842857,37.24833518331233],[128.20070912832466,37.247715509016096],[128.2004680645123,37.24714987182328],[128.19968457203856,37.247055729237715],[128.19682187344588,37.24587592864231],[128.19691032271035,37.24574322142506],[128.19466540899745,37.245736212666614],[128.1942600693327,37.24546527207841],[128.1936190928575,37.24523764136993],[128.19317191522467,37.245232293516864],[128.19301334894067,37.24495840563712],[128.19111709750595,37.243501090427245],[128.19090786111042,37.24323349767066],[128.19067403192983,37.2432590117658],[128.19056838610683,37.24318350659282],[128.19063185510578,37.24313963994397],[128.18995407099834,37.24286040015727],[128.1896797032404,37.24259218050951],[128.18964045736558,37.24239161941534],[128.18897852000035,37.241760631994026],[128.18835700171783,37.24135505943479],[128.1879987244973,37.241281783699314],[128.1876164081053,37.24094088986037],[128.1860751576397,37.24009836956535],[128.18569220327495,37.23963514738144],[128.18541467897958,37.23947529274831],[128.18497710834808,37.23882241562048],[128.1807631334948,37.236839694691255],[128.1796760965622,37.2364347445834],[128.17910148296855,37.235784387507586],[128.17806315814946,37.235572730992885],[128.17771289828673,37.235310374532474],[128.17725848562435,37.234327557357744],[128.1769406030018,37.23396387555986],[128.17569880028051,37.23378332058648],[128.1754037241717,37.233238147398595],[128.17441207730926,37.23302469875729],[128.17388510377978,37.232693316960486],[128.1738121054299,37.232105829092156],[128.1734805023912,37.2314628135131],[128.17409904387839,37.23057257806238],[128.1747529178843,37.229123192597164],[128.17520856087674,37.228863156569524],[128.17597414664777,37.228579512998024],[128.17609478404813,37.228335112525365],[128.17514058651057,37.22761215704194],[128.1746515954139,37.2268596929955],[128.17353075919854,37.226139790736504],[128.17313622919485,37.225426363916156],[128.1726342985626,37.225164589559746],[128.17232021185671,37.22489603653681],[128.17243789175046,37.22458089623519],[128.17235330985292,37.22372749680383],[128.17236872754796,37.222114937629165],[128.17265203482205,37.220312761506314],[128.17272268205863,37.21904823096351],[128.17224650625423,37.21843301179601],[128.17136318827218,37.217839059018424],[128.16918166871704,37.21766542357612],[128.1688590857595,37.21709190443344],[128.16834523494057,37.21671789288987],[128.16798987207602,37.21602174676092],[128.16678256226893,37.215263905434774],[128.16683839606983,37.2148356084993],[128.16661189560904,37.214843232879886],[128.16510074095834,37.213943490815005],[128.16466964978474,37.2137844926738],[128.16443263523945,37.21352152292445],[128.16394638501856,37.21337884028533],[128.1628672737718,37.2139577003387],[128.16239067613532,37.21458906545548],[128.1616129137178,37.214911034810406],[128.16143637298205,37.21543069006265],[128.160730451818,37.21554005529075],[128.15995056714874,37.215820098151184],[128.15935394212025,37.215928249439095],[128.15808943337535,37.216392396820936],[128.1568193056767,37.21626302283808],[128.1553208590693,37.2159176013967],[128.15396727674747,37.216513307226386],[128.1531934051275,37.21706241252254],[128.15263621730162,37.21760147091131],[128.15168917583034,37.21925677531386],[128.15097925536875,37.220844532593226],[128.15010945000503,37.22086238575528],[128.14941887763123,37.220743664074696],[128.14891343201666,37.22089180939848],[128.1483375312884,37.221262822044935],[128.14743982295357,37.222358768717505],[128.1469573427554,37.22258099550043],[128.14625195471714,37.22245719300736],[128.14563575073487,37.22208084527376],[128.14490583489706,37.2224237387955],[128.14477895096928,37.222718669736096],[128.1430125373623,37.22384506363544],[128.1427609096111,37.22418504698335],[128.14230348571567,37.22524213722561],[128.1421964127444,37.2257843416501],[128.14211544266928,37.226416951158406],[128.14215038214624,37.22873585112391],[128.14143918113766,37.2292403730662],[128.14066742661694,37.229631628420655],[128.13981076371945,37.2295839319737],[128.13717539326214,37.229952142410376],[128.13549586309222,37.22985482225037],[128.13492224678444,37.230068143416915],[128.13347950153798,37.229787173155415],[128.13292019393697,37.22985372261404],[128.13262048472524,37.23017148217746],[128.13236267894482,37.2302335840879],[128.1322922738888,37.23096968957164],[128.13127062105073,37.231669224998754],[128.13049191472666,37.23233558156772],[128.13049716253667,37.23262787710974],[128.13010594781505,37.23305838765102],[128.12961502372116,37.233804896439175],[128.12926481420703,37.23379743023353],[128.128882620284,37.23360353554965],[128.128040870508,37.23362683628789],[128.12765475466946,37.23425368909766],[128.12694897594912,37.23435598414046],[128.12638852355383,37.234606165865245],[128.1259574428497,37.234430654542194],[128.12536199832286,37.234589699886534],[128.12465605160307,37.23383344520366],[128.12471860201046,37.23326984925816],[128.1240828354877,37.23262945892497],[128.12377584431357,37.23169285946216],[128.123368347438,37.231349252301044],[128.1233704747281,37.23097339074057],[128.12257239403388,37.23050360201698],[128.12232077418932,37.23008451818662],[128.12173182631648,37.22957957709314],[128.12159459430654,37.229352509872776],[128.12176422981736,37.228962451684836],[128.12144734289583,37.22842422874108],[128.121407992494,37.227894529209685],[128.12128358272423,37.227667897248374],[128.12089919108277,37.227363563557894],[128.12122800374289,37.22690759615288],[128.12194980177,37.226445903243736],[128.12191511153677,37.22620696358569],[128.12217750045244,37.22562268088159],[128.12241929783178,37.225308576112006],[128.1201033028371,37.223756219658384],[128.118428646997,37.22292367539373],[128.11608220707015,37.220858309498674],[128.11548568832993,37.22006066540038],[128.11530185064376,37.22005657277319],[128.1152451372356,37.21996854145897],[128.11530971985232,37.21965383710889],[128.11516870857295,37.219444481355765],[128.114938286532,37.219304669017376],[128.11480738309123,37.21890982164023],[128.11457363732555,37.21868791409391],[128.11449151808458,37.21840115011433],[128.11496845387728,37.217054165515705],[128.11520313844767,37.21662908521764],[128.1149504855824,37.21602247959252],[128.11477149264587,37.21581612914882],[128.11448346810977,37.21566928099982],[128.114131746238,37.21476592858458],[128.1142291390707,37.21402290741832],[128.1141383574644,37.213602968692726],[128.1142092464513,37.2130427293798],[128.11324847609936,37.21225290831191],[128.11279468771846,37.21138553341211],[128.11224059160597,37.21080606388478],[128.11139750730223,37.210427699834945],[128.1111713462768,37.21020044395329],[128.11125005680418,37.20966134128499],[128.11137105944442,37.20946951245521],[128.11172981691993,37.20922484549388],[128.1118164854409,37.208916307534125],[128.11185149466687,37.20836955727966],[128.11158754722385,37.207740153152066],[128.11069108977736,37.20724905469495],[128.11034436054345,37.2068951106097],[128.1100773549832,37.20691702530759],[128.10931966071465,37.20658543763764],[128.10891197740986,37.205867522732525],[128.108694933881,37.20566212437632],[128.10756411450393,37.20521206216873],[128.1065797751556,37.204985025585536],[128.10568579705753,37.20438286348446],[128.10500851857023,37.20374813276965],[128.10429616334926,37.20360565939958],[128.10368207424875,37.203267760804295],[128.1031519275427,37.20285933165499],[128.10259139966104,37.202696173747675],[128.10195217588307,37.20236848238291],[128.10084102092478,37.20207528815178],[128.10007597387286,37.20171896709128],[128.0997099958607,37.201690275617295],[128.09921698494577,37.20187146916974],[128.09906073014037,37.20153967392524],[128.0983717870436,37.201440627190635],[128.09806435018967,37.20127895979702],[128.09724050200708,37.20103156457272],[128.09645874034916,37.20046997453949],[128.0955981658213,37.200377084883776],[128.0953722812178,37.200432816299916],[128.09528379254243,37.20009220036495],[128.0951292770817,37.1998851284573],[128.09431722396099,37.19989637674569],[128.09354980915217,37.19969808907912],[128.09254186968434,37.19926747236609],[128.09215264410986,37.1992996713499],[128.0916890459385,37.19799394691485],[128.09021315703436,37.198224355166204],[128.08922658297485,37.19871010180866],[128.0888309997506,37.19850941241464],[128.08848884142856,37.19848617088487],[128.08791479090178,37.19863958196488],[128.087142841609,37.198437200814794],[128.08658488143686,37.19769260696944],[128.08614640554293,37.19681994864165],[128.08564800965985,37.19642148333597],[128.08451345024147,37.19589534155581],[128.08089588836665,37.19453923647561],[128.0799191372041,37.194475042981296],[128.0789765007005,37.19402239808665],[128.07715279797978,37.19352428923511],[128.0755320471946,37.193497105814096],[128.0741006594399,37.193112074718336],[128.0720148552388,37.194485257477524],[128.0716056426589,37.1944519679768],[128.0707845833928,37.19459452429805],[128.06995162374722,37.19460835440922],[128.06921062046652,37.19440599189914],[128.06782034765752,37.1942365567719],[128.06733118117867,37.19401711409859],[128.06571606628953,37.193942631525964],[128.0644227508258,37.19330764592226],[128.06288662423378,37.192885530212784],[128.06208104485665,37.19347958741494],[128.06128531816134,37.19371405216266],[128.061020576132,37.19430684558124],[128.05986957220557,37.19427213857215],[128.05931127058935,37.19399100180675],[128.0584576934589,37.19399262721245],[128.05776297500105,37.19361441953164],[128.05698172720568,37.19299688671446],[128.05529641418434,37.19220547248709],[128.05483572742216,37.19167112889342],[128.05399491975575,37.19157658177628],[128.0522842467217,37.191162048942616],[128.0515185013154,37.190821350649564],[128.05116408927472,37.19056060347917],[128.05040038087165,37.19038508487055],[128.04933696436962,37.18970047616253],[128.04884007142047,37.18985513056218],[128.04808142826056,37.18962951857441],[128.04744775871566,37.18996226078989],[128.0466003867993,37.189828182908016],[128.04575937992644,37.19016042845667],[128.04421796824613,37.190493358103986],[128.04327194361858,37.1902531637194],[128.0430580529972,37.18937233057857],[128.04252207043783,37.18892148311113],[128.04179885845494,37.188566675898684],[128.04105610832738,37.188374281775396],[128.04025698155266,37.18860324327002],[128.03858457581788,37.18890476563137],[128.03814484417347,37.188814809831776],[128.03715304304154,37.18898320560109],[128.03635967741508,37.189764554195676],[128.03584040138077,37.189967671664036],[128.0349098486354,37.19060423274878],[128.0349267352518,37.19093096204672],[128.03455942684815,37.19127947625882],[128.03413203696977,37.19149597569628],[128.03360547902358,37.19254974143231],[128.03301149313972,37.19321559727984],[128.03324414544556,37.19457649607965],[128.03299769095943,37.194851855102776],[128.03307045131444,37.19564425725159],[128.03275594788806,37.19630659474247],[128.03286552581042,37.196519503539065],[128.03282711687737,37.19692753564451],[128.03300952625332,37.197184462077466],[128.0327163769038,37.19755669688902],[128.03286278915095,37.19786891874829],[128.03232616028606,37.19875235817914],[128.03224147432454,37.199332300561004],[128.0312215075307,37.19985129982027],[128.03033161822043,37.20011213243306],[128.02976547655152,37.20098036476278],[128.0291441271843,37.2014071576348],[128.0287479908923,37.20205936173829],[128.028943638423,37.20274369062204],[128.03005549134326,37.20329280157026],[128.0301938036505,37.20430962686345],[128.03090708334045,37.20674550479075],[128.03170666709303,37.207517734365894],[128.03269968000268,37.20777637556881],[128.0332891069218,37.20855701715627],[128.033381754655,37.20926882362432],[128.03316491970014,37.20986637546917],[128.03355100744025,37.21064094823836],[128.0344673481595,37.211171255539284],[128.03647386234022,37.21192278264376],[128.0373137179294,37.21252741179],[128.03753459536648,37.21330998383823],[128.03833042573908,37.21356569867623],[128.03874169566814,37.21410147399644],[128.0391890439565,37.21445794847851],[128.0392583577825,37.21549478307085],[128.03866619117025,37.21626800269765],[128.03799810870498,37.21641262189145],[128.0376625133677,37.217221813826555],[128.0361478445462,37.21837526301245],[128.03556052949085,37.21839698109272],[128.03439386138453,37.218949300681075],[128.03347949021776,37.21928758747695],[128.03242814652185,37.2205050512903],[128.03217487018392,37.22130954320468],[128.03245782184626,37.22277808484098],[128.0323703955079,37.22341507967633],[128.0317466013175,37.22334638122846],[128.02992294601492,37.22398286738238],[128.02884826584608,37.224164141327066],[128.02788417801406,37.22474464679296],[128.02684505004353,37.22466954866943],[128.02599751968899,37.225524681108496],[128.0241294461257,37.22520879840359],[128.02292686249058,37.22541031264643],[128.02270208025416,37.22619414959702],[128.02277088325627,37.22668161057229],[128.0222319793567,37.227253788957135],[128.02211223987132,37.22769609754246],[128.02160067467213,37.22833226891488],[128.02141922318924,37.22945531743676],[128.02096883972922,37.23045995496762],[128.02120788528768,37.23143932278715],[128.02121407811185,37.23227738973291],[128.02074749896212,37.233027084761126],[128.0203934915325,37.23402012385301],[128.02038455021736,37.23497679433705],[128.02016788666754,37.23607975275553],[128.0197742917678,37.236544207649985],[128.0200703707,37.237462880547206],[128.01987546677353,37.238409950464636],[128.0200009508673,37.239512272578274],[128.02031220052277,37.240723999192795],[128.01953195372394,37.241413580336676],[128.01956292144396,37.24225302643096],[128.01930598213374,37.24283873945361],[128.01933458516172,37.243448841017866],[128.01921279570104,37.24439711705478],[128.0185486650458,37.24469937894317],[128.01846218370892,37.24512841273382],[128.01792727170098,37.24544858028923],[128.01779873720042,37.24573836421082],[128.01730861004688,37.24591597751733],[128.01659296625522,37.246441871556556],[128.0157511935751,37.24624858602423],[128.01550728075526,37.246372310062824],[128.01391672239836,37.2466239455969],[128.0122376924827,37.24746482246755],[128.01195039499157,37.24818317193452],[128.0115492015335,37.24850801823515],[128.011151857703,37.24870852790439],[128.01108974565236,37.24920787157701],[128.01088915937754,37.249667556414984],[128.00966146403164,37.24990079736963],[128.00932357387703,37.2503095755484],[128.00876031536015,37.250301023452664],[128.00857420322964,37.25047505851625],[128.00789277615792,37.2516330239078],[128.00613728732395,37.25201312357701],[128.00552184042,37.251890655358224],[128.00512548782328,37.25208423407457],[128.00380183362824,37.252278926681484],[128.00256867807093,37.252974082407775],[128.0020386157623,37.25315380675012],[128.00182211921083,37.25333476554707],[128.00106097758288,37.25355212439176],[128.0006670829997,37.253396657630525],[128.00039648807103,37.25337860541306],[127.99987137719208,37.25352830521843],[127.99960178738074,37.25387528129468],[127.99957373948763,37.254446525307976],[127.99934086133489,37.25448113149007],[127.99882194943746,37.25482988348644],[127.99814059161075,37.25460511736748],[127.99685606198132,37.2545688106983],[127.99651032343591,37.25446656093246],[127.99515220518057,37.25430433639352],[127.99432096381697,37.25376432784735],[127.99399691003623,37.25363649772852],[127.99352251498446,37.254037878852145],[127.9932700315532,37.254136725142786],[127.99252677619045,37.25494243232146],[127.99229326348204,37.25492185289606],[127.99181660442872,37.255098329467735],[127.99108250546304,37.255143442787585],[127.99022621228504,37.25551581689659],[127.98960574324124,37.25595219866718],[127.98945044634421,37.25623248774336],[127.98889339597626,37.25642020074467],[127.98848770760723,37.256772737801036],[127.98820243127761,37.25717148370086],[127.98732515366714,37.25741375469793],[127.98671745960677,37.25803818080755],[127.98640703866523,37.257919819752026],[127.98592204414618,37.25798911296381],[127.98566102313075,37.258183826996046],[127.98525847709445,37.25822594113673],[127.9844907120593,37.25778916133577],[127.98349202992759,37.2575255997216],[127.98327214735751,37.25761616279511],[127.98298031223229,37.25749972156423],[127.98279475534012,37.257189729594245],[127.98222525735957,37.25690102779864],[127.98203372146102,37.2569938221616],[127.98137816900173,37.25676708956938],[127.98103610159237,37.257225249227595],[127.98002307509077,37.25809421684236]]]}}
