{"type":"Feature","bbox":[127.5145113333875,36.36897446670895,127.90632097244125,36.613769194285986],"properties":{"regionCode":"43720","version":"vworld-20260909-3f8952dfda77-p3","name":"충청북도 보은군","attribution":"국토교통부/K-Geo플랫폼 · VWorld 법정구역정보, CC BY 2.0 KR; 두꺼비집 가공"},"geometry":{"type":"Polygon","coordinates":[[[127.79315280002051,36.608535548153405],[127.79179794385563,36.610332490122765],[127.79073048237865,36.61073778962101],[127.79009542932049,36.61144038049284],[127.78887203295437,36.612391427814536],[127.78672969643243,36.613272272389935],[127.78627985413264,36.613769194285986],[127.78459044830808,36.612674591910256],[127.78427176316032,36.61199450292558],[127.78421521394753,36.61144906159273],[127.78394022950269,36.61093157706044],[127.78281773026353,36.61032249817459],[127.7825137936773,36.61024231858499],[127.78235439147413,36.60985737224787],[127.78206038264503,36.60974410098208],[127.78145460353667,36.60871676402616],[127.78085584018575,36.608439398827784],[127.77933276226865,36.60825310660299],[127.77913373767151,36.60830920987677],[127.777482476353,36.60829475130202],[127.77712963911253,36.60806259062644],[127.77667966286114,36.60804001509138],[127.77643964864981,36.607107213555736],[127.77462095012899,36.60623804730259],[127.77388985169415,36.606002197200056],[127.77339732346309,36.60617440935311],[127.77320157083949,36.60632224447218],[127.77233643498911,36.606233613070955],[127.77213911456057,36.60577345688929],[127.77172237835306,36.605519009253875],[127.77123484737304,36.605518392567355],[127.77093846725967,36.605272133273694],[127.77071359139786,36.604915084147066],[127.76949722555032,36.60398046471176],[127.76908587699036,36.603765966282154],[127.76875289483291,36.60338188338968],[127.76944886479052,36.60227342986743],[127.76974278645163,36.601534975137994],[127.76978231811437,36.601172293092205],[127.76943307965288,36.599363666460405],[127.76939453028595,36.59817349098142],[127.76952445161463,36.5980207155436],[127.769449355391,36.59778986665758],[127.76889708612106,36.5975858709588],[127.76919654587799,36.59698594544228],[127.76927587051657,36.59646951970783],[127.76891638960042,36.595724218094446],[127.76871744273109,36.59565702173594],[127.76883544576702,36.594206134954504],[127.76877248516158,36.59403452644226],[127.76918975123235,36.59382034895695],[127.76702215528593,36.59369121110896],[127.76645005102652,36.59349052255494],[127.76597359074424,36.59268878301369],[127.7659526601123,36.59237595982889],[127.76549519385918,36.59189254491865],[127.76472339114046,36.5919480235615],[127.76408182267059,36.5915575511217],[127.76355027391767,36.590993265734454],[127.76303653129925,36.59126929747808],[127.7622430637167,36.591141325099436],[127.7613210134324,36.59049463627391],[127.76027387120855,36.59058205811548],[127.7600251249348,36.590345356222365],[127.75819976516293,36.590425389500005],[127.75718385473928,36.59023235465643],[127.75519878743673,36.59008343615716],[127.75493475284412,36.589743752428376],[127.75437683239429,36.58936107913511],[127.75289070668177,36.58859124241267],[127.75264520896857,36.58862347247982],[127.75204104704042,36.58844637112999],[127.75068093193167,36.58734870784271],[127.75033557868989,36.58693360989287],[127.74974435641786,36.58659367979042],[127.74863045891226,36.5863417844824],[127.74719014958299,36.58564174260132],[127.74585660592103,36.58525003508297],[127.74573876657196,36.58552799164785],[127.74555763974972,36.58556170792437],[127.74368679028473,36.587221232246584],[127.74288946226494,36.58744264252608],[127.74266752042216,36.587616406772476],[127.74265941886397,36.587804530933084],[127.74231910727973,36.58812091885502],[127.7420470779905,36.58818004583032],[127.74155399421971,36.589112626968394],[127.74191941349646,36.58950078526071],[127.74191836221665,36.59023636330445],[127.74128907350746,36.59064288062011],[127.7410239652633,36.59126196149725],[127.74014518489611,36.59165252995655],[127.73969052938456,36.591660265884734],[127.73880484686003,36.592182953547976],[127.73760503341899,36.592454359766776],[127.73733674463814,36.592623255314486],[127.73703790601633,36.59401473674216],[127.73675371879268,36.59481281563003],[127.73596300572312,36.59571291274158],[127.73701188438328,36.597173271631014],[127.73687139173052,36.59776964020161],[127.73715221387714,36.59932261982467],[127.7364855984961,36.600021106206576],[127.73549323887732,36.60022413303422],[127.73493996013433,36.60008912710247],[127.73367296352382,36.60017185520475],[127.73330162639694,36.60060560631286],[127.73295772097681,36.60073827326279],[127.73278138543778,36.60088961569409],[127.73206694728192,36.60110408424965],[127.73110821237319,36.60164758729767],[127.73056552281331,36.60156560112822],[127.72964556420912,36.601695361675276],[127.72873987677333,36.60231238887178],[127.72841420216845,36.60199561470687],[127.72776454112802,36.60177843327703],[127.72757071436075,36.60129307456655],[127.7272543251349,36.601046683096186],[127.726982997589,36.60020681857355],[127.72644251661879,36.59996509393338],[127.72522646499887,36.60101624666676],[127.72487218044307,36.60150297102996],[127.72431681135015,36.6014962394648],[127.72382369856835,36.60175849922537],[127.72317786288743,36.601924081138556],[127.72289538759338,36.60220386607038],[127.72171183747523,36.6018369431344],[127.72125166040756,36.602350880667515],[127.72070947029002,36.60243290392306],[127.72020035034453,36.60266917361172],[127.71917154071839,36.60198962508775],[127.71785651586436,36.602036492811564],[127.71599767618261,36.60235916642496],[127.71495223262944,36.601804682256564],[127.71381388945322,36.602015295936155],[127.7135120448667,36.60149870688084],[127.71317795031464,36.60120575795424],[127.7130528353861,36.599982968228815],[127.71314962535723,36.59969647634331],[127.71277798109581,36.599399056984105],[127.71184430552971,36.59907300258727],[127.71138454406848,36.59843108574488],[127.71139309881895,36.59738254049108],[127.71094436747178,36.597272659895424],[127.71033586671034,36.596623034464606],[127.70966192741733,36.596055022215104],[127.70883530657147,36.595756927575614],[127.70778461207122,36.59549001335778],[127.70557546253718,36.59514970992304],[127.70535629016466,36.59484157004728],[127.7043493852719,36.5941957961831],[127.70422927127319,36.593461769325394],[127.70369870542915,36.59326318904452],[127.70341058165711,36.59279773740193],[127.70320226162842,36.591620401317755],[127.70242239498683,36.59113018536902],[127.69856145151506,36.589717074806586],[127.69816391458403,36.58931708647492],[127.69780168526529,36.58908795791809],[127.69721543879439,36.588992428755944],[127.69667630229148,36.58881317024132],[127.69591502792522,36.58891621634033],[127.69461461122887,36.58848669755835],[127.69368176559554,36.58862708826179],[127.69339608555724,36.58886991244192],[127.69325410699494,36.58926717585573],[127.69284964521924,36.589203732201675],[127.69198148376638,36.58930357247607],[127.69042582213048,36.59010553958493],[127.69009030361076,36.59048732649089],[127.68907855258455,36.5906411492311],[127.68897588898233,36.59075691366866],[127.6888499177287,36.59133124675561],[127.68744922652176,36.59177135054638],[127.6869530630042,36.59205114336175],[127.68653050142925,36.591941374820344],[127.68601763073141,36.59203182906324],[127.68391210768037,36.5920140661799],[127.68310645392346,36.592403129805504],[127.68201940697557,36.591817971848],[127.6804587839478,36.59242959544524],[127.68009843257096,36.59358130456336],[127.68016620479565,36.593899943087955],[127.67964394491133,36.59445723660654],[127.67950405919366,36.594525355802226],[127.67911362720933,36.59450531857805],[127.67911302591682,36.594826597216404],[127.67877832515892,36.595215918062365],[127.67914873125429,36.595568980110116],[127.67880571903464,36.59589265701127],[127.67711502219454,36.596483069592644],[127.67667837803532,36.59671517675386],[127.67635591419022,36.59672195944028],[127.67543708374079,36.59600016035259],[127.67497103143218,36.595871845754736],[127.67415528535706,36.59536295737591],[127.67336748025939,36.595735894838306],[127.67219827656402,36.595730675269095],[127.66999129263954,36.59489423732906],[127.66927877752762,36.594956623960385],[127.66859507753858,36.59452409430089],[127.6685973983728,36.59515717177256],[127.66913595114951,36.59678109242515],[127.66870955580053,36.597168194557334],[127.66850115813959,36.59766186753307],[127.66851191151254,36.598451621159434],[127.66813180779418,36.599227691974306],[127.66783718521843,36.599568727411146],[127.666698770193,36.60010661282989],[127.66625659956215,36.600226863471015],[127.66588453649116,36.60060050661666],[127.6657819148945,36.60111358991457],[127.66555769369963,36.601485765949356],[127.66543548393723,36.60242495312429],[127.66512219197884,36.602547817018035],[127.66451417937485,36.60259464529915],[127.66375927713077,36.602388052765185],[127.66224820125811,36.60272348242006],[127.66170966091451,36.60265815227464],[127.66154317468134,36.60256039377173],[127.66097375588859,36.60262510058531],[127.66065656699786,36.602573140483464],[127.6602052505203,36.60236854083942],[127.6598048078836,36.60186915390497],[127.6596294301985,36.601212424402654],[127.65904106480374,36.6013256157453],[127.65810148246821,36.60100303172297],[127.65784275140884,36.600809706662716],[127.65696797017519,36.600605083206034],[127.65614784518068,36.60023523904299],[127.6556246168645,36.60012483122433],[127.65514465383096,36.600137917550235],[127.65447711766004,36.600296217673566],[127.65406598328613,36.60031677222977],[127.65312753023149,36.60127537211122],[127.65324002112042,36.601607928858705],[127.65297927745124,36.602741338859246],[127.65255176883369,36.60294437329649],[127.65260495482487,36.60393080834529],[127.65246294185457,36.60422168129241],[127.65240281294078,36.604821659186435],[127.65132812838655,36.60472622895701],[127.6509059249949,36.6049145417939],[127.6499691872704,36.6050972687378],[127.64866792306198,36.60554421409167],[127.64764777309433,36.605465935594694],[127.64626412211975,36.606594160450335],[127.64550871049177,36.60602562083015],[127.64424274260497,36.60560988336895],[127.64373033438498,36.60518259546789],[127.64246634830677,36.60396765580266],[127.64213643851612,36.603445741785954],[127.64206419796649,36.60305969459091],[127.6412769921453,36.602552312756096],[127.64088924753575,36.60193526952059],[127.64055225145381,36.6015802968689],[127.63972095510267,36.60128969859825],[127.63917184212333,36.60075516303478],[127.63853906147946,36.60059146163977],[127.63778266919833,36.60023908185914],[127.6365626749636,36.600083007865],[127.63569235926379,36.600180107547935],[127.63490749482952,36.59942142003304],[127.63449994411084,36.59918035444628],[127.63421919983548,36.598666267811026],[127.63336252266957,36.59804808423661],[127.63304547654455,36.59726319576514],[127.63315615587581,36.596954225187545],[127.63306196128109,36.596570720801644],[127.63258244619682,36.59621819211293],[127.63255950504116,36.59539362483757],[127.63228666518182,36.59508803151916],[127.63114509222639,36.59441942342743],[127.63015921100867,36.59359128904668],[127.63025552119919,36.5932832994632],[127.63059284817506,36.592985745009344],[127.63048717247209,36.592309136719344],[127.6302228730898,36.59175890956602],[127.63060056862945,36.591154461355785],[127.6306083849101,36.59098175699929],[127.6318344762552,36.58946882749285],[127.63181948601556,36.5888606944158],[127.6308919506996,36.58859243889884],[127.63055658092615,36.58823202086782],[127.63053180394658,36.58790545803082],[127.63038559930456,36.58757188633476],[127.63045617749312,36.58642221349772],[127.62962616949423,36.58632358201364],[127.62915308587155,36.5861633229125],[127.62888814613703,36.58581469471275],[127.62855054159232,36.58593813096807],[127.62831249788078,36.58551870249671],[127.62756067340204,36.58502293504574],[127.6272499605297,36.58498383710191],[127.62692153863934,36.584750610805735],[127.62654493136768,36.58494102871417],[127.62590425315089,36.58433931760125],[127.6257226286217,36.58405540524787],[127.62561193655603,36.58358528401932],[127.6253122764087,36.58331631878259],[127.62463776448854,36.58290637298678],[127.62405868092993,36.58216672001814],[127.62381760352471,36.582029999476326],[127.62329319373131,36.58151048951388],[127.62268052598108,36.58141797441505],[127.62218239253686,36.58107072738824],[127.62203037588142,36.58017798009083],[127.6220901065521,36.579731298341905],[127.62268253555281,36.57881656274505],[127.6223872738551,36.5782072649113],[127.62165565771645,36.57834570897683],[127.62101867569208,36.57859775862041],[127.62075145585187,36.57848613912844],[127.6204037305707,36.57810321808042],[127.61878349838136,36.577805839058165],[127.61846806727519,36.57756406056697],[127.61775431243838,36.57752629143852],[127.61681908884034,36.57640678930607],[127.61570733527934,36.57527457214494],[127.61572515485366,36.57484830251088],[127.61544025621157,36.574561382026346],[127.61509558343555,36.57394033618355],[127.61403299084567,36.573103679502864],[127.61385959931438,36.57263069451262],[127.61337690937546,36.57236122338716],[127.61254670082046,36.57132485089326],[127.61236196740178,36.57031973592231],[127.61192968555359,36.570182626562904],[127.61167918927089,36.57029121730196],[127.61120552824724,36.57006600545726],[127.61147549998292,36.56927743700632],[127.61136485841428,36.56889670920027],[127.61164362746531,36.56853417388502],[127.61153916603445,36.56751573339361],[127.61125565990078,36.567129049334476],[127.61124364366064,36.566794009594496],[127.61185811583142,36.56614406379779],[127.61312236353427,36.565262095422945],[127.61310018025014,36.56462609317477],[127.613293852828,36.564293827779665],[127.61327591388908,36.56395245611308],[127.61352799804747,36.563623261224286],[127.61400849199445,36.56331871661612],[127.61410081583406,36.56288672804627],[127.61497182117938,36.56230477148251],[127.61540282698701,36.56217940595085],[127.61584701991757,36.56107170394245],[127.61675799069704,36.56038372654219],[127.61674624302421,36.56020955745],[127.61718896229242,36.559495848997884],[127.61654549406971,36.558804740724526],[127.6161784952638,36.55863735682152],[127.61574544536958,36.55808399872038],[127.61512805102316,36.55752191742331],[127.61504436663091,36.557251794110535],[127.61431866353645,36.5568004913414],[127.61375546503902,36.55556733536551],[127.61365791885537,36.55500778359792],[127.61383837435524,36.55476027315099],[127.61374619747095,36.554439180111736],[127.61393954230748,36.554150923357604],[127.6138274191787,36.55370272023605],[127.61323369938117,36.55350799857009],[127.6129483990731,36.55227966197338],[127.612359721622,36.55142800399101],[127.6116570128356,36.551477217622725],[127.61142872906257,36.55123682699585],[127.61014179868658,36.550940156304506],[127.60953510435264,36.55040258355246],[127.60884242250938,36.55033795925852],[127.60860455528075,36.55018720372934],[127.60858380423187,36.54972896843177],[127.60710743116476,36.549542291760986],[127.60609525805985,36.548998665945525],[127.605302032831,36.54878659441551],[127.60480084556319,36.54850514063689],[127.6043084479028,36.54860738542529],[127.6035896847793,36.54790908300341],[127.60291208531427,36.54806060071066],[127.60239661850584,36.54804498853685],[127.60143865033632,36.548437468817696],[127.60099551153702,36.548282034977866],[127.60049924499461,36.54851598711468],[127.59977278587587,36.548195567218016],[127.59896744538642,36.54832712331882],[127.5982885294449,36.54770480548791],[127.59742529002992,36.547371668010456],[127.59609535360622,36.54644494224348],[127.59481184496343,36.54650059942592],[127.59423894121821,36.54627903290004],[127.59374790178919,36.5459033742258],[127.59363936411916,36.54522913961199],[127.59255713062252,36.544239946072445],[127.59188908647772,36.543810964406816],[127.5918467649679,36.54352781588104],[127.59089619309084,36.54328087362111],[127.58956743824302,36.54331017927457],[127.58878858087841,36.54378367686316],[127.58788338065611,36.54382504163586],[127.58679214464999,36.543494596479896],[127.58577757882736,36.54328325526677],[127.58515892721361,36.54259386519646],[127.58285281866817,36.541682369570026],[127.58186241482709,36.54209204442216],[127.58085315713087,36.54196091743751],[127.58030069071971,36.54134317059613],[127.58013220699354,36.540719754659904],[127.58010232315031,36.540350931714855],[127.58020887212373,36.539521012352516],[127.5803960860427,36.53888079604765],[127.58036444599313,36.53867658145925],[127.5796568129518,36.53819135716065],[127.57963698202205,36.53747132122321],[127.57951903570667,36.53726593069108],[127.57914963571257,36.537181922819315],[127.57810315440156,36.53749397730205],[127.57784880207767,36.537640991051425],[127.57693408481829,36.53759926040634],[127.57632912107987,36.53712076722445],[127.5751606747801,36.53704257103967],[127.57474976372386,36.53707830383453],[127.57365213872946,36.536604358129175],[127.573334668865,36.53657458566574],[127.57249800495968,36.53607648287847],[127.57184312380751,36.536029989667604],[127.57150129247349,36.53577500013217],[127.57112108910572,36.53568532495772],[127.5707635292004,36.53547346205195],[127.56959434462748,36.53457737319723],[127.56933051841108,36.534115292034855],[127.56931646296589,36.5337474357913],[127.56870868058695,36.53287993273462],[127.56851452170517,36.532733034584695],[127.56752868729166,36.532546657139136],[127.56724451102549,36.53225463346919],[127.56725527238099,36.53211447265046],[127.5666317501481,36.5312440142696],[127.566243853599,36.53113367768346],[127.56502217979416,36.53057417437384],[127.56532460277798,36.52953170908106],[127.56645507835717,36.528317300079095],[127.56704681677164,36.527965217804386],[127.56774932935457,36.52725663609139],[127.5679589496565,36.526912154485615],[127.56798994879578,36.52620981720965],[127.56818374862252,36.52596222094598],[127.56816860393288,36.52561550700843],[127.56854726684611,36.52480384004608],[127.56860149171536,36.52416843552337],[127.56918966875695,36.52368408856755],[127.5692095537875,36.52199700483928],[127.56942705415169,36.52136938404236],[127.5699858000644,36.52068102989045],[127.57092470819886,36.51852247564772],[127.57217520103683,36.51784374772306],[127.57331190748017,36.5164502482373],[127.57265859365344,36.5158943854011],[127.5729469721337,36.51442518844628],[127.5729483435552,36.51392533094554],[127.57274945485362,36.513544146940916],[127.57288371040977,36.51284141026325],[127.57317363031109,36.512511259612886],[127.57321667093228,36.511592281011126],[127.57273805160494,36.51111606078608],[127.5729033308411,36.510462450184896],[127.57289094565293,36.50979057865729],[127.57300208573554,36.50930926997824],[127.57353850580729,36.508410850745626],[127.57282872285819,36.508130232697916],[127.57271070687068,36.50753259497794],[127.57160979690904,36.50554712183164],[127.57064413195883,36.505524625914546],[127.57055631217385,36.5050130989314],[127.57089593774457,36.50430892563065],[127.57054714300021,36.5036580560258],[127.57003313468304,36.50321920411738],[127.57040047319245,36.50260673080923],[127.57060402708031,36.50177921860123],[127.57054165968445,36.50142467386077],[127.57070343841725,36.50085572531716],[127.57026846894215,36.50034180836925],[127.5702012963872,36.49931719976007],[127.5706536246921,36.49920099563045],[127.57110637489195,36.49836551449161],[127.57092155065303,36.49806018987444],[127.57119765293376,36.497160446444866],[127.57202027534706,36.49643301814182],[127.57210309281861,36.495944997380064],[127.57241547336919,36.495083761637936],[127.57217742309979,36.49346646260148],[127.5745698789694,36.492444638691836],[127.57541425972609,36.49159591481715],[127.576289340546,36.49141127626009],[127.57679144568554,36.49047854716095],[127.57726445314212,36.49033133549876],[127.57845375612904,36.49025840358318],[127.57734128054823,36.49002536928866],[127.57640464079488,36.49000717783262],[127.57583179445228,36.48992001106831],[127.57481685981416,36.4891265801083],[127.57444929363814,36.48855376941174],[127.57386489760354,36.48840729115623],[127.57347971165552,36.48800797871412],[127.57289979841671,36.48657926739062],[127.57220454278898,36.48630545833087],[127.57122708339699,36.48650221671149],[127.57090283428596,36.48625889644297],[127.57032372484076,36.48619128971918],[127.56949466808993,36.485656374836985],[127.56922121087655,36.48519387685747],[127.56729960580222,36.48428201117216],[127.56677301617817,36.48371462274485],[127.5665831852266,36.48326418637659],[127.56707298418785,36.48164156125427],[127.56628593922873,36.48119504829686],[127.56469519604613,36.480675444037836],[127.56443684316821,36.48000383475533],[127.56273506503886,36.48023655884118],[127.56242547466744,36.4796757384524],[127.56236827505796,36.47859661959988],[127.5618653444341,36.478067370623585],[127.56074971569647,36.475672986798855],[127.56015462344874,36.47558172241752],[127.55904029907524,36.47498194245418],[127.55969840310448,36.473832738959814],[127.55862297104123,36.47206865558579],[127.55817886863575,36.47223602608725],[127.55772487548198,36.47203441177384],[127.55617232178324,36.4718231108064],[127.55649790647311,36.47077243026016],[127.5570604556302,36.46997552799426],[127.55692391424813,36.46969126535931],[127.55685412494825,36.4691374152707],[127.5565857329507,36.46848847836564],[127.55657495260722,36.467898198287436],[127.55619329206165,36.467771081655286],[127.55567058044537,36.467382755489076],[127.55528085873624,36.466449437608865],[127.55572474068566,36.465917829729236],[127.55566143104386,36.46573676835315],[127.55494810074245,36.46545323423468],[127.554638292434,36.46519732200428],[127.55292596994879,36.464747219774935],[127.5538121065474,36.46420076854686],[127.55424661531151,36.46379954322148],[127.55431215370385,36.463633753753975],[127.55377082683027,36.46279747982143],[127.55364622342385,36.4623774020597],[127.55362320300794,36.46192685569532],[127.55381310005976,36.46148437949615],[127.55372706553464,36.46094145880375],[127.5534350306145,36.46068612664625],[127.55322388185569,36.46013348532829],[127.552943234691,36.45970642259159],[127.5531258700593,36.45953840898944],[127.5531859237562,36.459144904472275],[127.55289459106294,36.45863252597981],[127.55264138215284,36.45792991893645],[127.55194797679177,36.45670363091381],[127.55193857913567,36.45652157015409],[127.55148367500313,36.45576801984763],[127.55117539127703,36.45559427519388],[127.55096553834038,36.45515143646211],[127.55027053626623,36.45508612897229],[127.54978882623814,36.454709428250844],[127.54920612477012,36.45459169262651],[127.54920804064288,36.454077191111026],[127.5490952094828,36.45374095042538],[127.5481927945758,36.45303996711665],[127.54805067683138,36.45283417358501],[127.54805825703595,36.4519795905874],[127.54796664621992,36.451684255030194],[127.54738185177158,36.45164122254692],[127.54713384015763,36.45151854008594],[127.54654406922572,36.45041826580817],[127.54599769933742,36.450375134011686],[127.54530143336267,36.44811325572335],[127.5454145606707,36.44750640412047],[127.5455817339574,36.4472421894508],[127.54575045784321,36.446264539813846],[127.54388177413706,36.44623801704488],[127.54176107999484,36.44542497652368],[127.5395197351671,36.44475362222354],[127.5394011761896,36.44501802163774],[127.53927028233569,36.44499108206025],[127.53713245435607,36.444290976608976],[127.53058286651445,36.441825973711865],[127.52868943237907,36.440978583960685],[127.52565288299517,36.438990976794656],[127.52498306271517,36.43837628745837],[127.5231055969913,36.4373985091979],[127.52284228528033,36.43707038009722],[127.51938290615398,36.43479890903519],[127.518837802986,36.433748287869314],[127.5175473550235,36.43193488030837],[127.5168467310697,36.430766193586976],[127.51620617483313,36.42876893999015],[127.51603262646215,36.42786861648612],[127.5155739172792,36.4263051015563],[127.51500387001437,36.42474147768914],[127.5145113333875,36.422469607888914],[127.51606428385622,36.42244865222021],[127.51639790280295,36.42236375841351],[127.51664993115426,36.42204383521377],[127.51784028793288,36.4214039659367],[127.51801545265234,36.4209819907601],[127.51918876749454,36.420233308335135],[127.51927705828015,36.42000345420086],[127.52021323903094,36.41994217559515],[127.5204607645771,36.42032973225548],[127.52036519309468,36.42045834476893],[127.52038385640839,36.42065920267094],[127.52076788000382,36.42089333799171],[127.52117910972892,36.42136631340739],[127.52220306685977,36.42159311481574],[127.52281019965774,36.42192138655151],[127.52322684016906,36.42275210728289],[127.52374748422908,36.423070442590166],[127.52404902629429,36.423431071967904],[127.52431497131002,36.423531430570996],[127.52497451782791,36.42313050283991],[127.52508462733323,36.42278105734095],[127.52537525978927,36.42260577084248],[127.52553905147929,36.422315980377704],[127.52613156657156,36.42187664266571],[127.5260494743419,36.420989251415016],[127.52615682404215,36.42087580454965],[127.52648838826839,36.42087598569052],[127.52699580340398,36.421175333546415],[127.52714315658477,36.421191888308485],[127.52782099201052,36.42118846876093],[127.5282191216906,36.42108700901561],[127.52856564677165,36.420761329742874],[127.52869269479237,36.42038538253758],[127.5288754422805,36.42016057780798],[127.52892458255958,36.41965778568781],[127.52954785423294,36.418879581107376],[127.53029649670064,36.418923929149194],[127.53059111065883,36.4190977629967],[127.53126411643215,36.41921610306293],[127.53249853834774,36.41920838363433],[127.53277500580008,36.41928042875463],[127.53297025458559,36.41914819882727],[127.53347472439347,36.41906641491511],[127.53479043405008,36.419249952974255],[127.53502221210765,36.419147563245545],[127.5353540130373,36.41884941387521],[127.53611094427171,36.4192288437549],[127.53636716779229,36.41918280954704],[127.53667595811122,36.41937996108522],[127.53673104010443,36.41988192383369],[127.53753403624613,36.42030498257032],[127.53785884246011,36.42015305140668],[127.53835312847004,36.420144504022545],[127.53857347535678,36.42025431704338],[127.53935084372158,36.42041470357863],[127.54017954191674,36.42073014461544],[127.54099581702897,36.42028833971242],[127.54226973610264,36.419419631083926],[127.54284446951486,36.419315809684285],[127.54215774104883,36.41816627556581],[127.54184915989093,36.41568752074101],[127.54287951358438,36.41207824383214],[127.54556643644528,36.40880233150613],[127.5469519555238,36.40833874781671],[127.55008290540246,36.40710669608755],[127.55167844140061,36.40549931326729],[127.55319739227565,36.40121717580442],[127.55500285237017,36.40012391356347],[127.55552781679219,36.399881575437796],[127.55630487742465,36.399667666194766],[127.55711099785262,36.399545219355424],[127.558165098096,36.39967591720654],[127.55877987061265,36.399856046525265],[127.559172755478,36.39917595346778],[127.5588409425714,36.39902984530555],[127.55919270826031,36.39773023083328],[127.55814329378337,36.397546896427315],[127.55569146530087,36.395961926844414],[127.5547947319062,36.39498152965494],[127.55373845785489,36.39469808833587],[127.55410177226075,36.392685411802866],[127.55480128080956,36.392110577975366],[127.55529790317443,36.39191811475902],[127.55586128021662,36.391859153658366],[127.55577759550097,36.3922990697757],[127.55583377786479,36.3925888816367],[127.55696750165178,36.394112524492385],[127.55809623198938,36.39422819766401],[127.5594512894633,36.39462052790367],[127.56141495444426,36.39494033104826],[127.56371393276501,36.39623613571103],[127.56643275581433,36.39841444527354],[127.57162415262954,36.40176848275716],[127.57326484126514,36.402751188598096],[127.5738589967053,36.40340902131478],[127.57491784930326,36.40402115918657],[127.57560982387788,36.4047161567579],[127.57670853260234,36.40539688165977],[127.57828045746734,36.4065336015741],[127.58052477974803,36.40847064617642],[127.58112567279042,36.40957682363971],[127.58172989427216,36.41158262002335],[127.58189157238384,36.41370863148926],[127.5818237492253,36.41410258420806],[127.58149183511497,36.41494544928897],[127.5815158375609,36.41512045262412],[127.58211286437663,36.415403468847344],[127.58217266130448,36.41549824898643],[127.5825856234648,36.41561300311496],[127.5829308638213,36.41615981848558],[127.58309172262379,36.41661504396613],[127.58309158233227,36.41697026809699],[127.58323856818689,36.416919061531814],[127.58337840320739,36.41735663571698],[127.58318483847948,36.41826192142049],[127.58319898590575,36.418476379472224],[127.58338987934425,36.41868736322527],[127.58360722649961,36.418729199145325],[127.5838710068588,36.41852992187667],[127.58420713239506,36.417479360206805],[127.58451692466325,36.41723997956475],[127.58486904334914,36.417053569053046],[127.58580046959388,36.41732059597925],[127.58604461560995,36.41724769649477],[127.58628988816909,36.41699366095991],[127.58638664361848,36.416744901824764],[127.5862900264793,36.41643200872343],[127.58516555122472,36.415772848197264],[127.58524162479607,36.415349862105494],[127.58539895451266,36.415193258264416],[127.58582322758045,36.41515972364604],[127.58643087694273,36.415471052978646],[127.58717805709286,36.415482997854966],[127.58798776412779,36.41527809353501],[127.58841574167576,36.41512622819037],[127.58852274683952,36.41501738635979],[127.58788220976956,36.414113315037326],[127.58794505515696,36.4129947149891],[127.58804231185947,36.412895750700145],[127.58820426719997,36.41284431960474],[127.58859676205579,36.413005841386024],[127.5893090118483,36.41353413310978],[127.58950068528499,36.41355004949353],[127.58981362657747,36.41330563108058],[127.58985778064643,36.41308129677486],[127.58971968689393,36.412590193811255],[127.58984967666785,36.412315565214314],[127.59029915563181,36.411855511642095],[127.59069304747145,36.41173884341123],[127.59103725678987,36.4117399554406],[127.59178144787334,36.41198469263125],[127.59279251174407,36.412518263623866],[127.59349550144059,36.41305435207758],[127.59400634849732,36.41318724429253],[127.594258920695,36.41302294479482],[127.59429270342227,36.41286885176396],[127.5940191491082,36.41234353212698],[127.59342305016172,36.41183841187457],[127.5933915536106,36.41151343064974],[127.59379917620514,36.411119660989556],[127.59397872500806,36.41105766391395],[127.59551167725644,36.41119654938423],[127.59572349015336,36.411156600592975],[127.59649944638724,36.41069847744868],[127.59670068679618,36.4106977448963],[127.59692411228495,36.41082244939446],[127.59784879013792,36.41183153009382],[127.59830149085371,36.412002959622505],[127.59863252311307,36.41195888574654],[127.59883518009866,36.411767235534626],[127.59902172219812,36.4110665474353],[127.59908832117341,36.41030779710597],[127.59904112753668,36.40933678155289],[127.59845714298261,36.40820874973379],[127.59886692452785,36.40778340176165],[127.60002206391957,36.40757887745674],[127.60097950214146,36.407169151015715],[127.60142879279883,36.407179781593726],[127.60164625295887,36.40737011216215],[127.60206712522677,36.40900711809929],[127.60219091682222,36.409287734944726],[127.60249672438431,36.40953566468121],[127.60282991317821,36.40953564510386],[127.60397215795928,36.408723320381604],[127.60445368786381,36.40856517350356],[127.60465508508034,36.40833876125512],[127.60467215064621,36.40802540610911],[127.6042756544739,36.407792668980534],[127.60370642877464,36.407678046164996],[127.60357479559453,36.40758369242192],[127.60348461168546,36.40729241694414],[127.60394170817585,36.40626808093104],[127.60408654871733,36.40568240389217],[127.60413294492372,36.404857976616015],[127.60392438605048,36.404370739112785],[127.60409022949538,36.403971918778204],[127.6053183641849,36.40378793544779],[127.60627495438236,36.40348978950872],[127.60660967766489,36.403604946915536],[127.60698661501634,36.403515749341445],[127.6071730997611,36.40341582210079],[127.60736308032924,36.40310431423298],[127.60758781367578,36.40298468049656],[127.60793580274529,36.40323467716979],[127.60822211508348,36.403218257188755],[127.60846394504865,36.40311697955771],[127.60948150087606,36.403100487938076],[127.60984990042968,36.403006187374416],[127.61182105288103,36.40319604294263],[127.61223867659056,36.403353654776865],[127.61245541533822,36.40350536280912],[127.6126081595076,36.40389805105511],[127.61338037366053,36.40421159301543],[127.61349296171592,36.40452803950239],[127.61408971541006,36.40509256067656],[127.61432135855551,36.40581780791651],[127.61436064582841,36.40637899596909],[127.61450502644425,36.4066343807893],[127.61580074502217,36.407362233163205],[127.61587260603375,36.40765810768308],[127.61571396483406,36.4078761095715],[127.61570742471488,36.4082815457866],[127.61643324440112,36.40860288027409],[127.61659960804971,36.40905921417043],[127.6167753079885,36.40918623605269],[127.61655911665684,36.4097083585843],[127.61718625363586,36.41053555670859],[127.61714921281043,36.41078355217685],[127.61692962843671,36.41100842190187],[127.61694527763493,36.411242604704256],[127.61750052910661,36.41198183856354],[127.61743428202307,36.412295384308145],[127.6172247984806,36.41255593261727],[127.61743958729129,36.412789239890415],[127.6172018307877,36.41325244055035],[127.61716928670464,36.413663550988375],[127.61738498936346,36.41405750309304],[127.61737997138582,36.41423925313596],[127.61758090702234,36.414737147883194],[127.61772112581518,36.41482800849612],[127.61763999210747,36.41509203154545],[127.61797324526934,36.41531880028552],[127.61795738935817,36.415562775682176],[127.61769902136095,36.41599136245944],[127.6177156532088,36.41618855597924],[127.6173708195542,36.416735385461735],[127.61733737333898,36.41735537768737],[127.61739265013699,36.41743013959978],[127.61800376830355,36.41760809084126],[127.6190383726477,36.41767088873049],[127.6190277650564,36.41773104222573],[127.61912852572097,36.417746309240236],[127.62002392862323,36.417712425594516],[127.61993671030389,36.41763174508592],[127.62013230646605,36.417802759980916],[127.62027482294978,36.41804862081663],[127.62079430843549,36.4181657984906],[127.62087350134139,36.41848973027861],[127.62057909546888,36.419684485591915],[127.62046772321752,36.419785098815446],[127.61992747598165,36.41991515829594],[127.6200373146633,36.42044251172678],[127.62112684286006,36.42125540137874],[127.62176213892155,36.421496186834275],[127.62193789450055,36.42164545954755],[127.62224711791133,36.42224239444272],[127.62258698853125,36.42248957008933],[127.62342957411401,36.42256685571942],[127.6237425453562,36.42221338264775],[127.62387353956629,36.42221164390408],[127.62426860147396,36.42224563038544],[127.62467230683302,36.422493213253254],[127.62500310313163,36.422980865574715],[127.62517828954569,36.42341453609218],[127.62513391517605,36.423970217063484],[127.62530020759607,36.42480557139021],[127.62574537720597,36.42552245770498],[127.62597851128366,36.426309488791944],[127.62685399850726,36.426779738975476],[127.62722264251325,36.42741762226394],[127.62752078266737,36.42775417863278],[127.62777994179878,36.428292137893976],[127.6280795187815,36.428636011691125],[127.6280302496484,36.42945157682228],[127.62760402288635,36.43050489978523],[127.62784889866818,36.43090842712889],[127.62808971636244,36.431636732170844],[127.6281837686892,36.43229550073524],[127.62850444279108,36.4326437842841],[127.62847095759747,36.433200472624875],[127.62824779297254,36.433729895238905],[127.62857571688762,36.43400548230253],[127.6286179950627,36.43445750987401],[127.62901479759118,36.43524427082386],[127.62987598647271,36.43621944844755],[127.62976122320784,36.436607608849485],[127.63026425519479,36.437166354449595],[127.63113086303116,36.43777658740669],[127.63122706307095,36.43793905057124],[127.63119588962307,36.438482769053145],[127.63133491595991,36.43888663032289],[127.63125500916055,36.4396240540165],[127.63159069067515,36.4402478478862],[127.63243142729186,36.43912140103382],[127.63311465897372,36.43851975150649],[127.63357212180897,36.43817990560641],[127.63493205989197,36.43790441833443],[127.63586034932388,36.437145267389965],[127.63630730119795,36.43690188276858],[127.63679715432357,36.43635596492402],[127.63761400528145,36.435643008512955],[127.63824118885229,36.43585995964302],[127.63922512301137,36.43602849643825],[127.63933912457442,36.436413232855024],[127.63964816520206,36.436860703850606],[127.63942464657592,36.43749989033564],[127.63995720097992,36.438158511005895],[127.64004291037834,36.43861452748074],[127.63986278664484,36.43938574284478],[127.64011101662089,36.44028840880621],[127.64116884639849,36.4417618552736],[127.64136204914195,36.44255591687805],[127.64194998687438,36.4433108158221],[127.64295361197165,36.44361657722384],[127.64337794199098,36.44412816247526],[127.64373195192914,36.445069754374394],[127.64474355750734,36.44528864877106],[127.64567203941392,36.445189454954736],[127.64637525372429,36.44486012905621],[127.64694712287374,36.444822442267785],[127.64732686120969,36.44439344627308],[127.64758437163398,36.44356692063582],[127.64763698637607,36.44308719114339],[127.6480036424126,36.44282765100034],[127.64808690110375,36.442628822421426],[127.64843246565567,36.442368539005734],[127.65009125553935,36.44313982702827],[127.65060959476135,36.443242426053686],[127.65080833875875,36.44413827265669],[127.65086391561404,36.4441300760753],[127.65065103237085,36.443225493585174],[127.65097066925406,36.443177564916304],[127.6509738861651,36.44224278049274],[127.6514284681995,36.44148287759699],[127.65219716260572,36.44095874765192],[127.6523994085098,36.440330767254046],[127.65292288534607,36.44004245665282],[127.65338139693,36.43930429308745],[127.65399359289728,36.43866270488401],[127.65479025751021,36.43876954955894],[127.65538537824922,36.43786391356013],[127.65621522023478,36.43768317604496],[127.65643245750753,36.437998617278645],[127.65766201213482,36.437991648385825],[127.65776963954693,36.43806491576602],[127.6580831445231,36.43841367336913],[127.65821397202677,36.43877192563157],[127.65816597026647,36.439305271369186],[127.65851604836841,36.43963236789026],[127.6589726331541,36.439683436299156],[127.65924747732848,36.440361925196804],[127.65922362136912,36.44015183813942],[127.65982060784438,36.44020221110278],[127.66066676078721,36.44066640925227],[127.66131592487386,36.44056535256603],[127.66151761040236,36.44085186636528],[127.6619220281379,36.44113170416774],[127.66192083095696,36.4414577176863],[127.66173439265111,36.441702291354304],[127.66188599896624,36.442306752385484],[127.66203416375684,36.4425610721516],[127.6622888560321,36.44266339202674],[127.6625144025653,36.44301752754529],[127.66289303258331,36.4430131529733],[127.6631107361316,36.44291718933844],[127.66360468201107,36.443028562347614],[127.66376470402145,36.44321823865837],[127.66360150499223,36.44401860311485],[127.6639937743391,36.44435316760408],[127.66397650726137,36.444517205987644],[127.66460833443865,36.44487884191654],[127.66457968928077,36.44492562554189],[127.665238669654,36.445047710425825],[127.66581941241645,36.4450013672773],[127.66606992565232,36.44472419643055],[127.66674980432774,36.444549192842324],[127.66711756207955,36.44427005831118],[127.66863682397648,36.443671473879355],[127.66873654091609,36.4433841914436],[127.66897041805701,36.44328535446637],[127.66971410577763,36.442125225066974],[127.67034713206151,36.44160183836285],[127.67126320205064,36.441289881471924],[127.67289928133849,36.44048035932989],[127.67305690547063,36.440168236958016],[127.67465004593485,36.43916342995276],[127.67582873016539,36.43827533477599],[127.67617483646563,36.43723607243995],[127.67742893379744,36.43707506503784],[127.6786519153538,36.436603585238636],[127.67980898799019,36.43652767413591],[127.67994810914897,36.43629381211379],[127.68032814063601,36.436299257300846],[127.68050857928498,36.43601827428514],[127.68042892129678,36.43486880489195],[127.6797798612688,36.43399282494565],[127.6797981774581,36.43372824589457],[127.68005785392933,36.43330815196367],[127.67986040877813,36.43217256245744],[127.68034812220951,36.43188721259511],[127.68033987713898,36.431251355762726],[127.68044235121684,36.43072406668615],[127.6803871391993,36.43023350787406],[127.67951895355253,36.42969276176121],[127.6788437346091,36.42845679166374],[127.67875399434992,36.42819541969402],[127.67884210697184,36.42757109284521],[127.67861332318347,36.42746741694366],[127.67846060542392,36.42700998790693],[127.67879546981914,36.42653725178705],[127.67853592207398,36.425881237067024],[127.67865411419282,36.42547329517717],[127.67870383426505,36.424598831457885],[127.67912689756191,36.42410007208597],[127.67973234757024,36.42365566764608],[127.67974891219369,36.423121861710094],[127.68005086855314,36.42207107826636],[127.68036636204907,36.421538717801845],[127.6803857389318,36.420833849328055],[127.68059465792038,36.42051228609502],[127.6800877153792,36.41992385702287],[127.68132351983564,36.418544860428675],[127.68224437244963,36.41799781841367],[127.68359872907666,36.41744770726168],[127.68385379496594,36.417430443587],[127.6846625364878,36.41791667274975],[127.68595389377762,36.418259029738095],[127.68617034131493,36.4184020447377],[127.68758819500037,36.418079984631305],[127.68800317508973,36.417865343066964],[127.68922103232735,36.417664769137765],[127.68955660903472,36.417322789663245],[127.6901318118443,36.417239659268006],[127.69030920786938,36.417302130377166],[127.69119034814308,36.41714881504433],[127.69145409844394,36.41698432843702],[127.69205234191614,36.41677898912733],[127.69269144349904,36.41695868204649],[127.69346483129692,36.41706729560022],[127.69343592054814,36.416578475193774],[127.69385913816626,36.41621692444291],[127.69462310430045,36.415869734020546],[127.69502783266296,36.415983009071404],[127.6954907858348,36.41556244918066],[127.69554684975779,36.41541504916653],[127.69683883160539,36.41474356018062],[127.69780147475684,36.41474764916473],[127.698577903975,36.41427000640396],[127.70012041759193,36.4138351566329],[127.70053899526752,36.41383339243672],[127.70070229650443,36.41398123230292],[127.70169477763056,36.41411706151557],[127.70282215120612,36.41455727687911],[127.70372818065917,36.414615004788246],[127.70415418609164,36.41484322802622],[127.70437352808781,36.414713607677356],[127.70449731786816,36.414397854801045],[127.704940599185,36.414114672514124],[127.70511365133756,36.413724629465094],[127.70547601579479,36.4135572324274],[127.7074546515762,36.41372397890719],[127.70842198233196,36.41369533875742],[127.70910568675122,36.413571879787455],[127.71011497038643,36.41380376138699],[127.71051654849254,36.41347112514976],[127.71015068084532,36.412948326689985],[127.71029379854218,36.41246957311323],[127.71020577852568,36.412068292835876],[127.70985286908433,36.41175123763554],[127.70931303383136,36.41082500597805],[127.70900833731855,36.41059481271308],[127.70835143423939,36.40917969544727],[127.70850442188718,36.40864402545939],[127.70812398109693,36.40776873989953],[127.70808902787397,36.40733729736206],[127.7079318284358,36.40724512996481],[127.70795071687469,36.40695626451348],[127.70826147043184,36.40655730930602],[127.70956638711161,36.40558739138817],[127.71004852340742,36.40480381494657],[127.7102811252279,36.40479069222574],[127.71054890263562,36.404625553907564],[127.71074646292341,36.403880827057975],[127.71107186936122,36.40352577195589],[127.71264698814417,36.402671371119574],[127.71397088261376,36.40231249223193],[127.71442911420894,36.40166475457632],[127.71437443297408,36.40059045560497],[127.71484223597818,36.400455941250335],[127.71568246492772,36.399783937589696],[127.71612319695367,36.39972899845857],[127.71676528629212,36.399275455001614],[127.71695298917618,36.39897840370062],[127.71684354740837,36.39832398000398],[127.71751250151847,36.397280741771475],[127.71843257996024,36.39629537881713],[127.7194283532469,36.39560549842624],[127.71964499367377,36.39562588957405],[127.72033854231435,36.395160968286525],[127.72066391541394,36.39503224537573],[127.72201726309933,36.39395497684362],[127.72227548337992,36.39391084075678],[127.7225802311795,36.394038406317655],[127.72376278512913,36.39381542758865],[127.72435866258716,36.39352617805753],[127.72468211770628,36.393473421774694],[127.72539682576999,36.393777707485704],[127.72573157016342,36.39384360665051],[127.72609334789817,36.39339365968864],[127.72604129467308,36.393311880986936],[127.7263680381004,36.39314787196143],[127.72711725229874,36.39300031120705],[127.72716809187357,36.39276200967493],[127.726922919938,36.39239474939891],[127.72699438829315,36.39189318809569],[127.72728593682184,36.391985945961565],[127.72768588009487,36.391461301532225],[127.72791183760958,36.39075742043106],[127.73025699540239,36.38987930442177],[127.73144289854977,36.39022959495739],[127.73166147431256,36.390607117431514],[127.73221537724109,36.39120148832284],[127.73253207402426,36.39162966660136],[127.73299403494137,36.3935431985992],[127.73372200969398,36.39436363879505],[127.7339752451536,36.39405478636942],[127.73398587366127,36.393672814984654],[127.73416335531311,36.39357079771352],[127.73477377341715,36.39254366590793],[127.7358111983031,36.391856610509244],[127.73605261748384,36.39180881037798],[127.73631234409122,36.3919217727657],[127.73671342871778,36.39184080705071],[127.73738829063763,36.391371884018255],[127.73757812647449,36.39112693869829],[127.7383627959375,36.3905728942908],[127.73893395162833,36.389612406431766],[127.73922673218591,36.38938995307607],[127.74028889178078,36.38939266051653],[127.7407771903971,36.38891440188939],[127.74122570890727,36.38869783935414],[127.74198370334518,36.38811565917962],[127.74223580937094,36.38775234047594],[127.74261407863878,36.38765302073858],[127.74271367116452,36.38709743229102],[127.7429103367227,36.386899634530835],[127.74344682599293,36.38674136176295],[127.74396570234639,36.38677854439283],[127.74447010180485,36.3865628002976],[127.74482200224772,36.38657820079982],[127.74553694710005,36.38633034240067],[127.74601702198699,36.3863250615209],[127.74643274748802,36.38595567566597],[127.7467183507392,36.385829338397265],[127.74764736750379,36.38596277404347],[127.74802679336341,36.386436137594124],[127.74804268067892,36.38701840510464],[127.74919035808634,36.387671676405056],[127.74995359368107,36.387570500170426],[127.75087207957583,36.38778720912141],[127.75126133418392,36.38849666031766],[127.75114384291679,36.389039365307596],[127.75179815096159,36.38929176756528],[127.75220359070111,36.38923442214063],[127.75307649395762,36.38949280700221],[127.75349899589567,36.38979875324234],[127.75403095611102,36.38996873945055],[127.75489937867259,36.39092215536842],[127.75533683972934,36.391091738717925],[127.75639121704731,36.39086349653725],[127.75693384400726,36.39064376475907],[127.75806894147547,36.39084017599689],[127.75905843901498,36.39085901991082],[127.76033625660224,36.39104507851958],[127.76092624025169,36.39179793936584],[127.76177674108837,36.392642352293784],[127.76192343833536,36.392943706847646],[127.76239778272843,36.39346849702782],[127.76320669469176,36.392788662207856],[127.76396341497612,36.391739858861094],[127.7650193407735,36.39121912689838],[127.7654379555709,36.39068465779779],[127.76562703004409,36.38997156333275],[127.76723249096264,36.38939194619821],[127.76801558765736,36.38897572280417],[127.76850773532075,36.38889464975818],[127.76917179448378,36.38840570360899],[127.77038806752465,36.38785669983062],[127.77079070727977,36.38747907860297],[127.77294486305763,36.38761048390742],[127.77381299353036,36.38741627402616],[127.77582995884168,36.38731030125166],[127.77711742953686,36.38752531195715],[127.77734375761241,36.387850607817995],[127.77741057997491,36.388264070434055],[127.7779692970432,36.388550443396525],[127.77880046954748,36.388806739460016],[127.77970292035037,36.388675721332],[127.78050763338042,36.38871660479128],[127.78138428593441,36.38887418985429],[127.78231350356384,36.38752145824184],[127.78273159216636,36.387309128486145],[127.78338553283821,36.38707989677632],[127.78423557104986,36.38712665182918],[127.78459957273442,36.3872662745596],[127.78558879454856,36.38704309756655],[127.78655659285955,36.387234757139396],[127.78745162621877,36.3875259094294],[127.78912613162005,36.38819185270351],[127.78983243957278,36.388562726283325],[127.79001091937198,36.3888195363072],[127.79032622488769,36.38883600945244],[127.79065393002612,36.38899635597353],[127.79108061478433,36.388440847563814],[127.79157276715314,36.388177910769485],[127.79186282552313,36.38780338740642],[127.7936381195501,36.386644615160975],[127.79403215419778,36.386255447773394],[127.79475494890926,36.3846752161341],[127.79658610705556,36.384118437124606],[127.79741350428782,36.38355786593217],[127.79988919433357,36.383710851036774],[127.80061611775575,36.38245223836695],[127.8028927093411,36.38254293352724],[127.80407796995043,36.382332355166525],[127.80445455945895,36.382333707487554],[127.80470249512913,36.382172485266764],[127.80522166749815,36.38213928165971],[127.80551553382742,36.38224707320158],[127.80624845846313,36.382108839612755],[127.8069747534998,36.38218170527706],[127.80720682036373,36.3820352713286],[127.80747413071059,36.38201661783941],[127.80776677239894,36.38206591013081],[127.8080467835048,36.38222181709375],[127.80879614727384,36.38229980501468],[127.80908864509182,36.38228127572761],[127.80941039349028,36.382069475091114],[127.81006310987759,36.382351902531816],[127.81034429938897,36.38238207688131],[127.8112062494921,36.382077337751866],[127.81196909348174,36.382071877064696],[127.81249366424701,36.38186237810726],[127.8132718645471,36.38175109209415],[127.81445262681027,36.38171706356734],[127.81451659810268,36.381666930407555],[127.8167120744356,36.381854203833214],[127.81719905759518,36.381681434794736],[127.81855540328077,36.381648087576],[127.81914590230289,36.380898558448344],[127.8206686841321,36.38034543979738],[127.82188557226928,36.38002806040447],[127.82280203986784,36.379917780348045],[127.82317631543769,36.379563670448924],[127.82304115277736,36.379056572188496],[127.82399037512224,36.378682075952405],[127.82438634365924,36.377449451371504],[127.82438723086797,36.37699727959795],[127.8257578274172,36.37627378215571],[127.82662576060288,36.376125645184935],[127.82729416701957,36.37559720138763],[127.82757454561948,36.375474392346135],[127.82794361323229,36.37516195410583],[127.82859523935804,36.374036459815756],[127.82977135021504,36.374020047706445],[127.83045148373462,36.37429617062038],[127.83089640533275,36.37428032344988],[127.83163387679441,36.37398037402401],[127.83198961170342,36.37324799350181],[127.83182060131237,36.37298897283456],[127.83186646688574,36.37177910262516],[127.83179377730411,36.371016520350125],[127.83158671818072,36.370378616253085],[127.8325250299585,36.369619547355185],[127.83263621027446,36.36914687364752],[127.83465758811647,36.36913611873369],[127.8349386751161,36.36897446670895],[127.83536043924983,36.36917740710819],[127.8356666403619,36.36914398379797],[127.8359073537425,36.369293035834055],[127.83624876191605,36.370055081514764],[127.83610344472963,36.37031450831837],[127.83646519637088,36.37125598415746],[127.83670536718112,36.37160269369613],[127.83670601082359,36.372022640675475],[127.8368546825753,36.37219558467994],[127.83710753146501,36.37283538400038],[127.83705925347017,36.37313092748783],[127.83721755297665,36.373245401033635],[127.8379671417149,36.373268639368035],[127.83893423417487,36.37273977012016],[127.83939078173054,36.37255051871368],[127.8396987030474,36.37254140174271],[127.84035953088173,36.37222860906422],[127.8406979372434,36.372362439964654],[127.841673279795,36.371884367890644],[127.84188119240615,36.37163722712211],[127.84245218088722,36.371609176851614],[127.84319471461471,36.371842615010294],[127.84343192332047,36.37167663719522],[127.84390707741696,36.37159024132291],[127.84529932698698,36.37181907350993],[127.84561265448815,36.371799062200466],[127.84627554932949,36.37197806419149],[127.8472188468438,36.37198452921642],[127.84771243502743,36.37159604736718],[127.8484824703896,36.37154553382382],[127.84982082023458,36.371872741229055],[127.85036001142358,36.37193020621095],[127.85062582383381,36.37171849645314],[127.85110843580225,36.37158917495137],[127.85153766959931,36.37158753586659],[127.85176399380894,36.37142969458485],[127.85210832899877,36.371405716380835],[127.85273812580142,36.37114658439304],[127.85320880440284,36.37109756036497],[127.85377544497965,36.371601106595755],[127.85383565482739,36.37186703563309],[127.85475216478082,36.37244399982158],[127.856352255959,36.37241001547053],[127.85678573118794,36.37288607618758],[127.85754906047528,36.37310561445655],[127.85801977617922,36.37372791217431],[127.85839659887225,36.37396064170087],[127.85880810240626,36.374030943109126],[127.85887428607569,36.374160341436216],[127.85917323899082,36.374166215326284],[127.85948532384579,36.37428629477358],[127.86050932033856,36.37392834781027],[127.86207799877086,36.37398571576105],[127.86317521494733,36.37428275248487],[127.86413691978207,36.3734357147166],[127.86592364843843,36.373341815044],[127.8664882457928,36.37308324495275],[127.86797455547715,36.37313905361985],[127.86885672235492,36.3734012971829],[127.86991197947094,36.37346070352283],[127.87048722891653,36.373645101826575],[127.87098387352238,36.37326470424576],[127.87191374012224,36.372133263918684],[127.87311335320294,36.37154852715064],[127.87346888544697,36.37160379450634],[127.87390852067807,36.37118449228909],[127.87499076485892,36.37080954078887],[127.87601464584183,36.371542968546976],[127.87649888143952,36.37163515960308],[127.87751700560614,36.37137776684714],[127.8797560823793,36.37129649061962],[127.88002170548567,36.37174621566195],[127.88036363561413,36.37210039977646],[127.88201973051423,36.372818479828055],[127.8821820148438,36.37312168875848],[127.8830617968197,36.3739338307447],[127.88308888589046,36.37431194733996],[127.8834293025043,36.37475693861307],[127.88361277432612,36.375439414978125],[127.88342975170615,36.37578475727396],[127.8831498245363,36.37704061438938],[127.8834043450494,36.37797917187789],[127.88380185701959,36.37827302972115],[127.88418697221948,36.37932942491263],[127.88383943703063,36.38028086399511],[127.88335507394504,36.38068240159202],[127.88326999509799,36.38092010177036],[127.88287538309308,36.381095562803225],[127.88254845407137,36.38150368564421],[127.88247561509401,36.38179720127688],[127.8818250616033,36.38193379805789],[127.88106784044231,36.381921001778956],[127.8809121934731,36.38204254853925],[127.8807189636516,36.3825446608599],[127.87938671427307,36.38324499297697],[127.87891406252788,36.38457466949513],[127.87903935357848,36.384742317272966],[127.87870099127359,36.38505048598807],[127.87860102264904,36.38525795833618],[127.8788945691627,36.386327345982686],[127.87846921811334,36.3869000157435],[127.87851380534464,36.38724194924552],[127.87834074821075,36.387516454465526],[127.87803830364439,36.38773018034333],[127.87783796004074,36.388160618662454],[127.87791172829908,36.38862017097014],[127.87774558219802,36.38892202746554],[127.8769663762318,36.389223692459026],[127.87676209981551,36.38941741039844],[127.87666420558041,36.38997111958476],[127.87617978913698,36.39045015400925],[127.87536574989521,36.39087894376641],[127.87437002887202,36.39096128977776],[127.87354754136668,36.390791854771784],[127.87270036247911,36.390853491901815],[127.87227480936852,36.390565882306134],[127.8716045108712,36.39069825682827],[127.87122025644507,36.39122705932662],[127.87074525309285,36.391394868677736],[127.86979152075106,36.39149843229367],[127.86902348820394,36.3914889362657],[127.86812183357713,36.39098674464769],[127.86702235467497,36.39127667397657],[127.86653788292237,36.39164616251982],[127.86544416503004,36.391741246273696],[127.86458366235364,36.39163056264203],[127.86413552461089,36.39196674342935],[127.8639921687719,36.39246337695949],[127.86360394785731,36.392676829986456],[127.86271992532292,36.3929315711231],[127.86300607645943,36.393418247240234],[127.86297622140953,36.393533964554635],[127.86395636654231,36.3939020875474],[127.86528728727865,36.39404623784285],[127.86569253280051,36.39416925018079],[127.86606433315602,36.39443164633134],[127.86633133110924,36.39473543466292],[127.86630060584275,36.394910953879396],[127.86647679982876,36.39499383550432],[127.86612320046329,36.3953709802444],[127.86574295522348,36.395536333534594],[127.86517555493029,36.39607087522987],[127.8654548655311,36.39731586557121],[127.86524034439213,36.39776881523815],[127.86537598545087,36.3982862583765],[127.86522092536426,36.39854444726618],[127.8647734846911,36.39871023908655],[127.8643374133593,36.399482113943556],[127.86422952045955,36.39993065782479],[127.86405986068759,36.400091935687634],[127.86402750200082,36.40032093963718],[127.86414406236347,36.40079761910702],[127.86409657256706,36.40122695814752],[127.8643801471188,36.40194396411292],[127.8639031910992,36.40303994393646],[127.8638565266852,36.403557408188554],[127.86447149043273,36.40381720514697],[127.86503860529277,36.40337318162126],[127.86600772421711,36.40312430392954],[127.86701286135543,36.403099344635095],[127.86746417288397,36.40317815680827],[127.86772209620446,36.403437706195035],[127.86817630267316,36.40368753020783],[127.86901237627958,36.40375422862811],[127.86932046287856,36.40366904834979],[127.86969067485578,36.403686137234814],[127.86988543189678,36.40383626786062],[127.87042924524677,36.40400450773054],[127.87035963832649,36.4043349388133],[127.87098345039215,36.40435381894036],[127.87131599164564,36.40462241439526],[127.87199929339128,36.40491350261246],[127.87252134318837,36.40540997113791],[127.87274771500796,36.405870747718],[127.87314942323349,36.40600091250181],[127.87317383981573,36.40610886263286],[127.8734075668193,36.40628846458917],[127.87355184308643,36.407057602181],[127.87373728123076,36.40732886671356],[127.87329261251799,36.40827147526358],[127.87327418471375,36.40964638133517],[127.87392245259171,36.4104240387273],[127.87506956544655,36.411252905709425],[127.8757620596211,36.41141777617766],[127.8760649313507,36.41313190100655],[127.87588337507445,36.41335606375584],[127.87599027460368,36.41441861934048],[127.8762351579688,36.41449365556961],[127.87644772093309,36.4149891387004],[127.87705889152762,36.41525882758548],[127.8775661974324,36.415887647244375],[127.87804577860604,36.41597948831651],[127.8795404752681,36.41665646622342],[127.87988349164313,36.41754607550718],[127.88072408906538,36.41844317295938],[127.88148051895679,36.42001478205629],[127.88169141198699,36.420251180347634],[127.88231715882773,36.42050902321428],[127.88284922298169,36.42111876510089],[127.88315137195234,36.42216058602695],[127.88312780937159,36.42300374221342],[127.88337526082744,36.42345768955016],[127.88267773595855,36.42436730603383],[127.88148754102279,36.42445328316384],[127.88085587675789,36.424271610447775],[127.88043969594452,36.42436378743599],[127.87934358169981,36.42423621483455],[127.87882455612524,36.42429358228797],[127.87679209894293,36.4236590076998],[127.87468521207055,36.42377818042263],[127.87395395298535,36.423549630250335],[127.87294226366029,36.42402160533931],[127.87367520900976,36.42611726056564],[127.87501285586511,36.42714063852817],[127.87530876239641,36.427254584577696],[127.87539537420689,36.42739603189161],[127.87555010991402,36.427972334992106],[127.87524715222442,36.428965997044294],[127.87541308630178,36.42921698976185],[127.87533526946719,36.4293131890068],[127.87549223979522,36.42966292122194],[127.87532424613579,36.42981910112281],[127.87529877669883,36.4300759117092],[127.87514644558416,36.43021086172045],[127.87502126985143,36.43060777213085],[127.87479786648834,36.43094865457141],[127.87497585952796,36.431301363111835],[127.87489201095741,36.43158219317054],[127.87495784422369,36.43250340470163],[127.87513084417427,36.432893824885014],[127.87484336598648,36.433235494595465],[127.87461591930754,36.43333938962006],[127.87448663735137,36.433798612829285],[127.87457036232492,36.43432902818031],[127.87442143612547,36.43449101400919],[127.87450864908836,36.43471860583071],[127.87424676822948,36.43498857132877],[127.87389456931663,36.435654721139876],[127.87337537045887,36.43630475194467],[127.87354956206508,36.43683752449572],[127.87352403001874,36.437522965388425],[127.87375400430021,36.43794753893778],[127.87409109266348,36.43823788769579],[127.874159192382,36.43850509831883],[127.87351924053246,36.43859006577599],[127.87392045379104,36.43897459471686],[127.87387195793697,36.4390450905929],[127.87329370198007,36.43957215050406],[127.8732167601614,36.43983838343075],[127.8722174090761,36.44084274130646],[127.87228307580155,36.44081075969182],[127.87208350606514,36.440964478372074],[127.87200779583566,36.44089613913259],[127.87158627351539,36.440937212646794],[127.87138696153939,36.44107935021043],[127.87138564068319,36.441572503165915],[127.87261396846876,36.44169361571954],[127.87283022030046,36.442022291789414],[127.87295447756793,36.44197858192248],[127.87320980191849,36.4422195721849],[127.8732003986761,36.442514687743916],[127.87332146530557,36.44285762136352],[127.87346583202967,36.44299307062411],[127.87337252922312,36.44307427586636],[127.87353414408118,36.443243139186215],[127.87352754297622,36.44358627361953],[127.87379706381894,36.444290782367155],[127.87383529782804,36.44461066494871],[127.87343638048979,36.445381818325],[127.87395264395961,36.44669562465204],[127.87393905259657,36.44728290733505],[127.87484598208383,36.44879854527486],[127.8754017757505,36.44893684635435],[127.87598152043653,36.44897474635757],[127.87725220316517,36.44936301607057],[127.87776708541458,36.44972783608861],[127.87829124828752,36.450492621914776],[127.87832221773967,36.451517655329674],[127.8786206289395,36.45237942626925],[127.87930265945651,36.45295149508532],[127.8797192483965,36.454046583058656],[127.87924167635487,36.45486896590014],[127.87888183688936,36.45509514603236],[127.8791013543192,36.457706854641174],[127.88001386044193,36.45823633076266],[127.88043135471173,36.45881101574711],[127.88052566731307,36.459644564451],[127.88082428123536,36.460564578662364],[127.88205968774801,36.46184436988202],[127.88180210776011,36.46251248023785],[127.88125426044212,36.46331133080609],[127.88113787706098,36.463649894569826],[127.88059309705477,36.46421979880872],[127.88027569457404,36.46490103680497],[127.87918369534974,36.46572194123294],[127.87836981363115,36.467009142545635],[127.87885319908588,36.46729943047114],[127.87939325084132,36.46783295334567],[127.88029699966951,36.46821012625959],[127.88070265906684,36.4685301933776],[127.88068468268771,36.46916721265667],[127.88015187267054,36.470051022570786],[127.87997628059794,36.470643904015226],[127.87997386008158,36.47123837592037],[127.88070767489765,36.4723045173583],[127.8803059150137,36.47266972999821],[127.88013332310125,36.47402328209099],[127.88129391789742,36.47495612756893],[127.88217215171152,36.4759576006762],[127.88168880792085,36.477519048809356],[127.88175775671793,36.4778025120173],[127.88156918081792,36.47816524342178],[127.88114077470759,36.478399477743544],[127.8805173977723,36.48070740651377],[127.8793370475322,36.48098387311858],[127.87862193368234,36.481303542760045],[127.878148278078,36.48159847368601],[127.87767369143617,36.48202111801329],[127.87719107639514,36.4825914126277],[127.87517992231433,36.483321493314286],[127.87546220553152,36.484770604926176],[127.87567933023468,36.48505684325415],[127.87552059432896,36.48576039328643],[127.8758525481965,36.48661238892605],[127.8761399325666,36.48845238428943],[127.87870159671569,36.48952909226924],[127.8798716929141,36.48970757613831],[127.88032937555673,36.490034105379024],[127.88023208654914,36.490545065718386],[127.87967524194698,36.49129002217243],[127.88032463359285,36.492795242526995],[127.88037333498488,36.49320783108041],[127.88096383066147,36.493319445941594],[127.88202508507155,36.49316463801645],[127.88294750410974,36.49332539956793],[127.88411125138029,36.49339216437168],[127.88521253420765,36.49366476743586],[127.88547513669722,36.493346429578224],[127.88622133791145,36.49302309013461],[127.88738974681675,36.49329046142024],[127.88797725527178,36.4929931155529],[127.88870352011875,36.49317262674403],[127.89020340698487,36.49494757670752],[127.89279823599176,36.496099245005624],[127.89307927874002,36.496615549988164],[127.89387370521806,36.497451760883386],[127.89473772956215,36.498069519479955],[127.89477526526012,36.49844660989613],[127.89632765558882,36.498619445184396],[127.89755299841443,36.498616006702164],[127.89859954995103,36.499360503449154],[127.90075941696867,36.500089936939894],[127.90068728767089,36.50082807425566],[127.90078081724786,36.50129397714773],[127.9012413161958,36.50199583052782],[127.90283755277741,36.503208410229085],[127.90459514671853,36.50414548166009],[127.90502377943113,36.50528970235101],[127.90600786635217,36.50620629914264],[127.90632097244125,36.507117998805434],[127.90601444645652,36.50803255982908],[127.90513571735302,36.508494861729915],[127.90516242686829,36.50907284506496],[127.90483340302636,36.50944985785404],[127.90469165408636,36.50939469395077],[127.90401205246312,36.50972003767073],[127.90385779226243,36.5099199832104],[127.90376451826336,36.51015956711802],[127.90303942440616,36.51107853816358],[127.90289786614441,36.512006405691196],[127.90258920142507,36.512654842292555],[127.90240092300772,36.51280994776487],[127.90221573403997,36.513165123733486],[127.90240794949321,36.51333234391027],[127.90253225298537,36.51415571918923],[127.90288413429504,36.514963517601515],[127.90287465889531,36.51537760595041],[127.90314743826136,36.51628187064562],[127.90295812573311,36.51689039297415],[127.90315640706883,36.517365801264084],[127.90273134607246,36.51757480973545],[127.9026175874103,36.51786486503888],[127.90206470536154,36.51823946266279],[127.90176047084535,36.51861579340231],[127.9010784489074,36.51880088408749],[127.90075892605394,36.519544965936035],[127.90141725787592,36.520026458933685],[127.90187841256792,36.52079767084805],[127.9015887399347,36.521546410458555],[127.90120154572237,36.52184900859949],[127.90076376381214,36.52302593085675],[127.90065915483683,36.523529821881446],[127.9009066128419,36.52428146895452],[127.90059507407695,36.52511071728053],[127.90074673723194,36.52537869329159],[127.90076791089088,36.525850771013346],[127.90106705148266,36.52653603879608],[127.9016287927248,36.52692340723321],[127.90163868392388,36.527126743377444],[127.90218821299862,36.52753973685019],[127.9020198266855,36.528137555491895],[127.90101226837308,36.52881499414825],[127.89938128366354,36.52940343052893],[127.89869599737311,36.53032576805538],[127.89729964023303,36.53081797399922],[127.8966632685845,36.530949575740266],[127.89616876667168,36.531216942395545],[127.89578540322343,36.53098746524736],[127.89554372560039,36.5309637117335],[127.89483422637406,36.53061004273602],[127.8943651238438,36.53030738270156],[127.8939674030805,36.530402643273916],[127.89332563061453,36.53036861459507],[127.89275980079135,36.53055774412584],[127.89193538141699,36.531013857013775],[127.89143191997212,36.531651522493156],[127.89102652282153,36.53179816637983],[127.8902940711581,36.532512434035354],[127.88895032519132,36.53311785371597],[127.88847359040913,36.53372535594139],[127.88746493785816,36.53348358388272],[127.88684515278085,36.53379247808833],[127.8855213984581,36.53393375941548],[127.88518835254264,36.53415632696781],[127.88498718033006,36.53415129162339],[127.88450694289718,36.534628817129736],[127.88369452570608,36.534534507122736],[127.8830901212622,36.534892107509904],[127.88248111656061,36.534702794695164],[127.88163386362154,36.534785131839335],[127.88095133512523,36.534660170696455],[127.8804357764663,36.53490806685047],[127.87940458669536,36.53464645273729],[127.87883889673643,36.534666926636255],[127.87799547273144,36.53556565648984],[127.87676314231935,36.536491194335696],[127.87596451101817,36.53677615701649],[127.87610603325771,36.53715157814933],[127.87543603323316,36.53792865575116],[127.87520352603593,36.53910463757818],[127.87513238741222,36.5400461755509],[127.87441479619962,36.54091004066718],[127.87288646667494,36.54189094318609],[127.87120505562405,36.54234620668232],[127.87045057678877,36.542874596507126],[127.87073769224095,36.543192525752545],[127.87092353816954,36.5440258722283],[127.87094275020074,36.54562485972996],[127.87134457990282,36.546468724435215],[127.8717391952916,36.54793259752567],[127.87231555442493,36.54882364730201],[127.87286318687985,36.55134393626913],[127.87269721483328,36.55297254324359],[127.87181413494166,36.55447318166716],[127.87117339206821,36.55676560446282],[127.87027960876523,36.559247052265185],[127.86901230276573,36.55988412937438],[127.86633490338802,36.56046952338246],[127.86592231797376,36.56176224385638],[127.86438200712055,36.56402108010855],[127.86182701829222,36.56521792870728],[127.86008499269006,36.56593127263876],[127.86030484478424,36.567847426731255],[127.85729168687797,36.56955251658521],[127.85471616907454,36.57024801833916],[127.85209150851216,36.57110392393564],[127.84852177297043,36.57081286036811],[127.84823581130355,36.57049328550134],[127.84454974632297,36.56903491613774],[127.8429432652352,36.56890402324605],[127.84233398481237,36.57043772828781],[127.83961734583667,36.5700496262697],[127.83820730547905,36.57031276111508],[127.83661542004523,36.570098897025375],[127.83561893463616,36.57048724172974],[127.8355430059887,36.57113707898325],[127.8349187057136,36.57215205232565],[127.83361375104741,36.573023507462416],[127.83151030767829,36.57348079944018],[127.82987512386097,36.57413053766595],[127.8288449272548,36.57312000028878],[127.82748607801409,36.57069164072098],[127.82710776666741,36.57139312075813],[127.82422617832044,36.57077356555182],[127.82329001924232,36.571567280320934],[127.82156458032532,36.57235734600656],[127.82122515002183,36.572931608445664],[127.82028093830954,36.5733436893912],[127.81891596350361,36.574161164885524],[127.81787782007713,36.57452741840005],[127.81708763034851,36.575758973398344],[127.81648936642036,36.575776274602795],[127.81638402026692,36.576546834746644],[127.8164187827168,36.57723306410099],[127.81590132659468,36.57797975778206],[127.81505488837783,36.57760490086759],[127.81478807093102,36.57778127443888],[127.81443245497911,36.577849255946084],[127.81398269879743,36.57852488651372],[127.8130908653879,36.57891299614456],[127.8128222727603,36.579103184590664],[127.81261665770583,36.57946404750614],[127.81200414556609,36.57946565402824],[127.81172792294417,36.57931941546288],[127.81103348376016,36.579368287859815],[127.8099817758963,36.57985601969334],[127.80969202801698,36.579720876632024],[127.80896558092788,36.57974364409901],[127.80872541973476,36.58023630302274],[127.80830304903048,36.580251436155365],[127.8077972219002,36.580014668994856],[127.80602960331653,36.58091532471825],[127.80558750778998,36.58136992742393],[127.80501399765478,36.58120889136357],[127.80464724927533,36.58123662007355],[127.8043995349369,36.58239480590081],[127.80408285652327,36.583077521576946],[127.80391471915453,36.583306374900566],[127.80353688319151,36.5834461203349],[127.80318215119087,36.58345604894143],[127.80302932617653,36.58403364616976],[127.80222191209876,36.584342585484606],[127.80134881901756,36.58435433922832],[127.80040624685857,36.585125788316724],[127.80023968337127,36.5860143554311],[127.79913251558172,36.58605224533555],[127.79828768349024,36.586261837805665],[127.79828943824417,36.5871129794984],[127.79866550621765,36.587772296117045],[127.79934078513939,36.58848645423986],[127.79921721013899,36.589396295119506],[127.79894650140106,36.58954067195485],[127.7984956401299,36.59050903205766],[127.79759831312849,36.59088682699597],[127.79745778508179,36.59131576063027],[127.79755758233523,36.59153095416381],[127.7963240255046,36.59265737559773],[127.79628695524124,36.59390347409247],[127.79610029502392,36.59501814279502],[127.79659370402227,36.59618397199231],[127.79713650490119,36.59685423805118],[127.79695001818966,36.5975004531444],[127.79681639280479,36.597681179870506],[127.79687244724882,36.59846058217142],[127.79760029583137,36.60059525047925],[127.79774287673885,36.60082447758682],[127.79809913408026,36.60110297271512],[127.79828521145124,36.60158850938846],[127.79868050833646,36.602168451312586],[127.79724562933374,36.60435806551711],[127.79636804013705,36.60515176049657],[127.79425680288978,36.606649573952026],[127.79426310737362,36.60701877100605],[127.7939718748312,36.60745492829671],[127.79367129667285,36.60763537962652],[127.7933765681046,36.608015591601806],[127.79315280002051,36.608535548153405]]]}}
