{"type":"Feature","bbox":[127.53737830568781,36.70128062967741,127.66459959094811,36.860083976905976],"properties":{"regionCode":"43745","version":"vworld-20260909-3f8952dfda77-p3","name":"충청북도 증평군","attribution":"국토교통부/K-Geo플랫폼 · VWorld 법정구역정보, CC BY 2.0 KR; 공공주택 복덕방 가공"},"geometry":{"type":"Polygon","coordinates":[[[127.58408595900197,36.860083976905976],[127.58277313720761,36.85986931503887],[127.58165535935666,36.8595791298171],[127.58013466891968,36.858935518715505],[127.57888687708757,36.85815835366474],[127.57793813834392,36.85708880244623],[127.57776214061266,36.85646815120837],[127.57778921025661,36.85464903539964],[127.57846750443551,36.85336771968679],[127.57862835081386,36.852626419786674],[127.57852836562454,36.85214574170451],[127.57824560267963,36.851818063444924],[127.5777075472125,36.85171817524706],[127.57772057507239,36.85155213124355],[127.57711654795852,36.85174790100066],[127.57637109176122,36.85067517870228],[127.57529848102337,36.850896936536614],[127.5745762300561,36.85067834834446],[127.57381236026444,36.8508671286127],[127.57325944339792,36.85076023411425],[127.57233654490001,36.85012559241957],[127.57154380901274,36.850061382984634],[127.5718249621394,36.849693734595455],[127.57189883470103,36.84942309879526],[127.57275369925492,36.84835801073417],[127.5734268817187,36.84723991432442],[127.57308836214384,36.84664486145876],[127.57220377472082,36.84607571327158],[127.57233872832543,36.845239910716934],[127.57172853290223,36.844372464001296],[127.57159424661815,36.84388671040182],[127.5718406340764,36.843471009125174],[127.57226577671166,36.84214945190806],[127.57268402739054,36.84129728552687],[127.5728327519238,36.841214239720124],[127.57262917569935,36.840761034556394],[127.57218263027231,36.84043922857375],[127.57128670349861,36.8399254172754],[127.57016788401087,36.83967164015125],[127.56953885898659,36.83936842983685],[127.56868386189478,36.8385102450004],[127.56886517214232,36.83731593193747],[127.56929066815823,36.83674492773456],[127.56983230718596,36.835194885029914],[127.57019029297864,36.83374142854634],[127.56995478523798,36.83150857461431],[127.56920508553468,36.830155954163196],[127.56995691637694,36.829390590975365],[127.57094592033253,36.82860258641064],[127.57146819949921,36.828002807639685],[127.57207580394648,36.82790707989056],[127.57412961827313,36.828629785051405],[127.57596724483524,36.82905433480885],[127.57723945444582,36.82906479796621],[127.57840128284008,36.829703256387766],[127.57854064803888,36.8295866369685],[127.5792766904235,36.82826536335949],[127.57687308926296,36.82648930605221],[127.57664505136623,36.82507346143001],[127.5762492365932,36.82498572708629],[127.5756818887283,36.82418120895508],[127.57525019575655,36.82326264925918],[127.57366199567412,36.82146069514431],[127.57271215649529,36.821141131708416],[127.57203962475295,36.82003679309189],[127.57068630628214,36.81968116033832],[127.5700712653114,36.82017939370371],[127.56924267403494,36.820529678326224],[127.56803696210417,36.8201276569437],[127.56760945057609,36.819606095574144],[127.56717410713108,36.81928957826629],[127.56640816460778,36.81923887708179],[127.56594392658081,36.818799021388536],[127.56439878988351,36.818481088436606],[127.56417198401141,36.81819679531935],[127.56299124965169,36.8180584451254],[127.56119511497307,36.81847819896534],[127.56041051994234,36.81971384889677],[127.55952865321613,36.81866405725074],[127.55819281536485,36.81810017979782],[127.55698964291143,36.81742506703799],[127.55568160139221,36.81748571563911],[127.55504604433366,36.81678035291483],[127.55416000133565,36.8153419077314],[127.55373042307765,36.814988673693456],[127.55313138564743,36.81500067278356],[127.55147257963924,36.81423278467298],[127.54999532035418,36.81284996125222],[127.5491663074508,36.81268688094364],[127.54779960256151,36.812735924669376],[127.5448186218205,36.81350527246539],[127.54420843482582,36.812944677536166],[127.5432526471344,36.812747316499795],[127.54255638060772,36.812187321235236],[127.54204250361808,36.81203216605511],[127.54193373020946,36.811612769590724],[127.54163457686825,36.81118186310146],[127.5415078966266,36.81079724041421],[127.54100458551486,36.81044066479993],[127.54013002427342,36.81011486473037],[127.53808753769378,36.80893014774866],[127.53737830568781,36.80859742670812],[127.53844729589379,36.80761592909758],[127.5397193179412,36.80592795312379],[127.54021533723146,36.80547263839597],[127.54053622413538,36.80497974490682],[127.54067498264791,36.804488993538534],[127.54142203340002,36.80396115061527],[127.54187295166861,36.80332908374126],[127.54258683519826,36.80293982669987],[127.54311927693192,36.80235497197537],[127.54308321135468,36.80187346865237],[127.54353102759116,36.801744200228796],[127.54380912331658,36.80148755330668],[127.54432724872392,36.80148236897248],[127.54498341758881,36.801075231899404],[127.54564683051544,36.80033274216032],[127.54619702493358,36.79992671530167],[127.54684397730084,36.79973071814066],[127.54721447242721,36.799238670071325],[127.54815157920414,36.79835378121899],[127.54899409010201,36.798181363879046],[127.5492653664277,36.79820492452058],[127.54955298295738,36.79801801791157],[127.54981757301474,36.79803722596242],[127.55032743338816,36.798518284608704],[127.55092401289009,36.798901495864406],[127.5518680758308,36.79871715667724],[127.55203738387593,36.79881295262425],[127.5522851635851,36.799169430792396],[127.5527126812335,36.799278239237054],[127.55341755517979,36.79927807980667],[127.55425107553428,36.79973996905562],[127.55505821973247,36.79927997115077],[127.55556567930867,36.79828324279426],[127.55616390808515,36.797698725803855],[127.55659367159836,36.796689109545476],[127.55724784909674,36.795661137934616],[127.55735407871461,36.794625608647394],[127.55881985366115,36.79182575206927],[127.55868935058079,36.79152846335809],[127.55870043126818,36.79126696536071],[127.55924769834532,36.79088063572287],[127.55984056113323,36.790086743723364],[127.5602720023341,36.78939153208734],[127.56035723619007,36.78864333319963],[127.56061673295994,36.78822153450846],[127.56122750509604,36.787813810858715],[127.56129092811007,36.787692412603135],[127.56136093125667,36.78724374298207],[127.56117121760653,36.786481057418044],[127.56121030524469,36.78601274251041],[127.56094300378618,36.78548739892051],[127.5608078797684,36.78482219717949],[127.5610097178502,36.78469552846687],[127.56151161489068,36.7845865484367],[127.56251209569656,36.78409466498036],[127.56296134744342,36.783609621635264],[127.56367196367906,36.78322989519229],[127.5643661510919,36.78299097668538],[127.56468398405028,36.78266419418266],[127.56465586710497,36.781465616056614],[127.56473696057157,36.78124676207885],[127.56483012293994,36.779635492117976],[127.56506595079877,36.779349602578286],[127.56558602285666,36.77915680851394],[127.5659892900672,36.778736400132274],[127.56610141810052,36.778177132180694],[127.56653354099733,36.77748478624738],[127.56647313876442,36.77738648513777],[127.56656225350305,36.77720420180221],[127.5665323518073,36.776692295141004],[127.5666267994634,36.77648115248162],[127.56656416452977,36.77585278967533],[127.5668534780433,36.77602246208387],[127.56725958043401,36.7755749023182],[127.56757690757739,36.774539383365756],[127.56765334262916,36.774002732062435],[127.56761111739937,36.77380206020306],[127.56739798012825,36.77363887674091],[127.5673514626634,36.77325484312715],[127.56763607215225,36.772910854614636],[127.56799791350906,36.77256722875335],[127.56828279778803,36.77241033472763],[127.56856619893465,36.77186520698579],[127.56907315127823,36.77153088747458],[127.56932482780304,36.77145886087667],[127.56984823354541,36.771451496168716],[127.57113935921109,36.77165556486703],[127.57164145550446,36.7706294253706],[127.57228915991325,36.770255208819734],[127.57320174543341,36.76928549010211],[127.57373680043622,36.76890812378671],[127.57409112771703,36.76840509352188],[127.57504533100621,36.767373428153384],[127.57604534053269,36.766963343616716],[127.57680624997943,36.76688468586669],[127.57690148432796,36.76682159840338],[127.57698817969768,36.76636996304193],[127.57736093373309,36.76648143604871],[127.57760682269559,36.76672563240628],[127.57795241675215,36.76687273866791],[127.57843896989797,36.76700700597575],[127.57905023901837,36.76700521133134],[127.5791846039835,36.76685099445609],[127.5791059209505,36.766656540255454],[127.57944832977037,36.766478883158676],[127.57953830116915,36.766256668154234],[127.58002574713379,36.766177247392456],[127.58062719871087,36.76577942281854],[127.58077494242518,36.76553872344376],[127.58114584741377,36.76551456926106],[127.58207808122935,36.76501761907239],[127.58212644849588,36.76469332208967],[127.58206950368627,36.764713332736775],[127.58253401234238,36.76366317833609],[127.58309900550586,36.76272481630923],[127.58362927771904,36.76247251390808],[127.58361700847883,36.761924928213155],[127.58405388537007,36.76195424118488],[127.58425089455896,36.76206078466215],[127.58573093934903,36.761942052007356],[127.58640185840662,36.761637851246476],[127.58648543448822,36.76138060940215],[127.58735351785481,36.76057203550364],[127.58790337551538,36.76037331957649],[127.58840069112736,36.76079577186245],[127.58883742212264,36.760696740042455],[127.58894090302091,36.76059097333107],[127.58907740505958,36.760176207060084],[127.588946482072,36.75966291441859],[127.58835422282245,36.758552167057346],[127.58842260211719,36.7572569318491],[127.588061870815,36.756598232181545],[127.58730486813965,36.75583866770442],[127.58719522055911,36.755449445841805],[127.58800786878516,36.754854817390935],[127.58792195317334,36.754610296769215],[127.58837405864531,36.75446261855744],[127.58857835918504,36.753854036132736],[127.58913488682845,36.75367601635316],[127.58964450382439,36.75371819420076],[127.59001876948719,36.753549352905125],[127.59034399884845,36.75311716040387],[127.59004720393374,36.752774110716274],[127.59057260798527,36.75176499154886],[127.59051047664735,36.75153873658932],[127.59068289632326,36.750895254761645],[127.59060834134053,36.75047044737204],[127.59079788179379,36.74980795802842],[127.59043797772445,36.74925551983495],[127.59043056656826,36.74885290610879],[127.59023664012929,36.7485792753857],[127.59041187095602,36.74802679780793],[127.59088146306367,36.74757406972902],[127.59205087833915,36.746994034220094],[127.59216663136715,36.74669688135196],[127.5926012804923,36.74636210162028],[127.59350063974107,36.74627797171358],[127.59400587676802,36.74566031323676],[127.59464287836805,36.7455922513288],[127.59536299466338,36.745307760312805],[127.5958954857134,36.744646342822],[127.59755169368064,36.74450694023065],[127.59832210225393,36.7441365653899],[127.59950551529396,36.74473216235574],[127.60013690655066,36.74548894918237],[127.60050898548303,36.745653438906025],[127.60120838097477,36.74548580888428],[127.60206740938314,36.74568036669887],[127.6024683222112,36.74550270982121],[127.60287379211151,36.74549444319132],[127.60314416607596,36.74585741774482],[127.60356991191982,36.74583165685527],[127.60397285028763,36.745712645323344],[127.60433109182615,36.745452550141174],[127.60461503072605,36.7447621646524],[127.60462763843594,36.744378647163096],[127.60485122640564,36.74409526260751],[127.60545588505526,36.74402758599042],[127.6057950260199,36.743829225895304],[127.60611841616306,36.74349595233248],[127.60614640115624,36.743002501439],[127.60670063203678,36.74211220914732],[127.60639970751109,36.741305199817695],[127.60661851283028,36.74115620719927],[127.60650011215017,36.74074406914105],[127.60659430000445,36.740425204565646],[127.60650216887909,36.740264267939885],[127.60711686300486,36.74008018173328],[127.60729050717961,36.73990645756732],[127.60815674765892,36.739710363782955],[127.60784605958938,36.73890683195866],[127.60797009942013,36.738558166793325],[127.60871219235335,36.737912565387276],[127.6082968222168,36.73703323786577],[127.60868818323351,36.736552809204724],[127.60867655051221,36.736365331284304],[127.60952069279011,36.736135187847495],[127.60971621604925,36.735658453380665],[127.61057449448198,36.73527908861737],[127.61022256834475,36.734213261977544],[127.61045015644174,36.733834590425516],[127.60999982709352,36.73343902206578],[127.61017479057114,36.733062341411596],[127.61027340900672,36.73223112769839],[127.60981718677552,36.7315203567538],[127.60966515616391,36.73153843644931],[127.60927283404894,36.73049804371992],[127.6093553912516,36.73028845772411],[127.60954887243628,36.730152206272045],[127.61033842577858,36.72988813737483],[127.61140217860455,36.72921937250531],[127.61098780783865,36.72876314190644],[127.61086722716429,36.7281252002964],[127.61125178993159,36.727500542256],[127.61182241183016,36.72732231784156],[127.61223838168819,36.72704624892026],[127.61298024622522,36.72678265989568],[127.61328407634386,36.72681042168758],[127.61381452977618,36.72648336026876],[127.61444809243108,36.72509181501411],[127.61463410340994,36.72390449112228],[127.61487394057356,36.723508879635745],[127.6152086710096,36.72320377142321],[127.61507353989715,36.722563577641345],[127.6148395925683,36.722159583266325],[127.61510511761882,36.7217713710454],[127.61532495803911,36.72170086047451],[127.61562184310107,36.72048408357267],[127.61568727571144,36.71971332064112],[127.61542240460629,36.71867727372659],[127.61566607668766,36.71855186417676],[127.61599410771639,36.718142609631975],[127.61645905405736,36.71794170499683],[127.61718828942541,36.71782383950153],[127.61761473696038,36.717513120445595],[127.61799738998637,36.71735218359963],[127.61860975664604,36.71685705436328],[127.61885103087707,36.71632701609424],[127.61891450396455,36.714768588704565],[127.61871047765808,36.71315973556538],[127.61843261895338,36.71282964112501],[127.61807121643358,36.71198722236618],[127.61800493302357,36.71155954008077],[127.6181484241616,36.710374411966434],[127.6183893288364,36.70930726513175],[127.61795412293496,36.70790845632626],[127.61792859274786,36.70744582413791],[127.61904923385154,36.70719180744538],[127.62028966999763,36.70616283654159],[127.62168384275176,36.70534179483143],[127.62251859124541,36.70498419137506],[127.62300074685187,36.704621025887654],[127.62414215229367,36.70540851265761],[127.62416799893924,36.70570760994838],[127.62496508403274,36.70630048088855],[127.62584132655286,36.70664318489494],[127.62662105563652,36.70641449288816],[127.62736663657168,36.707468047773986],[127.62981633397379,36.707268012192586],[127.63095863416939,36.707781061107305],[127.63148740568677,36.70770926442146],[127.63289589670963,36.707904020809146],[127.6331119876587,36.70823141750028],[127.63332557804453,36.708832960443814],[127.63374646438653,36.70892308052068],[127.63430571189437,36.70873209301786],[127.63521648770241,36.70875233711465],[127.63824036962738,36.70796627826693],[127.63895457341837,36.70686119050447],[127.63991318662336,36.70643265123854],[127.6412194385341,36.705657658426134],[127.64131056268724,36.70404086308959],[127.64239956161829,36.7026181562956],[127.64358618478103,36.7026597266318],[127.64423216225123,36.70286954226001],[127.64513331051373,36.70213242777839],[127.64554094431445,36.70197966533081],[127.64613595562555,36.7020028312974],[127.64695872619487,36.7015115049275],[127.64775029763665,36.70128062967741],[127.6493933089533,36.70162607574007],[127.65010960021627,36.702092453563026],[127.65118921194775,36.702015605928054],[127.6521640876089,36.70304588535459],[127.65483306890626,36.704398855915464],[127.65482670377642,36.70488596462249],[127.655274233882,36.705130131852265],[127.65557426274538,36.705614204579355],[127.65538848091754,36.70580739422222],[127.65585137472173,36.70654953303438],[127.65758034417996,36.70796997763398],[127.65766645958885,36.70839868083998],[127.6590335972501,36.709879841409474],[127.65886841013685,36.710264001269195],[127.65908528235266,36.711259181111515],[127.65948476613102,36.71136366248387],[127.65970241463657,36.712460230060834],[127.66124720467161,36.71408233789442],[127.66129198065484,36.71467083359173],[127.66266132385353,36.71499301284478],[127.66303284931777,36.71614445839991],[127.66213002132173,36.71719528144357],[127.66208787760287,36.71824725626393],[127.66156310729838,36.71935963010537],[127.66212277666844,36.72060250310128],[127.66140923688087,36.72229488991033],[127.66177239320895,36.72318976172643],[127.66221903735706,36.72502724883896],[127.66185288086207,36.72574907848394],[127.66272657776423,36.72602672331939],[127.66288127954093,36.72657610115831],[127.66383357213776,36.727618767861685],[127.66382349869906,36.727791258923055],[127.66446749297339,36.72867433820502],[127.66432453168635,36.72908639625951],[127.66459959094811,36.729544333785306],[127.6644999866098,36.72999426822956],[127.66406970556181,36.730753829611835],[127.66342577680392,36.731560797993765],[127.6620891682875,36.732452345908236],[127.6615757783467,36.73217323998754],[127.66035380970433,36.732237662843126],[127.65969039969494,36.73208939907973],[127.65913379241617,36.73224789684516],[127.6586779856179,36.73219291637499],[127.6567918555092,36.73258537220439],[127.65653537847658,36.7328137272168],[127.6562584125152,36.732897036580574],[127.65568583349416,36.73339554415299],[127.65575791742272,36.73351128133105],[127.65540877717856,36.734004542158935],[127.65484062453234,36.73412842878633],[127.65434318155499,36.734354514038806],[127.65427465629111,36.73517702704405],[127.65365396378157,36.73523225969724],[127.65345355164634,36.73534739956511],[127.65307476143018,36.7352360007835],[127.65256804092635,36.73552871005908],[127.65218410531814,36.735515859675495],[127.65191748958009,36.73515572456754],[127.65106069906311,36.73498014802708],[127.65112848854315,36.734387683450585],[127.6510537714278,36.733990381384714],[127.65021682972004,36.73366691956805],[127.65044845116739,36.73340770678039],[127.65000991427394,36.73266662674889],[127.64941772863237,36.732844125375244],[127.64882660459759,36.73289762258273],[127.6481834704128,36.73311475205014],[127.64714587553185,36.73308504640445],[127.64685429986666,36.73325393331019],[127.64648474776274,36.733043888903076],[127.64622832914328,36.73269394031139],[127.64581439452115,36.73243195980556],[127.6443132100605,36.73245603627961],[127.64372267873755,36.73213202590106],[127.64290131721717,36.73232937049603],[127.6423379419917,36.73232864828306],[127.64172777329438,36.731902279071655],[127.64134836472081,36.731767468153826],[127.64051206995211,36.73205851955391],[127.63968781049684,36.73196230813637],[127.63897750175444,36.73253971913059],[127.63867288540901,36.73295184656094],[127.63861580861399,36.73556111566046],[127.63856555575519,36.736354191984915],[127.63844883636408,36.73677091720182],[127.63854356419756,36.73719651210646],[127.63886189476861,36.73766666971251],[127.6388956791207,36.73816711149303],[127.63839710045873,36.738623503255354],[127.63820824419176,36.73924674949444],[127.63792744074136,36.73913240676686],[127.63744626521789,36.73919173826588],[127.6372667471194,36.73941306273175],[127.63732491879665,36.73966646526895],[127.63725525099495,36.74013676934994],[127.63599184368462,36.741295531087566],[127.63613565223785,36.742175533551546],[127.63636554499388,36.74235171730946],[127.63646323612738,36.74255557451028],[127.63641895033096,36.742960484165],[127.63658813016079,36.74339086822462],[127.63643779339924,36.743571845361174],[127.63587534324292,36.743928983219135],[127.63579822099412,36.74451019664043],[127.6359427357975,36.744848465666244],[127.63643605865575,36.74518000670796],[127.63657982098161,36.745369488154275],[127.63651744524951,36.74554780594681],[127.63612936388533,36.74590485652357],[127.63613192537731,36.74613993816617],[127.63589352199693,36.7462738425594],[127.6356666292168,36.74654668940373],[127.63546904927037,36.74663158697144],[127.63535139106247,36.74693388458011],[127.63550238902216,36.74748441647448],[127.63568251825487,36.747670507612135],[127.63578395245185,36.748271701089976],[127.63496025137577,36.74868470124584],[127.63526105269531,36.749285699445714],[127.63530090577906,36.74983174207762],[127.63553719928741,36.75012702708858],[127.63564781516149,36.750873420394626],[127.63574126471251,36.75096644754656],[127.63567359541224,36.75116921170111],[127.63572506161447,36.75161151287727],[127.63553445174463,36.752057744565334],[127.63452914992801,36.752192059175435],[127.63413772343984,36.75209222763729],[127.634033333753,36.75190637174888],[127.63370311816256,36.7518231526016],[127.63354140161748,36.751842916144305],[127.63308313890424,36.75225953106295],[127.6328139282715,36.752282866456476],[127.63282347937633,36.752412645468006],[127.63239212406752,36.7531897673044],[127.63188505076585,36.75345399880734],[127.63172156641222,36.75385350296571],[127.63153011240408,36.75403862806498],[127.63071364279956,36.75416123472588],[127.63038900594874,36.75475532341667],[127.629845492488,36.75489096299354],[127.63002241587438,36.75556373328297],[127.62947161887752,36.75583029374658],[127.6294206728631,36.75620222024479],[127.6290330808908,36.756339844538466],[127.62809887063854,36.756398499928395],[127.62791236235758,36.75691150528244],[127.6272706309739,36.757345343374695],[127.6273781197348,36.758065212731154],[127.62706141611949,36.75884032752855],[127.62627897405639,36.7589557402769],[127.62630646102804,36.7594339438888],[127.62615143521461,36.759758711070965],[127.62541969816175,36.75978354689691],[127.62507516541079,36.76011507322763],[127.624186705356,36.76049606911099],[127.62380642317521,36.7605123494656],[127.62370742336068,36.76074000010094],[127.62414990650375,36.76106151137455],[127.62402780801945,36.76151137560018],[127.62414537509795,36.76174942183817],[127.62412237687533,36.762408145387695],[127.62432834457115,36.76273626503018],[127.62451039067466,36.76278441193955],[127.62480778358427,36.76311245845924],[127.62490349449877,36.76368407197971],[127.62540312824413,36.76454615471495],[127.62536543940932,36.765028566360996],[127.62560928048374,36.76531307708814],[127.62548775897459,36.76557127503834],[127.62556197506649,36.76583846693116],[127.62633327049176,36.76645561536756],[127.62631452779502,36.76670606581169],[127.62704553725665,36.76720301679793],[127.62699028555005,36.76749500311594],[127.62704829372296,36.76811588620226],[127.62783236460265,36.76947986704273],[127.62782618408097,36.76967444675606],[127.62823546853791,36.77022010324095],[127.62815091628441,36.77067586404378],[127.62832851394955,36.771644612680966],[127.62868036402074,36.772098072226754],[127.6287021147874,36.77248998022652],[127.62919824637682,36.77313002472816],[127.62932378487601,36.773471795038695],[127.62805357202627,36.77360376235418],[127.62776408937034,36.77423711577754],[127.62786345017696,36.77501988737128],[127.6276407999054,36.775409394839635],[127.62743145819407,36.77554036399952],[127.62737077975757,36.775728931312585],[127.62752011763257,36.775960508466675],[127.62753283688741,36.776390893908456],[127.62723756646255,36.77665294471065],[127.62683399797547,36.77668617316631],[127.62658132817339,36.77691683798277],[127.62606619557576,36.77712174063109],[127.62547658637355,36.77679538590803],[127.62527106765114,36.776916786152334],[127.6250865470083,36.77687146477253],[127.62477788689789,36.776936311177614],[127.62457236592267,36.7770669287119],[127.62446973802548,36.77738976102169],[127.62427131782475,36.777652207884714],[127.62360564951655,36.778101668834616],[127.62344099196545,36.77842416618672],[127.6233787634488,36.77879560822087],[127.62288793901085,36.779015759076444],[127.6224815344478,36.77884052739946],[127.62239207542888,36.7786113777208],[127.62209759006818,36.77848888847153],[127.62158890678369,36.77857671201736],[127.62082151290123,36.77857662845562],[127.6204907455442,36.7793705206458],[127.62061726221536,36.77964232625786],[127.62046212412916,36.78012845287251],[127.62066459591614,36.78093267958489],[127.62070988037762,36.781894317041974],[127.62137659893622,36.78351778728124],[127.62132022079459,36.783893945692284],[127.62114349470262,36.78411046182773],[127.62088520042994,36.78521476300727],[127.62092968188162,36.78785868046754],[127.62119677326496,36.787962682209006],[127.62136389613481,36.78788830061888],[127.62181300624235,36.787862818421665],[127.62212733041098,36.78825300230774],[127.62225316550519,36.78830442837824],[127.62241020473493,36.7882437148287],[127.62267943959726,36.788361413439205],[127.62289753891449,36.788864474322764],[127.62343849243695,36.7889602241185],[127.62366837813006,36.7891424491763],[127.62378347354561,36.7895127903701],[127.62414250820164,36.78954164741298],[127.62476302375165,36.789251751118506],[127.625190564026,36.78940199418129],[127.62548527336614,36.789361009121606],[127.62572111067246,36.789679532246765],[127.6260159569098,36.7898736015533],[127.6260428170274,36.79003692925151],[127.62631547774203,36.79042636536657],[127.62573171102342,36.79084404728363],[127.62530662805298,36.79146360663842],[127.62625905263799,36.791840077313424],[127.62715391634978,36.79194472995074],[127.62736480795652,36.792045759681244],[127.6273602687574,36.7932038032923],[127.62693371375855,36.79407241992528],[127.6269552128232,36.79420589441023],[127.62709537056557,36.794267106237776],[127.62824539349938,36.79426584660529],[127.6289437917899,36.79404780394683],[127.62993809623663,36.7939681602746],[127.6308197326838,36.79398890137121],[127.63227044237655,36.79373031749605],[127.63310333416315,36.79386373679849],[127.63354672312096,36.79368084824913],[127.63408563646252,36.79366201596375],[127.6344373494395,36.79345045416443],[127.63472000765512,36.793493343791624],[127.63532449424622,36.79402344707278],[127.63563856600159,36.794191861413644],[127.63585337594812,36.79413694729834],[127.63606638059865,36.794179426457355],[127.63702557573735,36.795306973690735],[127.63736280861532,36.79545714338218],[127.63824274239418,36.795474167814035],[127.63811432978919,36.79557289490477],[127.63845767032447,36.7962897745618],[127.63906710311991,36.79684716920945],[127.6391477166933,36.797068539823435],[127.63937168914028,36.79728408843722],[127.6395654914011,36.79734739520338],[127.6402623048187,36.79827889687592],[127.6405767909461,36.79845621130532],[127.64065792995908,36.79876300918151],[127.64056858272355,36.798896282174965],[127.64070301688955,36.799304798677895],[127.64136000028338,36.799816717817976],[127.64165075224348,36.79991319366339],[127.64161688658552,36.80044586365615],[127.64197595293214,36.8007072213929],[127.64168777981814,36.801135050494615],[127.6416933606722,36.80127654797223],[127.64068707575605,36.80151544098642],[127.64035457517066,36.80151826239823],[127.64033810324156,36.802042884654966],[127.64042818062946,36.80240554880911],[127.64011481683681,36.802898542309265],[127.64021694760366,36.803129763141825],[127.64014577326331,36.80345392625984],[127.63899849829329,36.80389777461836],[127.63803857750759,36.804103346477405],[127.63761143205562,36.80431992792236],[127.63679665862811,36.804514394075156],[127.63623656693562,36.80452905486843],[127.63556684803089,36.80495647239742],[127.63549771504572,36.805379839108284],[127.63574579890376,36.80581345442772],[127.63589747268216,36.806537851736614],[127.63549535354832,36.80682512637602],[127.635363582786,36.807145816296305],[127.63455386754221,36.80688389307044],[127.63398553313064,36.80730856532473],[127.63396178287447,36.80755744330378],[127.63420333630863,36.80830602693685],[127.63457643006983,36.80865956627488],[127.63501849502929,36.80879601674531],[127.63519149546326,36.81031597113767],[127.6354443913503,36.811181984431876],[127.63528902603133,36.81130742427536],[127.63515161091446,36.81188647449295],[127.6350502368113,36.81189893620272],[127.6350759747955,36.81255684545002],[127.63497922960666,36.812649462424105],[127.6349823526074,36.81283690709987],[127.6342078564408,36.813166953897664],[127.63375223724655,36.81369922852087],[127.63338492386718,36.81379818082905],[127.63284595624629,36.81421124658163],[127.63259825133284,36.81424288339236],[127.63239438220309,36.81459237987809],[127.63204275660914,36.81479678982149],[127.63134263296139,36.814998553391966],[127.63139784998438,36.81517746672589],[127.6312118011707,36.8152898998087],[127.63095759355966,36.815309617527156],[127.63101260913534,36.8154312446138],[127.63093799374867,36.81552339756882],[127.63051050933181,36.815774350042496],[127.6300921220576,36.816236146721],[127.63033246102768,36.81696348539962],[127.63059850917851,36.8172601756354],[127.63059696939833,36.81739262491835],[127.63040885838683,36.81768388719388],[127.63011736268469,36.817893517027024],[127.63002597802748,36.81825143566307],[127.62994180272607,36.818236968933455],[127.6298631390595,36.81847580196802],[127.62983160665009,36.81868897814186],[127.63022975924531,36.81922778580812],[127.6300582670436,36.81964951158094],[127.62997044313764,36.820451546020706],[127.62975649592268,36.82086957296596],[127.62970749031138,36.82119423479393],[127.6292860891263,36.821567119599656],[127.62950109680921,36.82199276864333],[127.62992522828905,36.822460839270875],[127.6299855272237,36.82262933190489],[127.6298209689095,36.82332566949596],[127.6295443377186,36.823893750716344],[127.62950218953031,36.824445971670144],[127.62963105611243,36.82494957572578],[127.62984528243659,36.825005562998115],[127.63044108643153,36.82566998398261],[127.63051642878727,36.82681842476659],[127.63040610661255,36.8271590070731],[127.63040768258266,36.82761454265255],[127.6305230126076,36.82782407424721],[127.63049283231874,36.828109546548724],[127.63012633985366,36.828203982175],[127.63010443031547,36.8284317909959],[127.63025691750562,36.82873438941519],[127.63061363601453,36.82903704470895],[127.63048460992279,36.82919622701734],[127.63073113801309,36.82948150350436],[127.6307978917619,36.83023859485623],[127.63099188674005,36.83049789232534],[127.63167232502126,36.830459226800166],[127.63228238687353,36.83091012022943],[127.6322541307298,36.83097605979146],[127.63257144184924,36.83130158889437],[127.63319902674264,36.83279709331153],[127.63333227813906,36.83345558508073],[127.63353747738776,36.83383611126053],[127.63348509032835,36.83409608300978],[127.63398576913612,36.83474980672875],[127.6340565198602,36.836436929369654],[127.6349399906131,36.83672977216668],[127.63559869244449,36.83669812945854],[127.63595503511458,36.83706736728036],[127.63616182698901,36.83712511479431],[127.63604264170321,36.83757077785574],[127.63671735680971,36.83838741621263],[127.6365963695355,36.838506480387935],[127.63666080419651,36.83893165706731],[127.63656052351573,36.83915513952427],[127.63698748617533,36.83943912237677],[127.63728503415312,36.83975809307052],[127.63789550391398,36.84014923967519],[127.63800969677749,36.84065775784705],[127.63855952057673,36.84111590704079],[127.63844613108827,36.841891707651655],[127.63899076712688,36.84232159801788],[127.63911619400609,36.84257795089747],[127.63887458181556,36.8429019877323],[127.63917203148229,36.843599343983115],[127.63868457069069,36.84432693510826],[127.63820849167094,36.844619391393614],[127.63778682403273,36.84568607149151],[127.63731789489371,36.84590767869431],[127.6375367906488,36.846974353456936],[127.63660337443429,36.84707455483834],[127.63584370377988,36.8473479167183],[127.63523936453763,36.8471551097926],[127.63488049550689,36.846820637477016],[127.6343341021482,36.8466070084296],[127.63346866707471,36.84581406419094],[127.63320160689142,36.84570235119067],[127.6328263464466,36.84567531060855],[127.63237833683941,36.84541518574506],[127.63102388255616,36.845165159243216],[127.63073881935867,36.84484525256131],[127.63060948083549,36.84431383090491],[127.6303653566927,36.84391986071918],[127.63005563499033,36.84365716476649],[127.62968737189702,36.84367582715979],[127.6293204740021,36.84342096407691],[127.62853038134654,36.8435786273249],[127.62804356229667,36.843574306362314],[127.6276596562955,36.84287314234491],[127.62640948098758,36.8425295141097],[127.62605272754507,36.84108844449328],[127.62598867963725,36.84029277340137],[127.62559382662708,36.83923900876775],[127.62522735342417,36.83857114516194],[127.62517141682265,36.83811743625164],[127.62494267025139,36.83769373855487],[127.62422022163727,36.837227348113665],[127.62423643979835,36.836839714711196],[127.62379550712008,36.83563195426337],[127.62319763780988,36.83603488573166],[127.62236996422793,36.83611363086676],[127.62196554899943,36.8364570637395],[127.62152035625671,36.83644572660703],[127.62036978019864,36.837010790040125],[127.6197868079117,36.83685027581523],[127.6195024893813,36.83665485879996],[127.61879728698842,36.83657842696958],[127.61859726695303,36.83631821078471],[127.6182708574187,36.836178433484605],[127.61812631408417,36.8355946588896],[127.61696926526416,36.834484379903955],[127.61682379591005,36.833979208837356],[127.61660648156973,36.83397518706948],[127.61642129611882,36.83382689861472],[127.6159449291463,36.83393730170385],[127.61553493325457,36.83390134101578],[127.61551959386331,36.834245886055434],[127.6152056451258,36.83433968008215],[127.6153313571341,36.83529276101286],[127.61442182045428,36.835539248235804],[127.61402772432204,36.83550056806966],[127.61368904194748,36.83569429684445],[127.61377808301624,36.8358967912362],[127.61340203173651,36.8364365489354],[127.61374185060684,36.837404557037566],[127.61358156884444,36.838629039628785],[127.61383906437666,36.838861193348755],[127.61376416409242,36.839149143107925],[127.61316644834483,36.839326949160046],[127.61318543117714,36.83970875820734],[127.6134866325484,36.8403970691141],[127.61342160763748,36.84184209745584],[127.61309675867328,36.842284201236076],[127.61331698385312,36.84311259781432],[127.6132721798787,36.8439425465927],[127.61280029694089,36.84413985204305],[127.61256205247173,36.84497503922162],[127.61199758159988,36.845153426182385],[127.61206251140891,36.84602269370847],[127.6121753638868,36.84610397702647],[127.61226790662778,36.846362202912005],[127.61162301011943,36.846709214655384],[127.61155236430193,36.847152506447706],[127.61175905837803,36.847426725692074],[127.61152782660866,36.84779942125144],[127.61189365108382,36.84856146496086],[127.6123928520612,36.84912618765812],[127.61278488941603,36.85006054218814],[127.61298448010766,36.8510942575301],[127.61315522853818,36.85141015780169],[127.61378731753089,36.85167711829149],[127.61444058718159,36.853238618094935],[127.61546099454905,36.85293642852923],[127.61591013474647,36.853542563646066],[127.61645954163991,36.85516112380105],[127.617161976438,36.856408163010165],[127.61710678365856,36.856781272153924],[127.6174966975155,36.85769868065909],[127.61661330587363,36.858623208645355],[127.61572038690241,36.85856729085482],[127.6145461076528,36.858135739945766],[127.61376485819686,36.85835924379219],[127.61228222070324,36.85736523523799],[127.6120961991185,36.85701077839184],[127.61139904241156,36.856602210469134],[127.61101513602135,36.85579444828715],[127.61044215655208,36.85594257698984],[127.60847160279069,36.854607058043264],[127.6074884099971,36.854126731274604],[127.60716423055145,36.85359448365988],[127.60674104543484,36.85319726793515],[127.60591668457222,36.85360548183329],[127.60465091668455,36.853614964890646],[127.60440465182869,36.85354384852556],[127.60441668761997,36.85279620444389],[127.6035134590431,36.85222363921713],[127.60320806315661,36.85189460317433],[127.60183887473767,36.852150557892195],[127.60126508043818,36.852454479402724],[127.60038057551344,36.8526774785791],[127.59972689579853,36.85239170184135],[127.59869269939374,36.85234513347212],[127.59771413032925,36.85187860794631],[127.59654177109036,36.85156151630112],[127.59598310228996,36.85201522177569],[127.5950889714849,36.8537614578627],[127.59470896196562,36.85420874355895],[127.59399387811386,36.855392036454624],[127.59330550620494,36.855543007977516],[127.59263737555735,36.85687662167223],[127.59172475892824,36.85750175933994],[127.59122535306363,36.85778522328242],[127.5905437600127,36.8572578919785],[127.58957549788393,36.85726017068274],[127.58876193620661,36.85768478292678],[127.5877265225804,36.85721877153866],[127.5870341395527,36.857219381473364],[127.58672362984298,36.85751611447744],[127.58638814090666,36.85758287782396],[127.5864046665827,36.85874214885401],[127.58595332892882,36.85945713519736],[127.58459595584178,36.8598471952855],[127.58465433474578,36.859884268799625],[127.58458836533657,36.859944802195834],[127.58413063438185,36.85989476586192],[127.58408595900197,36.860083976905976]]]}}
