{"type":"Feature","bbox":[128.2170631259635,36.80214255512082,128.6523035529578,37.1582121362587],"properties":{"regionCode":"43800","version":"vworld-20260909-3f8952dfda77-p3","name":"충청북도 단양군","attribution":"국토교통부/K-Geo플랫폼 · VWorld 법정구역정보, CC BY 2.0 KR; 공공주택 복덕방 가공"},"geometry":{"type":"Polygon","coordinates":[[[128.38410181032583,37.15797777501131],[128.38383560412436,37.15818453840285],[128.38369799869147,37.15820545827277],[128.38373648162957,37.158023252847954],[128.38359433156157,37.15752769758555],[128.3833789292546,37.1572473469273],[128.38322329928104,37.156848686463036],[128.38330403824278,37.15664123916409],[128.38221775067927,37.15593754287005],[128.38185119107592,37.15522726970917],[128.38173582074091,37.15521173005475],[128.3817110503028,37.15529613664168],[128.38171087371995,37.15585481775264],[128.38137837373898,37.155899827699805],[128.38116219497525,37.15553574490178],[128.38043427740303,37.15504515421488],[128.379695141458,37.15505531050686],[128.37861397059424,37.15467779196786],[128.37860949706842,37.15382115439269],[128.3782903542881,37.153375777632455],[128.37804697679925,37.153243052095725],[128.37798716724768,37.1530688309209],[128.37817851355044,37.15245949001367],[128.3779918761156,37.15170997998323],[128.3770303662721,37.15162941558149],[128.37685278787578,37.15165330581101],[128.3767405741415,37.15175884338327],[128.37651151817585,37.152455030582345],[128.3758860832975,37.15334222987273],[128.37495820121444,37.15331717290304],[128.37235101868046,37.1540834728094],[128.3693516646699,37.15516708114432],[128.36879198073407,37.1546544648611],[128.3684109056101,37.15448488305154],[128.3678985384894,37.15447361022632],[128.36684783051567,37.155487088811874],[128.36599979624734,37.15706265568193],[128.36544225641018,37.15760994284228],[128.36488115537185,37.15774944790756],[128.3644357847297,37.15766385095054],[128.36445648469666,37.156243610636906],[128.3642517399808,37.156216106206934],[128.3633961726505,37.15463244684517],[128.36257458016505,37.15399502713782],[128.36226787477875,37.15348914097942],[128.3621877769421,37.152748045960976],[128.3597571225987,37.150306984004075],[128.35950573753516,37.1507468948671],[128.35887201291058,37.151294745640996],[128.35833284736077,37.15230524543264],[128.35607325825399,37.153328087100036],[128.35556560300205,37.15363592603514],[128.35401984906562,37.155668600058625],[128.35301017752406,37.15608874174912],[128.35219131537613,37.15665247197303],[128.35144542824872,37.157366134396376],[128.35070724453243,37.15752648415842],[128.3504657184619,37.15700816686197],[128.35007428186765,37.156895124831664],[128.34867506523543,37.15696196445746],[128.3483767519404,37.15682240516688],[128.34814021760903,37.156473682034914],[128.34757056291832,37.156476108005194],[128.3469199767888,37.15715857727242],[128.34644742777104,37.15686553419257],[128.34616100525733,37.156431080416276],[128.34584430063765,37.15625252919293],[128.345258866942,37.15606888127152],[128.34504983513753,37.15634247351316],[128.3446308597051,37.15622208496865],[128.34361729354228,37.15633178557119],[128.34329096603656,37.156168908105215],[128.34310461316474,37.15594532936045],[128.34257229798106,37.15586870735432],[128.3422627275972,37.155892725221406],[128.341468649825,37.1566450545808],[128.3414082704217,37.157322486758844],[128.34029534394807,37.1582121362587],[128.33964033275396,37.157985313959706],[128.33960440888217,37.15806806932775],[128.33890640809122,37.15780646531638],[128.33849224233273,37.15819371417215],[128.33767526552626,37.15794076152467],[128.3371813430042,37.15790982041602],[128.3363604040638,37.15762960328556],[128.33619280402812,37.15743442659324],[128.33554715294224,37.157158138993296],[128.3348598099758,37.15652845478092],[128.33451929510272,37.1559700351968],[128.33494672316752,37.15510956893698],[128.33404076356067,37.153722664535856],[128.33388816831524,37.152973156958886],[128.33356663939125,37.15245994790963],[128.33312069963375,37.152535335703504],[128.33224523261833,37.15153656065525],[128.3307836599248,37.15033681265081],[128.33047402938996,37.150593038863214],[128.3302584655995,37.151038415486866],[128.32975868365858,37.151554013861755],[128.32861013462602,37.15252374695982],[128.3278607840886,37.15299293670816],[128.32750647409176,37.152913027366054],[128.32729104739389,37.152524689258996],[128.3270923343798,37.151052736598224],[128.3267203065908,37.15026794809408],[128.3261677350413,37.14997417707476],[128.32600728105606,37.149136340486955],[128.32447758687144,37.147966718018736],[128.3235544905376,37.148439739428085],[128.32313528228707,37.14851234030047],[128.32317062525323,37.148630813949374],[128.32300014104607,37.14853140946495],[128.32207925331628,37.149201519318765],[128.3219637158297,37.148865640653995],[128.3212998462579,37.14839905313484],[128.32010435473856,37.14734570610069],[128.32003177937227,37.147444811897365],[128.3188469503115,37.14786918336837],[128.31677685732743,37.14759311902947],[128.31594405133382,37.14723499625431],[128.31583016472388,37.146981011600055],[128.31554597499965,37.14673549650665],[128.3136831766024,37.145927234630236],[128.31220374068397,37.145039968447115],[128.31115392962474,37.145831785329754],[128.30956719019693,37.1449682672771],[128.309295861549,37.14398365010585],[128.30952835638064,37.14318785274105],[128.30932610733342,37.14288517303577],[128.30862046652996,37.14246285343165],[128.30748375935545,37.140926463200074],[128.30624658976268,37.13990134853678],[128.305828990919,37.139725230351054],[128.30612037773867,37.138060201415804],[128.30634129101358,37.137452060039365],[128.30533111813992,37.13702698873716],[128.3035235647731,37.13644609457567],[128.30093808675065,37.135869130068826],[128.30072764888087,37.135214070705885],[128.29829762987845,37.134141798931765],[128.2996401991299,37.133684271342055],[128.3000109443926,37.13204730678248],[128.30108763718934,37.13130298495312],[128.30220306345706,37.12951649662997],[128.30344861772195,37.12892756546912],[128.30373152168912,37.128279492354444],[128.30309746057043,37.12694025586795],[128.30334436535173,37.126392848669404],[128.3033102851963,37.12489913425414],[128.30356140855034,37.12456943277682],[128.30354554578057,37.123044288890625],[128.30331712745323,37.12195520961847],[128.30380403952304,37.118602958207155],[128.30418473938963,37.117307876049786],[128.30495050143702,37.11619570499129],[128.3058239847852,37.11550706456326],[128.30728274979,37.114820828382975],[128.30837357232951,37.114509463185385],[128.30895016062888,37.111904135578044],[128.30886015932387,37.11123015530588],[128.30840331989583,37.11066656543237],[128.3083326694912,37.110297919607916],[128.30841886180133,37.10985521069476],[128.3069633704253,37.10927375234464],[128.3064997447628,37.10896670752871],[128.30614078696658,37.107792669501876],[128.30569471109146,37.10679031007234],[128.30569288508354,37.10574384128081],[128.30601741154337,37.10514360740335],[128.30468436906068,37.10298263936285],[128.30451681219273,37.10243789938954],[128.30459804965534,37.10197237205628],[128.30403092391134,37.10100841136643],[128.3038262755341,37.10032550581369],[128.30297228241955,37.09987092368636],[128.30191739833447,37.09917433136225],[128.30125997553915,37.09892364774965],[128.30067698607203,37.098532040806916],[128.29999217934792,37.098497334673006],[128.29913774737844,37.09900767494418],[128.29877061257517,37.099418320517955],[128.2984326908054,37.099094957077014],[128.29786281048138,37.098781423122944],[128.29702120547947,37.09887024475496],[128.29535402696263,37.098578917110196],[128.29398476972526,37.09805594593897],[128.29343993331435,37.098412517872234],[128.29315117380875,37.099176433704535],[128.2926138324688,37.099658611036155],[128.29066213140123,37.10084977442105],[128.28899587932457,37.10152622049602],[128.28836662996167,37.101639089987025],[128.28708722838778,37.102180026386414],[128.28680159259267,37.10289569434381],[128.28595926493276,37.10413692881631],[128.2858316420156,37.10547120049316],[128.28463943647787,37.10692722068222],[128.2820983393565,37.108965322147206],[128.28052000323592,37.108167084708285],[128.27926145760748,37.10992956269766],[128.2782813997274,37.11032591833368],[128.27775728425732,37.110819337019905],[128.27781604578803,37.11137296478794],[128.27869806329883,37.11389847868837],[128.27755076216613,37.11587472618561],[128.27723864187206,37.11582172054191],[128.27445896621083,37.11648124369418],[128.27402042604717,37.11711285576263],[128.2729827271018,37.1171313695761],[128.27178297605653,37.116226500264844],[128.27080415500006,37.11593718638899],[128.27036383792625,37.1154601557842],[128.2701716257926,37.11484751753618],[128.27016759373132,37.114320639323374],[128.27049239911682,37.11346142332418],[128.27022624032583,37.113034034247356],[128.2701853877631,37.11275476632513],[128.26932581428312,37.113020683246596],[128.2685309703037,37.11355966919746],[128.2673523232073,37.113583315220325],[128.26723429946884,37.113040931136595],[128.26711360052707,37.112867588918284],[128.2671781512969,37.11165678529791],[128.26731274467238,37.1113274400616],[128.266398646487,37.110009547823694],[128.26637013489895,37.10968927665301],[128.2669233841313,37.10866742447544],[128.26671932600044,37.10852590139011],[128.26592672494235,37.10832261410131],[128.26556547451523,37.1078675691969],[128.26446093843197,37.108351427963655],[128.2640090626028,37.107917732715144],[128.26384894947344,37.10792521297961],[128.26323907105655,37.10861448283395],[128.26266098352863,37.10806906798841],[128.2628442517255,37.10790296621488],[128.2627773043834,37.107704079242076],[128.26287226732347,37.107472485141585],[128.26312641790605,37.10729548316493],[128.26320053849201,37.107073002731184],[128.2622506069946,37.10669998444478],[128.26172122772226,37.106235371725816],[128.26058860042133,37.10482862836263],[128.2600452102959,37.10431251125347],[128.2591080632795,37.10412934308723],[128.258110968654,37.102910265241256],[128.25784456170751,37.102376700051444],[128.2563669378437,37.10146051998192],[128.25636983768894,37.10023974353778],[128.25845703973468,37.09947442773358],[128.2596115559453,37.0991309012826],[128.2605586495402,37.097139448964526],[128.2615278300874,37.09565524225334],[128.2613194589928,37.09511557495057],[128.26121536232856,37.093662943052365],[128.2616524655305,37.09205155950414],[128.26200629349748,37.09181803582727],[128.26233315767624,37.09029393067885],[128.26294480265219,37.09029603027275],[128.2639683332089,37.089630363425314],[128.2645015210453,37.08914217031091],[128.26473258762377,37.08879062614967],[128.2643594481423,37.088159789484635],[128.26457093763526,37.08804040667897],[128.26496021190195,37.0880482066054],[128.26538012313333,37.08832350298686],[128.2659402193439,37.08837099927437],[128.26662818998514,37.087861514228045],[128.26692309774864,37.087431996877484],[128.26731136717456,37.08764198307652],[128.26754596458292,37.08807164591039],[128.26813404304923,37.08841100666725],[128.2685615983718,37.088524929967754],[128.26894415341127,37.088475909499074],[128.26896696358742,37.08866730069289],[128.26909035680706,37.088672816666744],[128.2698776147945,37.088349712710226],[128.26992700000417,37.0882369505682],[128.26959028533537,37.08807889572799],[128.26960802028978,37.08752941711012],[128.2691136315625,37.08758333045513],[128.26879983888514,37.087529778957645],[128.268132822977,37.08718011766819],[128.26761268953774,37.086303545970175],[128.26680070907895,37.085772943648706],[128.266258857356,37.08489129236637],[128.2654983352696,37.0848371129553],[128.26509800832298,37.08430541740465],[128.26432260084226,37.08391013718023],[128.26402928109368,37.08389716750799],[128.26349735433604,37.083719413755105],[128.26230097684854,37.08278805783455],[128.26176441346846,37.08266297097724],[128.261507883984,37.08214096951891],[128.2604640734832,37.08195140444703],[128.2601435311805,37.08259665047371],[128.25969185968373,37.08254048793212],[128.25840215048376,37.082633698393344],[128.2582829099821,37.08280717615901],[128.25713929518727,37.082789364996636],[128.256307876865,37.08258730184972],[128.25521443572714,37.082028296893746],[128.2551029926315,37.0815544498484],[128.2540997750056,37.08023794303039],[128.25278241912716,37.07978001025324],[128.2520889823508,37.07925563386112],[128.25161224898088,37.0785859782637],[128.25096908611786,37.077997283635284],[128.25085707735144,37.07611221716452],[128.2492525797016,37.075076779632205],[128.2477156932038,37.07644933062547],[128.2468476509099,37.076924402140776],[128.245817371275,37.07657002203577],[128.24415806379068,37.07627496757205],[128.24280129904946,37.07546319624057],[128.2421186882197,37.074849835388726],[128.24126290241105,37.07459245459872],[128.24076448781886,37.07423761289182],[128.2393575470102,37.07364468635997],[128.23933057429207,37.072859684851046],[128.23868490992712,37.07234830788151],[128.23818447852108,37.07126315491451],[128.23823581345204,37.070562689247545],[128.23853485843566,37.070186653450726],[128.23859751036352,37.06990492193993],[128.23843233354145,37.0678312375021],[128.23820400863846,37.06716309707526],[128.23760880217782,37.06707885181596],[128.2369040125644,37.06595738480393],[128.23673154545676,37.06546620384467],[128.23540770382377,37.06489384072475],[128.23467727335907,37.065031892390934],[128.2339165161222,37.065066415181626],[128.23343106357095,37.06494117204202],[128.2332073106987,37.06495571416138],[128.2327577206105,37.064555316580396],[128.23213141300207,37.06429889106601],[128.23177031462032,37.06394436890462],[128.23155924264333,37.063841015001366],[128.2309545535596,37.063769212490854],[128.23056523750535,37.06321790080971],[128.22995062514974,37.06330698890149],[128.2286410142405,37.062899197134946],[128.22800635004035,37.06290127492758],[128.2253513521298,37.06233471651287],[128.2252433176352,37.06209173762217],[128.225192586991,37.0610549118794],[128.22478917457218,37.060359555171324],[128.2249957694898,37.05877525111766],[128.22427559669646,37.05839992790166],[128.2233712349227,37.05832914682824],[128.22225817856392,37.05781958084292],[128.22192527359059,37.0572735328916],[128.22180508499267,37.05680463992251],[128.22190087161596,37.05614452083772],[128.22128280236836,37.05561658008652],[128.2196133631551,37.05490994169715],[128.21896872447064,37.05490708977294],[128.21860463989412,37.05482502251732],[128.21781319301294,37.05437325459804],[128.21814723420664,37.0540447457266],[128.21862010380363,37.05330647160834],[128.2189579451371,37.05317277381601],[128.21881439078825,37.05180524924365],[128.22000401023368,37.05095349901814],[128.2209785956247,37.05008417185214],[128.22107223415776,37.04959382576964],[128.22065439066415,37.04945166045541],[128.22014295230133,37.04872215844627],[128.22006944288285,37.04769393130974],[128.22030100926105,37.04698993397398],[128.21997399222045,37.0463412668728],[128.2193636420027,37.04631794392832],[128.21891495301466,37.04582879506462],[128.21931345460996,37.044477556844726],[128.22030213775352,37.0425632747206],[128.22076990748937,37.04201971723032],[128.2198759880699,37.04164769058607],[128.21916053229734,37.04082668122036],[128.21881225400725,37.04012878005334],[128.218174786024,37.039527811044856],[128.21807262181585,37.0390503843319],[128.21769616679381,37.0385444861968],[128.2177021105663,37.0380608974184],[128.2170631259635,37.0376705944015],[128.217067124223,37.037386949975286],[128.21807378291717,37.03726205863052],[128.2181168220208,37.03710811274027],[128.21943467582523,37.03649695729529],[128.22017540721004,37.03641110701269],[128.22098463246385,37.036102034319335],[128.22165776801845,37.03598029805976],[128.2219223572768,37.03570015402058],[128.2237411777965,37.03477602134967],[128.2243838171426,37.03429890857649],[128.22465781756262,37.033863065780395],[128.22477924600665,37.033183107543316],[128.22440565542604,37.03258827887787],[128.22402762216882,37.031288913170435],[128.2240741680569,37.03056371214766],[128.22433502813777,37.03010663422403],[128.22442939918804,37.02934930378365],[128.2248133192079,37.02860286529241],[128.22526647941504,37.02807762421272],[128.2250523429847,37.027212477437004],[128.22656265007944,37.0261339313621],[128.22659839985883,37.025338444613716],[128.22765387417448,37.02484421201559],[128.22804632630195,37.02448428220782],[128.22873286875014,37.02463377981299],[128.22928368891718,37.02451652681956],[128.23032616454347,37.02463523055344],[128.2305626062165,37.024589135053205],[128.23166179171767,37.02493178152975],[128.23275973289591,37.02517522792087],[128.23456666057425,37.02486320229958],[128.2363212246638,37.024981234452525],[128.23747544452203,37.02524533241245],[128.23849256085114,37.025088509604444],[128.23890090032424,37.024709347817684],[128.23991405303528,37.024118706491755],[128.2404017558738,37.02412261622946],[128.2409338164294,37.023452382638744],[128.2409892812154,37.023257968118095],[128.2417204204001,37.02254586254736],[128.2425314631341,37.02190357577408],[128.243352343838,37.02152059603163],[128.24345442364577,37.02109154830865],[128.24390443888814,37.02108354675377],[128.24452428065774,37.019989712636466],[128.24437924298465,37.01968434562831],[128.2447877357244,37.01934155644397],[128.2450854100744,37.01886840439204],[128.24570725777335,37.01828473460322],[128.24564695030412,37.01749629435821],[128.24589441405425,37.01673821598699],[128.24628969923592,37.01636469046977],[128.24709103018037,37.01507393253843],[128.24832891335717,37.01439739186655],[128.24837571106332,37.01324350155106],[128.2488855205998,37.01263206714483],[128.24971377063,37.01208667829338],[128.2505413502458,37.011705670806435],[128.2505628910319,37.0113275170051],[128.2510535320137,37.010614115878475],[128.25205820234177,37.01045614568662],[128.25233425629247,37.010068440541964],[128.25288348194658,37.00971593870408],[128.2539694861271,37.009370701865755],[128.25383305065736,37.00923743366465],[128.2545028482871,37.00829563939955],[128.25408933705992,37.00800608481903],[128.25401921303813,37.00782350422052],[128.2549715443247,37.007479444563856],[128.2552417502355,37.00714144885387],[128.25508414889885,37.00694716978563],[128.25606653650425,37.00554193673927],[128.25582919915692,37.00474894911884],[128.25658208156335,37.0041142612063],[128.25677642781167,37.00307253406472],[128.25699979256964,37.00259486027272],[128.25732409074408,37.0023500010064],[128.25687351727774,37.00203369105603],[128.2570631593748,37.001800160200254],[128.25699374288448,37.001198214044656],[128.2574992885223,37.000709335538],[128.25760206988767,37.00015229366178],[128.25713232157835,36.998931487507726],[128.25600303231712,36.99803044782914],[128.25492207554092,36.99778593401595],[128.25425300550975,36.99784807683245],[128.25390821871204,36.997482243899306],[128.2546157995838,36.99646546899937],[128.25485527896444,36.99644504344865],[128.25676939765376,36.995753046144316],[128.25803081068656,36.9941733268259],[128.25851054056315,36.993325336023],[128.25809514551327,36.99181688354077],[128.25777308697207,36.99157372964975],[128.25805669140965,36.99073517895607],[128.25793109783882,36.990274658183274],[128.25749712117096,36.98976044630677],[128.2574380017261,36.98943832519539],[128.2575778005323,36.98844687950723],[128.25710754087694,36.98754620694365],[128.25652164591554,36.98713750162493],[128.25628160754292,36.986750241966035],[128.25583661532082,36.98649892170027],[128.25607571248077,36.98617398287317],[128.25607568838944,36.98582435160663],[128.2564203765488,36.985399950713614],[128.2564881268304,36.984837387792524],[128.25701829392153,36.9847327151431],[128.2579739981854,36.98148426475982],[128.25855003270684,36.981123181744245],[128.25934724200036,36.97863963080915],[128.2592217803815,36.978438023841946],[128.25950795819426,36.97776968929301],[128.25989110118664,36.97575631113585],[128.25971893789603,36.975240202586576],[128.25977446176168,36.974312829330074],[128.25938194109324,36.973002570361324],[128.25999491297728,36.97275495326387],[128.26003505786397,36.97240301252353],[128.26029176161927,36.97183072899744],[128.26028735293795,36.97136739947177],[128.26046968064992,36.97085438270015],[128.26028129875237,36.969851509543936],[128.2603566773602,36.969502187812125],[128.26008427552244,36.96900877357767],[128.26001101642848,36.96845768547867],[128.26074277695753,36.96798046636216],[128.261590600135,36.96767358530505],[128.2623013474477,36.96682821932966],[128.2626107206589,36.96601000601669],[128.26194150999575,36.96485521828969],[128.2619761726921,36.96466185269348],[128.26305151370823,36.96416800727519],[128.26328042305198,36.96388682524679],[128.2638893016171,36.96354207492272],[128.26392535998548,36.96322136069818],[128.26446462858718,36.962557241862164],[128.26454626493293,36.96194590437539],[128.2651233954238,36.9614423819932],[128.26569438169327,36.96109668209951],[128.26659182455163,36.9607836240544],[128.2655264862837,36.959967644491456],[128.2626990918949,36.957351503919504],[128.26188699575837,36.956284855445645],[128.26040747916136,36.95563534338578],[128.2596579856605,36.95484879349424],[128.26093652000588,36.95418563904765],[128.26157739262823,36.953307057315406],[128.26280357893057,36.95311291409393],[128.26327956429395,36.9527715965723],[128.26449815979106,36.952302724101294],[128.2644216493633,36.95203679966346],[128.26474040463756,36.95170236563356],[128.26458277776746,36.950888805304814],[128.2635378729679,36.94959571412017],[128.26352879205496,36.94949023689485],[128.26295206092678,36.94923318568955],[128.26275221562338,36.949212341214235],[128.26300137221392,36.94901580312128],[128.26264406805404,36.94896474457345],[128.26241364898584,36.949040939925716],[128.26249554568827,36.94917174500564],[128.26223170855488,36.949239837997474],[128.26160751336656,36.94912420168291],[128.26112536818985,36.94930389895703],[128.2604660074905,36.94897366439999],[128.25985741514938,36.948776411766744],[128.2591008951438,36.948148061336894],[128.25867608037754,36.94765551129968],[128.25805695748397,36.947243385299814],[128.25805866706042,36.94682879820573],[128.2578886407734,36.94651162490451],[128.25753233622825,36.94632635055694],[128.2574186548278,36.94596075471004],[128.25724213688935,36.945808520257266],[128.25718218860757,36.94551157509445],[128.2566428862367,36.94521314358727],[128.25692152623583,36.94529791236655],[128.25682281331703,36.94511558920916],[128.25658679127784,36.94504346075945],[128.25646086515457,36.94480748811232],[128.25615173679137,36.94453434775415],[128.25581696967132,36.94398863864349],[128.25510095809403,36.94396002260917],[128.25439251276137,36.94354878384633],[128.2540524259311,36.94319611571703],[128.2538061222193,36.943064613889426],[128.25370015038195,36.94309789119558],[128.2532283125968,36.94297679211779],[128.25302706599604,36.94280935853854],[128.25291203894758,36.94280780361775],[128.25287604970646,36.94269451831779],[128.25236754343734,36.942733448333485],[128.2520627051064,36.94283616803169],[128.25193908596356,36.94254928648004],[128.25104447265693,36.94207316010437],[128.25000148535784,36.94332900182755],[128.24931450619272,36.943979204768965],[128.24835466435619,36.94446809989437],[128.24752736001702,36.94475346477868],[128.2465718898482,36.94284451138697],[128.24624095161312,36.94245943875047],[128.24567836261622,36.942287456793025],[128.24484553863857,36.941861833541694],[128.24548441894933,36.9410200777583],[128.2454445456566,36.94062272323226],[128.24648112022012,36.940100412883616],[128.24734617085247,36.939198989178784],[128.24703918744052,36.93785676545016],[128.2455653259076,36.937469269250386],[128.24522113186177,36.93725774521021],[128.2451593029735,36.93708608599968],[128.24451034431436,36.9367709554795],[128.24384365340345,36.936804782741014],[128.2432458651522,36.93697442282461],[128.24279827999158,36.936967766963136],[128.24215618770813,36.937631274487835],[128.24146672901355,36.937576295500186],[128.24066719529463,36.936019192865345],[128.23971831231754,36.93583325123729],[128.23927509882625,36.93583589186281],[128.2386968991796,36.93564633247559],[128.23873308738874,36.93479316990543],[128.23758770776115,36.934432170735434],[128.23726435917882,36.93427253356839],[128.2370901309518,36.93406761970381],[128.23663555512206,36.93398489132109],[128.23629566348254,36.933594723565825],[128.23647404707816,36.933143118716465],[128.236509682465,36.932508561638635],[128.2361277854812,36.931865453986184],[128.23618116013273,36.93074590181824],[128.23608722848712,36.93052072378114],[128.2362150254449,36.929621809044285],[128.23621053620326,36.92884898620186],[128.23647959765242,36.92798864379139],[128.2365837382528,36.92720448861837],[128.23600900757882,36.92537643078328],[128.23636677109144,36.92498150302784],[128.23652037342075,36.92492053325316],[128.23645874365081,36.923294603855894],[128.23721033536754,36.92239637014728],[128.23725785624936,36.92160402041816],[128.23677461366574,36.92053931790175],[128.2368675052994,36.91996913988175],[128.23682178821753,36.919293204448],[128.23704530886465,36.918800410768306],[128.2366795654466,36.9166552929623],[128.23794858245017,36.9137890268993],[128.23832302304768,36.913787869455824],[128.23942520367234,36.91335619847943],[128.24001358512578,36.913392961370356],[128.24036817176716,36.912856739188975],[128.2418372785053,36.9120438673487],[128.24224687103631,36.911644205099776],[128.24224783949867,36.91093931098238],[128.24263070761816,36.90970640671992],[128.24319334647973,36.90846400492654],[128.2433336531862,36.908426270118326],[128.24382152896072,36.90760583976757],[128.24504390842145,36.90717627760944],[128.24523670993457,36.90723000813605],[128.2452318066546,36.907046617473554],[128.2454457875427,36.90710647437463],[128.2456259118257,36.90706092397419],[128.24560696352594,36.90697391373255],[128.24584472261418,36.90682968348733],[128.24598510829657,36.90630349943056],[128.2458916629231,36.90559796896819],[128.24617276257834,36.905229969345385],[128.24623192170728,36.904963617393484],[128.2462130720963,36.90443552226667],[128.24628747501578,36.904315565974656],[128.24585816503026,36.903509938794635],[128.24571164535556,36.90279955596165],[128.24586589502007,36.902380273479395],[128.24507893411337,36.9003630846166],[128.24524631284163,36.90009942920965],[128.24514161915417,36.89955200060263],[128.24515970557212,36.89855292205778],[128.2445115866723,36.89794303619468],[128.24378924799123,36.896238561556586],[128.2442652661894,36.89531033634949],[128.243924388226,36.8948263538057],[128.24384368303078,36.89372409435129],[128.24350261377862,36.89259535187443],[128.24370062741693,36.891861180496356],[128.24377303026895,36.890934406827824],[128.24429092941182,36.890258488173025],[128.246520688248,36.88856542196508],[128.24724056700936,36.888489392318824],[128.2482898309194,36.887502822152044],[128.24870886826764,36.88660650281487],[128.24947408659813,36.886057545306066],[128.24968153356164,36.885679096444186],[128.2506186806247,36.88511435870632],[128.2509263324193,36.88474933167076],[128.25013666796556,36.88445631802349],[128.24906060699078,36.88364454003641],[128.24822023893526,36.88323968868642],[128.24760685075563,36.883140679788795],[128.24708302921175,36.8820790093975],[128.24569183243523,36.880990812014886],[128.24480329284893,36.88095592865737],[128.24404985583303,36.88032637483638],[128.2430988584996,36.879060776005375],[128.2426822763162,36.87817508316958],[128.2425099480595,36.878017242438844],[128.242701658001,36.87587932084394],[128.24262040858412,36.87482982974515],[128.24283004298175,36.87344816234812],[128.24210667302657,36.87277216582553],[128.241840851291,36.872328743436384],[128.24277972451978,36.871809137990034],[128.24338370647334,36.87130778592346],[128.24451808083623,36.87055622979784],[128.24685102553605,36.86932598696946],[128.2487734113053,36.868809030710935],[128.24927774263128,36.86873743644586],[128.25007822588478,36.86817605549088],[128.25114565115564,36.867690062771075],[128.25115983276015,36.86761538789538],[128.25161794095982,36.86750362639784],[128.25178157531818,36.867132544415746],[128.2519631336823,36.867016932629944],[128.2531314458909,36.866826416227234],[128.2540615316128,36.86644729331921],[128.25477418504286,36.86642879914058],[128.25529493987045,36.8662803823039],[128.25617591544366,36.866642535970946],[128.2563830365963,36.86663959360342],[128.2566315750163,36.866543659575704],[128.25712077880297,36.8658756340366],[128.2573458358089,36.86576276398926],[128.25864767911864,36.86550844897075],[128.25942361003666,36.865087447860326],[128.25981525313478,36.86501561672519],[128.26044411245388,36.86517815406671],[128.2612087880444,36.864993888500564],[128.26256642425614,36.864496481951555],[128.26313582290436,36.864119124114985],[128.26397740662952,36.86428514090253],[128.2650248189216,36.864142396016014],[128.26542230406716,36.86380766128637],[128.26551077297995,36.86344715334776],[128.26573513527714,36.863210406734474],[128.266287263301,36.86290177542173],[128.2672680925649,36.862619897040354],[128.26773906156166,36.86207234212822],[128.2678836533106,36.86130157735755],[128.2680422474762,36.86095120632297],[128.2683126208356,36.86054030193229],[128.26857005875877,36.860328767591],[128.26906642113752,36.86013190571215],[128.2701999178871,36.86010182810747],[128.27041665821883,36.85992086716259],[128.27065917389373,36.85985580647065],[128.27067884562484,36.8595650849159],[128.2709745593062,36.859299555070336],[128.27132507941843,36.85917841506976],[128.27199843479391,36.85913264569985],[128.27375718314232,36.85834767379556],[128.27443999266583,36.85823426606518],[128.27494375358185,36.85806483628475],[128.27617625451032,36.857141941399405],[128.2776254894739,36.85703788971848],[128.2782170641503,36.85682385059223],[128.27902012686982,36.8567338653821],[128.2794940813394,36.856908057191596],[128.28020288133177,36.856991791268456],[128.28149536143684,36.85650771819766],[128.28210262083076,36.85648871864795],[128.28243385527054,36.85639893665553],[128.28247552825871,36.85596269298506],[128.28269060212264,36.85568499247408],[128.2832119259487,36.85450522466881],[128.28348351515908,36.854221615442995],[128.28401509608463,36.85337524294593],[128.28495210378574,36.85091141571049],[128.28565371100015,36.84978001086102],[128.28550894955663,36.84731045216313],[128.28582755129514,36.84668189817633],[128.28593370765898,36.846166386284324],[128.28655534078442,36.845033733804634],[128.287248095182,36.844545666648834],[128.2880369952957,36.84438342456252],[128.28898314367262,36.843910832569804],[128.28944961816947,36.8435556827294],[128.29015686709087,36.84275147467797],[128.2906781992484,36.84123346209646],[128.29134256604752,36.84046307835547],[128.2929434915545,36.839466712001446],[128.29332308878196,36.8389903378253],[128.29462806677452,36.83662665469222],[128.29522030239377,36.83577386873357],[128.29562399867666,36.83534120274529],[128.29682673960315,36.83484866330081],[128.29786435483112,36.83473740372991],[128.29883083213585,36.83351584923561],[128.3016429867473,36.83266306771686],[128.30187387787834,36.832351596230296],[128.30232291270195,36.831986954591784],[128.3032206358854,36.83138814169436],[128.30336053685684,36.83120048948529],[128.3043121035937,36.830513911379335],[128.30462517813478,36.82958495397085],[128.30500095497786,36.829321831766464],[128.30562330109578,36.829183220172645],[128.3058406895883,36.828916462912225],[128.30670790903494,36.828840936409854],[128.30761529749026,36.82862089435776],[128.30799772600457,36.828627892801165],[128.30860087537425,36.82893090332537],[128.30892778686035,36.82899902279697],[128.3094740248038,36.82865087255557],[128.30975258028406,36.82858062649207],[128.31051881932913,36.828626993245855],[128.31070744657447,36.828473083822246],[128.31081870339273,36.82827720951841],[128.31062861207351,36.82756569826749],[128.31034796382343,36.82721741315751],[128.310305397785,36.8270108958609],[128.31041682942308,36.82671686970748],[128.31091644662732,36.825999990336264],[128.31126931947006,36.82599057170004],[128.31151656919485,36.82584932107773],[128.31151156954516,36.825196459278246],[128.3115968057466,36.82503861339838],[128.31184759907262,36.82490282949296],[128.31302167325893,36.82505708141006],[128.3132130524899,36.82485638948351],[128.3135670522668,36.823831692578516],[128.3137687293784,36.82355306435215],[128.31403482777293,36.823344601250405],[128.31429205550776,36.82328429293048],[128.31504294820343,36.8233340893034],[128.31574898124697,36.8227557452802],[128.3158293762036,36.82257703410635],[128.31574635944747,36.82225839334605],[128.31631116375792,36.821262142557885],[128.31609596582211,36.820806463157886],[128.31536747914197,36.81992339216075],[128.31535551950344,36.8197483072943],[128.31591837193645,36.819123471965234],[128.31579017662148,36.817420352585756],[128.3161207755272,36.81686387034754],[128.31645005567407,36.81666163880404],[128.31667700932925,36.81664497387686],[128.31697696668277,36.8168537865463],[128.31754260890608,36.81676242450681],[128.3182559598057,36.81693239990069],[128.3190762960159,36.81663571162624],[128.31963801538228,36.81626033046117],[128.32009121876294,36.81616265136164],[128.3208486806854,36.8156400551929],[128.32418138205094,36.815964174089224],[128.32596945366717,36.816344077641105],[128.32724818483842,36.81679674407207],[128.32822059708246,36.81661144764842],[128.32842971873012,36.81637734260782],[128.3289411618373,36.8161932641626],[128.3296546491093,36.81616778212333],[128.33082809252082,36.81640545243498],[128.33278785746992,36.81697624481965],[128.33336360254143,36.81701760784608],[128.33372451880822,36.81688846466804],[128.33445949920207,36.81696068001401],[128.3348945663854,36.816879267182735],[128.33523152339436,36.81674261277642],[128.33532118753794,36.8166199509042],[128.33573714925933,36.81651358203719],[128.3372620419166,36.815623812063556],[128.34021394040624,36.814854657408695],[128.34100256103693,36.8145725087888],[128.34591651908232,36.81360295207142],[128.34824192533944,36.813015158554165],[128.35122543847353,36.812935583999625],[128.35318071634686,36.812449956151234],[128.3541841094403,36.81120821206814],[128.3551540520329,36.81110814164038],[128.35593436628722,36.8107178944674],[128.35676216003586,36.81061623247155],[128.3568365246517,36.809285992259014],[128.3572913570742,36.80863519844989],[128.35686763392292,36.8067746296733],[128.35708176305073,36.806324528229545],[128.3577805807223,36.805972978347405],[128.35807316802578,36.80563833939279],[128.35871959162637,36.80564429962464],[128.35931988683478,36.80509000527619],[128.3597818964309,36.8044719804738],[128.36019072804152,36.80422517447339],[128.36109309632363,36.803964022285506],[128.36154140715556,36.80348031302332],[128.36187453139138,36.80346425680516],[128.36250487038518,36.80300499685851],[128.362723635856,36.80304139149089],[128.36350312900038,36.80280713708737],[128.36408400820338,36.802215683221874],[128.36453551518306,36.802420341479156],[128.36476705495733,36.8027526646034],[128.36555343800765,36.80303360828796],[128.3661860788248,36.803002943215745],[128.36632589990612,36.80310818331174],[128.36667004705302,36.802862520436456],[128.36694622892978,36.80283713840838],[128.36783355054354,36.802544835139756],[128.3683021047056,36.80214255512082],[128.37104502178164,36.8040957723494],[128.37270480848355,36.80546168458613],[128.3732539431745,36.807676276746335],[128.37449104430684,36.80822655252188],[128.375238072956,36.80915214729545],[128.3762380075088,36.80942903881188],[128.37752405147214,36.81085535404073],[128.37871533252687,36.8110939325075],[128.3813161914178,36.81408885366104],[128.38322093264793,36.81427799981198],[128.38493747166208,36.81435371046926],[128.3870141358393,36.81480295011214],[128.38870124773732,36.81458727119854],[128.38957065589358,36.81478588222915],[128.3915724584989,36.81472279799702],[128.39365459622294,36.815416559912855],[128.39393405747143,36.8151211632368],[128.39604629074657,36.81447191542993],[128.39790001047803,36.813600093399295],[128.39974623025248,36.81301141633971],[128.4012777918048,36.81289847268103],[128.40211693210983,36.81275075302232],[128.40318100335747,36.812187994749166],[128.40463029631402,36.81236581164104],[128.40614319387072,36.81205184346521],[128.40805656293747,36.812236976090325],[128.41145458950655,36.81140379084812],[128.41286414555114,36.811264014990115],[128.4137409282182,36.81151086659011],[128.41515588037814,36.81218495109755],[128.41711480651614,36.811859838012055],[128.41909754904515,36.81179344509004],[128.42040084134132,36.81144702527048],[128.42233599394478,36.81321133520444],[128.42295540662937,36.81342150226491],[128.42401202559498,36.81454217608309],[128.42529972731725,36.81533718986847],[128.42562592075274,36.81645178999546],[128.42542071496982,36.81733249419505],[128.42571805987035,36.81837617494086],[128.4256575776098,36.81894476931867],[128.4270659149279,36.81949159195758],[128.42758513531462,36.821006321020874],[128.42840328191437,36.821545831149166],[128.42857171708735,36.82194672957713],[128.4293633846153,36.82237991517313],[128.42984070553945,36.822984041572035],[128.4308003604599,36.82321497166594],[128.43170068719732,36.82430147358367],[128.43246498905592,36.82647856426716],[128.4334304526903,36.82761981544624],[128.4331504207657,36.82817100929927],[128.4328618992392,36.82912105132724],[128.4332759373539,36.83014346540509],[128.43358868721333,36.8305510510002],[128.4335328697513,36.831496966285236],[128.43417617983445,36.83297285643615],[128.43412219581435,36.83418081131557],[128.43745851621344,36.83588160344423],[128.43796942445292,36.835988183087295],[128.43843124515544,36.83627002612966],[128.43936472432145,36.836355330212164],[128.43970771540836,36.8365508014882],[128.44113788786788,36.83761072252396],[128.44181298752125,36.838751858300476],[128.4423532272699,36.83927977764641],[128.44232381392638,36.83983252239486],[128.44213461008346,36.84024419374212],[128.4442046621373,36.8415428104502],[128.444647473194,36.84212972163007],[128.4452054430436,36.84261460362438],[128.4466025772297,36.84320260701941],[128.44685968269803,36.84377165435498],[128.44698587735604,36.84456894627008],[128.44681531751627,36.84588334280766],[128.447317065796,36.846393401011696],[128.44822395009993,36.84681532193614],[128.44887333305977,36.847819187674894],[128.44870162222577,36.84824859376141],[128.44896481729307,36.84861795997417],[128.44865601922342,36.84934136403111],[128.44872993583738,36.84970535599605],[128.44802278742634,36.85094871830998],[128.44824373590643,36.851416386726996],[128.44744636768525,36.852303374238026],[128.44698004053237,36.852654829802006],[128.44665883029742,36.853371593611605],[128.44721162824993,36.85439877930165],[128.44768080676397,36.85495876504139],[128.44793603685306,36.855520201114025],[128.4477691590951,36.855894713090244],[128.44792588139535,36.85632828605884],[128.4472936403181,36.856812207672334],[128.44758103164833,36.857541464973416],[128.44750647709276,36.85783243508509],[128.44762177476784,36.85820548481309],[128.4478796920534,36.85864064679832],[128.4477374074863,36.85964098357874],[128.44786915338642,36.860365417746806],[128.4478023644876,36.861471659689876],[128.4486427739433,36.862192992146376],[128.44912589641805,36.862874213758936],[128.44799797858528,36.86438821789083],[128.44675900501636,36.86531187597664],[128.4438783869366,36.868028881057555],[128.4433381524602,36.868449039042275],[128.44248052697841,36.86821713072834],[128.4415781341097,36.86911337157408],[128.4412930418019,36.869576820599754],[128.4409629471951,36.8697762957966],[128.4395482784955,36.87112790695523],[128.43873111965505,36.872320682018334],[128.43842788450067,36.87327070327253],[128.4364430010761,36.873654617472056],[128.43549119853495,36.874074169291276],[128.43423116883721,36.8744195156257],[128.43354300135886,36.87485051311493],[128.43317306376255,36.87490778918722],[128.43171120408408,36.875537596053164],[128.42924341924004,36.8755411598158],[128.428218030705,36.87505651210524],[128.42638424503184,36.87552652783297],[128.4260576728361,36.87584056543131],[128.4249019745044,36.87647120367049],[128.42396941745244,36.87652843877004],[128.42433835650357,36.87810871064139],[128.4247834130993,36.879391147995854],[128.42539235391015,36.879938689031135],[128.4258692552656,36.88051194942005],[128.42705103787324,36.88126358578474],[128.4275571492012,36.88222429182345],[128.42743030775713,36.88266346397865],[128.4277990986171,36.88332260957909],[128.42748114617353,36.88370782696068],[128.42815798641283,36.88476761977929],[128.4278426047438,36.885081291544324],[128.42793463076268,36.88576830046461],[128.42761285697998,36.886695098195716],[128.42724169283727,36.88742731079637],[128.4272372441863,36.888221185168874],[128.4268283809488,36.88865731589611],[128.42678610370564,36.88924486019243],[128.42736354310523,36.88998314464171],[128.4278441899757,36.8907890696447],[128.42813618905953,36.89109884661103],[128.42862505904972,36.89122066760933],[128.42896945150585,36.89144738843478],[128.42904043252474,36.8920580002992],[128.42937636057414,36.892228749825634],[128.43188367860265,36.89286560155292],[128.4321169830176,36.89350976372196],[128.43247365946425,36.893845989341614],[128.4336043045225,36.89543577198136],[128.43449243480353,36.89586268365419],[128.43615833209608,36.89708186738436],[128.43615443814858,36.89752589660268],[128.43653136161132,36.89789473306446],[128.43651298403728,36.89833026057545],[128.43705011111865,36.899041482410865],[128.4375383495415,36.89913996211943],[128.43804582877087,36.8996202375752],[128.43857219665145,36.90063049266619],[128.43918816043308,36.900566888149406],[128.4397125883288,36.901078703708265],[128.4402802162808,36.901249546749426],[128.44012366748296,36.9020101468291],[128.44027586856092,36.90220399599649],[128.44016127882077,36.90287384032258],[128.44058044748832,36.90377997401557],[128.44102294874241,36.904212333256254],[128.44088983022957,36.904431476159736],[128.4411437896466,36.905443982130336],[128.4416764269504,36.90634116634504],[128.4417406417593,36.906920306505995],[128.4420429696761,36.90735294516949],[128.4423765630023,36.90822289637481],[128.44279086567545,36.90992698622032],[128.4430628090757,36.91019587455867],[128.44297941861274,36.91062925166819],[128.44322643768987,36.911752694481784],[128.44309928085403,36.91240148934048],[128.443976052955,36.912938836307724],[128.4441331153068,36.91331628080283],[128.44474957393874,36.91369358787649],[128.44458640616173,36.91409577108456],[128.44438392878135,36.91510603560128],[128.4446580757596,36.91556380425706],[128.44476841060725,36.91680036725094],[128.44517415027818,36.917413646650665],[128.44477561422855,36.91769352994443],[128.4437118611295,36.91875314376517],[128.4428273138776,36.91984573840911],[128.4431355229661,36.92284940864606],[128.44282132181425,36.923844646307366],[128.44225757719724,36.924927306725465],[128.4423161272859,36.92538056844861],[128.4422218985896,36.9261538383603],[128.44159351069214,36.92734860934892],[128.44320932389064,36.92751705535129],[128.44545876427705,36.928127288903106],[128.44606800774375,36.92876430592184],[128.44772855440726,36.92935299728291],[128.44849340519158,36.92995447521871],[128.44964640294953,36.93032898689209],[128.45043581103593,36.930789261207764],[128.45198168492587,36.93053219228949],[128.4526679208527,36.93071826659108],[128.45397059127671,36.9319735407746],[128.4542149040556,36.932121965368346],[128.4541842480422,36.932396706126426],[128.4556335275635,36.93359094730136],[128.45598072035222,36.934052767364186],[128.4581996926929,36.93429757663273],[128.45943762173437,36.934009936970945],[128.4603950647358,36.934004955050895],[128.4600834493641,36.93604716926151],[128.46039687513328,36.9366145110374],[128.4603887501283,36.937326997286426],[128.46019003417265,36.93772082502253],[128.46056286107583,36.93825421627187],[128.4608662784501,36.939243134520474],[128.46143585066804,36.939555951486454],[128.46204209159356,36.94144215234666],[128.4623424659357,36.94168311546246],[128.46282871324792,36.94244124578634],[128.46342287565056,36.94375741783304],[128.46278158220116,36.94738431914827],[128.46443067962727,36.94878636106649],[128.46485888116152,36.94903989763667],[128.46614665028184,36.950220251973455],[128.46707283965344,36.95072737714347],[128.4671692492516,36.95145024927384],[128.46966331395208,36.95281987168351],[128.47229268305418,36.954487230919725],[128.47238099611553,36.95468065059788],[128.47314148671612,36.95534597706265],[128.4741427810796,36.955620485960104],[128.47503154576722,36.95635885639803],[128.4754699994656,36.956866551099424],[128.47642149106403,36.95725662498709],[128.47704633248276,36.95744045003828],[128.4799584589032,36.957670163172985],[128.4814415989803,36.95789884824687],[128.48489541174337,36.95747123806128],[128.48557565749144,36.96008100617342],[128.48597982045084,36.96096091510216],[128.48583354909786,36.96168050419751],[128.48601522428544,36.96192972862229],[128.48642022179817,36.9621835643348],[128.48744330924237,36.96277390912597],[128.48819164989658,36.96287161580641],[128.48956093812515,36.96372663682763],[128.490865572869,36.963694771284096],[128.49385143606534,36.96442303017037],[128.49556504001225,36.96516607285283],[128.49628192656976,36.96572009833617],[128.49765273566058,36.96606570631838],[128.4982374143286,36.966389453135186],[128.49920880000815,36.966749195889165],[128.50007332113358,36.96752119629529],[128.50225820068007,36.96788511563454],[128.50278490925388,36.96836583898044],[128.50397992954663,36.96866844726068],[128.50513270161667,36.96920667606199],[128.5064966528292,36.97005297704932],[128.50672830287388,36.970082556848425],[128.50641826867067,36.973192571145056],[128.50760416356178,36.9736406688716],[128.50974494674668,36.97462061964394],[128.5113037794241,36.97555273800934],[128.5131103980289,36.97643737857332],[128.5146141213817,36.97758134616182],[128.51441227093508,36.97857433389006],[128.5140281529349,36.97934528788842],[128.51386763632053,36.980397610742756],[128.51411139209358,36.98118652908049],[128.51464182630585,36.98206850618494],[128.51461548156507,36.98251667077375],[128.5152134523449,36.98328021612974],[128.51562291447343,36.98357528268411],[128.51548008574989,36.985275021882686],[128.51547465757258,36.98682351372492],[128.5169250176827,36.98691067376661],[128.5177148250545,36.9873997534611],[128.51834728782268,36.98747932991847],[128.52011294873432,36.98806499336425],[128.52132118683684,36.988149900146034],[128.52225466686892,36.98864709119059],[128.5227423786594,36.98863975127928],[128.52323110127784,36.98913869798369],[128.524232321727,36.98920765758025],[128.52447057531126,36.98940404388399],[128.5251506471854,36.98959444413896],[128.52602669292486,36.99007226843906],[128.5271954147008,36.990071296888765],[128.52734971661636,36.99018322651425],[128.52968341075055,36.990810661957525],[128.53052471758255,36.990411852238395],[128.53245409140118,36.9904715393206],[128.5335704681491,36.9901678650852],[128.53422029138588,36.990383620278685],[128.5350087784963,36.990205086043204],[128.5355336950235,36.990225080027145],[128.5379119218326,36.99138624431577],[128.53807387514217,36.9910808749211],[128.5387007037333,36.99090422203999],[128.53933550628457,36.991228712179755],[128.54035194111088,36.99154905589528],[128.5404714927586,36.9917245062658],[128.54171261202885,36.991994044876805],[128.5419530058934,36.99219364713467],[128.5430271696873,36.992092477109985],[128.54420684172524,36.99257172693704],[128.5457034176723,36.99434261386265],[128.5472987969757,36.99381283388225],[128.54763316170875,36.994403670806236],[128.54785357918905,36.994543090145356],[128.55269369001408,36.997222635588706],[128.55338557153377,36.99746330603377],[128.55396902943065,36.99789479012057],[128.5547310575527,36.99828607031036],[128.55470598827418,36.998898124205716],[128.5556057936299,37.000084678658155],[128.55547046893653,37.00072545456815],[128.5558210207138,37.00195106581339],[128.55574426749743,37.00212909725756],[128.55575055232595,37.00283064605651],[128.55508166294084,37.00357234583727],[128.55559703483237,37.00414016276038],[128.5556214720584,37.00487143308885],[128.55593969219493,37.00570305483891],[128.55755660386217,37.00577533962032],[128.55960567413592,37.006614244442204],[128.56074025282004,37.00717314236445],[128.56149887436112,37.0077190484426],[128.5623441047093,37.00775204643337],[128.56292204013837,37.00789398885498],[128.5633314535516,37.009139037628216],[128.56346323917856,37.010128462883216],[128.566156903189,37.011049719607676],[128.5665205499025,37.01129997559825],[128.5674136476703,37.0115103725728],[128.56816616702912,37.01242441345275],[128.5691431918673,37.01277125430021],[128.56942309362793,37.01316285201218],[128.5703440518519,37.01399512172368],[128.57087675358096,37.01542116993623],[128.57127254769995,37.01593345433292],[128.57153864278715,37.01679469624146],[128.57142543804474,37.01744155465337],[128.57165035631144,37.01760638657064],[128.57140517801997,37.01812896587633],[128.57193727943792,37.018551562896405],[128.5720649435234,37.01948060185508],[128.57290581798347,37.02079963875338],[128.5726076200644,37.02196677042613],[128.5718596522628,37.022439395821316],[128.5714176595851,37.02287058606857],[128.57101730965238,37.022855197094785],[128.56912611411826,37.02373235496499],[128.5690180758043,37.02429351338687],[128.5688233986964,37.02456701811826],[128.56828199131786,37.02482605486731],[128.56692585744818,37.02599568660119],[128.56665525020932,37.02680742498564],[128.56662162380334,37.0279374516333],[128.5668296818979,37.02817063799378],[128.56672380604496,37.02849492581261],[128.56686817251818,37.02937357525195],[128.56668724311675,37.029735830337614],[128.56618114944393,37.030344611310966],[128.56541319170074,37.0307174255862],[128.56564436899848,37.03153023222527],[128.56617508705946,37.03182696294357],[128.5666810740309,37.03262092461918],[128.56767451402325,37.033483626802415],[128.567860706546,37.03387304817054],[128.56837183619038,37.03421950914638],[128.5685881467236,37.034213860001294],[128.5690702298093,37.03457050567026],[128.5692909796987,37.034884586624536],[128.56995071154984,37.03478598461601],[128.5704790055661,37.03507830247991],[128.57106328135913,37.03526736629311],[128.57158373928854,37.035651367574026],[128.57297113826752,37.03593857439603],[128.5743277970233,37.035425906803916],[128.5757393280635,37.03570701985851],[128.57714894252712,37.03541093157582],[128.57773387066683,37.035567021352406],[128.57772851661656,37.036545840688575],[128.57837842342266,37.03732949433188],[128.57885668964508,37.03836772794324],[128.58056370810604,37.03920244952008],[128.58088276052544,37.04026353425328],[128.58213475135943,37.04264351620884],[128.58352561835616,37.043733729932114],[128.58603217052,37.04295344119284],[128.58666425645322,37.043566108653565],[128.58745598682526,37.04312637531903],[128.59074255610352,37.043103733852206],[128.59182575822342,37.042444915980596],[128.59204614763888,37.042171639039815],[128.5924806725376,37.04188499999308],[128.5941212555047,37.04204723511828],[128.59683068863268,37.04176578863467],[128.59796380145912,37.04224162912731],[128.5980562549976,37.0431059966841],[128.6016388278826,37.04409720209868],[128.60310462681764,37.04400360293138],[128.604239485624,37.04380583898529],[128.6051606306127,37.043331487966924],[128.60678814649003,37.04339578001277],[128.60712579461895,37.04384660538704],[128.60712560565182,37.04436426081855],[128.6070820094284,37.044576281501875],[128.606697873456,37.04495168887266],[128.60669503385552,37.04565904474491],[128.60660902135692,37.04581622917547],[128.60666201378297,37.04616993582013],[128.60743304157958,37.04673267109003],[128.60792122556182,37.047405375146504],[128.60760388170684,37.048719097018186],[128.6072666962207,37.049215394677965],[128.60709524088642,37.0497480445826],[128.60772152202216,37.05112323011846],[128.60816666917577,37.051683127160175],[128.60843643040437,37.05281450648248],[128.60883518750003,37.052695418261806],[128.6097596088317,37.052032389128094],[128.6103095725612,37.052136426123745],[128.6107797665768,37.05184478241807],[128.61115264449506,37.05171381231429],[128.61179276457224,37.05158996166354],[128.61228048141382,37.05170064647011],[128.61299335007544,37.05166182560127],[128.61374798279977,37.05140227305012],[128.6177430648826,37.05066241977493],[128.62171401018946,37.04907498845251],[128.6220846057308,37.047911566987665],[128.62173746748041,37.046678738829655],[128.6228317189848,37.04533719160561],[128.62466770694772,37.045469985583104],[128.62607621342627,37.04381452043049],[128.6282652345129,37.04214329646617],[128.6310912510993,37.04096322425074],[128.6329245230377,37.040501805028526],[128.63280857776985,37.04171497609481],[128.63330495322444,37.042083177294536],[128.63408479851367,37.04566755186306],[128.63452651409017,37.04655249255353],[128.63583013494545,37.04771067969656],[128.63588091842442,37.04819762910069],[128.63659015945615,37.04921945484082],[128.63635949601013,37.04959671352636],[128.63647711923528,37.049837902797634],[128.6366329708442,37.050010396962996],[128.63709062153748,37.050216383728184],[128.6374033220322,37.050554160343935],[128.6375880797467,37.05061941937056],[128.63775396972108,37.05103360895057],[128.63785582638855,37.05155364750279],[128.6377713663264,37.05166523616124],[128.6371717375068,37.05179863124543],[128.6367082636724,37.05236519753414],[128.63674129310678,37.05243137085444],[128.63717513275986,37.052687397665814],[128.63747339182902,37.0530263200769],[128.63757773266815,37.05304477140147],[128.6387802194711,37.05249480695507],[128.63903803498496,37.052501942203186],[128.63926516921384,37.053083056663],[128.639159849885,37.05335170934281],[128.63934847486576,37.05399608842461],[128.6395230962079,37.05411489384326],[128.6401747299779,37.05427729216425],[128.64173715145236,37.05528070652553],[128.64220996382272,37.05623938904227],[128.64266973640153,37.05684522540673],[128.64374252020787,37.05795588227226],[128.64392411464337,37.05834838407116],[128.64436485843535,37.05872324417363],[128.6446909691623,37.059652449703705],[128.64613402042903,37.06108779401214],[128.64954698050047,37.06277130456092],[128.65043031545153,37.06253966941356],[128.65093937510494,37.06300518253394],[128.65157928972585,37.06322038526969],[128.6518737585261,37.0634930913103],[128.6518059572462,37.06390161292226],[128.65154485203982,37.064352672769196],[128.6523035529578,37.06568851235025],[128.65060628788788,37.06588242514185],[128.64821254226965,37.06771627923696],[128.64690367351875,37.068151700777754],[128.64590448208523,37.069117590711855],[128.64462370070171,37.069068092836105],[128.6441187088727,37.06979529932077],[128.64269168802957,37.070754345969355],[128.64143637884635,37.070871863290805],[128.64039942977678,37.071087608054405],[128.63901108219173,37.07071701446059],[128.6387574017216,37.071201620090335],[128.63767717811064,37.07181469686795],[128.6373562082234,37.072343036479175],[128.63607075941843,37.07193968585668],[128.63432137351728,37.07075800696071],[128.63352918280148,37.072324876922735],[128.63238525652832,37.073094304306835],[128.6311620802893,37.0735379162713],[128.6298276862522,37.07419230734121],[128.6282443848396,37.07522598315892],[128.62824775019484,37.07656803144464],[128.62732488433574,37.07753633889905],[128.6276289370234,37.07840600679338],[128.627622669663,37.07952231364406],[128.62775415143102,37.080458522984785],[128.62829772525595,37.081385663236816],[128.6268722757301,37.08264943077079],[128.6258187971986,37.08326315201727],[128.62451723534332,37.08453495434049],[128.6240494434342,37.08570305581791],[128.62267640465,37.08739897932594],[128.6206987940307,37.085884452637146],[128.61771248126644,37.085265571166985],[128.61767568097986,37.08438255204404],[128.61673436829486,37.08360952094114],[128.61512094019758,37.081995155865236],[128.61415560211898,37.081384711961555],[128.6125864052189,37.08101700701379],[128.61261379684373,37.08078803109469],[128.6120380053536,37.08057864823029],[128.61146588792934,37.08008299541442],[128.6106082355796,37.08007514628057],[128.60937628888462,37.07949521040484],[128.60853253903426,37.0787884178805],[128.60848920903953,37.07792259776366],[128.60701441312153,37.07677557913258],[128.60641425319787,37.07667441612698],[128.60610244680913,37.076708141221275],[128.60593828821087,37.07680150527377],[128.60568011891553,37.07740532016267],[128.60492462144543,37.077975669332154],[128.6046932965318,37.078968401209686],[128.60448607786216,37.079121662968696],[128.60410941173882,37.07917625366203],[128.60308874900687,37.078654057285675],[128.60292131355277,37.078633750573665],[128.60216919270954,37.07862769632536],[128.60138036096984,37.07891186548923],[128.60095642436886,37.07946707635062],[128.6013666515955,37.081520685325145],[128.60200976130946,37.08219816228466],[128.60171943909546,37.082949072030495],[128.60162599707226,37.08305582032207],[128.60148907956182,37.08303689752915],[128.601358104857,37.08314613230795],[128.60090405278183,37.08295150654749],[128.60024640731197,37.082943993632774],[128.59965752585762,37.08315111892783],[128.59907171491997,37.08303799236586],[128.59905170064198,37.08281034567392],[128.59953732295622,37.08250505917042],[128.59946296900634,37.08218638975003],[128.5993259110916,37.08208561640214],[128.59910851825748,37.08209860851306],[128.59827550291286,37.08242735617488],[128.59778805580456,37.082275809173744],[128.59688033485702,37.0823735538495],[128.59614287185303,37.08177427599914],[128.59574273074455,37.081661403177684],[128.59548584766173,37.081726033317935],[128.59501211365816,37.081556035595995],[128.59470680317327,37.08127435010612],[128.5944392374398,37.081190164136956],[128.59402263967783,37.08085695126295],[128.59403523022684,37.07960057238283],[128.5931500142238,37.078411826756984],[128.59273988100327,37.078279861406855],[128.5924855689223,37.078276094816594],[128.59216711141542,37.07812078432233],[128.59092734456172,37.078231064690115],[128.59076803834319,37.078309106370725],[128.59044051448538,37.0788047924912],[128.58976970394104,37.07950112819126],[128.5889136628853,37.07981670300039],[128.58872797490812,37.08000714004039],[128.58809804185816,37.080029833266735],[128.58760318234803,37.07995640096541],[128.58726022799965,37.0800500935394],[128.58699080311243,37.07998390657727],[128.58585763075524,37.08031021086482],[128.585564869161,37.080334636158966],[128.58450167293964,37.08069327410108],[128.5841000691951,37.08062636931182],[128.58324218575666,37.080727902259014],[128.5827301831607,37.08105315957624],[128.5824190400851,37.08139099110014],[128.58179503006826,37.08168340340704],[128.581301921744,37.081564585542935],[128.57960586952572,37.081586403604476],[128.57886233918907,37.08142486866242],[128.57783738347925,37.08138161259467],[128.5756278265663,37.081349191794835],[128.57439464616024,37.08144687657903],[128.57423096496169,37.08215032701065],[128.57366045521098,37.08253855050104],[128.57330193991024,37.083068928621636],[128.5726289810458,37.08345207473043],[128.57221369702722,37.08394816408739],[128.570378008258,37.08462304636812],[128.5707588385308,37.085997246188924],[128.5709466224913,37.08619894831425],[128.57051944747323,37.08648818255184],[128.56972190040955,37.08646404571792],[128.5691505082261,37.086718718759585],[128.56891994929921,37.08702147455886],[128.56846810217942,37.08729506124328],[128.56793798335144,37.08814905802519],[128.5675897789549,37.088163386811416],[128.56733570468447,37.0882782102495],[128.56696671510304,37.08823116860744],[128.56653386318538,37.088303629149316],[128.566079077894,37.08851384229771],[128.56508539066328,37.08877610449338],[128.56371613977976,37.089684508505094],[128.5631979395387,37.089791468614024],[128.56218996406147,37.09050283886763],[128.56173825491643,37.09066129896132],[128.5605573189219,37.090040171520414],[128.5600697170519,37.08950823519783],[128.5594774429639,37.08909227244028],[128.55850369452978,37.08887224330812],[128.55705323747318,37.08796100197005],[128.556526002445,37.087546504964514],[128.55590538403104,37.08739680122372],[128.55539029844397,37.08743207882871],[128.55449596279874,37.08679120174262],[128.5537959243464,37.086594136486525],[128.5533450813807,37.08665205041877],[128.55053369442916,37.08621821554835],[128.54900818167812,37.08675603957125],[128.54851987246414,37.08717679410684],[128.54795629466133,37.08750828033803],[128.54601304460354,37.087744921862466],[128.545077569056,37.087563339320944],[128.54446818957817,37.08778336844253],[128.5436065574537,37.08833435103504],[128.54280947930613,37.088550000319174],[128.54251057407913,37.08878824601357],[128.54199068399151,37.08894632911182],[128.54007172153376,37.08926166323271],[128.539874958725,37.08939153385272],[128.53936971880964,37.0894987883509],[128.53856007960383,37.089552011542445],[128.53836622393084,37.089787001188064],[128.53814914188635,37.08987604632635],[128.53695759391334,37.08999139187246],[128.53625653417478,37.09124858643094],[128.53586150505782,37.0916185208242],[128.53578481575096,37.0925936348642],[128.5354944210707,37.09305059342175],[128.53560846699946,37.09326211415336],[128.5355638249972,37.093805833805995],[128.53516359066123,37.09469161260876],[128.53473124556714,37.095358591461995],[128.534990504805,37.09607601674493],[128.5347899301385,37.09660300242022],[128.53476518644257,37.0975400090189],[128.53448782529998,37.09827999864828],[128.53462795556632,37.09843534160201],[128.5336623716911,37.098888037258675],[128.53225602486478,37.099718583088375],[128.5309445612897,37.100064272878114],[128.53023241441156,37.10038160733629],[128.5294549157585,37.10098218192108],[128.5276586786677,37.101690103530025],[128.5269653169935,37.10156534673571],[128.5255633674848,37.101669905991834],[128.52493683102796,37.101618548800104],[128.52358917248006,37.10237453879463],[128.52288738145558,37.102572443062414],[128.52181368069972,37.103230114495155],[128.52063786071852,37.10240950656686],[128.51927760057262,37.10238250420518],[128.51843354484984,37.1020442605108],[128.5180247196857,37.10222575592638],[128.51707159224654,37.10142266987151],[128.5140640187134,37.10076710134974],[128.5143438154028,37.10256049961576],[128.51390979456306,37.10510615953473],[128.51304510012912,37.107630028039196],[128.5122093743447,37.10942284042315],[128.51172867311766,37.110258356401076],[128.51120790414342,37.11090300440899],[128.51096238393976,37.11156691318932],[128.51075069424328,37.1131191999298],[128.51074995925543,37.1139634670626],[128.5101172126551,37.11396891583116],[128.5082387627139,37.1147839424413],[128.5076977663341,37.11483309949693],[128.5072623678544,37.11503246549968],[128.5069798690737,37.115316337942915],[128.50654849633128,37.11555675237137],[128.50659141242974,37.115661053466965],[128.50644596315647,37.11587054844303],[128.5061639301983,37.11599701115672],[128.50607911869494,37.11628839944361],[128.50524977929953,37.11705801900463],[128.5047602236882,37.11768069197121],[128.50431508311632,37.11774919609658],[128.50350979388733,37.11845489153383],[128.50332076763124,37.1187720039669],[128.5030384486039,37.11962293882377],[128.50210108875626,37.120536229953984],[128.4998273335875,37.12223875780907],[128.4966007338929,37.12576645924045],[128.4956961009197,37.12567137890466],[128.49526700697564,37.12535008656415],[128.49418557529728,37.1249103842647],[128.49392546093716,37.12462751995826],[128.49363172950552,37.124735650180995],[128.4932275048725,37.12463162127445],[128.49269712177966,37.12464368252093],[128.4922289608021,37.124211886035134],[128.49108650663752,37.12383681222949],[128.49037426926242,37.123120638224925],[128.4903244256461,37.12282090707473],[128.48959818830272,37.12177891422123],[128.48949415001755,37.12103875551316],[128.48789182328636,37.12035894466518],[128.48691465293746,37.12008836011837],[128.48675626535905,37.11957387009848],[128.48551212789278,37.1176563209908],[128.48458143002608,37.1174080725149],[128.4844162151661,37.11693749006983],[128.48411855173205,37.11646010892853],[128.4835188399824,37.11618701628179],[128.48340392384367,37.11581175690659],[128.48247939103203,37.11497982536923],[128.48227331066664,37.11456518498584],[128.48183566749412,37.11419505100552],[128.48178824624327,37.11372920732516],[128.4819833153273,37.112715336868234],[128.48165972909385,37.11249560238778],[128.48148437260056,37.11219481109873],[128.48114786760098,37.11199553550547],[128.48094559656835,37.111697340369275],[128.48003356860903,37.111406647365094],[128.47932374720105,37.11134111374109],[128.47768891828338,37.110028072328994],[128.47302204928198,37.110131989223056],[128.47217198392164,37.10983543744214],[128.47183698543554,37.10983042112809],[128.46811447625169,37.110200287680726],[128.46579992385256,37.10986580518288],[128.46499689580824,37.1098390844725],[128.46403843391124,37.110183158419055],[128.46364490562436,37.110087615648666],[128.46355521241378,37.110158377322406],[128.46322591791457,37.11017975336198],[128.4628484202675,37.110392001959134],[128.46248568632262,37.11037797765974],[128.46224494459784,37.11045244692123],[128.46162503860054,37.1101236192342],[128.46160359239602,37.11032307097126],[128.46131178047594,37.11036374294453],[128.46116721402075,37.110467718720756],[128.46102399735807,37.11040226868294],[128.45806447768695,37.11022793663105],[128.45687395786368,37.11057577846154],[128.456212757671,37.111006369802716],[128.4554066064533,37.111807515915174],[128.45468410366718,37.111649143962765],[128.4530173808806,37.11181729898032],[128.45252698663532,37.11171178575788],[128.45199423352707,37.1119286022046],[128.45133428186347,37.11207511888874],[128.45083428123576,37.11235326663833],[128.45059468442204,37.11223786100982],[128.45029728154208,37.11222670090013],[128.450196312303,37.1119869593334],[128.4500102424045,37.11181409242728],[128.44856712673362,37.11063648403756],[128.44840991594606,37.110192084400964],[128.44805042258005,37.11001414930652],[128.44751351409548,37.109405590113276],[128.44720635358755,37.10919418369901],[128.44666018295672,37.10902695500569],[128.4466486008172,37.108640602445405],[128.44645907493134,37.10829090592305],[128.44569417393467,37.10783727755705],[128.44533806085485,37.107476796673595],[128.44500284070978,37.10680447710232],[128.44501043385387,37.106464885256365],[128.4448082062248,37.10627157247225],[128.4442990122558,37.10703098199718],[128.4441335651548,37.10741908552663],[128.44334197881506,37.108050561921914],[128.4429385274812,37.10898863112563],[128.44271102772248,37.10923372437581],[128.44241363217577,37.109343467995984],[128.44142681357533,37.10943220067531],[128.44070481421429,37.109846320148556],[128.43981510571578,37.10995882825564],[128.43880368318943,37.110445713594835],[128.43807700317168,37.11098980440806],[128.43613730766236,37.11197938674813],[128.4352318246141,37.11158388977022],[128.43561841320522,37.10946910803218],[128.43387083716155,37.108480774461206],[128.43274327125263,37.10801742118531],[128.43073111663608,37.106747054699404],[128.4302105275515,37.10531408168966],[128.43018470758392,37.10367427103426],[128.42847654624475,37.10330568993263],[128.42805191223027,37.10336818371847],[128.42504248781015,37.10250304785415],[128.4247564918543,37.10247591852235],[128.42380978731495,37.10307243217921],[128.42311474642779,37.10324470269217],[128.42301400284106,37.10415531006535],[128.42262109996958,37.10479267246271],[128.42270095888648,37.10549294139375],[128.42252347255868,37.10608182455184],[128.42263574595844,37.106922105371005],[128.42246916758646,37.107059403936944],[128.42250029396396,37.1073616283055],[128.42215998039768,37.10782888144335],[128.42215641001596,37.108127357312625],[128.42236569311208,37.10868549708315],[128.42238967235573,37.10916452239034],[128.42257761599552,37.109390658511614],[128.42215757016615,37.11018392621995],[128.42310877204844,37.11145337921485],[128.42356078201715,37.11227512284148],[128.4210682189663,37.11366165932541],[128.42072628654878,37.114933861521706],[128.42020486972598,37.115885519555945],[128.41987531800072,37.116239521325895],[128.41973799024882,37.11713864136519],[128.42000203701042,37.117931140029555],[128.41939373621292,37.11845161641477],[128.41842040916728,37.11974233350915],[128.4161124912423,37.1207087195095],[128.41532834014157,37.12013127424311],[128.41511022625363,37.12015743815275],[128.41497019782656,37.12031251839543],[128.41306667661252,37.1209180254297],[128.41235327360786,37.12166783614569],[128.41190165803684,37.12186333654215],[128.41229942823426,37.12186567545057],[128.41187133012767,37.12206430105744],[128.41092564086708,37.12220132532374],[128.40981138778102,37.123312983569264],[128.4094209633155,37.12356245445676],[128.40896241118188,37.12421136333623],[128.40751688847232,37.12558087356454],[128.40720183617185,37.12673948896567],[128.40559050405147,37.127147639975135],[128.40519028325033,37.128217296718795],[128.40351149953298,37.127597358996496],[128.4014800932771,37.12794832510199],[128.40044284253798,37.127979735033314],[128.39951784533278,37.12837992737827],[128.39746405246996,37.12869787932115],[128.39644572157707,37.12903613279448],[128.39688995787407,37.12939749771063],[128.39705976745785,37.130100811807814],[128.3979368779057,37.1306664561307],[128.3981243677715,37.131733954005256],[128.39954817815416,37.13254500207576],[128.40079422433604,37.133387454242055],[128.40087604437664,37.13416148698366],[128.4017629317084,37.13487310383539],[128.4013192373745,37.13546336032065],[128.40187923127897,37.13683694104813],[128.40145910915507,37.13764673274058],[128.40182177270677,37.13856790917312],[128.4033935725957,37.13919765630728],[128.40368113725717,37.13965323203894],[128.4030306826144,37.14090174667747],[128.40244238336183,37.14157221102362],[128.40235091016942,37.142344811644186],[128.40204708741885,37.14342664960647],[128.40138268748558,37.14467086030624],[128.40135822313863,37.14512052288146],[128.40105874103557,37.14556821491714],[128.40091990552557,37.146898249452825],[128.40039697117157,37.14732855207442],[128.39957282008135,37.148466404665534],[128.39938918487493,37.14781141153301],[128.39851975717968,37.147807742898],[128.39691519907404,37.148521852518115],[128.3963955532887,37.14862459976766],[128.39610012576563,37.149413037148214],[128.39566480775707,37.14949642892353],[128.3953493535187,37.15003455549743],[128.39538583920645,37.15058185805159],[128.39417806640975,37.15152328434775],[128.39356412621677,37.151458201404374],[128.39323577285046,37.15176845444994],[128.39322188159093,37.152587554768225],[128.39255780389487,37.153429543516076],[128.39283993815442,37.15484411972556],[128.39239110713962,37.15508153348729],[128.39189817304688,37.155181473056196],[128.3911736571999,37.15517297722791],[128.39124804947372,37.155084404306066],[128.3910646895948,37.15515542627923],[128.39057781943487,37.155033841544],[128.39026366493175,37.15503931714405],[128.390217129692,37.15495744916296],[128.38992280820509,37.154969755236586],[128.38993842548598,37.154918819413936],[128.3897826412446,37.154861207735216],[128.38956372694315,37.15485870837516],[128.38879494584233,37.15463610403325],[128.38850732835013,37.15499313249247],[128.38838943441948,37.15529904481226],[128.38761956806948,37.155553389766055],[128.38666356644947,37.15634734772786],[128.38620733644348,37.15657194150805],[128.38613505707707,37.15686764023646],[128.3850033586102,37.15759846171792],[128.38448998808082,37.1580393151588],[128.3843537868518,37.15811751222104],[128.38434224808933,37.15801118748581],[128.38410181032583,37.15797777501131]]]}}
