{"type":"Feature","bbox":[128.42396941745244,36.69532586860927,128.74560091651142,37.06568851235025],"properties":{"regionCode":"47210","version":"vworld-20260909-3f8952dfda77-p3","name":"경상북도 영주시","attribution":"국토교통부/K-Geo플랫폼 · VWorld 법정구역정보, CC BY 2.0 KR; 공공주택 복덕방 가공"},"geometry":{"type":"Polygon","coordinates":[[[128.65622886672915,37.06302020902643],[128.6560007604783,37.064438508111905],[128.65476171494333,37.06508437783555],[128.65418557141675,37.06519429017255],[128.65294978086746,37.065586655050815],[128.6523035529578,37.06568851235025],[128.65154485203982,37.064352672769196],[128.6518059572462,37.06390161292226],[128.6518737585261,37.0634930913103],[128.65157928972585,37.06322038526969],[128.65093937510494,37.06300518253394],[128.65043031545153,37.06253966941356],[128.64954698050047,37.06277130456092],[128.64613402042903,37.06108779401214],[128.6446909691623,37.059652449703705],[128.64436485843535,37.05872324417363],[128.64392411464337,37.05834838407116],[128.64374252020787,37.05795588227226],[128.64266973640153,37.05684522540673],[128.64220996382272,37.05623938904227],[128.64173715145236,37.05528070652553],[128.6401747299779,37.05427729216425],[128.6395230962079,37.05411489384326],[128.63934847486576,37.05399608842461],[128.639159849885,37.05335170934281],[128.63926516921384,37.053083056663],[128.63903803498496,37.052501942203186],[128.6387802194711,37.05249480695507],[128.63757773266815,37.05304477140147],[128.63747339182902,37.0530263200769],[128.63717513275986,37.052687397665814],[128.63674129310678,37.05243137085444],[128.6367082636724,37.05236519753414],[128.6371717375068,37.05179863124543],[128.6377713663264,37.05166523616124],[128.63785582638855,37.05155364750279],[128.63775396972108,37.05103360895057],[128.6375880797467,37.05061941937056],[128.6374033220322,37.050554160343935],[128.63709062153748,37.050216383728184],[128.6366329708442,37.050010396962996],[128.63647711923528,37.049837902797634],[128.63635949601013,37.04959671352636],[128.63659015945615,37.04921945484082],[128.63588091842442,37.04819762910069],[128.63583013494545,37.04771067969656],[128.63452651409017,37.04655249255353],[128.63408479851367,37.04566755186306],[128.63330495322444,37.042083177294536],[128.63280857776985,37.04171497609481],[128.6329245230377,37.040501805028526],[128.6310912510993,37.04096322425074],[128.6282652345129,37.04214329646617],[128.62607621342627,37.04381452043049],[128.62466770694772,37.045469985583104],[128.6228317189848,37.04533719160561],[128.62173746748041,37.046678738829655],[128.6220846057308,37.047911566987665],[128.62171401018946,37.04907498845251],[128.6177430648826,37.05066241977493],[128.61374798279977,37.05140227305012],[128.61299335007544,37.05166182560127],[128.61228048141382,37.05170064647011],[128.61179276457224,37.05158996166354],[128.61115264449506,37.05171381231429],[128.6107797665768,37.05184478241807],[128.6103095725612,37.052136426123745],[128.6097596088317,37.052032389128094],[128.60883518750003,37.052695418261806],[128.60843643040437,37.05281450648248],[128.60816666917577,37.051683127160175],[128.60772152202216,37.05112323011846],[128.60709524088642,37.0497480445826],[128.6072666962207,37.049215394677965],[128.60760388170684,37.048719097018186],[128.60792122556182,37.047405375146504],[128.60743304157958,37.04673267109003],[128.60666201378297,37.04616993582013],[128.60660902135692,37.04581622917547],[128.60669503385552,37.04565904474491],[128.606697873456,37.04495168887266],[128.6070820094284,37.044576281501875],[128.60712560565182,37.04436426081855],[128.60712579461895,37.04384660538704],[128.60678814649003,37.04339578001277],[128.6051606306127,37.043331487966924],[128.604239485624,37.04380583898529],[128.60310462681764,37.04400360293138],[128.6016388278826,37.04409720209868],[128.5980562549976,37.0431059966841],[128.59796380145912,37.04224162912731],[128.59683068863268,37.04176578863467],[128.5941212555047,37.04204723511828],[128.5924806725376,37.04188499999308],[128.59204614763888,37.042171639039815],[128.59182575822342,37.042444915980596],[128.59074255610352,37.043103733852206],[128.58745598682526,37.04312637531903],[128.58666425645322,37.043566108653565],[128.58603217052,37.04295344119284],[128.58352561835616,37.043733729932114],[128.58213475135943,37.04264351620884],[128.58088276052544,37.04026353425328],[128.58056370810604,37.03920244952008],[128.57885668964508,37.03836772794324],[128.57837842342266,37.03732949433188],[128.57772851661656,37.036545840688575],[128.57773387066683,37.035567021352406],[128.57714894252712,37.03541093157582],[128.5757393280635,37.03570701985851],[128.5743277970233,37.035425906803916],[128.57297113826752,37.03593857439603],[128.57158373928854,37.035651367574026],[128.57106328135913,37.03526736629311],[128.5704790055661,37.03507830247991],[128.56995071154984,37.03478598461601],[128.5692909796987,37.034884586624536],[128.5690702298093,37.03457050567026],[128.5685881467236,37.034213860001294],[128.56837183619038,37.03421950914638],[128.567860706546,37.03387304817054],[128.56767451402325,37.033483626802415],[128.5666810740309,37.03262092461918],[128.56617508705946,37.03182696294357],[128.56564436899848,37.03153023222527],[128.56541319170074,37.0307174255862],[128.56618114944393,37.030344611310966],[128.56668724311675,37.029735830337614],[128.56686817251818,37.02937357525195],[128.56672380604496,37.02849492581261],[128.5668296818979,37.02817063799378],[128.56662162380334,37.0279374516333],[128.56665525020932,37.02680742498564],[128.56692585744818,37.02599568660119],[128.56828199131786,37.02482605486731],[128.5688233986964,37.02456701811826],[128.5690180758043,37.02429351338687],[128.56912611411826,37.02373235496499],[128.57101730965238,37.022855197094785],[128.5714176595851,37.02287058606857],[128.5718596522628,37.022439395821316],[128.5726076200644,37.02196677042613],[128.57290581798347,37.02079963875338],[128.5720649435234,37.01948060185508],[128.57193727943792,37.018551562896405],[128.57140517801997,37.01812896587633],[128.57165035631144,37.01760638657064],[128.57142543804474,37.01744155465337],[128.57153864278715,37.01679469624146],[128.57127254769995,37.01593345433292],[128.57087675358096,37.01542116993623],[128.5703440518519,37.01399512172368],[128.56942309362793,37.01316285201218],[128.5691431918673,37.01277125430021],[128.56816616702912,37.01242441345275],[128.5674136476703,37.0115103725728],[128.5665205499025,37.01129997559825],[128.566156903189,37.011049719607676],[128.56346323917856,37.010128462883216],[128.5633314535516,37.009139037628216],[128.56292204013837,37.00789398885498],[128.5623441047093,37.00775204643337],[128.56149887436112,37.0077190484426],[128.56074025282004,37.00717314236445],[128.55960567413592,37.006614244442204],[128.55755660386217,37.00577533962032],[128.55593969219493,37.00570305483891],[128.5556214720584,37.00487143308885],[128.55559703483237,37.00414016276038],[128.55508166294084,37.00357234583727],[128.55575055232595,37.00283064605651],[128.55574426749743,37.00212909725756],[128.5558210207138,37.00195106581339],[128.55547046893653,37.00072545456815],[128.5556057936299,37.000084678658155],[128.55470598827418,36.998898124205716],[128.5547310575527,36.99828607031036],[128.55396902943065,36.99789479012057],[128.55338557153377,36.99746330603377],[128.55269369001408,36.997222635588706],[128.54785357918905,36.994543090145356],[128.54763316170875,36.994403670806236],[128.5472987969757,36.99381283388225],[128.5457034176723,36.99434261386265],[128.54420684172524,36.99257172693704],[128.5430271696873,36.992092477109985],[128.5419530058934,36.99219364713467],[128.54171261202885,36.991994044876805],[128.5404714927586,36.9917245062658],[128.54035194111088,36.99154905589528],[128.53933550628457,36.991228712179755],[128.5387007037333,36.99090422203999],[128.53807387514217,36.9910808749211],[128.5379119218326,36.99138624431577],[128.5355336950235,36.990225080027145],[128.5350087784963,36.990205086043204],[128.53422029138588,36.990383620278685],[128.5335704681491,36.9901678650852],[128.53245409140118,36.9904715393206],[128.53052471758255,36.990411852238395],[128.52968341075055,36.990810661957525],[128.52734971661636,36.99018322651425],[128.5271954147008,36.990071296888765],[128.52602669292486,36.99007226843906],[128.5251506471854,36.98959444413896],[128.52447057531126,36.98940404388399],[128.524232321727,36.98920765758025],[128.52323110127784,36.98913869798369],[128.5227423786594,36.98863975127928],[128.52225466686892,36.98864709119059],[128.52132118683684,36.988149900146034],[128.52011294873432,36.98806499336425],[128.51834728782268,36.98747932991847],[128.5177148250545,36.9873997534611],[128.5169250176827,36.98691067376661],[128.51547465757258,36.98682351372492],[128.51548008574989,36.985275021882686],[128.51562291447343,36.98357528268411],[128.5152134523449,36.98328021612974],[128.51461548156507,36.98251667077375],[128.51464182630585,36.98206850618494],[128.51411139209358,36.98118652908049],[128.51386763632053,36.980397610742756],[128.5140281529349,36.97934528788842],[128.51441227093508,36.97857433389006],[128.5146141213817,36.97758134616182],[128.5131103980289,36.97643737857332],[128.5113037794241,36.97555273800934],[128.50974494674668,36.97462061964394],[128.50760416356178,36.9736406688716],[128.50641826867067,36.973192571145056],[128.50672830287388,36.970082556848425],[128.5064966528292,36.97005297704932],[128.50513270161667,36.96920667606199],[128.50397992954663,36.96866844726068],[128.50278490925388,36.96836583898044],[128.50225820068007,36.96788511563454],[128.50007332113358,36.96752119629529],[128.49920880000815,36.966749195889165],[128.4982374143286,36.966389453135186],[128.49765273566058,36.96606570631838],[128.49628192656976,36.96572009833617],[128.49556504001225,36.96516607285283],[128.49385143606534,36.96442303017037],[128.490865572869,36.963694771284096],[128.48956093812515,36.96372663682763],[128.48819164989658,36.96287161580641],[128.48744330924237,36.96277390912597],[128.48642022179817,36.9621835643348],[128.48601522428544,36.96192972862229],[128.48583354909786,36.96168050419751],[128.48597982045084,36.96096091510216],[128.48557565749144,36.96008100617342],[128.48489541174337,36.95747123806128],[128.4814415989803,36.95789884824687],[128.4799584589032,36.957670163172985],[128.47704633248276,36.95744045003828],[128.47642149106403,36.95725662498709],[128.4754699994656,36.956866551099424],[128.47503154576722,36.95635885639803],[128.4741427810796,36.955620485960104],[128.47314148671612,36.95534597706265],[128.47238099611553,36.95468065059788],[128.47229268305418,36.954487230919725],[128.46966331395208,36.95281987168351],[128.4671692492516,36.95145024927384],[128.46707283965344,36.95072737714347],[128.46614665028184,36.950220251973455],[128.46485888116152,36.94903989763667],[128.46443067962727,36.94878636106649],[128.46278158220116,36.94738431914827],[128.46342287565056,36.94375741783304],[128.46282871324792,36.94244124578634],[128.4623424659357,36.94168311546246],[128.46204209159356,36.94144215234666],[128.46143585066804,36.939555951486454],[128.4608662784501,36.939243134520474],[128.46056286107583,36.93825421627187],[128.46019003417265,36.93772082502253],[128.4603887501283,36.937326997286426],[128.46039687513328,36.9366145110374],[128.4600834493641,36.93604716926151],[128.4603950647358,36.934004955050895],[128.45943762173437,36.934009936970945],[128.4581996926929,36.93429757663273],[128.45598072035222,36.934052767364186],[128.4556335275635,36.93359094730136],[128.4541842480422,36.932396706126426],[128.4542149040556,36.932121965368346],[128.45397059127671,36.9319735407746],[128.4526679208527,36.93071826659108],[128.45198168492587,36.93053219228949],[128.45043581103593,36.930789261207764],[128.44964640294953,36.93032898689209],[128.44849340519158,36.92995447521871],[128.44772855440726,36.92935299728291],[128.44606800774375,36.92876430592184],[128.44545876427705,36.928127288903106],[128.44320932389064,36.92751705535129],[128.44159351069214,36.92734860934892],[128.4422218985896,36.9261538383603],[128.4423161272859,36.92538056844861],[128.44225757719724,36.924927306725465],[128.44282132181425,36.923844646307366],[128.4431355229661,36.92284940864606],[128.4428273138776,36.91984573840911],[128.4437118611295,36.91875314376517],[128.44477561422855,36.91769352994443],[128.44517415027818,36.917413646650665],[128.44476841060725,36.91680036725094],[128.4446580757596,36.91556380425706],[128.44438392878135,36.91510603560128],[128.44458640616173,36.91409577108456],[128.44474957393874,36.91369358787649],[128.4441331153068,36.91331628080283],[128.443976052955,36.912938836307724],[128.44309928085403,36.91240148934048],[128.44322643768987,36.911752694481784],[128.44297941861274,36.91062925166819],[128.4430628090757,36.91019587455867],[128.44279086567545,36.90992698622032],[128.4423765630023,36.90822289637481],[128.4420429696761,36.90735294516949],[128.4417406417593,36.906920306505995],[128.4416764269504,36.90634116634504],[128.4411437896466,36.905443982130336],[128.44088983022957,36.904431476159736],[128.44102294874241,36.904212333256254],[128.44058044748832,36.90377997401557],[128.44016127882077,36.90287384032258],[128.44027586856092,36.90220399599649],[128.44012366748296,36.9020101468291],[128.4402802162808,36.901249546749426],[128.4397125883288,36.901078703708265],[128.43918816043308,36.900566888149406],[128.43857219665145,36.90063049266619],[128.43804582877087,36.8996202375752],[128.4375383495415,36.89913996211943],[128.43705011111865,36.899041482410865],[128.43651298403728,36.89833026057545],[128.43653136161132,36.89789473306446],[128.43615443814858,36.89752589660268],[128.43615833209608,36.89708186738436],[128.43449243480353,36.89586268365419],[128.4336043045225,36.89543577198136],[128.43247365946425,36.893845989341614],[128.4321169830176,36.89350976372196],[128.43188367860265,36.89286560155292],[128.42937636057414,36.892228749825634],[128.42904043252474,36.8920580002992],[128.42896945150585,36.89144738843478],[128.42862505904972,36.89122066760933],[128.42813618905953,36.89109884661103],[128.4278441899757,36.8907890696447],[128.42736354310523,36.88998314464171],[128.42678610370564,36.88924486019243],[128.4268283809488,36.88865731589611],[128.4272372441863,36.888221185168874],[128.42724169283727,36.88742731079637],[128.42761285697998,36.886695098195716],[128.42793463076268,36.88576830046461],[128.4278426047438,36.885081291544324],[128.42815798641283,36.88476761977929],[128.42748114617353,36.88370782696068],[128.4277990986171,36.88332260957909],[128.42743030775713,36.88266346397865],[128.4275571492012,36.88222429182345],[128.42705103787324,36.88126358578474],[128.4258692552656,36.88051194942005],[128.42539235391015,36.879938689031135],[128.4247834130993,36.879391147995854],[128.42433835650357,36.87810871064139],[128.42396941745244,36.87652843877004],[128.4249019745044,36.87647120367049],[128.4260576728361,36.87584056543131],[128.42638424503184,36.87552652783297],[128.428218030705,36.87505651210524],[128.42924341924004,36.8755411598158],[128.43171120408408,36.875537596053164],[128.43317306376255,36.87490778918722],[128.43354300135886,36.87485051311493],[128.43423116883721,36.8744195156257],[128.43549119853495,36.874074169291276],[128.4364430010761,36.873654617472056],[128.43842788450067,36.87327070327253],[128.43873111965505,36.872320682018334],[128.4395482784955,36.87112790695523],[128.4409629471951,36.8697762957966],[128.4412930418019,36.869576820599754],[128.4415781341097,36.86911337157408],[128.44248052697841,36.86821713072834],[128.4433381524602,36.868449039042275],[128.4438783869366,36.868028881057555],[128.44675900501636,36.86531187597664],[128.44799797858528,36.86438821789083],[128.44912589641805,36.862874213758936],[128.4486427739433,36.862192992146376],[128.4478023644876,36.861471659689876],[128.44786915338642,36.860365417746806],[128.4477374074863,36.85964098357874],[128.4478796920534,36.85864064679832],[128.44762177476784,36.85820548481309],[128.44750647709276,36.85783243508509],[128.44758103164833,36.857541464973416],[128.4472936403181,36.856812207672334],[128.44792588139535,36.85632828605884],[128.4477691590951,36.855894713090244],[128.44793603685306,36.855520201114025],[128.44768080676397,36.85495876504139],[128.44721162824993,36.85439877930165],[128.44665883029742,36.853371593611605],[128.44698004053237,36.852654829802006],[128.44744636768525,36.852303374238026],[128.44824373590643,36.851416386726996],[128.44802278742634,36.85094871830998],[128.44872993583738,36.84970535599605],[128.44865601922342,36.84934136403111],[128.44896481729307,36.84861795997417],[128.45010266408607,36.848466442823366],[128.45110614058422,36.84773245594526],[128.4528852263898,36.847161422663895],[128.45319180041244,36.84696927480376],[128.45653830807095,36.84648858915434],[128.45764187477334,36.84597739773074],[128.45854069288342,36.84545584025194],[128.45930121782962,36.84533313219056],[128.45961613362462,36.84550000165687],[128.46004043826704,36.84597446181222],[128.46124887227427,36.8462327435154],[128.46275573026637,36.846907705406686],[128.4639756269024,36.84574076295569],[128.46525770488185,36.84516999947201],[128.4654812135167,36.844783197893015],[128.46652229195388,36.84422107562111],[128.46739976569557,36.844094397425295],[128.46805311070753,36.843428658394885],[128.46905918368086,36.84311338352768],[128.469557537082,36.84271565811289],[128.47020298220556,36.84258141718807],[128.47100818471242,36.84215273362943],[128.47160244891302,36.84163677247257],[128.47180085583958,36.8411981805294],[128.4728460082426,36.8404394327762],[128.47375764005423,36.840202306026995],[128.47434979358812,36.83962303200297],[128.47452656844027,36.83869706691337],[128.47439380535207,36.83844713922475],[128.47463301284984,36.83821820893032],[128.47497542954525,36.83810351017778],[128.47544006899338,36.83762929427801],[128.47559344609112,36.83763672547977],[128.47716256242654,36.83701901977062],[128.47756725654904,36.83660249129476],[128.47928159977621,36.83572675851127],[128.4798932446707,36.83584092557221],[128.47995894152993,36.835677809247144],[128.48030523008381,36.83543972416477],[128.48160591289957,36.83471081478293],[128.4820267010893,36.83249087843667],[128.48194305164594,36.8315958336802],[128.48254495647458,36.82993484536257],[128.48209694959164,36.829581533347145],[128.48146257316048,36.82861313589072],[128.48155032875707,36.8282677995755],[128.48114160273266,36.827343156609636],[128.48092033514996,36.82705105253184],[128.48025303691875,36.826966277759915],[128.4792342993395,36.82652527642759],[128.47870756942123,36.825248456770865],[128.4788651957029,36.82494124190111],[128.47790943963048,36.82444157152099],[128.47748795748393,36.824006982723176],[128.4773140687006,36.823663698993926],[128.47745329938306,36.82333229842917],[128.47685017350554,36.82281531845763],[128.47681305532222,36.822285855004665],[128.47704396762208,36.821336047037605],[128.47663866753388,36.82013318015403],[128.47664164713464,36.81957955674846],[128.47638594977374,36.81928642833178],[128.47593574117974,36.81830184699896],[128.475496150664,36.817861447773595],[128.47502531558317,36.81767628618106],[128.47389913603845,36.81773583721553],[128.47318287504595,36.8173859670601],[128.4733998356708,36.81644854250706],[128.47308324309847,36.812868585619164],[128.4727615759319,36.810831052825534],[128.4729276590958,36.810224710538485],[128.4727131344276,36.80977060090586],[128.472562343159,36.808724714751314],[128.47202339076188,36.80770893113078],[128.47169538435043,36.806859412832786],[128.4718473587391,36.80631797672021],[128.47160791728294,36.805692016713984],[128.47154961629104,36.80500849087065],[128.47136649221187,36.804639633735945],[128.47129414157584,36.8042321122439],[128.4713470980105,36.80403127789691],[128.47114872127784,36.803474979544035],[128.47141280233015,36.80309515166895],[128.47180152050848,36.80222315732886],[128.47190826009006,36.80166381110172],[128.47212204703118,36.80135785426265],[128.47249332897164,36.801031363579646],[128.47310876295106,36.800924609489535],[128.47420747138696,36.79998396546899],[128.4745252050004,36.79940002421232],[128.47451820750442,36.798835710280215],[128.47509148613366,36.79804847618128],[128.4750991693451,36.79737583157053],[128.47499217614956,36.79712095136546],[128.47507791929934,36.796932810887526],[128.47504411960784,36.79626849298623],[128.4751259932485,36.795913474146424],[128.47549744830118,36.795513170191754],[128.47536616105018,36.79471764358605],[128.4756209887957,36.79451642244354],[128.4761250980351,36.793821350893154],[128.47597764828535,36.7926387306558],[128.47633434885924,36.792182751521516],[128.476305362452,36.7917091651884],[128.4760222560368,36.79137018656386],[128.4762147248376,36.790892402822095],[128.47613140441436,36.78953965031739],[128.47602393652946,36.78911806988408],[128.4754730916538,36.78833705253628],[128.47566475338084,36.78827921814885],[128.47598745591736,36.78801238258764],[128.47620575324726,36.78768502600004],[128.47621148059235,36.78725961025995],[128.47653445574886,36.78659137144083],[128.476038341766,36.78562600273331],[128.4762232176059,36.78491684926633],[128.47610899748636,36.784384041399925],[128.47553622407602,36.783973316109005],[128.47576709001106,36.7835329356863],[128.47533883685728,36.783200088870025],[128.47512025758914,36.7828126812227],[128.47524962238725,36.78260087867693],[128.47487477298992,36.782121609612524],[128.474523641374,36.782196553339354],[128.47444762516534,36.78190433827945],[128.47421422663277,36.781765957359404],[128.47455251969757,36.781355694308154],[128.47465711561642,36.78106410700382],[128.47454594259432,36.78090671438347],[128.47474393455164,36.78015518671235],[128.4743008607205,36.77965304438727],[128.47447246509543,36.77920309332793],[128.47456219491795,36.77849960691776],[128.474415549819,36.77789713230716],[128.4746121652717,36.77772538566041],[128.47500820888303,36.776690085583105],[128.47558611287653,36.776682781893754],[128.47631846888999,36.77656875202488],[128.47747992002917,36.7762392766431],[128.48013302591954,36.7766928144278],[128.4808480861326,36.77700280639051],[128.48123954649623,36.776872630043556],[128.48214222185138,36.77701539994042],[128.48265409348198,36.776804629453],[128.4828122648885,36.776605300010495],[128.484684020121,36.776054461464014],[128.4849055706635,36.77572916936589],[128.48541326695482,36.77570295881408],[128.48645330472027,36.77467309308406],[128.48750965172573,36.77414495728242],[128.48828792971497,36.77381461231732],[128.4898529273976,36.7735012713557],[128.4899428184442,36.772791015124724],[128.49032925182303,36.77245549221039],[128.4902963432629,36.77208935100757],[128.49084808101824,36.77129468676358],[128.49180890553401,36.771252432484346],[128.49195702513683,36.77104947883434],[128.49326283667145,36.77101717033786],[128.49374186181007,36.77088580182579],[128.49472406638807,36.77042005492512],[128.49523572256683,36.770013524555296],[128.49577975630174,36.76942548485112],[128.4960186104464,36.7685149554192],[128.4962434644359,36.7682341727438],[128.49620417618317,36.76794746726658],[128.49705091605182,36.766688734224594],[128.4968541007601,36.76625097691308],[128.4972875017128,36.7659641861709],[128.4982339415327,36.765743214912554],[128.4988601585883,36.76545645186401],[128.49904332210536,36.76519407515354],[128.49903267648224,36.765076831387226],[128.49935791389413,36.76470764117519],[128.4996030755014,36.764722917997766],[128.49992210531676,36.764857944490096],[128.50057369287535,36.7648678374787],[128.50084070970576,36.76604468844388],[128.50095087205943,36.76612157024379],[128.50121790405015,36.76605320625461],[128.50147853013445,36.766238394700295],[128.50188901315357,36.766123572888645],[128.50206772872266,36.766265535315114],[128.5025414356438,36.76595906099865],[128.50280101240412,36.7659168403325],[128.5030366023437,36.76570116271457],[128.50343144748555,36.765614500400986],[128.50392277332483,36.765619299359],[128.50407627027002,36.76541629615438],[128.5042825734943,36.7654866554861],[128.50442732045582,36.76542637661634],[128.5044034691158,36.76515389448789],[128.50450716546607,36.765018178111355],[128.5047511963269,36.76498356821901],[128.50501961160333,36.76476438050867],[128.50510054960304,36.76454889642474],[128.50551747990343,36.764280418694035],[128.5060355024658,36.76412958786711],[128.50635123179168,36.763828238334234],[128.506696435333,36.76387704956528],[128.5068049006065,36.764015373381305],[128.50889790094132,36.763845127968715],[128.50912749984417,36.76418040893771],[128.5095850723569,36.76433664034291],[128.5098144772046,36.76433413806901],[128.51128474561804,36.765120594206884],[128.51160034526526,36.76558612897044],[128.51310625808904,36.76686206086232],[128.51332971284216,36.76756002698936],[128.51390616663764,36.767852748566646],[128.51410002839455,36.76812986942622],[128.51477360838803,36.7687575587036],[128.5155759428783,36.76934268961427],[128.51594554639203,36.76917286516218],[128.51632959315032,36.76909844151004],[128.5167459776863,36.76927820882912],[128.51714476060977,36.77032339503149],[128.51763798179925,36.77070769267637],[128.5177772000202,36.77113282193053],[128.5180717008933,36.77150875764957],[128.51875482137905,36.771601158865835],[128.52019668974899,36.77194405837265],[128.52069421543618,36.771917476365516],[128.52211520501152,36.77065249836814],[128.52280861869042,36.77027584424841],[128.52354218497464,36.7702672975221],[128.52400842931678,36.77017627475155],[128.52418000653498,36.77006120044779],[128.52519750061086,36.77008817627451],[128.5257905606931,36.770355479787796],[128.5261683926781,36.77078977484094],[128.52723217525042,36.770774406275194],[128.528450583453,36.77057621615184],[128.52943645443915,36.770885304538304],[128.5297082987862,36.7707173561548],[128.53065212909593,36.771043036772284],[128.53073088394336,36.77129327275449],[128.53125031127445,36.771529012713536],[128.53193538829214,36.77155859382832],[128.53208947952476,36.77182972864164],[128.53198950422245,36.77240307082713],[128.53287849854763,36.77263261494097],[128.53293353374823,36.77288983228081],[128.53375002229652,36.7730100188229],[128.53391503919485,36.773193719717725],[128.53422983084113,36.773251274899735],[128.53588253341272,36.7733072029226],[128.53668292647674,36.77349262278729],[128.537520618491,36.77292635668098],[128.5377702818238,36.77298204203406],[128.53802703242803,36.772070255519075],[128.53836977098047,36.77154115598706],[128.53942857777858,36.77082739055964],[128.5391569628186,36.77030925666568],[128.5393550453737,36.76923857506103],[128.54083846659057,36.768709428908245],[128.54152763411747,36.76774634298947],[128.5426921408766,36.76718718754737],[128.54312945046894,36.76722262577362],[128.54492555348526,36.76659794169296],[128.54552297169437,36.76679970203205],[128.54611139523428,36.7672976599606],[128.5466916756583,36.76758587386874],[128.5469818201721,36.76727365244374],[128.54702385515878,36.7670156126181],[128.54726379782971,36.76683201102119],[128.54755598266388,36.76684261208612],[128.5479930032017,36.76722217049884],[128.548213479157,36.76753318470832],[128.54888396820976,36.76779793989347],[128.5495539427692,36.768786784206675],[128.54989444937513,36.76889647514556],[128.55059515697747,36.768840463101995],[128.5507811347231,36.769137126006314],[128.5510213164851,36.769202708305784],[128.5513614428557,36.769124744914635],[128.55186050816087,36.76860384180362],[128.5516641381312,36.76746132545295],[128.5518394279316,36.76645956154063],[128.5518915524836,36.765697243803494],[128.5518181639736,36.76559313329719],[128.55203033885024,36.76519208007468],[128.55278995986708,36.76486083818677],[128.552822489698,36.76464104363221],[128.55317568561836,36.76430637677437],[128.5531725634186,36.764115265889714],[128.55394730050847,36.76268417322722],[128.55408540720055,36.76259729707404],[128.5543428424516,36.76264812304695],[128.55469111708385,36.76256980222639],[128.5548645096223,36.76243857543241],[128.55510301200445,36.762431765795135],[128.55533040038029,36.76229822952905],[128.55584255163424,36.76148366996215],[128.55640832447793,36.76137054195098],[128.55657060054352,36.76091416267843],[128.55721443722697,36.76084781976701],[128.55782087850292,36.76117257809279],[128.55824080183407,36.76055032921245],[128.55836222779865,36.76047362226016],[128.55864046084477,36.760569587143614],[128.5581912805449,36.76001897328616],[128.55865597974613,36.75987658419568],[128.55912814107543,36.76042772007014],[128.55979029511332,36.760772200559366],[128.56052741821904,36.76074684612192],[128.5609709534083,36.76048777460968],[128.56153331352903,36.75926595777528],[128.56211417365225,36.75834889795208],[128.561940656476,36.758141389569396],[128.56203637231067,36.7579234127571],[128.56256529931608,36.7575978557022],[128.56258979119463,36.757355999080794],[128.5630164936709,36.7568512804157],[128.56307394335496,36.7566195416868],[128.56284095246065,36.75641336461318],[128.5630435776369,36.75594302418883],[128.56294970129161,36.755175958703724],[128.563322035324,36.754868166364226],[128.5633020330316,36.754758667434636],[128.56339085672485,36.75484735912035],[128.56343264635794,36.75463145953],[128.56361947107507,36.754475031049324],[128.5637587410228,36.7543987973163],[128.5643110688114,36.75441971821587],[128.56478485331462,36.75410812016387],[128.56489517805852,36.75358008852158],[128.56538472224207,36.752695504378195],[128.56565681915853,36.75247869537411],[128.5661165956443,36.75236030868234],[128.56613100866386,36.751703304968146],[128.56575246151797,36.75119689995961],[128.5657770494506,36.75083908000972],[128.56525786987376,36.75011218139249],[128.56529031957984,36.74990866385536],[128.56557451880474,36.74962108125809],[128.56644039921642,36.749081519522626],[128.56633099136204,36.74862801747678],[128.56610808754377,36.748406188217764],[128.565952627112,36.748001485680895],[128.56610499289647,36.74771891386384],[128.56614835010552,36.747657912787304],[128.56618635014954,36.74769483227308],[128.56626243338044,36.74748227144125],[128.5670175538434,36.74724356989743],[128.56756762088614,36.74688907866075],[128.5678371264758,36.74687824272356],[128.56841460853684,36.74664659091935],[128.5687158906578,36.74626755715987],[128.56841618121427,36.74585790090537],[128.56841552865976,36.74574490627044],[128.5687185014663,36.74508627849713],[128.56912660761478,36.74504845693119],[128.5692015592404,36.7449706565432],[128.56935704990593,36.74438582055408],[128.56966863886953,36.74432019340219],[128.56986397073106,36.74418476325278],[128.56991767928997,36.743619964669676],[128.57015206527333,36.74340619958361],[128.57120594990798,36.74301823238353],[128.5706179175353,36.74223497636978],[128.57015695762246,36.7411670040279],[128.57000297034142,36.74048348576599],[128.56988343502627,36.74062247505885],[128.569425727519,36.74007436345355],[128.5691714572093,36.739086754549184],[128.56939463558186,36.73856084440617],[128.56983458093475,36.73786455158766],[128.57036890564666,36.73719974822498],[128.57044951310453,36.73660442757595],[128.57052409102684,36.73659717079492],[128.57057666518077,36.73675682203109],[128.57063016898124,36.73662775958755],[128.57020229649115,36.73600120755686],[128.57019856301991,36.735764379292696],[128.5702917389103,36.735753602057166],[128.57024897447192,36.73570460950253],[128.57039859571285,36.735716962032434],[128.57065316896143,36.73584052167134],[128.57110971036627,36.735863892739346],[128.57139797478138,36.73598829594862],[128.57247067362908,36.7361980234602],[128.572877266431,36.73617730143382],[128.57310293529756,36.73594373238645],[128.57383502027827,36.735782032551676],[128.5741507020709,36.73549912125234],[128.5744615815035,36.735375006474015],[128.5752310691374,36.734720223731195],[128.57528579222463,36.73435033631956],[128.5754623581195,36.73413968474299],[128.5756895340352,36.73413952630642],[128.5759894220789,36.73399285739294],[128.5758850645708,36.73357277537594],[128.57595903726948,36.73336398802734],[128.57586690741655,36.73328220418871],[128.57558778571394,36.73323541141201],[128.5751897317694,36.7328208493974],[128.575514561271,36.732866233055475],[128.57575909628505,36.73299606002471],[128.5758366941636,36.73293471881529],[128.57600888844735,36.73296181511334],[128.5762352025486,36.73334496023676],[128.57638280813484,36.73331700579234],[128.57661318774132,36.733108386181016],[128.57662474940082,36.73297456950687],[128.57687224498093,36.732717239498186],[128.57690123139292,36.732486340710835],[128.5774164950296,36.732282599740245],[128.577714535392,36.73235590489371],[128.57775372366493,36.73241052869211],[128.5776493689202,36.732506211228504],[128.57682563367905,36.73310632340879],[128.57698163817332,36.73319735052462],[128.57684851645456,36.73350741481493],[128.57662922396267,36.73384388283631],[128.57647934338476,36.733874041452005],[128.57657883637714,36.73410735116214],[128.5764944108855,36.73408721416271],[128.57650032455024,36.73416022579868],[128.576788730693,36.73421315591565],[128.5769055008931,36.734337056560946],[128.57686249166565,36.733835236808154],[128.57804624318646,36.73268356409495],[128.57834309533536,36.73212117187415],[128.5775663915084,36.7318624597519],[128.5771694610962,36.73185193125137],[128.57699157641454,36.73123674667197],[128.5769016901139,36.7312296923411],[128.57680803530357,36.73105126899438],[128.57686720237464,36.73102753781528],[128.57673798419725,36.73043498016846],[128.5768075941543,36.73026876696106],[128.57662249405936,36.72998490926298],[128.57671943745686,36.729942953672925],[128.57672348662948,36.729837706569604],[128.57713255713907,36.72968466895714],[128.57743184691108,36.728931245526915],[128.5772562271142,36.728755331298665],[128.57722252080072,36.72846543451838],[128.5768817859095,36.72798199739972],[128.57673908481908,36.72736851824045],[128.57705342175458,36.72724602596224],[128.57715723877868,36.72710683994172],[128.57698867723568,36.7269747469901],[128.57655343571852,36.726823397621196],[128.57686980066907,36.72653239055371],[128.57695757985147,36.72616875633363],[128.57736140233538,36.72605397205968],[128.5787837936935,36.72480402859138],[128.57946654555852,36.72449193831663],[128.57974961147917,36.724496066461874],[128.58003545745063,36.72425939079149],[128.58022607302632,36.723970723852894],[128.58080219805865,36.72362398145296],[128.58107196580764,36.72379166711068],[128.58191619900222,36.72358814540171],[128.58210684530377,36.72381531812442],[128.58362393300422,36.72427749250058],[128.58387826554355,36.723942455592734],[128.58448317230793,36.723724852901235],[128.584725979894,36.72297427308445],[128.58450057691329,36.72198052769059],[128.58472915966345,36.72177912748125],[128.584677423468,36.72165296847376],[128.58439759925656,36.72156025427082],[128.584342333779,36.721325895102346],[128.58410776663527,36.72112269135908],[128.5840506408039,36.720862479479],[128.58328835548943,36.71990014404533],[128.58325444762968,36.719171705731426],[128.58288896070738,36.71878432072395],[128.58290456559513,36.71830082332019],[128.58267189524102,36.71749114140967],[128.5829334562136,36.71735497383331],[128.58305675141517,36.71698727614507],[128.5826570482061,36.71660189625517],[128.5828433122034,36.71592814423984],[128.58283136603924,36.71486609891491],[128.58340815831818,36.7138996934374],[128.5839775838593,36.71315859325052],[128.58348080587174,36.71198915803577],[128.58360319838803,36.71192450496446],[128.58364555151778,36.711558569100546],[128.58336198737146,36.711192623424715],[128.583278283665,36.71034673064156],[128.58347030942699,36.709363227511425],[128.5844074700797,36.70892606213878],[128.58488145254717,36.709194982465625],[128.58548066962354,36.709193309307814],[128.58568319582415,36.708976315456724],[128.5863497805112,36.70888806931221],[128.58675221406278,36.708580139859905],[128.5867994865094,36.70780404566681],[128.58864004066342,36.70597590830935],[128.58882440691525,36.705661344598234],[128.58905490603877,36.70550597126301],[128.589277078128,36.70505956057757],[128.58975796733918,36.70475919631654],[128.58973241458094,36.70462625857775],[128.5895060814751,36.70442378254677],[128.5894264376074,36.70395639496822],[128.5891144272338,36.70363099024686],[128.58928928861326,36.70323982170788],[128.5896745230216,36.702763556818574],[128.5895351380372,36.70247338587782],[128.5896027472472,36.70219017605649],[128.5893967731906,36.70207568330495],[128.5893021087098,36.70187446626626],[128.5892677506733,36.7010582586607],[128.5878080783068,36.70105765343479],[128.58775917701942,36.70071825139044],[128.58795401861568,36.70093385351328],[128.58969319455295,36.69992965631234],[128.59053603662593,36.69955435024363],[128.59080996347953,36.700117419383474],[128.59082099910634,36.700976134084975],[128.59215714108817,36.70098074019448],[128.59215411538952,36.70155112600042],[128.5943645351916,36.70147566329223],[128.5957292120776,36.70158720230197],[128.59598401684113,36.701672521793455],[128.59672069821005,36.702465343844125],[128.59699640048066,36.70296603087418],[128.59717411131015,36.703563250613854],[128.59727621724593,36.704602686970695],[128.59773351725784,36.70460424181819],[128.59771588441396,36.707974210480295],[128.59755659098255,36.708208099344716],[128.59594469482244,36.708202618016976],[128.59560155971272,36.70939374093474],[128.59550812870492,36.710159722973486],[128.59556802564785,36.71094483392013],[128.59594481434132,36.712816332003264],[128.5961454601219,36.713322548102205],[128.59650110325788,36.713712051016394],[128.59695169738507,36.713997616283244],[128.6002854663324,36.71542623499209],[128.60192625358235,36.715431754902625],[128.60261149739495,36.715645486131166],[128.60309084307787,36.71552087575359],[128.60321072164857,36.7155486720137],[128.60327178375584,36.71557461011504],[128.6032674258588,36.71656017467791],[128.6054069619864,36.717030119705235],[128.60626419494773,36.71706762375748],[128.60715667679338,36.71700276003124],[128.60886337970663,36.71665895074842],[128.60886869710117,36.715614870686125],[128.60934693434575,36.71545642717512],[128.6115865990713,36.71546378651086],[128.61156649846194,36.714513051458816],[128.61279619148272,36.71353797142297],[128.6137984534434,36.71300375664047],[128.61494214955616,36.71193771634165],[128.61540935922366,36.711737932674076],[128.6158482317325,36.71168203888328],[128.61632697036512,36.711644512287755],[128.61693449301228,36.71174813759237],[128.61713926990186,36.711792672339456],[128.6165413090236,36.71227789453018],[128.61726660414163,36.71303623775114],[128.6183771502202,36.714837749028746],[128.6190823638962,36.715488098631816],[128.62031261151918,36.71549204993954],[128.62031328509212,36.7150741123302],[128.62214412840427,36.71574925901361],[128.62336339978538,36.71576116618726],[128.62525130217568,36.715933629822835],[128.6260406981048,36.715842559702445],[128.62797060385128,36.716202708797944],[128.6292159713454,36.71703830194392],[128.6289707576166,36.71760159329147],[128.6296726084779,36.71846576017466],[128.63001574841095,36.719687921079014],[128.63020122565166,36.71977958468206],[128.63053060459202,36.71980684744934],[128.63140603970942,36.71951433872304],[128.6327628772673,36.71946376188517],[128.6334381708839,36.719264094118465],[128.63346210027095,36.719176358540096],[128.63360086373447,36.71917070648327],[128.63378222288745,36.719012163583976],[128.63410633198833,36.71897724603016],[128.63455856578003,36.71878468393539],[128.6349273715656,36.71898742504133],[128.6351564339711,36.7190242402543],[128.63584597749121,36.71893661013363],[128.6361950591975,36.719137930950964],[128.6364304854932,36.719066707305515],[128.6364389942879,36.71914126485051],[128.63652629999496,36.71914266134755],[128.63650473999505,36.71908287674704],[128.63742474590845,36.71886578470099],[128.6381755535591,36.718810582377195],[128.63824382620976,36.71888970823475],[128.63852771415452,36.7188655496288],[128.63858319271236,36.71874588713725],[128.63894284737734,36.718569765445565],[128.63944642350347,36.718430873369286],[128.63956144603287,36.71849473131636],[128.63996394666248,36.718429085379],[128.64067014625985,36.718135729983615],[128.6408605626085,36.718141332747884],[128.64106399219494,36.71828484709338],[128.64141568121744,36.718236085883404],[128.6418042291555,36.71800293682038],[128.64187628476324,36.71780671182213],[128.64263868522795,36.7176683390946],[128.64330902613574,36.71703185508878],[128.64318181081748,36.716959941856345],[128.64381483020128,36.71601544356956],[128.64384083676433,36.71566993342919],[128.64512711693075,36.715488353273564],[128.64543150935367,36.715334194301256],[128.64558470566675,36.71516079655019],[128.64731684856852,36.71427610876937],[128.6477694121997,36.71379777315734],[128.6485148681895,36.713474023895984],[128.65021911833645,36.712170964228804],[128.65051433595116,36.71139916583728],[128.6499142306206,36.71078925795529],[128.65161562254022,36.70976558581884],[128.65186397623646,36.71030958913316],[128.65166601586262,36.71067088134701],[128.6518827011171,36.71095117339762],[128.65335761191648,36.71138404041312],[128.65345598509876,36.71162530794845],[128.65432085517799,36.71192412165801],[128.65498231704242,36.71153908653369],[128.65586323231184,36.711666945821925],[128.6563597019212,36.71182842200631],[128.65685174664452,36.71229890013639],[128.65740100131538,36.712496473307034],[128.6580532299477,36.712244881730896],[128.6601134424122,36.712579593141065],[128.6608888747631,36.71347941195809],[128.6611453671524,36.713563763149615],[128.66226071028052,36.71440505789209],[128.66286506072925,36.714035992879644],[128.6668893261154,36.71272370416877],[128.66688612435146,36.71226844166022],[128.66743040422926,36.711422841122506],[128.66799668648395,36.71119649051986],[128.66811671968685,36.711227093527405],[128.66907045522572,36.710185591142675],[128.6694523816357,36.7091730096452],[128.66987161098024,36.709039352355184],[128.67125685439711,36.70908286440228],[128.67172512240612,36.70918517112326],[128.6730593176745,36.70852514744215],[128.6732165783418,36.708244668971766],[128.67279002052098,36.70680268365435],[128.67287349585754,36.70605542944332],[128.67294049372654,36.70605192075408],[128.67269866985356,36.70560163062875],[128.6735470668808,36.70440925666065],[128.6743551468666,36.70412960793756],[128.67478178086472,36.70428133359077],[128.6753684500741,36.70426629899453],[128.6756140846485,36.70414376819444],[128.67572625220376,36.7036316775133],[128.675568120277,36.703107602648366],[128.67571997364928,36.702666576604976],[128.67615969177223,36.70238343747629],[128.67647495017445,36.70199587703405],[128.6774369009999,36.701796041122236],[128.67904746164982,36.700915872458296],[128.68008281250198,36.700953986007214],[128.68051961494794,36.70061218009608],[128.68072384019,36.70032198624959],[128.68301413581494,36.701060133017826],[128.6836899885843,36.701009931236634],[128.68415498644364,36.70069650091805],[128.68443198822723,36.7007370049077],[128.68491869032115,36.70030459368972],[128.68554666272726,36.7004393596762],[128.68621740184406,36.700842719768524],[128.68655574550468,36.700965268904746],[128.68665363341128,36.700914159074564],[128.68706188039718,36.70095276982107],[128.68743543916227,36.70083311451019],[128.68802680519215,36.70100456020169],[128.6887945954978,36.70174883224911],[128.6898341831984,36.70210366652893],[128.69038155441314,36.70238306291922],[128.69035269605735,36.702447930094],[128.69060773446034,36.70249934645399],[128.69064073565954,36.702417705399924],[128.6916663421323,36.70246043073843],[128.69296423707488,36.702747706758664],[128.6938084364183,36.70257272380159],[128.6944442741019,36.70423726789848],[128.69534225442993,36.70449211913963],[128.69551457232285,36.70470753081336],[128.6957328919904,36.70474243727073],[128.69649745698644,36.705229717894305],[128.69664528545434,36.70574568217471],[128.69687685738847,36.70596800500902],[128.6972698661351,36.70606741979486],[128.69851693806908,36.70672817567035],[128.69911224926867,36.706494543666004],[128.7009051281956,36.70502191353311],[128.70184211787236,36.70396218373853],[128.7022724767892,36.70360631954433],[128.70314100327832,36.702343893786356],[128.70344661330859,36.70205579733886],[128.7042216862326,36.70181233406638],[128.7043471683256,36.70136928052424],[128.7050487556297,36.700886817999546],[128.7054415148904,36.70082518772632],[128.70592327439246,36.700548727010215],[128.70631511791723,36.70051003013964],[128.70759184338598,36.700042838245615],[128.707473861203,36.69989688185532],[128.70754970442545,36.699871187968434],[128.7077241931186,36.70003497642984],[128.7079182256308,36.70005625202785],[128.7088044035322,36.699939685315115],[128.70905045906636,36.69969725628743],[128.70966314877433,36.699952324216376],[128.71064476156096,36.70019433482141],[128.71079400290762,36.70025850599196],[128.71163144644737,36.701119506737236],[128.71252979775278,36.7017218844215],[128.71397289737507,36.702460308392425],[128.71473529341708,36.70241137883544],[128.71485894527288,36.70255084997725],[128.71496225681634,36.70303510550519],[128.71590893715342,36.70338999195015],[128.7163655652288,36.70341520020504],[128.71658095700306,36.70329300256629],[128.71677076985824,36.70295378723879],[128.71715750147965,36.702769003180535],[128.71795517736285,36.702588673080875],[128.71938480981677,36.702619505099],[128.72074108740543,36.70250278530584],[128.72107014275775,36.70231968702712],[128.72108180972464,36.702134705851556],[128.72136741038577,36.702047459772054],[128.72199827599786,36.701636569868704],[128.72221233260913,36.701589576651656],[128.7225305511434,36.70106836758722],[128.7231934759571,36.70040097578789],[128.7234032354122,36.699602272221796],[128.72361737150212,36.69935703876009],[128.7237132226219,36.69843515856874],[128.72430997783647,36.698273524287806],[128.7246824189854,36.69804280891566],[128.72565444990445,36.698351337673444],[128.72604975644938,36.698228283723054],[128.7262183022803,36.69788959704148],[128.72654650406741,36.697681879918875],[128.7270032556226,36.69710788790499],[128.72728635416553,36.696895688393184],[128.72716326544307,36.69678851354651],[128.72717992308907,36.69601017382898],[128.72746023875357,36.6955552133598],[128.72762061229253,36.69543402470916],[128.72808264711023,36.69536785027549],[128.72908523513271,36.69532586860927],[128.72906839009653,36.69591756590182],[128.7299208837994,36.696188620957535],[128.73038462722948,36.696073719305936],[128.73062062898634,36.69611275645895],[128.73097491777492,36.69641949161418],[128.7319104933583,36.6962187107631],[128.73388717397555,36.69630223523392],[128.73464387413006,36.69655557511233],[128.73526184415448,36.69696857749901],[128.7357979735447,36.696831193654035],[128.73600073097495,36.69694162119889],[128.7364470676698,36.69752646450328],[128.7374046855459,36.697996404121426],[128.7364270105733,36.698992191512254],[128.7363860796768,36.69916033095238],[128.73664560267596,36.699392556407126],[128.7363236088744,36.699558437466465],[128.73602493796247,36.69993332761071],[128.73512897714994,36.700128932554556],[128.7352421084996,36.7004161922458],[128.73513266877546,36.70047702759704],[128.73525066928303,36.70047350635412],[128.7352580870076,36.70055368713007],[128.73512895114496,36.70100248515209],[128.73518960966558,36.701717814921004],[128.73610492777155,36.70162002787333],[128.73629632433656,36.70178634763585],[128.73623413472998,36.701891961162566],[128.7362803134948,36.70207316434666],[128.7363367605354,36.701828069420685],[128.7366050610776,36.70212923856698],[128.7369285084579,36.70229527254006],[128.7378026040226,36.70223397947855],[128.73838233664816,36.702533618440384],[128.73820073107052,36.70329494760408],[128.7378231782159,36.70356276532496],[128.7379197349263,36.70366972878352],[128.73789929389343,36.70378327421529],[128.7375380465727,36.704254261842976],[128.7375109151147,36.70475531741529],[128.73735183609176,36.70499585295426],[128.73744405678445,36.705153770839836],[128.73745901400935,36.70594749682247],[128.73757580445812,36.70606194112417],[128.7375282702284,36.706237508681234],[128.73735657901142,36.706398096146046],[128.73748373231547,36.70657117879929],[128.73746437347347,36.70714675006115],[128.73719011691185,36.70724284994649],[128.7370914261809,36.707356085298635],[128.736120832679,36.70745306444167],[128.73561976706307,36.70766850848949],[128.73527756701262,36.70812812102072],[128.73505553236998,36.70825126674186],[128.73462569172372,36.70892138652443],[128.73436723543028,36.70963726340333],[128.73369756348941,36.71000518803208],[128.7328882865263,36.71032397957103],[128.73231979698667,36.710488871103124],[128.73176150668328,36.71040899448689],[128.7309349958847,36.71089005117907],[128.7294757497895,36.712885647618634],[128.72945033086557,36.71356893029054],[128.72914307876263,36.71409157783514],[128.72942092542218,36.714482929142804],[128.73004674927196,36.716091570614964],[128.73043271327683,36.71646777212525],[128.73062524267533,36.71692360335021],[128.73042180383945,36.717706121735674],[128.73083289741083,36.717902820628325],[128.73096273732642,36.71850846018964],[128.73045969962408,36.71866629130507],[128.7309714666501,36.71857035014664],[128.73103340399504,36.71884745326091],[128.73280782108316,36.719046552085636],[128.73352150741533,36.719493216296094],[128.73380499609465,36.72024695774896],[128.73378323243458,36.72102408218203],[128.73411249674155,36.7213673348689],[128.73432814347498,36.72227473561631],[128.73557632725252,36.72490735891444],[128.7352854639834,36.72560634835624],[128.73538322557494,36.72662899829947],[128.7347704017932,36.72711554697065],[128.73480143874073,36.72745315987964],[128.7345588728262,36.7276916801441],[128.7340849173529,36.727904660883105],[128.73201776359025,36.728490186849136],[128.731829659792,36.72896996467509],[128.7318793306179,36.729421552647324],[128.73220926982222,36.72947757493081],[128.73239741246542,36.73013340309397],[128.73223588177353,36.73042465826847],[128.7324882941475,36.73112159444487],[128.7333346059211,36.731414258869215],[128.73302142075462,36.73218696323133],[128.73333276898256,36.732665006909166],[128.73360142289155,36.73331270030631],[128.7335540784876,36.73383900221191],[128.7340404653968,36.73439120659446],[128.734089100316,36.734945324522435],[128.73437673622573,36.73531839330661],[128.73423488688212,36.73633837896705],[128.73387412507213,36.736817530746],[128.7342055666915,36.73708283295691],[128.73417457654796,36.73751539385419],[128.73563422151324,36.738423832767616],[128.7365810948579,36.73885558005769],[128.7374731300425,36.73883487301494],[128.73752847516974,36.73986654489367],[128.73732335365446,36.74016591294666],[128.7373380427145,36.74043933100005],[128.73675122191653,36.74179857433085],[128.73686923347117,36.7424425440212],[128.7372020807626,36.74279351009496],[128.73690393084138,36.74403944136877],[128.7372281402275,36.744538431104694],[128.7387849723296,36.7447573199428],[128.7392688296938,36.745139775387074],[128.73939910219298,36.74601734017506],[128.7397758174395,36.74701879920055],[128.7408360948721,36.74858157669783],[128.7415450011783,36.748784304436825],[128.74226459549504,36.749287886157006],[128.7429764677824,36.74993588668768],[128.7429512847711,36.75065750221469],[128.7425629695907,36.75112218030433],[128.74248937021324,36.75204106321158],[128.74254311949937,36.75223499044493],[128.74290915411632,36.75255903880094],[128.74305188954133,36.753383637489314],[128.7426289159326,36.754295589032324],[128.74304061785648,36.75530045082149],[128.74305523859155,36.75600059812963],[128.7423975658032,36.756152471985644],[128.74195411770953,36.75652005308118],[128.7413609449993,36.756609071604046],[128.7412308957297,36.75672139861464],[128.74107939145236,36.757052927496446],[128.74015588143365,36.75802489684739],[128.7400206650673,36.7584279156089],[128.73964050733946,36.75880803243821],[128.73930156411282,36.759767307813284],[128.7383611299008,36.76132538175781],[128.73821522900622,36.76142808108278],[128.73786648132202,36.76199298613131],[128.73715330948647,36.762382631643234],[128.73563309946692,36.76264414353116],[128.73554713128777,36.763040418635526],[128.735705505717,36.763332194556256],[128.735396481502,36.763844132471604],[128.73590504034811,36.76416214580649],[128.735896375057,36.76473205147836],[128.73621713373925,36.76552085292418],[128.73618115318223,36.76571178490458],[128.73631692622172,36.76644682743641],[128.73674432346345,36.766764688781116],[128.73714310222064,36.76681937422837],[128.73780599830786,36.7672416418475],[128.73806758347385,36.767877233667065],[128.7386062885405,36.768181594611924],[128.73880557401006,36.768492681049366],[128.73884003024028,36.768711379385664],[128.73923498198852,36.7688480761007],[128.73920284667426,36.76927405673609],[128.739827207445,36.7698437064483],[128.73972085902366,36.770103159309954],[128.74000836575436,36.77030640156126],[128.7400846071081,36.77068904634303],[128.74080706054772,36.77110764689986],[128.7408691946108,36.77144658068677],[128.74169200927835,36.77179135734542],[128.74081166473795,36.77259422335945],[128.74190984480845,36.77286853918844],[128.74233161320117,36.773210673895306],[128.7425952463354,36.77356436385619],[128.7430209689483,36.77382008637449],[128.74344049632612,36.77422457699445],[128.74346174096715,36.77504753752515],[128.74320032498562,36.77568218639845],[128.74388415360855,36.77606645393057],[128.74411656474996,36.77596738965786],[128.74438579757867,36.7760971428414],[128.74507155012014,36.776586043131545],[128.7449249199577,36.77682802882905],[128.74532815646657,36.77722074272018],[128.74560091651142,36.77733484361919],[128.7455679743095,36.77779685956794],[128.7452159866185,36.77818675300848],[128.74438416806882,36.77822516352462],[128.74297295500946,36.778695485686725],[128.74266845317752,36.77912502269826],[128.7418223447384,36.7794557063997],[128.741212276578,36.7798396233015],[128.7410153700051,36.78016727479768],[128.74049876650585,36.78071733537281],[128.7387774262682,36.78169448675366],[128.73864450446848,36.7824368548079],[128.7384216716412,36.78282845343711],[128.73815102984412,36.78307560347689],[128.73780775209605,36.7832034546852],[128.73691868556594,36.783196240465934],[128.73640512907386,36.78327262252528],[128.73610740512265,36.783919310049164],[128.7359083254532,36.78496197336466],[128.73581768229758,36.78581561485694],[128.7360137149186,36.78497907056122],[128.73632582008494,36.78441612862615],[128.7364176313545,36.78429166764913],[128.73680460207314,36.78429253715819],[128.7365200823904,36.78496940291632],[128.7362722737308,36.78617722942209],[128.73627990485116,36.787664274703495],[128.73671599752564,36.788372138366285],[128.7370526692449,36.788744458650974],[128.7371096559429,36.78926887709452],[128.73698603016513,36.79096862522639],[128.7371832780435,36.791502221188715],[128.7373252695356,36.79169935812001],[128.73779215565662,36.791800715256606],[128.73772667384347,36.79215240039751],[128.73818866022285,36.791779078764336],[128.7380746682351,36.79167849759338],[128.7404085437549,36.7902033771921],[128.7407529367364,36.79017472546237],[128.74099701491315,36.79034488446641],[128.74128761316092,36.790840745064195],[128.7415135629588,36.79222043318305],[128.74165734209004,36.79259158037881],[128.7421078324863,36.79320753583807],[128.7425122203546,36.7934439260324],[128.74291870500105,36.79422849312607],[128.74337427466443,36.795802849001554],[128.74334291153613,36.797711050743736],[128.74318090335487,36.7977037573634],[128.7430035016893,36.797507976889875],[128.74202274395455,36.79737325688953],[128.74159608272515,36.79748096187651],[128.7414061729403,36.79765063981533],[128.74039002669429,36.797868892490825],[128.74017541154362,36.798394055182676],[128.74001800212764,36.79852427064287],[128.73966124919713,36.79855198208753],[128.73940294782412,36.798689518655706],[128.73822047100273,36.79895318864439],[128.73786280701245,36.79956238082806],[128.7378349050532,36.79986931409799],[128.73800071101732,36.800004346938955],[128.73754317991197,36.800436781161316],[128.73723141178476,36.801234363295045],[128.73671138997332,36.80196391749714],[128.7361763368668,36.802033044809264],[128.7359521962516,36.80191011241405],[128.73584458489316,36.80167724554112],[128.73592706858054,36.80098240633255],[128.73577845226637,36.80070522295331],[128.73545329500715,36.800499477147206],[128.734871831637,36.79970964942498],[128.73429432633517,36.79910688947323],[128.7347197617209,36.79820818749399],[128.73459885258,36.79778356612644],[128.73435373375082,36.79748912710331],[128.7346368769095,36.797329705992745],[128.73550669283958,36.79632172896882],[128.73540818170437,36.795754066351186],[128.7352801569518,36.79557240011098],[128.7347488125943,36.7954084990234],[128.73428214290502,36.79541648028335],[128.73341855233483,36.79507637812406],[128.7327119160213,36.794606513929075],[128.73231008710448,36.793956647851275],[128.73234851296397,36.79358977225437],[128.7321821408002,36.79306788942505],[128.73190455054564,36.792616253661876],[128.73232781411775,36.792266599565195],[128.73233461858123,36.79177439967117],[128.73191874189317,36.7913179372159],[128.7318766493598,36.791053721297594],[128.73177349177394,36.79104950926836],[128.73104084503223,36.790239210252906],[128.73022697723013,36.78995102452289],[128.72977818722882,36.78990280334387],[128.72962919282514,36.79001879122703],[128.72938739154853,36.790003248225496],[128.72909352878037,36.790092761923574],[128.72843248740722,36.79001947017274],[128.72837249771052,36.790104799433486],[128.7282937601453,36.79006195707611],[128.7285513264506,36.79091048193008],[128.72877291167288,36.791152523246915],[128.72862964747912,36.791578294253114],[128.7276546909878,36.79268776835348],[128.72701421267422,36.792947816450315],[128.7255544593404,36.79284964319096],[128.72495692023827,36.79295209938059],[128.72449869781815,36.79340120711605],[128.7244705257176,36.793686400412376],[128.72464173786537,36.794022953185866],[128.7250805504111,36.79449830045553],[128.7245693219719,36.795421179497374],[128.72417838833366,36.795565008417285],[128.72419288768322,36.79594377451905],[128.72395398381354,36.79636360144335],[128.72381462332706,36.79644141256726],[128.72359139938564,36.79713239617377],[128.72343723577862,36.79733722795035],[128.72312759278503,36.797502049422654],[128.72295151734411,36.79794886188193],[128.7226480836644,36.79818608663325],[128.72242154797635,36.798587567495325],[128.72298796485057,36.79913474028213],[128.72306436640056,36.79973498015631],[128.72332634708337,36.80007852790591],[128.72286904483187,36.80055190752382],[128.72216808162648,36.80062658272386],[128.7216277827227,36.80053751461412],[128.72126221936884,36.80100813743025],[128.72213835700018,36.801758639690995],[128.72288166850353,36.801743510146345],[128.7235306019376,36.80228435697378],[128.72349035719407,36.80290879501792],[128.7237037326606,36.803244685736324],[128.72324752110106,36.80348081855697],[128.72308004147706,36.8041653472607],[128.72353009847956,36.80500451675623],[128.72400509509222,36.80525194865112],[128.72431249314647,36.80560160294652],[128.72435977809872,36.80606721648186],[128.72414322891441,36.80662235426345],[128.72464020031313,36.80770521455639],[128.7245025250909,36.80790414651571],[128.72468778657276,36.80832604537437],[128.72567679162077,36.808812872850346],[128.72572167817603,36.80918207795278],[128.72613602130951,36.809433968831634],[128.72607245518222,36.80997993417497],[128.72676244875063,36.810547279032164],[128.72760132889437,36.81166319239117],[128.72744030030128,36.81213945126871],[128.72796968250708,36.813192767381025],[128.72802623297156,36.81376628390252],[128.72785760583804,36.81404795537155],[128.72803988000186,36.81429644924396],[128.7279144423516,36.814672084115124],[128.7281324443708,36.81479053347563],[128.72783521587044,36.81537646262057],[128.72750438142242,36.815623371605525],[128.72706935404577,36.81645990321304],[128.72724254589184,36.816781841616695],[128.72770398257956,36.81720452564153],[128.7276739101877,36.817472167880844],[128.72791003441912,36.81778283316106],[128.72756730845794,36.81873915447779],[128.72720392167057,36.818885461327234],[128.7258736996684,36.81849760673937],[128.7250578651582,36.81776266968065],[128.72418282087585,36.81758607264714],[128.72338222069428,36.81754487232096],[128.7230787370637,36.817682597064504],[128.72299645545684,36.81819819852413],[128.72089783889007,36.818445804849766],[128.7202597172317,36.81833328993136],[128.71965919065056,36.81870816005679],[128.71900796049542,36.81860176548323],[128.71859788344898,36.8186448362525],[128.71835275810363,36.81883608790465],[128.7177828393168,36.81901054121569],[128.71770726054598,36.81925733062343],[128.7171404069363,36.819710853862745],[128.71658469151626,36.8204908944878],[128.71651104943953,36.82102807856131],[128.7162485066053,36.821107873200724],[128.71616030153962,36.82105927711669],[128.71575399371346,36.8212498301944],[128.7144739336102,36.821138395065475],[128.71417406705717,36.82099673594914],[128.7136856365187,36.82168659459816],[128.71292011140028,36.821998240499305],[128.71333507021498,36.822712084308115],[128.71376077206963,36.823032554069336],[128.71381694804649,36.82344325355409],[128.7141397013977,36.823811280342355],[128.7150049632323,36.824154485663485],[128.7162435093964,36.82437513702031],[128.7164644717893,36.824678376594896],[128.71624879235847,36.824949322934785],[128.71642920824425,36.82634816193976],[128.71639258155136,36.82669556124084],[128.71625906792804,36.826998454796765],[128.71593652351925,36.82729329585819],[128.7159235178648,36.82748992577818],[128.7166227243877,36.82792180225623],[128.71687211296884,36.828201546670975],[128.71695640622195,36.828707981902085],[128.7168835575442,36.82955982563584],[128.71727643644059,36.83026562957789],[128.71791338005795,36.82959035281409],[128.71846493512018,36.829200124895806],[128.7190066935531,36.82956099375137],[128.71984884978332,36.82972179369986],[128.7199546437564,36.82980856953055],[128.71998840919161,36.830098919002104],[128.72034136126334,36.830263148150095],[128.72044362874098,36.830803775828805],[128.7207671217553,36.83090203437614],[128.72091375869994,36.83108481559279],[128.7211171109777,36.831030778709156],[128.722054180705,36.83118480171095],[128.7225452322685,36.83113707652428],[128.72346289410936,36.83136353870179],[128.72433172436678,36.83136558219991],[128.7249378930386,36.83132372856694],[128.7248896839095,36.83127267545377],[128.72512314892265,36.83063968103898],[128.72564164590182,36.83056513896905],[128.72583896490525,36.83037391834383],[128.7262606870904,36.830258859686275],[128.72688160147007,36.8301993783873],[128.72700756718018,36.83038734922126],[128.72749727987386,36.830554336920684],[128.7283413073185,36.830605157208396],[128.72844120229627,36.83102528623655],[128.72840632768444,36.83124782158798],[128.72878306969147,36.831950641441566],[128.7292693697675,36.83232003152174],[128.72955900170072,36.83353445102516],[128.73009926785573,36.833587878914244],[128.73049473932815,36.83428645532842],[128.73078637541073,36.834373472619845],[128.7312564993091,36.83525918290901],[128.73121392547824,36.83564433437175],[128.7314340272351,36.83612174287366],[128.7318772494211,36.83621321924336],[128.73218125760727,36.836441896391214],[128.73230997661972,36.83685647386107],[128.73340198917234,36.837267762190635],[128.7337473151254,36.83692074387617],[128.73467317618832,36.83643919427683],[128.7349129126662,36.836632826193274],[128.73505078985116,36.83701344401491],[128.7356094545537,36.83756968089403],[128.73633418002842,36.837129947497516],[128.735609847012,36.83762725516474],[128.73628420303092,36.83826447563615],[128.73678593701229,36.83951283276322],[128.73684006441536,36.84039415103109],[128.7368014483029,36.84067595606896],[128.73644710656598,36.840666705342294],[128.73611093228854,36.84109355947457],[128.73613168138206,36.84149550941546],[128.7357686487019,36.841748847784764],[128.73602826651518,36.8421002087522],[128.7362444790818,36.84217399763871],[128.73606505474092,36.84216754354824],[128.73656331402577,36.84253286318133],[128.73653890575292,36.84269641425277],[128.73628434857113,36.843014779983754],[128.73636325294189,36.84324190358699],[128.73628085914532,36.843519714341845],[128.73662172477228,36.844100729420916],[128.7356482715731,36.844742407492056],[128.73560154501249,36.844909076645614],[128.73464737870458,36.84553981574583],[128.73404230204534,36.8456878959205],[128.73375246882105,36.846158791714956],[128.7321074166881,36.84683193281481],[128.73166570669082,36.84757588991451],[128.73213893701947,36.84827491026169],[128.73140483739644,36.84854710873869],[128.7305395503114,36.84906442123677],[128.73103110682752,36.849772225105575],[128.73088052886106,36.85013554707059],[128.73056562641378,36.850183330915996],[128.7301743072202,36.85086071275103],[128.73008845293228,36.85144730657711],[128.7303154249845,36.85175573714268],[128.73028323729207,36.85194590475683],[128.72940071601727,36.85236268589725],[128.72864521520466,36.85290331057153],[128.72820761892976,36.853081080086305],[128.72799657457978,36.85306398146777],[128.7282449134724,36.85316029971669],[128.7281979937959,36.85319961627034],[128.7290966217925,36.853389907265445],[128.72925249254743,36.85354585572967],[128.7293370600084,36.853822830592144],[128.72920574018963,36.85384292362075],[128.72872611761042,36.85418159986744],[128.7268958779816,36.85419677336941],[128.72665417677635,36.85438662099715],[128.72642537846184,36.85475632966883],[128.72670857471923,36.855192150487305],[128.7265308988135,36.85530617234225],[128.7265041985076,36.85552992637873],[128.7266947967246,36.85583677577202],[128.72732365460956,36.85628395864166],[128.72731403971363,36.85634213914198],[128.7271624334267,36.8563520002425],[128.72660526489886,36.85631368474854],[128.7266655925428,36.85644601504957],[128.72729877149797,36.8567828410814],[128.72718627713144,36.85693465290406],[128.72708187839893,36.85753719588902],[128.72658227798576,36.857915664069424],[128.7262231620996,36.858418724416346],[128.7265153892782,36.858991983276475],[128.72602726622515,36.85939069615101],[128.72610039391364,36.85977966189313],[128.72541523310912,36.86050453960023],[128.7248013385219,36.860553536772834],[128.72419692338474,36.861116071352804],[128.7246563573768,36.86138043825073],[128.7248993854937,36.86171971610523],[128.72526921372466,36.861883750970875],[128.7256180792121,36.86183567205487],[128.72587107188573,36.86152144770742],[128.72695153867986,36.86207772370556],[128.72702265193828,36.862186812245675],[128.72715739456862,36.862639988034054],[128.72728054992228,36.8627314979474],[128.72734101198796,36.86323806366976],[128.72713773901577,36.86364858950083],[128.7270338568929,36.86370611171573],[128.7274531608468,36.864184179508605],[128.7273288933577,36.86457223242823],[128.72715200607442,36.864698259188415],[128.72717240442185,36.86489731405858],[128.72679166287392,36.865399442598935],[128.72686173363476,36.86571704319584],[128.72676449937705,36.86606731163444],[128.72657957996222,36.866158266571155],[128.7257271914543,36.86595594319597],[128.72527444319064,36.86598932898557],[128.72461673016127,36.865551485772784],[128.72393112877347,36.86599418253972],[128.72330222610833,36.86662556250356],[128.72328759958896,36.866856299712964],[128.7221863007143,36.867046476106275],[128.72203286573765,36.86697924612788],[128.7217456133225,36.867094788749576],[128.72144176504165,36.86736731782662],[128.72107171906615,36.86743713235657],[128.7202852107912,36.86774774893897],[128.7194595532453,36.86748235752765],[128.71942955138013,36.867056715261945],[128.71885558569497,36.866773928327866],[128.71786340384483,36.867008511585105],[128.71780229287194,36.8666458542291],[128.71747964035995,36.86635943032935],[128.71682300623542,36.86626645104742],[128.71640068813093,36.865963450064505],[128.71635567092665,36.8653446746831],[128.7157257466772,36.86478942539247],[128.71539469048577,36.86461433404257],[128.71513265316662,36.86430526856345],[128.71425742536906,36.864374489565364],[128.71395442980463,36.86457913946533],[128.71321823465874,36.864792980226575],[128.71295840816882,36.864992686177345],[128.7124772592137,36.86501524018893],[128.71147711751982,36.865479919130415],[128.71119940071003,36.86582147318382],[128.71115032094926,36.86608757548787],[128.71042363933873,36.866603705019294],[128.7099280932822,36.86643885691377],[128.7093885571419,36.86670540873162],[128.70897846327887,36.866678472063356],[128.70826828725467,36.866995323342664],[128.70761066692114,36.86675968257323],[128.70696573062915,36.86675984258978],[128.70681464887363,36.867254434646505],[128.70538071448073,36.867093628880994],[128.7052399758978,36.86674669050832],[128.70442285863086,36.86612952624562],[128.70404358613723,36.865463156182706],[128.70369828448904,36.865327040564175],[128.70320333872243,36.86457508234439],[128.70343719117452,36.86361578761718],[128.70309109503128,36.86333080620203],[128.70289898932458,36.86266242262354],[128.702853472926,36.861940563675134],[128.70250521172042,36.861684302235915],[128.70248911291088,36.86128965298513],[128.7022289222646,36.860983428698894],[128.7016092445374,36.86101255712961],[128.70093207327022,36.86055180805629],[128.70075323544125,36.86091321289865],[128.70044365027053,36.86117167051151],[128.70024564377684,36.861464497074664],[128.6997217434826,36.86181671271042],[128.6982958659984,36.861912141888205],[128.69772245250599,36.861695484298956],[128.6969540971305,36.86175100891338],[128.6962097688035,36.86222386236036],[128.69493559744762,36.86262693166295],[128.69455503773912,36.86223592248305],[128.69367240009632,36.862266486897965],[128.69294232235322,36.86217050163824],[128.69243185012223,36.861918667164524],[128.6917027317076,36.861308724551655],[128.69136127334775,36.86058935585569],[128.69080041127668,36.86054329358516],[128.69061279520733,36.86067018519011],[128.6904623308073,36.860671604109086],[128.69049119003103,36.860992597058164],[128.69071436390556,36.861050316732964],[128.6905088523202,36.861473713959576],[128.69022506523746,36.86163837100834],[128.6902258149388,36.86194143071602],[128.68991213412517,36.86237659184136],[128.68976747346323,36.863216445025884],[128.68967662398046,36.863072544974024],[128.6879327326809,36.8626099870534],[128.68709443329257,36.862799095061376],[128.6867810270713,36.862587610435455],[128.68651701132595,36.86277912786756],[128.68454434776132,36.86221411947325],[128.6841806599517,36.8621893557337],[128.68322637159815,36.86245064035428],[128.6832993531065,36.86190480433067],[128.6834557981842,36.86153059753219],[128.68336140392748,36.8613114600944],[128.68320738476186,36.861345219865875],[128.6824036812773,36.85855928042785],[128.6823223671498,36.85849511211883],[128.6821206187939,36.85854458359608],[128.68215870801157,36.857814523973865],[128.68174018750662,36.85799455212938],[128.6815554132075,36.8575911124103],[128.68133352141496,36.857641682404534],[128.68059647933654,36.85698085621541],[128.68006888153744,36.85701406661669],[128.67972546086844,36.85684134657719],[128.67956672167594,36.85650059157191],[128.67898328534903,36.8564827887964],[128.6787608546853,36.856212677024104],[128.678324634935,36.85606223031547],[128.67799437900587,36.855837980718796],[128.67722591593656,36.85583901441174],[128.6770295110572,36.85535492326126],[128.6771254702663,36.85448405435489],[128.67739247403938,36.85422574872839],[128.67772966916672,36.853590954952985],[128.67797566812158,36.852305877240994],[128.67784487402267,36.85181872107513],[128.67789228794962,36.84977324462287],[128.67799808577487,36.849391337001066],[128.67786821625967,36.849267993013314],[128.67787035917524,36.849073575081604],[128.67629194556253,36.849859956598706],[128.67614470385405,36.84986531137409],[128.67582981809133,36.84968900073235],[128.67550288548856,36.849725131491404],[128.67520492914161,36.84904368335402],[128.67490954340104,36.84860035756953],[128.67350914362078,36.84792373503772],[128.67343102645657,36.847672476705846],[128.6737732773346,36.846868555661274],[128.6747280531675,36.84622928038399],[128.67460353486265,36.84555986706663],[128.67446448505228,36.845389301959514],[128.67442492606443,36.844949545548786],[128.67488113658695,36.84404145733648],[128.67458130418515,36.843298378597474],[128.6744700572676,36.84253080495067],[128.67344889221343,36.842712894085814],[128.67294457807992,36.84299673270045],[128.6722332585869,36.84311481718669],[128.6716639002191,36.84329624315106],[128.67089261057725,36.84315019536192],[128.67042086876083,36.84328434729155],[128.66985910549184,36.843215559327895],[128.66972593842584,36.84342592745935],[128.6687939376962,36.843729358009426],[128.668121085683,36.84441841242737],[128.6678669651928,36.844564297270566],[128.66792201444184,36.844875539104095],[128.66763533294147,36.8450377795243],[128.66740998148924,36.84494779457548],[128.6672910579817,36.845012187626104],[128.66702205224186,36.844932510113644],[128.6670169913119,36.84463052135348],[128.66650486334015,36.84427293835635],[128.6664322452223,36.844107109378704],[128.66644934583869,36.84422518902243],[128.66603695650795,36.843898778600156],[128.665939420249,36.84373102853613],[128.66587677546096,36.84376840443954],[128.6653071616476,36.8432935921992],[128.66470013281705,36.84259332148487],[128.66478257857494,36.84255178595142],[128.66376665104232,36.84205109794857],[128.66317409873267,36.842221157002314],[128.66301939717863,36.842545252611075],[128.66204039829165,36.84284240528632],[128.661974090023,36.84302894494053],[128.66219621189302,36.84351848588912],[128.6621274436315,36.843953627234],[128.66230848688036,36.844196589233405],[128.66205802583175,36.84513469677067],[128.66198121881024,36.84526511782343],[128.66181624424019,36.845322535154025],[128.66152977784827,36.84532069789197],[128.66142058956797,36.84528439938469],[128.6614103294956,36.84519037939064],[128.6611214505261,36.84525740390012],[128.66126483380924,36.84607997128749],[128.6612228176233,36.846653527736486],[128.66069869943735,36.84725255955035],[128.6605791615535,36.8476059848439],[128.6603233922531,36.84790965863722],[128.65992754573995,36.848666033131366],[128.65968834332688,36.848835451392844],[128.65950123171137,36.8491462273209],[128.65976019232215,36.84970773336058],[128.65948722315196,36.85028523416866],[128.65875488994345,36.85039391465261],[128.6575288819409,36.85043159676534],[128.65679390804576,36.8502923742044],[128.65634151100772,36.85041924950671],[128.6562652641215,36.850514788427],[128.65620461883609,36.85124280115785],[128.65657291767667,36.851479026424656],[128.65678512090085,36.85193951539028],[128.65644423186802,36.85213002370721],[128.65597154097534,36.85224151957623],[128.65550003325725,36.852638710483525],[128.65502535080515,36.85269083234655],[128.6546861747692,36.85288499857866],[128.65422213722755,36.8526347842886],[128.6535626838046,36.85325937220254],[128.65249017639778,36.85348802228237],[128.65235423745597,36.853853030066524],[128.6521969949825,36.85402941969899],[128.65100036348034,36.85399983456905],[128.6505889950312,36.85390793956087],[128.65004192260778,36.85418838356078],[128.64989106750764,36.854152932034424],[128.64926565760473,36.85457306434422],[128.64878202037985,36.855272682960724],[128.64860145636112,36.855279511119974],[128.64788737964201,36.855885189116925],[128.64737020407551,36.85561102852669],[128.6471601426825,36.8551725163222],[128.6471247742257,36.85485107006011],[128.64628877567324,36.854542562703934],[128.64621467480262,36.85437571979153],[128.6456807300158,36.85411581149043],[128.64525360869143,36.85365615743376],[128.64519293299577,36.8533605950269],[128.64484614747397,36.85325958267448],[128.64341898867505,36.85463593912177],[128.6434087454582,36.85491960184857],[128.64306336350074,36.85514274014247],[128.64281653263328,36.85543326159397],[128.6427413274614,36.855791898392155],[128.64291741577296,36.856224414607745],[128.6425500903131,36.85658041632332],[128.6420394345586,36.856830096885545],[128.64177399407953,36.857168137242454],[128.6419105046158,36.85743528307454],[128.64235628357113,36.85766463045433],[128.64244677527589,36.85834633195163],[128.64261053183563,36.85867296790571],[128.6425057761927,36.858816819289366],[128.64237106451128,36.85885569322406],[128.64256583608184,36.85906272087944],[128.64310476810797,36.85935968438699],[128.64315643258075,36.860415342126046],[128.6435433615925,36.86067806497115],[128.64338716481635,36.86138203917177],[128.6443613596618,36.86179037048798],[128.6443710135761,36.862782680118606],[128.64428779719222,36.86308910184109],[128.64487497598915,36.8637103271838],[128.6451711807132,36.86427594750909],[128.64551157813676,36.86469027884039],[128.64654525737134,36.864946467379504],[128.64684885271046,36.86539143094616],[128.64795286921833,36.86604708232563],[128.64782746998154,36.866498134276156],[128.64816789906476,36.867030718109184],[128.64917664652245,36.86768850940431],[128.6503923319771,36.86763188071546],[128.65100946666092,36.86720877237105],[128.6515662632297,36.86696497384717],[128.65276132012193,36.86731046483721],[128.65345423742005,36.8671415667191],[128.65431805628964,36.86755006330494],[128.6541976276798,36.8683243149146],[128.6545532612831,36.86878209717798],[128.65540625653907,36.868978868123016],[128.65541785590383,36.86941776326501],[128.65589300049916,36.870238390665776],[128.6555532556423,36.87038996245018],[128.65521386307046,36.87269921145138],[128.65474971424126,36.8727631129872],[128.65450200519223,36.87288952866302],[128.65422026540986,36.873339726626746],[128.65444001889847,36.8738299495999],[128.65398704603155,36.87444552271707],[128.65345951581983,36.87484219820234],[128.65314622810538,36.875886430840254],[128.65186949126607,36.876100249100205],[128.6517431739288,36.8763473565932],[128.65120939081243,36.876687820329195],[128.65126885210887,36.87718522837782],[128.65001584963758,36.877995487271576],[128.6507124001431,36.87913245856948],[128.6505061922718,36.879641926603576],[128.6510537916117,36.880675704598296],[128.65143687961518,36.88067159368143],[128.65212741993417,36.88112802192217],[128.65176788496865,36.881860983085794],[128.65108024731464,36.88170721267338],[128.64966241495918,36.88162998066403],[128.64934676789758,36.881431214005175],[128.6486397770621,36.8812629821935],[128.64839324558287,36.88106569648187],[128.64737898396484,36.88056325032444],[128.6472947717083,36.880352576408846],[128.64663294218832,36.88001431234492],[128.64592768391452,36.88005822325675],[128.6455578439836,36.87966719874896],[128.64506733108172,36.87948605575675],[128.64463212920973,36.8794263189427],[128.64430507742898,36.87947601866723],[128.64439047599637,36.88009876948749],[128.64432127429274,36.88023306823478],[128.64362022902836,36.88047995859309],[128.6434304683051,36.88078495164825],[128.64209754950735,36.881414604042476],[128.64189828627693,36.881737145420345],[128.64209432342884,36.88228836854331],[128.6419916823311,36.8826304487226],[128.6416089822217,36.88285427133157],[128.64162102935063,36.8830535484407],[128.64124526320632,36.883535447329116],[128.64132788052788,36.883906623405075],[128.64111747474263,36.88409636202587],[128.64060671673343,36.88428443624483],[128.63992916521428,36.88501211883193],[128.63981369486729,36.88542461482132],[128.63921933182965,36.88550045008116],[128.63877097079666,36.8856964545523],[128.63861509394997,36.88605747310871],[128.63863004285116,36.88625827309054],[128.63889712415298,36.8865230607558],[128.6387007752624,36.887328646069996],[128.63859160698584,36.88742073915803],[128.63805529723268,36.88743823740064],[128.6377203513361,36.88789435944113],[128.6379347501057,36.888051001292155],[128.6375205859612,36.88879050134037],[128.63774366795977,36.889438834347985],[128.6383361612732,36.88966154221257],[128.6396246247161,36.889732083413996],[128.63990973794876,36.89012584320632],[128.6400063171124,36.89124142015443],[128.6405822358425,36.89134726641228],[128.64086200744106,36.89174602645264],[128.641049628587,36.89280709045084],[128.64041096927133,36.89373287218005],[128.64067750218408,36.89393477466299],[128.641167061313,36.8946486052044],[128.64171711591567,36.8947517275864],[128.64261107504774,36.89562108273664],[128.6425713756239,36.89570651331242],[128.64347385791442,36.89725153559686],[128.64318901197956,36.89804382280588],[128.6438317872003,36.89893441776803],[128.6439367176074,36.89938986589482],[128.64520315887,36.90015086953059],[128.6451110595404,36.90053293726205],[128.64538555916485,36.90076897743025],[128.64624175404887,36.90099349627493],[128.6468352326781,36.90152621247487],[128.6468704885832,36.90217565320443],[128.64653459981466,36.90291870440505],[128.64669572611496,36.90329489462005],[128.64726506166497,36.903575456479494],[128.6473550182585,36.90375994217142],[128.64720338529472,36.904140492255706],[128.6474249591785,36.905370761728065],[128.64809923551923,36.90522156706018],[128.64865863594744,36.90571798495516],[128.64938402189873,36.906571686417344],[128.64884585259216,36.908001833171475],[128.64946780429645,36.90886799708791],[128.64918483425458,36.909813253751366],[128.64981122741546,36.91061508156242],[128.6500749937633,36.91054911427952],[128.65122454901922,36.911209372854444],[128.6528847819373,36.910814384513934],[128.6531612719011,36.910914222078056],[128.65338807624295,36.91118008448097],[128.65452958931965,36.91156687729454],[128.65494184656978,36.911635639254854],[128.6552269351308,36.91095083615087],[128.65505208619857,36.909891158107044],[128.65556173250746,36.90970853541381],[128.6570363552833,36.90944451929684],[128.6574827912762,36.90927548249497],[128.65837194031573,36.909539989739464],[128.6586990257366,36.909388816998394],[128.6591130456016,36.909685140371984],[128.65955808870177,36.91052081780845],[128.6602813399613,36.911091432403566],[128.66072765331884,36.912129160509195],[128.66137999618348,36.91219977507544],[128.66169919765866,36.912869411403065],[128.66276339797378,36.91343092450202],[128.6637935562147,36.9141511218414],[128.66395363540178,36.91484416241142],[128.66457057884705,36.91588823426449],[128.66541741570393,36.91658780516235],[128.66625854625346,36.91759093997577],[128.66619388039132,36.91765326691175],[128.6663326764505,36.91779291149055],[128.66656933559935,36.91786467193976],[128.66848815365643,36.91749240450305],[128.66977074809623,36.918052994769745],[128.6705099168659,36.91887594973384],[128.6696058978469,36.9199530628886],[128.6691090776568,36.919927774210315],[128.66880645078137,36.91964921480162],[128.66713486808797,36.91960929169902],[128.66672814546243,36.91927481082597],[128.66686914371368,36.918772100689466],[128.66562915566846,36.918988681449385],[128.66528733341602,36.91955001731659],[128.66527939147613,36.9201525721209],[128.6651283131906,36.92035733313663],[128.6649701156727,36.92045792647694],[128.66484137825864,36.920440262318714],[128.66550579782813,36.921930735309296],[128.6655376686301,36.922259966281715],[128.66613600345224,36.92315789152113],[128.6663930912465,36.923719596194324],[128.66533368175251,36.92418019967798],[128.66479648658716,36.92459890897012],[128.66463219119086,36.92511065150195],[128.66376625632202,36.92578605709043],[128.66307293009038,36.92590177401811],[128.66216291252042,36.926265824521046],[128.6612884615757,36.92692495038183],[128.66115861530838,36.92800764365736],[128.66075575947156,36.928410037303365],[128.6598547202626,36.928590741926406],[128.65965353478398,36.92951891862231],[128.65982815293685,36.92991177960977],[128.65919753138456,36.93039695573895],[128.65876350084693,36.93084558776043],[128.6590254013099,36.93141899900021],[128.65893730720487,36.93237260231198],[128.6597302147297,36.93253976646987],[128.66024462158882,36.93278793043356],[128.66021151626128,36.933329885166884],[128.66084666955658,36.93368042154155],[128.66096553744592,36.9341900556621],[128.66076315889887,36.934444963415004],[128.66083684915608,36.935405246563604],[128.6613613760738,36.935801842911175],[128.6613119572235,36.936269989126025],[128.66149555740557,36.93690639158752],[128.66183534883479,36.93701926555002],[128.66179333929134,36.937978173568965],[128.6616839704862,36.93812036853381],[128.66169328794302,36.93860534258115],[128.66158268605074,36.93881565661544],[128.66161421264596,36.93919019375937],[128.66203561614415,36.93939637218037],[128.66228926984786,36.939426469164076],[128.662504195989,36.939321617510906],[128.66273827911598,36.939436855769074],[128.66344696510944,36.93958590480953],[128.6642642144403,36.94026756543101],[128.66411182567705,36.94125741183529],[128.66384493430647,36.941757751035645],[128.6638869061595,36.942044370577484],[128.6645316037443,36.94257587918229],[128.66478179746233,36.943160147202825],[128.66574014527845,36.943275709585535],[128.6659431092164,36.9429914022941],[128.66651623727958,36.94259881375686],[128.66703539900448,36.943142184472755],[128.6677883251131,36.94348500317347],[128.66844871107926,36.943205529169575],[128.6693786451606,36.943320225773995],[128.66975072958883,36.94286101299015],[128.6706783833918,36.94249289926169],[128.6711999660377,36.94253964252111],[128.67134705704692,36.94247750503165],[128.67155935521447,36.94214724924922],[128.67176369553977,36.94203060942021],[128.6718219296688,36.94190902467871],[128.67194711784308,36.941883491160105],[128.67254126224762,36.94202963801427],[128.6726615930674,36.942271146049606],[128.6733933451524,36.942465876145484],[128.67325683610423,36.943349340919816],[128.67344643896956,36.94356124767219],[128.6734358821167,36.94489845857675],[128.6739216596905,36.94572486455134],[128.67549365427226,36.94620423240819],[128.67588604590958,36.94728247106545],[128.6761824147729,36.94753817933457],[128.67641964784497,36.94838995584924],[128.67670574890488,36.94886891441983],[128.67669770682247,36.94933208707524],[128.67657442979987,36.94960674485938],[128.676359883651,36.949791874043015],[128.67650368220126,36.94999062177814],[128.67649718371038,36.950228860587956],[128.67692499279553,36.950635864627074],[128.67738273983943,36.95091695060377],[128.6780091446791,36.951780079327584],[128.67767119260427,36.95230984839421],[128.6770147912373,36.95277005160977],[128.67738157470382,36.953378992811814],[128.6783545884654,36.95378785995462],[128.68042956695808,36.95348729113638],[128.68079050997994,36.95360626784329],[128.68162137282917,36.9535854035318],[128.6815368151867,36.95398515975034],[128.68125442852866,36.954340682201135],[128.6814866972109,36.95482307994498],[128.682434555626,36.95559439675722],[128.6823760121814,36.95577041215251],[128.68307608468623,36.95623671026784],[128.68352907156932,36.957600467646294],[128.68376325441744,36.95774266103632],[128.68377625733734,36.95796776851631],[128.68486484665,36.95836056218783],[128.68465710295564,36.95932103565269],[128.6855031246282,36.9594161354325],[128.6860264315754,36.95969936187897],[128.68637047750727,36.9601062369199],[128.68624821307623,36.96030516151913],[128.68633735067743,36.96061610036567],[128.68612784018396,36.960921257912894],[128.68646237950293,36.961506783029314],[128.6864730847511,36.96183710393685],[128.68626651704878,36.96244510540843],[128.68654727415756,36.96297920745406],[128.68651451485067,36.96354717363367],[128.686145451945,36.96398678389022],[128.68668087514877,36.964599123822914],[128.68673690880917,36.96518016495899],[128.6877346130026,36.96568567894971],[128.68796330288998,36.965981970411406],[128.6877188299716,36.96637974168411],[128.68697238691814,36.96692458106663],[128.68688510580483,36.96717819552006],[128.6865257593398,36.96766250715543],[128.68716543811766,36.9680296652095],[128.68693251577213,36.9686099164411],[128.68696284715983,36.96901592540804],[128.68716587828553,36.96948918663267],[128.68763975455727,36.96976248992377],[128.688125234958,36.96976337861974],[128.6882016946723,36.97022708788688],[128.6880572644526,36.97078863213433],[128.68940470133862,36.971319433620906],[128.68969965527677,36.971844022915306],[128.69031657837323,36.972074652792514],[128.69074431923084,36.9724134846973],[128.69105506831298,36.972876197240176],[128.69159117015604,36.973139301639144],[128.6920417728534,36.973175298149435],[128.6929352045222,36.973773209462244],[128.69311784117482,36.97432863190741],[128.6928894299895,36.975005466231345],[128.69295436224505,36.975445299766136],[128.69309407238458,36.97618409726926],[128.6934897052438,36.97691188742941],[128.69304108881306,36.977206554086976],[128.6926046284436,36.97767210449942],[128.6918142700159,36.977649997019824],[128.69151063121805,36.97814352402916],[128.6915071881253,36.978498469926635],[128.69027446594626,36.9785094612657],[128.69014274105385,36.97864069330916],[128.69002942919312,36.9791168268025],[128.69027668051154,36.979614607717],[128.69022508830523,36.980718919769735],[128.6904430251288,36.98134578491161],[128.69093716396918,36.98163714004584],[128.6908730416746,36.98197595117344],[128.6910424304396,36.98227548766891],[128.69075648776894,36.98255368190316],[128.69136590471814,36.983329792521566],[128.69218691630874,36.98389904639503],[128.69271384761427,36.98479531148916],[128.69256023230204,36.98502517543402],[128.691766961821,36.98515993862274],[128.6909851926445,36.98546648178179],[128.69050946402263,36.98585374312852],[128.6908596342131,36.98608634173504],[128.69167942283966,36.98614680923995],[128.6923529002921,36.98635748116615],[128.69237980532242,36.98689769551507],[128.6920532328291,36.987189897480526],[128.69165242747687,36.98725521297265],[128.69118302187218,36.98759908905195],[128.69150437473837,36.988258470412845],[128.6920375079227,36.98882536332734],[128.69194894002135,36.98923416973227],[128.6919915565663,36.98984468151322],[128.69258011273152,36.991322491643274],[128.6923555688309,36.99229386875508],[128.69219836650274,36.992593106617925],[128.69218599614638,36.99398178286374],[128.69215435575578,36.99417014405283],[128.69205506338568,36.99415318926618],[128.69208413497907,36.99458801692146],[128.6920398063383,36.99485855087142],[128.69197118984826,36.99483363783484],[128.69250233273706,36.99527084044656],[128.69234085582815,36.99535257283693],[128.6924539039323,36.99536293161232],[128.69289656506987,36.99573579048586],[128.69321804053502,36.99620349785303],[128.69376396570414,36.9963482877067],[128.6940756626107,36.99711081002592],[128.69404665409922,36.9979470084372],[128.69435503043272,36.99815759238205],[128.69446032837806,36.99841584239134],[128.69450226622686,36.99898295443521],[128.69420916953052,37.00022430998413],[128.6926321319508,37.004653393932884],[128.69469505256626,37.00433099178674],[128.6946726912381,37.00529802014414],[128.69557824898672,37.00688734554154],[128.6959094869067,37.006960784593055],[128.69835646814562,37.00860054032026],[128.6988223407256,37.00952934174764],[128.69877645702203,37.0103456304603],[128.69961300173696,37.01052676552769],[128.7002491725552,37.01080537466937],[128.7007008029623,37.010772554656306],[128.70204792695404,37.01250451576738],[128.7021781882942,37.014418266043506],[128.70266525543474,37.01624959166324],[128.6997182175405,37.01771500638195],[128.69949050149503,37.01830905175553],[128.70013590872696,37.01870090566342],[128.7003021936483,37.019675997108614],[128.6998941148001,37.02139847960994],[128.69994651438836,37.021985598525255],[128.69977590695845,37.02265855608548],[128.70033096609143,37.02378590338794],[128.70065761051362,37.02403749561605],[128.69988062128056,37.02441994196646],[128.69985384805764,37.02477989933096],[128.70011854313697,37.02498548540079],[128.70014073726261,37.026051140552795],[128.70081397261416,37.02756877658734],[128.70061329320248,37.028861114892756],[128.70087663963957,37.02929188549801],[128.7009518511103,37.0299065168134],[128.70185618340534,37.031007261806344],[128.70192824914486,37.03172027764692],[128.70321638813977,37.03294528688046],[128.70477412965155,37.0336865159024],[128.70596494307438,37.034423630458534],[128.70678155613976,37.03683886410637],[128.70724215157097,37.03767419025469],[128.70816969750942,37.03876984912482],[128.7091530265368,37.03926889337624],[128.70813137220864,37.0393807108691],[128.7063294029216,37.03997758500521],[128.70507099266482,37.04001129545322],[128.70464749684717,37.0403019546365],[128.70415674113195,37.04081342866091],[128.70241782367785,37.04068385979719],[128.70048938000346,37.04071219820047],[128.6970595460355,37.04406844523971],[128.6969061748391,37.04513426500017],[128.69544537690848,37.04604970761126],[128.69477799412417,37.04677581482226],[128.69460017676013,37.04730808130215],[128.69317880308176,37.04842734141914],[128.69203312912697,37.049563073391965],[128.69142598137307,37.050456089047636],[128.69018805407833,37.051741378399605],[128.6896943991838,37.05249795987131],[128.68899239802317,37.0530713651404],[128.68773614420132,37.05264231879432],[128.68704900375099,37.05260816438759],[128.68658434825673,37.05220286681234],[128.6853508198637,37.05218846097775],[128.68398917407552,37.051520081440174],[128.68366738966827,37.05146876820373],[128.68309548634548,37.052525639897944],[128.68283920795702,37.053186334201094],[128.68222369128722,37.05339995399713],[128.681628188101,37.053745919448],[128.68058475344336,37.05384683481934],[128.68042002778716,37.05422132717201],[128.68020540778008,37.05444148717433],[128.6795552023753,37.05426026892293],[128.6792401123987,37.05492434725752],[128.679172114835,37.05555794468482],[128.6786339763655,37.05578581539922],[128.67828188622298,37.056161140593375],[128.67775850427984,37.056251715543944],[128.6769691419901,37.05681839107893],[128.676351647469,37.05788648306827],[128.6758002198961,37.05799835502521],[128.67414596800288,37.05857831806027],[128.67369563595204,37.058932736459354],[128.67259397192458,37.058865870224416],[128.66969652588003,37.059385582055214],[128.6687852394829,37.05933716693543],[128.666789520199,37.0602525171705],[128.66638924350187,37.06020024021877],[128.66549769195078,37.06054422630883],[128.66373365514642,37.06094515175393],[128.66272760776855,37.06093001737638],[128.66183404890478,37.060817340952745],[128.6613631984839,37.060992782144154],[128.65887005216277,37.06034731170047],[128.65780353161242,37.060487841678416],[128.65762446694416,37.06083932059839],[128.65737399083298,37.060826834416574],[128.65693167582074,37.06113115502566],[128.65622886672915,37.06302020902643]]]}}
