{"type":"Feature","bbox":[128.52677301795106,35.56689129582496,129.04692273627623,35.845955145770326],"properties":{"regionCode":"47820","version":"vworld-20260909-3f8952dfda77-p3","name":"경상북도 청도군","attribution":"국토교통부/K-Geo플랫폼 · VWorld 법정구역정보, CC BY 2.0 KR; 두꺼비집 가공"},"geometry":{"type":"Polygon","coordinates":[[[129.01817436094905,35.84427787336798],[129.01823305435116,35.844822632703604],[129.0177409082456,35.84542211793599],[129.01746141689947,35.84561135559511],[129.01641235402715,35.845780807297054],[129.01566570354856,35.84579122802554],[129.0145231864918,35.845955145770326],[129.01402126057172,35.845665074670585],[129.0132557393083,35.84556983131575],[129.0133754103656,35.84486595302479],[129.0129642730683,35.84451251810555],[129.01212032501172,35.84432981240141],[129.01174969713344,35.84446548158634],[129.01104609370282,35.84492747031833],[129.0103771168624,35.84480838049627],[129.00977141057612,35.84498241575185],[129.0067845838892,35.8435498758294],[129.0059700401795,35.84298051087931],[129.00437089635278,35.84248995477932],[129.00421502412624,35.842325431766746],[129.00354127144084,35.842186874174914],[129.0025320161684,35.84241660580473],[129.00143850641035,35.84210136193555],[128.9998286760546,35.84209826359545],[128.99871117344205,35.84183981052011],[128.9982700993843,35.84147479753618],[128.99755559030078,35.84127548849482],[128.99659633947104,35.841224758272375],[128.99602686619235,35.840898797961344],[128.995492581812,35.84082618226628],[128.9951400083317,35.84051744853135],[128.99480916374276,35.84038210881252],[128.99355920199034,35.840350200932605],[128.99275592668462,35.839205307555645],[128.99199347381003,35.83862544588843],[128.99164386041127,35.83860789056511],[128.99145861943347,35.838510741447486],[128.99124244608086,35.83819860958185],[128.9908732221248,35.8380164520863],[128.98997180295353,35.83774336388934],[128.9896535100988,35.83786491586299],[128.98894770684234,35.837797766962716],[128.98810643976418,35.8378985901286],[128.9877150361591,35.83740181734963],[128.98736854717941,35.83718076963235],[128.98763083039836,35.835197542606934],[128.9871880018772,35.834625872985285],[128.9865038843758,35.83437085381386],[128.9857544106588,35.834313221370294],[128.98501687052968,35.83406551824886],[128.98434463755757,35.83355307740404],[128.98323508409345,35.83346244363951],[128.98276546801296,35.83351426059963],[128.98133300954865,35.83307525086131],[128.9809684199894,35.83315030725431],[128.98016151175307,35.833072399767495],[128.9789181498562,35.83320217952678],[128.97816233031276,35.83294796055527],[128.97777708585272,35.83292210132257],[128.9773694702483,35.832626033321745],[128.97671142731687,35.83285889744136],[128.976206422382,35.83359823142537],[128.9752094242913,35.83402210112944],[128.97478265978287,35.83470494193092],[128.973546610086,35.83458081370606],[128.9708291608904,35.83554840174917],[128.9691696815749,35.835264006350634],[128.96836055384824,35.835278579394455],[128.96648158867964,35.83499154931609],[128.96626437133568,35.833606169770576],[128.96590951718815,35.832967496893794],[128.96497549240092,35.832516875705274],[128.96449151535646,35.832197699340284],[128.96281506150368,35.83061229542397],[128.9630777456022,35.83025393552844],[128.96323552595376,35.82867963090036],[128.96279873399857,35.828010612045865],[128.96050378530649,35.82618177670175],[128.95902860549714,35.82232156273388],[128.9589378327275,35.8216754557547],[128.95928591781524,35.819857065733316],[128.95841737088813,35.81779572622971],[128.95717973232527,35.816127305894504],[128.95548395688,35.814194203450825],[128.9549677567733,35.81244350494186],[128.95590187956893,35.80955277938256],[128.95643382270836,35.80845325610069],[128.95689039525365,35.80683881520554],[128.95752123925678,35.8058143811567],[128.95626307779833,35.80404452913511],[128.95612397169018,35.802550646006324],[128.95557899611174,35.80092403727144],[128.9549034339171,35.80086776172143],[128.95394645008102,35.801042595568916],[128.95328129942803,35.80135214744926],[128.9515152165622,35.80027560773919],[128.950620358036,35.79816202055868],[128.94984292728185,35.79277494256824],[128.94844501581872,35.7904089906898],[128.94657002904887,35.78900276596634],[128.9460676104521,35.78846773260482],[128.94487309854705,35.78837517070569],[128.94406431499868,35.78665720257854],[128.94376725704274,35.78577344136232],[128.9438824444533,35.78492312723724],[128.94488282314737,35.784006189193576],[128.94581030901657,35.781875166928],[128.94408277483726,35.78057505924345],[128.9417415679082,35.77743882736664],[128.94131691081859,35.77677198327968],[128.9413162597697,35.77537530286055],[128.9395177716356,35.7741418877266],[128.9396219659748,35.77332146898833],[128.94000054715426,35.77277634862003],[128.94015416375717,35.772217082712224],[128.9398534809107,35.77129985461508],[128.93854147163728,35.76964538066044],[128.93851732864184,35.7693639135146],[128.93746291255596,35.768270625133525],[128.93626261557557,35.76670364286964],[128.9360484027956,35.76661028281764],[128.9351462888813,35.76551274690358],[128.93513660075257,35.76523911371426],[128.93537777217128,35.76459349905724],[128.93424398690405,35.761727081291],[128.9320166080271,35.760746737673955],[128.93213167367495,35.75976688779052],[128.93123708858616,35.759300384472226],[128.92877851954646,35.759559846644414],[128.92785450680498,35.76000581789001],[128.9276096610852,35.76029649111909],[128.92710161072876,35.76050957252071],[128.92508474016873,35.760531759816935],[128.92374225015215,35.75984702581084],[128.9229384979558,35.759200354882665],[128.91702854151947,35.75786335710763],[128.9162913881826,35.75738019282901],[128.91561310552407,35.75741684398913],[128.9141649494134,35.75809478949506],[128.91391902858612,35.75814847026515],[128.9129487820471,35.75714696594857],[128.91275340260663,35.75667725998709],[128.9123434282004,35.75487226618246],[128.9119820692456,35.75469055849488],[128.91154316152677,35.754339593467115],[128.9108941128252,35.75373294219262],[128.9085078122639,35.75181648066148],[128.90809104018845,35.751391592514224],[128.90734943952526,35.75110284727067],[128.90718023828734,35.75113377918633],[128.9072934534842,35.751226842694614],[128.90717126502403,35.75119411277254],[128.90702829538296,35.75098069840314],[128.90695673726492,35.75152438087624],[128.90689646508977,35.75153763541624],[128.90696006603235,35.751635190474175],[128.90685593857876,35.75179766059683],[128.90664276675338,35.75178474647676],[128.9063951308955,35.75190961417826],[128.906091847772,35.75161115162453],[128.90540285434824,35.7511588917556],[128.9048303123306,35.750557086152455],[128.90420515299175,35.74932625266896],[128.90413551122734,35.74897606698982],[128.9042156315038,35.74856660891033],[128.90439136406175,35.74834782202117],[128.9053417094904,35.747676244373324],[128.90657017034147,35.747717337210354],[128.9066008326205,35.74731383999222],[128.9068311303768,35.747327042657304],[128.9068888062375,35.74740383965424],[128.9069341083381,35.74717082644866],[128.90649991212123,35.74686638046093],[128.90563795462808,35.746554442486065],[128.90471577526714,35.746420530204055],[128.90420981551767,35.74620038255968],[128.90354059014797,35.746684121286215],[128.90329004547027,35.746972032239135],[128.90271476141507,35.748170238165606],[128.90245026504752,35.748346925910845],[128.9020971522768,35.7490200851871],[128.90183309304297,35.74930781710246],[128.90164799485783,35.75000714496336],[128.90102604201894,35.75100973912716],[128.90082897721362,35.75236084392527],[128.9015353367841,35.75365888547454],[128.9009354783302,35.754574550511755],[128.90064836687765,35.754759759570376],[128.9000493704153,35.757080734862996],[128.89950164692237,35.75870777895376],[128.8990139190566,35.759000586515505],[128.89762201107524,35.760208359946596],[128.89764195631545,35.760812967261096],[128.89790770891122,35.76188767137138],[128.89808653077736,35.76221106097316],[128.8975395095486,35.76270805038196],[128.8965224940581,35.76280427278952],[128.89613103889707,35.76361073993916],[128.89583275526533,35.76395325528367],[128.89464509168144,35.76401411321047],[128.89392105904273,35.76243053654008],[128.89313539569184,35.7599761594007],[128.89247403144785,35.75897572691105],[128.8923782733017,35.758666206269204],[128.8924393834754,35.75710216625647],[128.8928268230093,35.75574696052507],[128.89271766893557,35.75531087379901],[128.89208250664885,35.754724851193465],[128.89100878194157,35.75474570008381],[128.89026656760345,35.75451629531731],[128.88990723300623,35.75431477325595],[128.88967996449875,35.753122581526945],[128.8893568860221,35.752575254399055],[128.88864431755732,35.75217668575204],[128.88749501230492,35.75175443206239],[128.88639306013147,35.75085392931865],[128.88447008123433,35.75083012218551],[128.8837399038774,35.75099588454393],[128.8825507027193,35.75071647576905],[128.88191724105346,35.75030833845417],[128.88144585485284,35.750211458402745],[128.8808768982776,35.74937818156237],[128.88003236048178,35.74899053495438],[128.8795120476544,35.74861895314965],[128.87899653818587,35.748485508515046],[128.87728842555512,35.74847897255654],[128.8762275490371,35.747823772759446],[128.8754187084109,35.74821247577787],[128.8750677033274,35.74848515787774],[128.87345036348012,35.750264410927954],[128.8734818439332,35.75039405302031],[128.8721636528221,35.75148850884413],[128.87120687956966,35.75184604248983],[128.87049730607475,35.752025725342044],[128.87016785426607,35.75237052770938],[128.86992898383988,35.75380424146741],[128.86955863771956,35.75446579657718],[128.86947500458098,35.75500183439407],[128.8688186582991,35.75518419396065],[128.86840639920788,35.75549226183205],[128.86771959377313,35.75628107516126],[128.86767874308558,35.75672308228757],[128.86734628311362,35.75716188505508],[128.8661373303667,35.757999882771315],[128.86584608801775,35.75798607747755],[128.86510863725306,35.758325693735834],[128.8646418294333,35.75797124628685],[128.86445328310865,35.75769729152115],[128.8644843964456,35.757115241004556],[128.86355295255026,35.75677708019455],[128.86277236341112,35.75629506634601],[128.86183460819052,35.75618604366757],[128.86094219073098,35.75595485091189],[128.8605378980756,35.75521845746518],[128.86027102264273,35.75531882187078],[128.85991455927652,35.75561125516057],[128.8592013273994,35.75593284242762],[128.85900849458483,35.756565286062006],[128.85860529779575,35.75689328322216],[128.85829000644722,35.7570385266235],[128.85755398170244,35.75694034033946],[128.8567515302433,35.75732413372119],[128.8547773915145,35.75667142402281],[128.85485519619218,35.75610471108336],[128.854662517622,35.75593551293892],[128.85460844677615,35.755253887983685],[128.85450368901346,35.75506550236505],[128.8548626745842,35.754185185945616],[128.85474047813602,35.75385927062838],[128.85615540870245,35.75323285600863],[128.8566448083502,35.752784212010965],[128.85701364532878,35.75138978592704],[128.85705593426007,35.75040405426453],[128.85855766325673,35.74836008852184],[128.8584982704109,35.74736007537408],[128.85836419651457,35.747375644741176],[128.85819617954812,35.7469950859488],[128.85794185817872,35.746765385972594],[128.85811600440547,35.74634112952802],[128.85755578050026,35.746037016994414],[128.85747443431916,35.74578600547702],[128.8571178952365,35.74546594247121],[128.85680346814073,35.74503700617535],[128.8560374072395,35.7446556009339],[128.85599002818083,35.74451394587747],[128.85531944157674,35.74381300616844],[128.85211058181287,35.742202685070225],[128.8498931450104,35.74121421137787],[128.84827720937903,35.741365199805074],[128.84755983761383,35.74190870868434],[128.84682662920957,35.741795239366155],[128.84599218691994,35.74134596072545],[128.84482617187172,35.74137056722414],[128.84322784779596,35.74247705168964],[128.84104682350153,35.74312580275689],[128.83898972842815,35.74384684617064],[128.8378004063795,35.74451382320308],[128.8370606732843,35.745090001897125],[128.83576105620767,35.745538849424776],[128.8343593018867,35.74556361782671],[128.8340558466219,35.74542096257244],[128.83388258202217,35.744000923368255],[128.83190225842367,35.74189770519333],[128.83214587737478,35.741546624961444],[128.8319804737521,35.74055145000707],[128.83107917238453,35.74004299966861],[128.82989884644343,35.739842064791624],[128.8289040948377,35.73913006791792],[128.8275040883601,35.73860666376248],[128.82607114083274,35.73879567524673],[128.8249590647018,35.73980878277323],[128.82391521820392,35.73989991176161],[128.8227763393316,35.740124075433165],[128.82270453282646,35.74019368262119],[128.82181484259453,35.7401778199346],[128.81999857413612,35.74093324653818],[128.81821180553567,35.74192499758683],[128.81708885068898,35.742264951017134],[128.8162626426618,35.74226976976903],[128.81573610089052,35.742512410686416],[128.81499943248895,35.741818977094994],[128.8130722541854,35.74091798820713],[128.81188675495702,35.73997197730832],[128.81025222863568,35.739543149053866],[128.80891105367056,35.74104813691948],[128.80845429902215,35.74126341063619],[128.80776055242083,35.741923965784416],[128.80740019364322,35.7424596416394],[128.8068172806746,35.743016825807224],[128.8058612226284,35.743702040859795],[128.80498503054756,35.74394768025753],[128.80373368596995,35.74401430592891],[128.8016736019453,35.74426718427758],[128.80108567173437,35.744585130757144],[128.80089534381864,35.744866237809696],[128.79931996271537,35.74395280599279],[128.79887156830299,35.7431485842813],[128.79751150649076,35.7427880496015],[128.79664157863184,35.742755323445735],[128.79549934001915,35.7430834430201],[128.7948688380089,35.74281861531862],[128.79302939604497,35.743049096293035],[128.79212149999267,35.742926463383284],[128.79101531988212,35.74291106286539],[128.78980860138532,35.742539095820035],[128.78945543371591,35.742546848946915],[128.78915843210072,35.74220286131757],[128.78904189835455,35.74164629144839],[128.78867044161447,35.74097617294102],[128.7880073074666,35.74026031915317],[128.78743499753617,35.739355580838094],[128.787122301791,35.73803324130251],[128.7861147281595,35.73801704104287],[128.78683983616392,35.73714011697351],[128.78624693516807,35.73590631523204],[128.78574521605387,35.735136907286936],[128.78508259912635,35.73444616957526],[128.78515967723675,35.734096917862445],[128.78685175437207,35.73249402186095],[128.78630163963123,35.73200253669087],[128.78571404236385,35.73123858091566],[128.78403610155848,35.7303859472259],[128.78052539804847,35.729838963118766],[128.78017522385935,35.729725940927665],[128.77902332489074,35.72988281387986],[128.77831697427604,35.72969338544521],[128.7755363484254,35.728403084765944],[128.7745432178851,35.72743007761123],[128.7740830864363,35.726790783721974],[128.77389665068517,35.72620164018936],[128.77351878748203,35.725729526186534],[128.77366582731497,35.72443831989328],[128.77400913232057,35.723765964277185],[128.77409369007978,35.72301579670549],[128.7739359117319,35.7226792526271],[128.7738779713493,35.72223423350922],[128.77406843073024,35.72154451598309],[128.77294911218877,35.72085306132338],[128.77214435838312,35.720644823640654],[128.7714870338574,35.72024836624054],[128.77119160880068,35.71975900767856],[128.77073120462683,35.71945078783962],[128.76961356803236,35.71927222209241],[128.7688996618051,35.71875600805054],[128.76818673431632,35.71784669479334],[128.76753116432906,35.7177241483359],[128.76682551568217,35.7174862057657],[128.76638945309966,35.71704030672033],[128.76569836490677,35.7165959023536],[128.76524830754914,35.716477575305895],[128.7649435147446,35.71562792129337],[128.7652811450395,35.71443407820141],[128.7652912584258,35.713504788276396],[128.76510308043424,35.71174099914507],[128.764690905869,35.71089894577334],[128.76416485277792,35.710135950125625],[128.76486421039817,35.70897427032489],[128.76473330629727,35.708136634707905],[128.76433872898554,35.707204172787804],[128.76566972468652,35.70627047436685],[128.7673628084202,35.70522524744776],[128.76756602338315,35.70495048391095],[128.76756292180428,35.70356488962741],[128.76725165700745,35.70262029137701],[128.76717110152995,35.700705878469],[128.7668882813579,35.70012359370419],[128.76656417229495,35.69992522313693],[128.76585981205892,35.69972837062082],[128.7640453089642,35.69970721017982],[128.76188647530964,35.69948782767894],[128.75954894916183,35.698995281598286],[128.75859072842775,35.69911730434646],[128.75717898792098,35.6996203440637],[128.75562008746155,35.699405365218226],[128.75492179886837,35.69949554585872],[128.75385225189333,35.699806443704134],[128.7518247458335,35.70106816601655],[128.75105714004746,35.701435071894714],[128.74851987465482,35.70217519180057],[128.74723841222658,35.70264174356531],[128.74543592955163,35.70344375955077],[128.74314089948555,35.704623236782076],[128.74254003606617,35.705075411140456],[128.7421531924933,35.705878695577816],[128.74101398025462,35.70629786848774],[128.73984858103464,35.706922050788314],[128.73922288647023,35.70706934242918],[128.73915884444196,35.707015738145394],[128.7390828954293,35.70713825564188],[128.7388448398586,35.707247082817524],[128.7386626025578,35.70722811978237],[128.73754445771513,35.708446217168934],[128.7374035165855,35.709062481736915],[128.7371350142222,35.70940761735825],[128.73714524462878,35.709895193314445],[128.736953139364,35.710251524965344],[128.73653582813452,35.71066428108014],[128.73680452739654,35.71148058018632],[128.73673400341372,35.712095793648196],[128.73628082579307,35.712840821513815],[128.73625480616784,35.71385731157753],[128.73598219056166,35.71422733950263],[128.73607032481823,35.71467605976574],[128.73601507688664,35.71576551447036],[128.73568085702667,35.71676387071464],[128.73483573030063,35.718437073009916],[128.73417394203608,35.71894388937181],[128.7335385210382,35.71926677851],[128.7327279013689,35.71981998559585],[128.7315829763397,35.720284851382054],[128.73114906531188,35.72035504337029],[128.73009475238027,35.72006369231654],[128.72806826287953,35.72053154572357],[128.72562556332898,35.719389733374264],[128.7246642188589,35.719447391447986],[128.72334197543205,35.719123212636184],[128.72221136151535,35.71926759183754],[128.72004357318085,35.720544195978604],[128.7179384042584,35.720578303802334],[128.71645238104725,35.7207671321802],[128.71509041122135,35.720849636683134],[128.71502806336952,35.721888297529844],[128.71476356577526,35.72233710883229],[128.71408016859917,35.72302112961382],[128.71313490350713,35.72360143238971],[128.71327170592355,35.72447548568398],[128.71365950675192,35.724784266404775],[128.71327899712827,35.7262245245116],[128.71252012186443,35.7278546304189],[128.71178233043577,35.728968532255365],[128.71099951317038,35.72992356807413],[128.71036852924635,35.73109793993108],[128.70873728439224,35.732106155673755],[128.7079279460477,35.7327925754145],[128.70757230978018,35.73321886668053],[128.70719056157694,35.73335437759309],[128.7048104593224,35.73508662605541],[128.70449111287567,35.735464049401145],[128.7039863491905,35.73572491904044],[128.7037256051576,35.73647391667996],[128.7030066071956,35.737697157450754],[128.70302985254773,35.74115723327269],[128.70361256040346,35.74218413793542],[128.702731168984,35.7422775766004],[128.69916545509514,35.741666923697025],[128.69408373543843,35.74297763260155],[128.6917742024004,35.741066213910024],[128.69101892521417,35.7402071797102],[128.68977894756011,35.739551398130615],[128.68985107641313,35.73908957068181],[128.68966372609952,35.738623046403845],[128.68954913758296,35.7373763558339],[128.68876362688803,35.73712291705428],[128.68856992642472,35.73720883038282],[128.6885659465846,35.73710027718728],[128.6897566169333,35.73598891835697],[128.6899709129142,35.73560091891929],[128.69085914609698,35.73512986513465],[128.69141072382996,35.73427072547162],[128.69094035512376,35.73335087649769],[128.69144655874996,35.7322331441867],[128.69039152413495,35.72986427498462],[128.69000241049275,35.72944900119733],[128.68962675698248,35.72913869294584],[128.68802405599098,35.72836399403938],[128.68711481632698,35.72764888279949],[128.68721195123376,35.727459308018695],[128.68536429625328,35.72678256194205],[128.6840538079707,35.72582905978983],[128.68348801651942,35.72531389893881],[128.68289921724406,35.72498028069237],[128.68278720993635,35.72471615133076],[128.6828947149099,35.72373293214399],[128.6828495170426,35.722625498456324],[128.68304774130672,35.72172735031742],[128.6830568685374,35.721161563989476],[128.6827571161338,35.72081420759789],[128.68179591788876,35.72059939248158],[128.67990178010044,35.72058172878452],[128.67918102194255,35.72015376986725],[128.67741391890044,35.72024376105178],[128.67714153025833,35.720423960729875],[128.6770269605372,35.72034224475739],[128.6747272252714,35.72042624584345],[128.67294408492947,35.72023739669906],[128.6713845435594,35.71974060384047],[128.67051551218586,35.718184387750824],[128.6702793904493,35.71814781385121],[128.6672703266775,35.718723169519066],[128.6665808178822,35.71873934624331],[128.66592520511742,35.71866280781868],[128.66510671619807,35.718353681841414],[128.6649381362835,35.71843725113678],[128.66458175317726,35.71895968637853],[128.66304085424517,35.71987715135919],[128.66187818533604,35.71884886891918],[128.66055804552008,35.71949131540272],[128.65993032149026,35.71900158898154],[128.65721478520825,35.717668689823775],[128.6563101060531,35.71748997569567],[128.65590899159744,35.716609940441025],[128.65506626427108,35.71560941550137],[128.65471845145447,35.714869270582604],[128.65313388407662,35.71344458477967],[128.6525938012547,35.713548339390904],[128.65037791409128,35.712268457822404],[128.64972198981985,35.711609095710884],[128.64880875453844,35.711244081925926],[128.6479481530266,35.71111106382481],[128.6469552699373,35.71106862169411],[128.64648976029946,35.71070981101485],[128.64653048374538,35.7095870767754],[128.64635330492268,35.70898614131045],[128.64583807061598,35.708518248685806],[128.6458013393637,35.707763333743735],[128.64495106166768,35.70760103473265],[128.6430920196469,35.70665549792566],[128.64173456034138,35.70669369849301],[128.64101357967928,35.70662187879789],[128.64050960112888,35.706285944892805],[128.6401945756986,35.706194345048665],[128.6398630550449,35.705866774674476],[128.63910384890684,35.70578007236795],[128.63833469288173,35.705521181576586],[128.63781911678961,35.705507223109564],[128.63737538399474,35.705139890171466],[128.6362856148596,35.70585264444487],[128.634236689403,35.706130252083625],[128.63329222110215,35.706111081658804],[128.6323326159492,35.70626556470378],[128.63147925925352,35.70625441596818],[128.63035294870699,35.70647833781357],[128.630039507152,35.7063907607388],[128.6293853744692,35.705655681509846],[128.6287724445349,35.70529523614584],[128.6283200154425,35.705082924002724],[128.62785785098654,35.705059756023694],[128.62660532811725,35.70464639314587],[128.62621477299933,35.704416313194045],[128.6252038325874,35.70359300940395],[128.6239540220513,35.70307072876887],[128.62351685954815,35.70201447280565],[128.61929786777426,35.70251472393187],[128.61934537472533,35.704181146230866],[128.61694338476366,35.70569662932445],[128.6169045408096,35.70643044064595],[128.61661786156802,35.70705138337445],[128.61560445696617,35.70748851468046],[128.6150163185726,35.70798184635265],[128.6148650142674,35.70852888819731],[128.61444191740006,35.70878992055401],[128.61385973849943,35.709302964953125],[128.61335282605012,35.70959142186222],[128.61326653564592,35.709866420495324],[128.61333032838888,35.71175204876841],[128.6135462522926,35.71212383103223],[128.6133307756104,35.712969219503925],[128.61346958381537,35.713487811315574],[128.61345485943986,35.71380954213152],[128.6137316488343,35.71410993776751],[128.61521000613186,35.71511787085152],[128.61558873257363,35.71560400253896],[128.6162505790614,35.71592274825857],[128.61650181884312,35.716558259714866],[128.61650809582844,35.717150191038414],[128.61607098269073,35.71772890173662],[128.61573469965333,35.71915075309049],[128.61534619285263,35.71985776528914],[128.6149245322788,35.72041802102138],[128.6140846099372,35.72121693308623],[128.61370148995522,35.72172680615031],[128.6134914129915,35.72184456213759],[128.61230644665363,35.72212716669534],[128.61218333240427,35.7225335692718],[128.61041625124892,35.723962852131606],[128.60993999885477,35.72445285261408],[128.6095521493495,35.72461177410201],[128.60950388915396,35.72502802492554],[128.60969057818303,35.72548547872993],[128.609687015131,35.725938202822526],[128.6108601429924,35.72697991592441],[128.61123201829253,35.72752485959915],[128.61180985012933,35.72784652667362],[128.61269406810106,35.72864050890867],[128.61341779874306,35.72881306407364],[128.61423179793522,35.7292885790753],[128.61464388784958,35.730021832816846],[128.61453295670623,35.730576751719866],[128.61345714804204,35.73210414976292],[128.61418259966277,35.73336786259592],[128.61486744621257,35.73354639085579],[128.6146094936928,35.73642509746316],[128.61313432077438,35.73804947230058],[128.61059207302839,35.73841497695313],[128.60825284135265,35.738578904971135],[128.60860982238017,35.73909246259567],[128.60887204624345,35.73994289136008],[128.60848860307175,35.742780900141625],[128.6087814624022,35.74317416026618],[128.60880798862092,35.743517063923164],[128.60723780888068,35.744482425534514],[128.60673662584952,35.74449296455695],[128.60527174339074,35.74408943270312],[128.6068832029723,35.74312679834091],[128.60684931734554,35.742809429688755],[128.60654518144497,35.74239630029106],[128.60694186053166,35.739593751495995],[128.60668287178672,35.73872717008357],[128.6063108044761,35.73822007261036],[128.60596992287842,35.73791471326217],[128.6049060664095,35.73724206470889],[128.60466982974427,35.73720770029652],[128.60394936091646,35.73660516993854],[128.60231478630595,35.73632628064372],[128.60167114905215,35.7360523617347],[128.6014948540911,35.73577267016978],[128.59986513765304,35.735671362970066],[128.59924737137942,35.735428149306685],[128.59880931277496,35.73538068880233],[128.59813788365315,35.73567962040893],[128.59766140180835,35.73555509668833],[128.59729355463102,35.735761032176285],[128.59665884276092,35.73584484241082],[128.59556370525206,35.735745182475604],[128.59497687305856,35.73596713530523],[128.59442425047231,35.736283099336745],[128.5939947273225,35.73628758835768],[128.59301567833572,35.73612369376983],[128.59261168336312,35.735488522608875],[128.59290172170972,35.73464179135509],[128.59196911186248,35.73336172785583],[128.59186898387821,35.733010752737485],[128.59140649447463,35.732704804869215],[128.59094948676898,35.73178533822746],[128.59017004482908,35.731369269112356],[128.58885264587394,35.730936881033024],[128.58835183913232,35.73063540975562],[128.58792331243484,35.730875200766214],[128.58757800283666,35.73143817311733],[128.5869898349559,35.73177633657597],[128.5866642269822,35.732156734527756],[128.58506041715188,35.73286707093923],[128.5839935889179,35.73364961822371],[128.5837710481086,35.73424576791608],[128.58356967207828,35.73438542836477],[128.5832119027096,35.73509643575109],[128.5828262583125,35.73546111919508],[128.58237736057785,35.73565157708231],[128.58205647571205,35.73647976684924],[128.58119691299942,35.737549358883825],[128.58077052707714,35.73754847845],[128.58039882843633,35.73767741111576],[128.579868155202,35.73768499040871],[128.57935399475824,35.73787057733795],[128.57811387599943,35.736858851480626],[128.5774998580529,35.73655404198772],[128.57653278166202,35.736649154127825],[128.57446571454258,35.735647462724415],[128.57351008778542,35.73555720531408],[128.5732342555994,35.7350983620382],[128.57268422772083,35.73464544143904],[128.5723029513907,35.73462315961061],[128.57182851730772,35.73442956715818],[128.57147753045288,35.734092879406155],[128.57063193208205,35.73370869973829],[128.56970638001133,35.733634598120105],[128.5689675904922,35.7339939400267],[128.56691908600135,35.734665703814336],[128.5665553818936,35.7352470767191],[128.5658892584058,35.73559978535294],[128.5655575948698,35.736053958985565],[128.5651669334146,35.73594660832121],[128.5636454905651,35.73586338139823],[128.56344307413067,35.73554058239407],[128.56276562523962,35.735262446953676],[128.5624874130886,35.735030613096676],[128.56186947390958,35.73298710014446],[128.56176878066853,35.7313597442616],[128.56089697065627,35.730906111657006],[128.56074242607605,35.73070476904891],[128.5606460952552,35.72972611965688],[128.5603235578769,35.7294575185782],[128.56006673947655,35.72894394838178],[128.55872191607742,35.72808107094728],[128.55763374651625,35.72797293731668],[128.55708962939465,35.72781283514835],[128.55689089551552,35.72759444792776],[128.55641161345855,35.72733673719451],[128.55596165266334,35.72686558349106],[128.55541081906514,35.7266544937469],[128.55486144197997,35.72697242339812],[128.5546133601044,35.726962974851354],[128.55390695542093,35.72650573092314],[128.55347661975185,35.726459618337245],[128.55191259099735,35.7258098874583],[128.55152605248756,35.725750427337395],[128.55141001065405,35.7255335043929],[128.5505013264299,35.72482732299763],[128.55042044534778,35.72464874309482],[128.54955625857957,35.72408170631857],[128.54888811211865,35.72378165274985],[128.54843761623525,35.72372712180856],[128.54746240889492,35.723163307212936],[128.54684547012437,35.722664300970486],[128.54652442973628,35.72261465365133],[128.5457479227584,35.72184013906218],[128.545181609289,35.7217463031129],[128.54477139327923,35.72117878702531],[128.5445429063952,35.72022516461107],[128.54392488065537,35.71970442938106],[128.54315229746868,35.718558289634096],[128.54102126493808,35.71808180463894],[128.54006231015538,35.7182127454683],[128.53872307660157,35.71744182757906],[128.53802625761242,35.717192742995394],[128.53738245523235,35.71708962264336],[128.5370044103847,35.71645128472401],[128.53655537766565,35.71637363895252],[128.53589086173852,35.715976877081076],[128.5350748593831,35.71598112542626],[128.53307736727317,35.71579545961847],[128.53238493511458,35.71561112329534],[128.5305239119741,35.71394979206296],[128.52865971347907,35.7121249527851],[128.52798853703922,35.7111717340423],[128.52750707936414,35.710847776534834],[128.52849961456138,35.710131319916904],[128.5292750597882,35.70921750545529],[128.52971519257022,35.708487088346224],[128.5304085787522,35.706070133676],[128.5315739971366,35.70415748484871],[128.53296494430748,35.70225419333806],[128.53163338631907,35.69970672563388],[128.53172204747736,35.697259497451434],[128.53097569200602,35.69546366046054],[128.5326453463827,35.693960772189804],[128.53379654331061,35.69348283910978],[128.5342593398505,35.693016131509545],[128.5336297611422,35.692741098879225],[128.53304732225794,35.69131226234738],[128.53274890546606,35.6909729297146],[128.53262452243666,35.69045704099267],[128.53171839814652,35.68942103375541],[128.53160727111722,35.68908797803041],[128.53013422517077,35.68687558075139],[128.53021324220896,35.684595568551714],[128.53052003949534,35.68235959260678],[128.52978144145334,35.6824303716254],[128.52962344031707,35.6811002994061],[128.52880722858237,35.67771024143757],[128.52677301795106,35.675576108695346],[128.52693861013344,35.67508183498928],[128.52681387103854,35.673482831711695],[128.52765465860367,35.67246361560683],[128.5289454289353,35.66906603972266],[128.52880649092467,35.66902564532934],[128.5295026320334,35.668149837539154],[128.5297887410297,35.66704537558575],[128.53040208078653,35.66638474269623],[128.53086994551688,35.66542401312409],[128.53061889422526,35.66491803804197],[128.53053174977705,35.664276878782715],[128.53053474682827,35.66400201727025],[128.53072208216292,35.663465420058444],[128.5307373300805,35.66287814732578],[128.53082361127827,35.66272266204282],[128.53153319245217,35.66215582924844],[128.531775071876,35.66206271893776],[128.53178698854842,35.66190304119288],[128.53193079755684,35.66192394126401],[128.53201641007266,35.662145478483126],[128.53228763702322,35.66199491283054],[128.5324823849445,35.66198383042279],[128.53305613170363,35.66219851160884],[128.53377266927964,35.66199910274142],[128.5339047665051,35.66208945009642],[128.53465786447936,35.66214604448668],[128.5351711419687,35.661997157348786],[128.53557150596475,35.66203592578436],[128.53576679193455,35.66161386899564],[128.53611801336336,35.66140326709412],[128.5366077333322,35.66124663710803],[128.53686883607293,35.6605989785394],[128.5368204995195,35.660356563819185],[128.5369959824352,35.66033386876229],[128.53733296745278,35.659760905767676],[128.5372234228237,35.65727082247064],[128.53753189151521,35.65561606918279],[128.53791924586872,35.65426197798053],[128.537560272161,35.65252581897837],[128.5375695924169,35.651789016972366],[128.53774040408152,35.650759523946064],[128.53615023293932,35.648161233955435],[128.5360202918522,35.64697376033918],[128.5360301281169,35.6461123791852],[128.53549872812195,35.64496505792374],[128.53466465013335,35.64365835671405],[128.5352225055927,35.64273986486975],[128.53525150596545,35.6420530233528],[128.5359176823755,35.6404430015949],[128.53655432930415,35.63935217713465],[128.53677175255078,35.637366365281366],[128.53726773938095,35.636732597036506],[128.53742361571574,35.634415938772165],[128.5373133405848,35.63337182589491],[128.5381069773408,35.63252172240943],[128.53812794869728,35.63182612362072],[128.53783713456193,35.63107666481624],[128.53739496553013,35.63032748635126],[128.536985401883,35.63008459601871],[128.53673676917617,35.629505891577715],[128.53677970453165,35.62875713081306],[128.53693811793755,35.628530528952055],[128.53618167473624,35.62746482723506],[128.53645301503713,35.62598016431386],[128.53657011836003,35.624357503066555],[128.53673501450868,35.62385561683645],[128.53710935089154,35.62353490959599],[128.53789036128504,35.62316596601398],[128.5382181939751,35.623077378810926],[128.5390531935995,35.62317454018236],[128.54020379004243,35.62252420196702],[128.54122317934096,35.621471566505086],[128.54176915403593,35.62128234954019],[128.54294623855222,35.621095836549024],[128.5445854820169,35.62069510775064],[128.5459833056028,35.6201179303627],[128.54722068414253,35.619475180452994],[128.54841393257203,35.61854615000894],[128.54898439921635,35.6182484265556],[128.55032232912262,35.61796885286655],[128.55057470935336,35.61692139358922],[128.55125420316935,35.61656866660684],[128.55209289548498,35.616975435247696],[128.5530501841066,35.617173002992054],[128.55362819355162,35.617079817672014],[128.55463246196982,35.61632279786088],[128.55497678504534,35.6162891323235],[128.55553511731566,35.61641600022817],[128.5560989815062,35.61685986368388],[128.55677400454644,35.6159902725756],[128.5576189627879,35.61540287700931],[128.5587266763034,35.6147941736728],[128.55850465897623,35.61367576084261],[128.55810102172077,35.612892869120095],[128.55817303247161,35.61243910558372],[128.55889327428582,35.61153406182725],[128.5595561934461,35.610918133581414],[128.55928839666873,35.61010328809207],[128.55922225375622,35.60929640834623],[128.55946911837177,35.60895226339252],[128.55958556813684,35.60862364727239],[128.5589967176299,35.60808245274564],[128.55865330027532,35.60744513570648],[128.5590091642837,35.606571528340574],[128.55974431416405,35.605853867247646],[128.55985131273818,35.604978962087486],[128.5600952819745,35.60407051662387],[128.56070692105425,35.60314062396276],[128.5620151528485,35.60252302266172],[128.5635496511146,35.60257617801486],[128.56424288359503,35.60252589846324],[128.56511928224322,35.601999133997936],[128.56626408230437,35.60190716697889],[128.56716626422272,35.60225171075565],[128.5674495886171,35.60255659920492],[128.56828647541784,35.60313061188114],[128.56946389621243,35.60378194022754],[128.56907624548927,35.60211966319566],[128.56978616231393,35.59920529321677],[128.57151971967198,35.59789759144737],[128.57256774866883,35.59769650198531],[128.57278788369857,35.59736800865507],[128.57303577732307,35.59662138530248],[128.57231506548823,35.59578826167095],[128.57248570340113,35.5953339793216],[128.57246453585154,35.59419954604193],[128.5728967818022,35.593045624925544],[128.57337194883686,35.59267792805974],[128.57378735432795,35.59247811580877],[128.57492959521105,35.59223077641879],[128.57580618567147,35.59230392900581],[128.57708863252313,35.59119614483335],[128.57888299118054,35.589371871397525],[128.58136749932487,35.58794136121965],[128.58211005549217,35.58743507400927],[128.58376733756498,35.58668581107592],[128.5847621364966,35.58603761486909],[128.58822346335353,35.58470917020288],[128.58931746715615,35.584811309481665],[128.5903708854522,35.58475437722665],[128.5919335079304,35.58448174173975],[128.59379937283506,35.58446706720454],[128.59515743252288,35.58357864092505],[128.5959652751434,35.583196787693545],[128.59678265575343,35.58226902244648],[128.59740707213936,35.58202525032201],[128.59868770994794,35.581915012383966],[128.5994436280912,35.581519378443446],[128.59980818484692,35.58124020863356],[128.60006365751124,35.58043796028171],[128.60037368189444,35.58057502659239],[128.6010615703001,35.58071846816953],[128.60185814610753,35.58065137964437],[128.6025405066599,35.58019227686956],[128.60291673173606,35.5801231600957],[128.6043545424666,35.58040511959254],[128.60486012812214,35.58026110895127],[128.60564031546696,35.580332437158454],[128.60660453740155,35.58056108638981],[128.60754199613314,35.58069175681181],[128.6084328417684,35.58093232838692],[128.61041892064074,35.58150406586991],[128.61109671961685,35.58182562909683],[128.61268045015046,35.581715710036356],[128.61372156829137,35.58193689489825],[128.6147182527956,35.58182356191321],[128.61511899760572,35.58201010171717],[128.61587414347332,35.582644003276016],[128.61620555381526,35.58318291943785],[128.61699190639942,35.5840018812435],[128.617859688302,35.58412645011871],[128.61883352201625,35.58393452741882],[128.62056006692745,35.58434293346253],[128.6211950736728,35.58457541086229],[128.62210228231007,35.58519079944558],[128.62237190629693,35.585200222352846],[128.6232591525378,35.58497665409877],[128.6244887417828,35.58484299208952],[128.62535511523973,35.58494435419955],[128.62608800141803,35.584919952601986],[128.6275363174975,35.585318397349134],[128.6275954222912,35.5856040283877],[128.62836440818074,35.58599453754318],[128.62864566632555,35.58636884646013],[128.6290304268846,35.586564232767245],[128.62990530576542,35.58643781934502],[128.63062036716332,35.58663509097775],[128.6309006985821,35.58658204148145],[128.6313962464203,35.58615020354249],[128.63173505042704,35.58546230636064],[128.6326528460478,35.58507734218387],[128.63335716462765,35.585018034938116],[128.63400103567554,35.584522710936824],[128.63482724146004,35.58430539697945],[128.63525014059041,35.58405970259915],[128.6357883955642,35.58393498900647],[128.6370054460387,35.5856835120398],[128.6372861788146,35.58670471152011],[128.6370110629365,35.58725811390214],[128.63721487920455,35.58824001153713],[128.638049750776,35.588742442333874],[128.63877842375612,35.58894795208097],[128.64041571859042,35.58908244480723],[128.64112338487254,35.589272409785025],[128.64221418676817,35.5904708679978],[128.64275801986838,35.590907118172154],[128.6433569575003,35.59171557057331],[128.64397613712669,35.59281811975744],[128.64414029757506,35.59329438788182],[128.64516382099188,35.59389439587744],[128.64575547855407,35.593967066552025],[128.64645581388373,35.59385858664416],[128.64731547201148,35.593869520658515],[128.64804759212421,35.594028315545515],[128.64894165957946,35.59447353728988],[128.6505256518569,35.59484913109357],[128.65150393319325,35.595406423719204],[128.65221476258094,35.59607416522393],[128.65264961093482,35.59626595031309],[128.65350074866194,35.596292097096075],[128.65382019601304,35.596378356234354],[128.65481005263766,35.596841025257234],[128.65537334321226,35.59735939668312],[128.65553318192954,35.59789317177501],[128.65581951294985,35.59792205180452],[128.65676884206582,35.597389760938455],[128.65732992033327,35.59740203025808],[128.6577802900929,35.59754731816825],[128.65826399980767,35.59753486362449],[128.659044535426,35.597303676352944],[128.65997439877256,35.59672182290224],[128.66066319550495,35.59659835089711],[128.66263753142434,35.595602158736945],[128.66443927663062,35.59423619042128],[128.66518375742496,35.59443287537662],[128.66620870931015,35.5945333120551],[128.66665135293115,35.59440304221387],[128.6676869688649,35.59451759202018],[128.6680465937814,35.59470543224024],[128.6685493093303,35.59482885881543],[128.66934011543043,35.59463755627029],[128.66958218949685,35.59476817230255],[128.6703750665279,35.594599689285054],[128.6711829229105,35.59503987850819],[128.67164280328748,35.595138355593896],[128.6724710929557,35.59583645102397],[128.67259174884063,35.59638024169767],[128.67398918067656,35.59603231530553],[128.67564272097337,35.59535031161341],[128.67671788976673,35.59441120666868],[128.67717942763858,35.594246067363294],[128.67765931180494,35.59417574250252],[128.6784773226146,35.59426756267605],[128.6786728078201,35.594491799204256],[128.67933193034003,35.59474363517781],[128.68494648880193,35.59473562284196],[128.6864676436493,35.59487209927606],[128.68761161439926,35.595141800730005],[128.68886987578213,35.59489703861738],[128.69047423124522,35.59382232826893],[128.6916189946375,35.593367881069376],[128.69189511753268,35.59250271071078],[128.69319079953596,35.59094766999002],[128.69315804860065,35.59038317012376],[128.6935227836046,35.59000095806672],[128.69421409636357,35.588125870975745],[128.69399869129356,35.586930910265984],[128.6941947562437,35.58627346274218],[128.69445421285695,35.58469499902198],[128.6948991721327,35.58350140133637],[128.69540318070744,35.583052449738396],[128.69680514597437,35.58227641556306],[128.69756453486724,35.581649731986026],[128.69816232789128,35.58155330120625],[128.69880684908307,35.58121072218552],[128.69912690055685,35.58079897145532],[128.70219767909126,35.578872451695204],[128.703128462691,35.578096306696565],[128.704262747696,35.57830974927887],[128.70532060399262,35.578017032142334],[128.70686302930292,35.57821830765149],[128.7072207232472,35.57805537974078],[128.70806223778752,35.57842792848646],[128.7091367283435,35.57868806601248],[128.7101163210674,35.57874441858563],[128.7107471028902,35.5789624935201],[128.7122685722182,35.579173856361685],[128.71385932871004,35.578638278044295],[128.71493445057058,35.577678696603925],[128.71573207494157,35.57821971944639],[128.71661434682343,35.57863227116695],[128.72008189585313,35.57981410881708],[128.7203572209226,35.58046513519617],[128.7210118586257,35.58091430582039],[128.72185816894878,35.58093895783338],[128.72241798214296,35.581143277748986],[128.72382191171272,35.58127353672471],[128.72451416402131,35.58120341381291],[128.72493885114352,35.58103909835458],[128.72553249337898,35.57937744055958],[128.72648161299023,35.57877325725604],[128.72677807272512,35.578336466875],[128.72715638494452,35.57798368025298],[128.7273758252477,35.577405598139464],[128.73071139413287,35.57674171534215],[128.73139305900187,35.57647748231742],[128.73139437984148,35.57616595137074],[128.73167007489485,35.57587150418744],[128.73423071087376,35.57647278955343],[128.73464804546458,35.57630260645557],[128.73500228603814,35.57636729787326],[128.73716589249332,35.57691032062277],[128.73796165948158,35.57628585381169],[128.7402137478105,35.576080648604965],[128.7400498863942,35.575740581764826],[128.7403222478522,35.57540429941116],[128.74082632902,35.57436784783877],[128.74111906601505,35.57419928758559],[128.74260416117409,35.57412527649263],[128.74320760831424,35.57398442124531],[128.74363194026856,35.573695731190114],[128.74480509229264,35.57311637352508],[128.74561125556355,35.57277891456798],[128.7459406320865,35.57274478770423],[128.74650380642035,35.57224154734075],[128.74705821963119,35.571599690938456],[128.74768434372737,35.57118929041409],[128.74859487823005,35.57077148521085],[128.7502023965406,35.5703609363844],[128.75074528569132,35.57061603296995],[128.75220212895226,35.570419595780656],[128.7532181022914,35.57046157966819],[128.75366934818965,35.570375394382474],[128.75420250043155,35.56970256242953],[128.75479187502503,35.569187252671256],[128.7553713888063,35.56840307001352],[128.75690351739715,35.5678101265754],[128.75782630067954,35.567598662225336],[128.75829667330586,35.56790360728019],[128.7601136789987,35.56789011123438],[128.76162114758256,35.56859254770606],[128.7635749506636,35.56886794719029],[128.76471138554447,35.568541573025065],[128.7653667342282,35.56809246645912],[128.766138679321,35.56809003137422],[128.76736168386904,35.56966571051381],[128.76743364061724,35.569594437174516],[128.76738945174048,35.56969876284725],[128.76781862018504,35.57030599979136],[128.7680489986804,35.57020207933439],[128.76832811804158,35.57085170222342],[128.76844425890715,35.57094854927653],[128.76903454124584,35.5705822800759],[128.7700626379512,35.56961382388545],[128.77062120061674,35.56884408932042],[128.7710752802806,35.56866555525342],[128.77597831293212,35.56798002578467],[128.77876107364386,35.56786282993233],[128.78270815666755,35.56705733868352],[128.7855282037764,35.56689129582496],[128.78773684908782,35.5674957145608],[128.79235347354893,35.570472713577054],[128.79492035662187,35.573201143397384],[128.79740624310574,35.57681779372022],[128.79879578473032,35.578333696696],[128.79969179685955,35.58040435885411],[128.79990371145894,35.58131449039079],[128.80038843148088,35.584644660048234],[128.80017110879504,35.58579954112644],[128.80054883080626,35.58558046716332],[128.80071524042867,35.58763172957519],[128.80166575162022,35.58862151770902],[128.8026454698753,35.589162352272155],[128.80359035447873,35.58936966250886],[128.80428680507393,35.58941153678973],[128.80544977973503,35.58906024914281],[128.80711052818066,35.58911152065526],[128.80756610128034,35.5892574107904],[128.8089149670403,35.58892457641554],[128.80959681264162,35.588987132850846],[128.81030794942762,35.58920120552373],[128.81050228227485,35.58939883723667],[128.8126452051085,35.590428291455304],[128.81379603010404,35.590852143162465],[128.8135064470764,35.590500402496694],[128.81421687909844,35.59080942456321],[128.81514830236992,35.59161017691064],[128.8163236493023,35.592040842680674],[128.81650551027698,35.5920291910452],[128.81808485474747,35.59262648504282],[128.81834361418106,35.59289447577269],[128.819343913333,35.59299030171623],[128.81976696905346,35.59293803866371],[128.8209214510683,35.59330230963108],[128.8215279792164,35.59340543905933],[128.82173856231353,35.59438961196528],[128.82205178728464,35.59462501627782],[128.8226884830546,35.595687048904985],[128.8237466843402,35.59624776929703],[128.82531643834903,35.59615443184619],[128.82652151073685,35.59675874594416],[128.82921665220977,35.59673243342157],[128.83054003560972,35.59711119777413],[128.8319138759509,35.59727722008867],[128.8339146749442,35.59719272703115],[128.83507538678845,35.5967404513588],[128.83543935263526,35.596177870498266],[128.8357366415821,35.59600439935544],[128.83605872697206,35.59546147903754],[128.8365975992937,35.59508362644389],[128.83685541499688,35.594683512408345],[128.83698582890273,35.594192910267346],[128.83860812761986,35.593138888103816],[128.84131105618738,35.5907263880833],[128.84230980558021,35.589559234439285],[128.84324497788046,35.5888268088019],[128.84472254947752,35.589427658193074],[128.8452946851551,35.589830336861205],[128.84620195746794,35.58960620695067],[128.84661803151116,35.590291495610806],[128.8468965636986,35.59098508912952],[128.8471933044625,35.59135434417105],[128.8484148971798,35.59188491449721],[128.8487176705335,35.592481684344456],[128.84928553940472,35.59263158433249],[128.8516739162998,35.59462210137059],[128.85273961278276,35.59577864467972],[128.85391645164748,35.59686809456198],[128.85399986607194,35.59736370044447],[128.85400697488416,35.59882995323715],[128.85470778573517,35.60003679005947],[128.85528666372025,35.60021434700279],[128.8562347568283,35.601241763759305],[128.85706936563227,35.603232676953],[128.85759119951058,35.603769308206815],[128.85788994399866,35.605741119011604],[128.85870067534202,35.60645652306584],[128.85926116468647,35.60675985455422],[128.86008645749297,35.60709002369739],[128.86080662050733,35.60716237130703],[128.86171929552748,35.60760886891725],[128.8620058684851,35.608391997465645],[128.86352481495712,35.60906614025775],[128.86465647352915,35.60973844104378],[128.8655052523676,35.611036676993685],[128.86602815670935,35.61150536233229],[128.8659154177083,35.61206091476281],[128.86629987389705,35.613102438819986],[128.86669853654806,35.61387425085854],[128.86685963514293,35.61449924987849],[128.86764620021995,35.61537691487976],[128.86919816016768,35.61804516106499],[128.8709949027118,35.61833940371869],[128.8716278052194,35.619213191296474],[128.87166159670065,35.62020776587872],[128.87221992124051,35.621088908354736],[128.87283475421668,35.6230615625037],[128.8730681427868,35.624837403712675],[128.87336168540457,35.62581040714414],[128.87335945271283,35.62737144643035],[128.87301542452315,35.628945370630355],[128.87337316761642,35.62988805740122],[128.8738715618573,35.630846336885625],[128.87320463218725,35.631839188071865],[128.8726791898413,35.63284600040406],[128.87295322974384,35.63333687537978],[128.8740901232675,35.63461442905582],[128.87607587691397,35.63571143990936],[128.87703308830376,35.63551517379421],[128.87795356800962,35.63558510886944],[128.87873185118968,35.63602725471055],[128.8803220222862,35.63505569742345],[128.88184862236884,35.63480138874453],[128.88209074018633,35.634253220047185],[128.8817595388989,35.633013079329714],[128.88313072572842,35.63212881677025],[128.88481648935738,35.630839764005124],[128.88547465133271,35.63002215189326],[128.88831023683753,35.630045353172044],[128.89254338901117,35.630302613611974],[128.8932035854604,35.631006602839214],[128.89381598443416,35.630907094696006],[128.89430901538182,35.631008140537396],[128.89475876329286,35.630979795544675],[128.89501499267158,35.63115053952672],[128.89545477649924,35.63113824516818],[128.89579989249563,35.631309787762994],[128.89698762239934,35.63157394601485],[128.898913279755,35.631650242763214],[128.89917645063994,35.631899419623764],[128.9022342964007,35.633127666206185],[128.90241984232773,35.63347845296487],[128.9045898702566,35.63404187629559],[128.90533655888444,35.63446272941104],[128.9064028875015,35.63430441872404],[128.90770735808792,35.6351174685419],[128.90794823442806,35.63547149076224],[128.90902369991517,35.63598294036237],[128.9093964222005,35.63627776756794],[128.91027751966521,35.636598497453875],[128.91150571057705,35.63677688285234],[128.91270296089488,35.637138179122005],[128.9132826442841,35.63699251256035],[128.91366726406937,35.637065036839076],[128.91471602395893,35.63790359618032],[128.91496286875727,35.63823497122447],[128.9154421991036,35.638636138630844],[128.9160191951297,35.63866584197849],[128.91661181044725,35.63879629743215],[128.9171056433062,35.638728049235105],[128.91753456325432,35.639134804937505],[128.91801832586134,35.63878120178306],[128.91859145870876,35.63867122543071],[128.9198576996872,35.63864263417849],[128.92069903098928,35.63821863343968],[128.92185947501412,35.63819016749888],[128.92237051885235,35.638470491469775],[128.9226670950622,35.63841333303906],[128.92359709818385,35.63784484476108],[128.92454961822017,35.63698892038098],[128.92587254934566,35.636566871268194],[128.92710898231704,35.63603585521426],[128.92776983683922,35.63583442015647],[128.9293007774913,35.635585092663455],[128.93120783071294,35.634334166144654],[128.93232783651501,35.634357224055],[128.93297090160593,35.63389338625046],[128.93392975856963,35.634046676102805],[128.93432789402593,35.63384193189275],[128.93522733025955,35.63410726321236],[128.9355662169615,35.634372308671935],[128.93677980125375,35.63463235611125],[128.93824093215858,35.63399069083414],[128.9385954824059,35.633637030783525],[128.9403503778185,35.63329700448228],[128.94159644024472,35.6333034108921],[128.9431625372141,35.63235715708047],[128.94482997747764,35.63198251314124],[128.94542253172523,35.63167822858645],[128.94554599606494,35.631343643221854],[128.94538337621003,35.630979342790894],[128.94591241185063,35.630810865936446],[128.94678879575162,35.63078629376528],[128.94730739851073,35.630680684491516],[128.94770897931758,35.630008857726],[128.94805807797272,35.62961716845437],[128.94846833202405,35.6295686884506],[128.95030687422084,35.62877877154603],[128.95078237563402,35.627268530918094],[128.95135038636772,35.62652999714554],[128.95337854069845,35.625517605316965],[128.9535951161956,35.62382444135882],[128.954085277402,35.623784651925355],[128.95414897071947,35.62363860074125],[128.95492473070433,35.623150845366034],[128.9562694293113,35.62245040610142],[128.95794617046928,35.6222162864339],[128.95897183808,35.62149659670387],[128.9594025354,35.620610170926234],[128.96030604433415,35.619995401788685],[128.96040790376017,35.61915648381517],[128.96083460335106,35.6181742839398],[128.96085775223236,35.61760379020087],[128.9606225974959,35.616923175079414],[128.96033679567793,35.61674490427282],[128.9603099514644,35.615872782123915],[128.9607533517093,35.61542919720557],[128.9619092783293,35.61498018625385],[128.96783699255238,35.614850366866655],[128.9686343659326,35.61439317002518],[128.9696302607122,35.61442851681572],[128.97010532542132,35.61429682339363],[128.97037568998002,35.614305408003794],[128.97318637978108,35.61357300844872],[128.97397642991226,35.61285854776432],[128.9756833963598,35.61202559200005],[128.97641357360564,35.61191499508392],[128.97737251339203,35.61159621601696],[128.97765176821275,35.611749474178346],[128.97799889916934,35.61159676392092],[128.978102674486,35.61132607889153],[128.97834971597499,35.61129129478146],[128.9787619205054,35.61076715616915],[128.9796960958506,35.60948858382476],[128.9797332316025,35.60931760028669],[128.98076124728829,35.60926568646689],[128.98150212854281,35.609117559788565],[128.9822239321381,35.608786916256406],[128.98268332365942,35.60873697352177],[128.98438081276223,35.60911027336303],[128.98499646657461,35.60894424327166],[128.98563772818542,35.60912795355708],[128.98704870144783,35.60911053469148],[128.98756415346762,35.609666086558406],[128.98771836960861,35.610086769595505],[128.98862810024937,35.610803161661316],[128.98913987198534,35.61106332884736],[128.99016337126537,35.611266135249934],[128.99067334998688,35.6121499947874],[128.99093503413522,35.61240216474595],[128.99238429467104,35.61276218326908],[128.9935755780806,35.61321861612822],[128.99359779020494,35.61343123528195],[128.99418313999354,35.61398922305919],[128.996793029729,35.6148156691541],[128.9979392299407,35.6158263930187],[128.99800361854338,35.61594612625039],[128.99793202215113,35.6160989425205],[128.9994911375556,35.61721959698148],[129.0000613506299,35.617242352509756],[129.00035838879037,35.61749786191928],[129.00037223764122,35.61779131215391],[129.00100280969863,35.61803168965969],[129.00135489444398,35.618376993876495],[129.0015562974835,35.61863663748115],[129.00169819681284,35.61902481201958],[129.00235680902904,35.61932523297093],[129.0026580058534,35.61958054844303],[129.0026813727649,35.62026039870218],[129.00420896879493,35.62206930007004],[129.00592957975806,35.623127771509736],[129.0099913072653,35.6251691214601],[129.01557231151742,35.62701079597771],[129.01650878639418,35.62746779654425],[129.0177027719257,35.62836665726272],[129.0187862183502,35.629556417182926],[129.01999734749936,35.632351789225744],[129.0204514100255,35.63419579907186],[129.0209803588186,35.63437701596024],[129.02310530265575,35.63449366579239],[129.0239231610592,35.6349470904243],[129.02477001745203,35.635644528751904],[129.02656965289637,35.636072669337636],[129.02691743993395,35.635606778205926],[129.02860223421175,35.634582010119175],[129.03047060868775,35.633792888603224],[129.0327500619453,35.63342219039887],[129.0354651790851,35.63213104055022],[129.03626972342818,35.63224356570506],[129.0369483358542,35.632561693182204],[129.0378409634676,35.63484651303117],[129.03982566298703,35.636087234029375],[129.03943372934157,35.636210578505484],[129.0396351798695,35.63634679232095],[129.04003101617602,35.63618808471953],[129.04028835201677,35.6363889446893],[129.03990732124294,35.636529165196826],[129.04018048671742,35.63694116460238],[129.0409605085856,35.638942294154845],[129.04228676347154,35.63990711203474],[129.04331113501124,35.64094935791008],[129.04347363621383,35.6417109998116],[129.0438099199763,35.642084210047386],[129.04451179166097,35.643561398659564],[129.04437218390075,35.643865878283385],[129.04467210124346,35.64466494743184],[129.04573352033475,35.6458104900413],[129.04553073574755,35.646465127355526],[129.04567370105391,35.647510179285455],[129.04598532030738,35.64810928922225],[129.04588371534467,35.648933759293534],[129.04597373061748,35.64922160883731],[129.04657782320325,35.650182820346984],[129.04692273627623,35.650514448093716],[129.0468793184639,35.65176185275555],[129.04600380339198,35.65257685840617],[129.04538527926695,35.653937669960854],[129.04353008079036,35.655791714662186],[129.04308125290623,35.656845679608054],[129.04294075772168,35.65808561764265],[129.0430767868154,35.65899504830715],[129.04265094467016,35.660942829816854],[129.042490861718,35.66249937336207],[129.04181602909068,35.663505260859246],[129.04118513566362,35.66400114738525],[129.04099936890128,35.66455902513675],[129.040514367781,35.66517061410687],[129.03926683522974,35.66643578207336],[129.03881365315434,35.66765073106452],[129.03775396707618,35.66915262832887],[129.03571719632663,35.67510725788536],[129.0356241388072,35.67606153916522],[129.03574928286562,35.67672575596281],[129.03660046008633,35.6787251852154],[129.03636798321847,35.68036322178963],[129.03619881123817,35.68067126374997],[129.0365856891952,35.68184075717535],[129.03724827679315,35.682740448204015],[129.0376437364828,35.68431252841833],[129.03767185313254,35.68500459487239],[129.03814313924408,35.686697467289065],[129.0381962824704,35.68852291025656],[129.03880442776443,35.69056424035999],[129.0386911085365,35.69064447259418],[129.0381966046783,35.69207293446975],[129.0376566328108,35.69290419184962],[129.03792997651811,35.69382413348282],[129.03786029995902,35.69449101000566],[129.03760737494974,35.69500493825843],[129.03443201675788,35.69478504394539],[129.03301712178626,35.69343411542887],[129.03140779606886,35.69256011885042],[129.02937357419725,35.69254687336925],[129.02784340888218,35.69156654259366],[129.02675455950688,35.69121405446545],[129.02487859460996,35.691148518224765],[129.0236690231593,35.68963759414106],[129.0230479664828,35.68946831331973],[129.0218292476526,35.68893400336865],[129.02003836474898,35.68937025123538],[129.01870129143103,35.689507370174674],[129.01811215687366,35.69004866517311],[129.01726328105653,35.69063458742292],[129.0155740872214,35.69091665491918],[129.0141598072651,35.691523334166554],[129.01318090892042,35.69214875181865],[129.00972705263533,35.69374333216693],[129.00851873933206,35.693839840211375],[129.0071835681314,35.69459747708248],[129.00686158093828,35.69449476663135],[129.00569804414314,35.6938745438314],[129.00497553972204,35.69358141867468],[129.0042288947575,35.69338335895635],[129.0036315376924,35.693785645983034],[129.00385169515263,35.69411283018655],[129.00371115214762,35.694140994173395],[129.0039139630134,35.69416230937826],[129.0040723672581,35.694370457285245],[129.0045096617697,35.69901801962314],[129.00438797082626,35.70001299245769],[129.00354857422076,35.70315426037248],[129.00353724178214,35.70462745194301],[129.00267196141849,35.70720834730251],[128.99876437182502,35.710215976254354],[128.99778287628638,35.71085565211888],[128.9977084905282,35.71190600526125],[128.99776436464478,35.71281532293159],[128.99755712311284,35.71375668353893],[128.99805970115304,35.71501057971462],[128.99805464813255,35.717078776501275],[128.9952553389676,35.71812598474755],[128.9938562569654,35.718469340067685],[128.9920878222466,35.719038578906314],[128.99075846734794,35.72124087700818],[128.9901316727402,35.722074030720236],[128.9896936610331,35.722882417202385],[128.9896901698805,35.7232550607775],[128.989202696239,35.723323831889985],[128.98899569392353,35.723845607876584],[128.9877233052046,35.72477939761107],[128.98722108431588,35.72601598123044],[128.987070121372,35.72683820011461],[128.98609766630943,35.72682973880836],[128.98513316681166,35.727405797362636],[128.98471254758306,35.72792489466207],[128.98339053893181,35.7289006827424],[128.98172982076474,35.72978573283334],[128.98036029844553,35.730910978585484],[128.9804672773969,35.733031464740776],[128.9791238576126,35.73502234598364],[128.978724844212,35.73576268827778],[128.97630182108375,35.73658236401817],[128.97601354508873,35.73675720639842],[128.9747921626969,35.73706986379592],[128.9734854640348,35.73725764511439],[128.97355085660416,35.7385972692244],[128.9740263030816,35.739819091895676],[128.97448046734445,35.74151067776176],[128.97465070063194,35.742549452082706],[128.97539161190596,35.74433174630781],[128.97554641949716,35.74604929655491],[128.9750732689144,35.74659681911246],[128.97638143084663,35.748200559883585],[128.97631712711478,35.74953436988389],[128.97578553936165,35.7498263669352],[128.97528131846343,35.75038910714274],[128.97410941365976,35.75074691986344],[128.97410870788485,35.75138021993889],[128.97384562326496,35.75151340958263],[128.97245354215428,35.75267812159451],[128.97242737032286,35.753337097215784],[128.97150237958385,35.75430382648346],[128.9722353515223,35.75560574740589],[128.9724031061233,35.7568496884164],[128.97357200775855,35.758492323890415],[128.9729065836213,35.759302198230536],[128.97362397139176,35.76068242678181],[128.9745062348818,35.76162255342704],[128.97472719378808,35.76256735522261],[128.97466809401996,35.76422127254618],[128.97508041271618,35.764821581540396],[128.97694937971133,35.76498381494963],[128.97684273513164,35.76465134974031],[128.97727381508952,35.76436464283742],[128.97749593266622,35.76489967546055],[128.9775996947953,35.76627163135979],[128.9774603836601,35.76680909752504],[128.97725243075172,35.767464065227244],[128.97695811333222,35.768023865444114],[128.97637030391635,35.76845293475328],[128.9761377313888,35.76923775856034],[128.9761049241399,35.7698797754711],[128.9759567856945,35.770221407064156],[128.97591819922565,35.770662009290426],[128.97569336238408,35.77110762177993],[128.98084748433723,35.77179771057807],[128.98278376190302,35.77302001913946],[128.98599683780702,35.77251503909787],[128.9862184074533,35.77260389811364],[128.98835178081484,35.772744625570944],[128.98926518231488,35.77261741346514],[128.99123261674674,35.772118853276794],[128.99308769038012,35.773898010932086],[128.9938108040734,35.77481091662503],[128.9944113671306,35.77496784443713],[128.99533600400858,35.77480652001808],[128.99599266564556,35.775167551838145],[128.99810857570586,35.77758636335715],[128.99712190666673,35.77824912097415],[128.99840390723986,35.77899346852454],[128.9990141574065,35.780236789324384],[128.99525121663638,35.78381029271803],[128.99564274517803,35.78577451310496],[128.99479822753867,35.787023826706246],[128.99491737511858,35.78782324335081],[128.9951145484283,35.788167223545614],[128.99472655700353,35.789334257044096],[128.99520548654985,35.790327735559266],[128.99587757141444,35.79316253018386],[128.99446239140102,35.79557795342065],[128.99329928614677,35.79599008032747],[128.99319348251794,35.79681849742684],[128.9927510578065,35.79791620354604],[128.99262354663804,35.79852983022453],[128.99146927492063,35.799407202169824],[128.99206863719596,35.80040396071477],[128.9929320664182,35.800785530529694],[128.99390509488964,35.80179844504023],[128.99461750929171,35.80208258500986],[128.994665643801,35.8025184244801],[128.99554266795417,35.803683421575926],[128.9959548939761,35.80447393374402],[128.99789928383407,35.80561051784849],[128.99825822801645,35.80588949459331],[128.99848766993438,35.807088376761925],[128.99980159193743,35.80859482683313],[129.00050196734492,35.80961025172373],[129.000634910531,35.809936269126084],[129.00059287973687,35.810257284094426],[129.00078078426088,35.81053128767408],[129.0010785402107,35.8106989887869],[129.0017264282672,35.811512526684865],[129.0018055813555,35.812234424862986],[129.00250015468256,35.81271794350165],[129.00289489669237,35.814305557149964],[129.0032239390257,35.81478885625321],[129.0041680089946,35.81575927947041],[129.0044778055025,35.8163338191077],[129.00455695785186,35.81669518286217],[129.00427426526053,35.817413083121856],[129.00457707566167,35.81796554487134],[129.00492440328398,35.81893411774937],[129.00487872079364,35.819455694244425],[129.0051938195005,35.820391331270045],[129.00520716619533,35.82077657221028],[129.00559674138566,35.82176210105529],[129.0054255735421,35.82251204192655],[129.00570666830922,35.82293186971035],[129.00610347802967,35.823279285986516],[129.0061830339933,35.82379545782132],[129.00656171910128,35.824103452499116],[129.006704133238,35.82434910770269],[129.00710147660587,35.82436995014579],[129.0079402762679,35.82458340701612],[129.00845079130434,35.8251760626823],[129.00909058187528,35.82528700909036],[129.0093575622914,35.82573659478965],[129.00949214033005,35.827221251345634],[129.00926500541283,35.82810394016426],[129.00931698228496,35.82887562029708],[129.0097461435657,35.82985551552472],[129.00985987235916,35.83057114343304],[129.01001520204412,35.830882716981634],[129.00979792173698,35.83128468017913],[129.01005314142918,35.8320651341408],[129.01144482015243,35.833133380737664],[129.01200617415293,35.83304369400048],[129.01288877092784,35.83352605678064],[129.0137061970256,35.83349130731478],[129.01500510911697,35.83412796350353],[129.01545740241124,35.83457349734799],[129.01469708800164,35.835836953352256],[129.0153634305012,35.836978244220894],[129.01551908331263,35.83786100459032],[129.01663701415188,35.838789216239704],[129.0175336777694,35.838966319051806],[129.017734478891,35.83919299374324],[129.0172145008005,35.841288483284494],[129.01732662021945,35.841584678333646],[129.01730105594794,35.842299082753904],[129.01740469189735,35.84263167990921],[129.01740212332123,35.843245426019465],[129.0176898765471,35.843722969275476],[129.01817436094905,35.84427787336798]]]}}
