{"type":"Feature","bbox":[128.28497541032212,35.88667776273442,128.64070498905784,36.12589870236587],"properties":{"regionCode":"47850","version":"vworld-20260909-3f8952dfda77-p3","name":"경상북도 칠곡군","attribution":"국토교통부/K-Geo플랫폼 · VWorld 법정구역정보, CC BY 2.0 KR; 공공주택 복덕방 가공"},"geometry":{"type":"Polygon","coordinates":[[[128.49232086580898,36.125323570302776],[128.4919085283847,36.12589870236587],[128.49113211127195,36.12535028398094],[128.49081433931408,36.12527552170677],[128.49048711114094,36.12530511993299],[128.490121237179,36.125199280110884],[128.49039970279327,36.125002610798056],[128.49036433683537,36.12493081834746],[128.49086937540991,36.12435781045931],[128.4911178973337,36.12394686531447],[128.49124225998625,36.12286685473475],[128.49107216022085,36.122240459800544],[128.49117910393156,36.12203673867467],[128.490702150669,36.12080470742633],[128.4907226546939,36.1200979509474],[128.49036542374597,36.11983929216624],[128.48941461868122,36.118870044041124],[128.48892586218088,36.1186011573653],[128.48978943082867,36.11738980925953],[128.49011937473526,36.11726581527527],[128.48861307228663,36.11511657473914],[128.48741759334436,36.11392613691183],[128.4881491273002,36.11314721004693],[128.4880661703726,36.112906361959396],[128.48710545196045,36.11252565316287],[128.48650673275043,36.11258584737025],[128.48544718386268,36.11255378597574],[128.4852257855314,36.112333710027514],[128.48411229679525,36.112167246584114],[128.484095876604,36.11200331984921],[128.48528153145517,36.10960798388813],[128.48538063745454,36.10920207400761],[128.48510316757736,36.10870856108095],[128.48451823292712,36.10834578572403],[128.48368239462494,36.108411217238746],[128.48185565659398,36.10794867791346],[128.4811304869614,36.10709684385546],[128.4811497735579,36.106795963632685],[128.48083653072305,36.106386706156705],[128.47962723503366,36.10593999860608],[128.47938395270114,36.10575968675247],[128.47893273189425,36.10514366723796],[128.47927922108073,36.10492289961615],[128.47996858945461,36.10376293359263],[128.47951828267597,36.10162876394808],[128.47805508626723,36.1006165099207],[128.47760419772817,36.10042036007371],[128.4773719430418,36.100373604263616],[128.47673213114007,36.10046160469094],[128.47651378386195,36.1003356490436],[128.47669759572156,36.09889660178211],[128.47664385406983,36.09885201879497],[128.47689273789936,36.09845868759138],[128.47734843899747,36.09835417739363],[128.47704985375415,36.0982631716737],[128.47661975429918,36.09841484253493],[128.4764714842079,36.098383505426206],[128.47600059719917,36.09791001944204],[128.475705592412,36.09783529813609],[128.47587154277207,36.09753928391121],[128.47580594514923,36.09683095394282],[128.475586661486,36.096687975795376],[128.47473562338683,36.096398793221994],[128.47612983918305,36.09558954447223],[128.47630104512857,36.09501836391064],[128.47651647685882,36.095002293727646],[128.476814595035,36.094370992922904],[128.47679537592623,36.09410658734468],[128.47701195977686,36.09370927456067],[128.4771165810294,36.093301300477016],[128.47710945859006,36.092701818278016],[128.47654355218123,36.0923268634656],[128.47533713734612,36.09091381005202],[128.4748849063844,36.09007315424663],[128.47450893966356,36.089630721548744],[128.47334207662232,36.08895090000704],[128.47259890872166,36.08831482257071],[128.47174028203108,36.08805733950506],[128.4707849543675,36.08722209121623],[128.4698498851117,36.08598457996587],[128.46847722542873,36.08517973938737],[128.4671062613608,36.08414679518375],[128.46501376897322,36.0832787713397],[128.46488359150857,36.082579699750845],[128.46439875174374,36.08229446700148],[128.46370153567761,36.0814030769503],[128.46390677233802,36.08023179536128],[128.46355104844963,36.079114739461936],[128.46385493862533,36.07875232041455],[128.46432488215245,36.07787026738905],[128.4645859561658,36.0769055624991],[128.4648203247868,36.0764300059629],[128.4651947392833,36.076314756211275],[128.4652896306701,36.07601259518642],[128.46645301967544,36.075740846591145],[128.46693604251945,36.07543891197876],[128.4676133912827,36.0747676779401],[128.4690094122978,36.07288531575874],[128.46966515851923,36.07226042635415],[128.46736170229576,36.07231425030719],[128.46442642034935,36.07074081527391],[128.46321751627517,36.0703746776442],[128.46287133429485,36.0697407759525],[128.46201641026514,36.07005944927054],[128.46161824642505,36.07003339838673],[128.46011199027933,36.07035916642399],[128.4582114234617,36.07104550233676],[128.45767649086187,36.07109596761229],[128.45714247808132,36.071492771405424],[128.4547298862436,36.072217527042376],[128.45266046480012,36.07274391688945],[128.45248806644523,36.07282769011835],[128.4523805339079,36.07301986871605],[128.4508412668722,36.07365955854519],[128.44807003918405,36.07429130122389],[128.44630658771246,36.07551047227219],[128.4465629855265,36.07591101436644],[128.4460014838168,36.078001865975985],[128.44452251418303,36.078254691772976],[128.4435464851092,36.0785977142573],[128.4433193724459,36.07877748330572],[128.44271064064952,36.07886658573459],[128.44195822010997,36.07911880052085],[128.44130445627,36.0790907297912],[128.44069819633162,36.07871403022841],[128.43930393874388,36.07882481774285],[128.43719640106477,36.07912492031891],[128.43649363538023,36.07948325179778],[128.43521269661298,36.07930453962828],[128.43388197210322,36.07961401710087],[128.43304029722108,36.07954065458174],[128.43161343338568,36.08027323127017],[128.42924991527153,36.079988149872946],[128.42826610626253,36.080616885184604],[128.42785823161447,36.081407542148796],[128.42678539502336,36.081780145745505],[128.42641022867878,36.082621090868315],[128.42626587056427,36.08274626301521],[128.42457049016443,36.08387805961463],[128.42418762320398,36.08380736927032],[128.42398428294618,36.0838558690257],[128.42377052948632,36.08420878163347],[128.42354613504654,36.085343074059075],[128.42333278933137,36.08554881263396],[128.42312599252972,36.0860010820424],[128.42315015320537,36.08667329902357],[128.42286490634174,36.087847637332224],[128.42254230355206,36.08796007651947],[128.42227539947078,36.08845309623528],[128.4206620605186,36.08809511882022],[128.42039286060816,36.087815685591686],[128.42006245541276,36.08652467386705],[128.42027246064623,36.086185571350356],[128.4197781895659,36.085647158583335],[128.41961955475244,36.085135400186324],[128.41925600092912,36.08504239852366],[128.41815339458782,36.08506949731332],[128.41721407781316,36.08386488285286],[128.41668328552444,36.0839377466784],[128.41609225667833,36.083424043078935],[128.41558228531537,36.082776868939085],[128.41537773745372,36.082839857500645],[128.41494231994446,36.082697415187226],[128.41426802432136,36.08321890409361],[128.41385407543393,36.08330790312775],[128.41297879272977,36.0840371659041],[128.4121507583325,36.08406770501029],[128.41165168093826,36.08389221761354],[128.41124137131325,36.08350142196639],[128.4102626305224,36.08382211168972],[128.41007625320918,36.083668892151444],[128.41015471870855,36.08358420357135],[128.41004370509663,36.08335907938931],[128.40976598235272,36.083128985704796],[128.4098174112387,36.082978109077324],[128.40910084442572,36.083394794933255],[128.4085266259842,36.083912939346376],[128.4085120854698,36.08406066163249],[128.40819220185372,36.0842699660538],[128.408252960773,36.08444437858502],[128.40808976936128,36.084663277539654],[128.40813200144615,36.084821020272784],[128.40805320179223,36.08506719870366],[128.40816445755365,36.08537776512702],[128.40807327137017,36.08569138204603],[128.40815216773723,36.08600763628562],[128.40773987367922,36.08636842162403],[128.4077115541962,36.0864881361211],[128.40774474533055,36.08675406808146],[128.40789232700817,36.086958558515875],[128.40743665846082,36.08729911795546],[128.407008463545,36.08748444863706],[128.40671755312212,36.08804508419791],[128.40613820689515,36.088426927685504],[128.40618100845214,36.08858179078356],[128.40602242091288,36.08894039712719],[128.4060002155129,36.089440814953214],[128.40559835283364,36.08978397896532],[128.4057454873946,36.09019304333325],[128.40550823627368,36.09067553172333],[128.40552396530137,36.09169577080074],[128.4053631684044,36.09182960592347],[128.40516378987678,36.09177986651631],[128.40515960062154,36.09171792589973],[128.40492487550335,36.091746501720465],[128.40460346128913,36.092094831910096],[128.40410011418743,36.09193480004656],[128.4032602380074,36.09203236327708],[128.4031547646958,36.091851922312024],[128.40260354976564,36.09172066524033],[128.402360248703,36.091575725072566],[128.4022491456874,36.091199984064446],[128.40172797288486,36.09108260139223],[128.40161757107128,36.09119212435302],[128.40130200615272,36.09114151627322],[128.40017126431275,36.09086277611679],[128.3996658732133,36.090481194809065],[128.39646339150468,36.089489852467146],[128.39548010609946,36.090962448896576],[128.39352930106608,36.08734788403701],[128.39112054470505,36.08373085009776],[128.39001233458922,36.08012040094141],[128.38448976504262,36.07648692251616],[128.38211872442312,36.07440297386207],[128.38452235921866,36.07288266218867],[128.38649289533416,36.07020249501698],[128.38454915490996,36.06927799176923],[128.38380788647268,36.069438258134],[128.38376005096643,36.06954439701905],[128.3834416405812,36.06932890267045],[128.3825481389912,36.06936668783469],[128.3816435834684,36.0680779108177],[128.3807326986046,36.06741482349413],[128.38047378847537,36.06671181531229],[128.37990088300964,36.0663118145012],[128.3792589043497,36.06610741877717],[128.37832615074126,36.065330172549444],[128.37769721232195,36.06526580279614],[128.37752761399443,36.06513618251114],[128.3769332091988,36.06493933970681],[128.37590615756238,36.06496185387943],[128.37590414569326,36.06501886650195],[128.37487987536724,36.065384757244445],[128.37398013989252,36.06528472154631],[128.3733462090426,36.064785725219544],[128.37307731881947,36.064694909868145],[128.37238420567547,36.06536439506013],[128.37193351406566,36.06561718622961],[128.37136993467584,36.06610916413019],[128.37051144998244,36.0656409917421],[128.37012154893372,36.06516046090997],[128.3689561175655,36.06428503244373],[128.3685715764822,36.064108804561805],[128.368133695098,36.0641956769311],[128.36672709196682,36.063729542402896],[128.3664197320549,36.06304203952523],[128.36548054160465,36.06195202655331],[128.36512770960596,36.06183707235734],[128.36432873243282,36.061775560498596],[128.36366109590418,36.062018935507204],[128.36278270761687,36.06181594845172],[128.36210650738462,36.061074932310326],[128.3611974395899,36.0605812146585],[128.36013370051768,36.060905170611335],[128.35951702610168,36.061399099887595],[128.35911288437714,36.06281512478522],[128.3583431717192,36.06322327017558],[128.35856330530584,36.0643502230829],[128.35842773362148,36.06594726251248],[128.35737424167328,36.06662550064271],[128.3555332670121,36.066591220785455],[128.3543159108171,36.06680248095511],[128.35242078071335,36.06688454757711],[128.35172168940107,36.06709288342432],[128.35158836787767,36.06747306106871],[128.3520254969312,36.068039966147744],[128.35204842576098,36.068591664643975],[128.3517435301495,36.06882275589019],[128.35154547600158,36.06952842583598],[128.3502375805579,36.06998100634818],[128.34981964596702,36.06997870888985],[128.34939888481654,36.07038423135854],[128.34900730252977,36.07040676512915],[128.34894288748495,36.07046648589826],[128.3488626222453,36.070427297698856],[128.34838208582732,36.07089578519944],[128.34777739032194,36.07126913545363],[128.34758816575743,36.07127929996104],[128.34728924994064,36.071574769831734],[128.3470018662139,36.071700231827634],[128.34665478687361,36.07264231157934],[128.34636776771495,36.07305742494263],[128.34585570309324,36.07333316105806],[128.34422739445768,36.07645694194882],[128.3445591924882,36.07676049383879],[128.34507196507462,36.07704291303083],[128.34413512991577,36.078374204085],[128.34371769223947,36.079106396641464],[128.34288524277233,36.08014778440007],[128.34030799273953,36.08168111200315],[128.33901185044536,36.081854932159196],[128.33714953702275,36.08246359967632],[128.33605662938058,36.082428187324744],[128.33583230812263,36.08250484056318],[128.3350880748732,36.083867727916044],[128.33487243585338,36.084651062718955],[128.33437071824687,36.085019011221505],[128.33426695011275,36.085242034766665],[128.33344423349826,36.08559616604383],[128.3327675305155,36.08570310831267],[128.3328367047309,36.0879501225676],[128.33157539653246,36.089088490253715],[128.33124606765634,36.090347508358136],[128.3306091272604,36.09138243172734],[128.32988915295874,36.091287840201005],[128.32871688704878,36.090956189003805],[128.32848355461834,36.09100847146277],[128.32795360514214,36.09080864506846],[128.32632590334973,36.091269554678746],[128.32410727399824,36.090707853840996],[128.32262535732423,36.09164460002952],[128.32153566431114,36.09186531361778],[128.32055169578456,36.09113762874719],[128.31989011159726,36.09095099661512],[128.31874122615062,36.090955438664416],[128.3174537449274,36.09053401943993],[128.3169247465467,36.08988173219244],[128.31575267894817,36.08993099078803],[128.31452076862533,36.0902733058431],[128.31326148352986,36.089845033160614],[128.31194181577555,36.08960727937489],[128.31099604992778,36.08972607236717],[128.3093862807981,36.088795436236666],[128.3086437312866,36.08820490123578],[128.30805527880614,36.08812206914313],[128.30645829482802,36.08764920501063],[128.30526518844465,36.08685729239125],[128.30422648073892,36.086808942107815],[128.30372463374846,36.087066186582675],[128.30318013194307,36.08705445767128],[128.30278544084882,36.08717449463347],[128.30227449885714,36.08703803217924],[128.3021490435175,36.0877253350304],[128.3019026803857,36.08784849171936],[128.30172718296868,36.08837603280198],[128.301400661022,36.088539871820295],[128.30119851087628,36.08818933896636],[128.30100954023357,36.088129559848895],[128.30098709626105,36.088039427357955],[128.30041170322102,36.08773631990173],[128.29987518590127,36.08769579194031],[128.29928704706163,36.08806354379046],[128.2985667623482,36.08822096097573],[128.297984997433,36.08813722790362],[128.29744505689663,36.0882183747977],[128.2965333191014,36.08887758842928],[128.29579040695364,36.088869997200526],[128.2947483419418,36.088287926547125],[128.29437856880432,36.088330783310994],[128.29417970113533,36.08823914668126],[128.29370451024622,36.08823259246842],[128.29310171553368,36.088431964763785],[128.29205069749275,36.0879770642276],[128.29023412962624,36.08658470981822],[128.29011208775918,36.08666658595804],[128.28924741466605,36.08640296958051],[128.28848458370993,36.085723781220125],[128.28817643214202,36.0851431034818],[128.2875788312513,36.08470665151222],[128.28695956208398,36.08444640264304],[128.2860746772245,36.083190196545445],[128.28566130460135,36.08225363404303],[128.28497541032212,36.08107227065953],[128.28516112675158,36.08065775642931],[128.28649834515073,36.079903880002874],[128.28762244851822,36.07550416100903],[128.2880535329445,36.07456680241909],[128.2900401583419,36.07210757972831],[128.2907175510407,36.0715401759809],[128.2910297249729,36.07106406835956],[128.29321259208908,36.07096716214663],[128.2941933023453,36.07015444324049],[128.2955588563955,36.06883899128815],[128.2954878849994,36.068833576068236],[128.29562918340244,36.06847586409146],[128.29584419845193,36.06844963479265],[128.29684850094787,36.0666442229963],[128.29662434826506,36.06668283458596],[128.29720048492422,36.0658917921218],[128.29759155215703,36.065505321784734],[128.29830495094726,36.06526380558029],[128.29927739844976,36.06420267678473],[128.2997299996627,36.06343096287428],[128.30062204397376,36.06280148891225],[128.300717165619,36.0624501097199],[128.30068870805843,36.06223546761541],[128.30031208152417,36.061605275808944],[128.29965779834424,36.061102855909],[128.29911541344188,36.06039329182349],[128.29948097013627,36.05949570076673],[128.29973505247165,36.058544285446494],[128.29995275010342,36.058163031568085],[128.3008389658935,36.057460030242716],[128.30115676444606,36.057339653808434],[128.30055755384524,36.05519752365802],[128.30003359715874,36.05451865236134],[128.2993766472334,36.052240139178295],[128.29951531971636,36.051494713896176],[128.29947948447526,36.05123042541871],[128.2979819878459,36.050754035553695],[128.29555211451927,36.050565096278035],[128.29505255713931,36.05020708132919],[128.29401996579287,36.05040787384413],[128.2936191621233,36.050089411942785],[128.2929583652214,36.04932838608617],[128.29269827906953,36.0487178006166],[128.29228780344803,36.04847083678698],[128.2921390696002,36.04753671030037],[128.29186526825487,36.04730129596019],[128.29131308556404,36.04656713256617],[128.29100302214508,36.04587015804199],[128.2901733870888,36.04527725295897],[128.28983132943497,36.04383340375683],[128.2899265597541,36.043706253060705],[128.28982044130964,36.04354375427004],[128.28992805333013,36.04113591232223],[128.28957108077677,36.04054871174977],[128.2913139189179,36.039099377825465],[128.29147094690623,36.037884054682074],[128.2913572916877,36.03755978995695],[128.29153958149462,36.036894977493276],[128.29199489742854,36.036054709890756],[128.29259926800276,36.036029558471796],[128.29466435488618,36.03449996441684],[128.29583345568957,36.03136376099739],[128.29607755537515,36.030986156580845],[128.2974176147874,36.030770688274465],[128.29819906098555,36.03100131525188],[128.30018166977453,36.0299698198454],[128.30117808167128,36.02993931570457],[128.30192015279704,36.02951230597134],[128.30283362638082,36.029702216685926],[128.30312420582524,36.0306025219833],[128.30428109805078,36.03050779057474],[128.3047356279329,36.030586539762886],[128.30533856605857,36.030219579720544],[128.30622587424136,36.03019094827455],[128.30811238560537,36.02957677318894],[128.30828423079194,36.029274412081065],[128.30869326205243,36.02907257491434],[128.30919957242529,36.029180670780654],[128.30962320920622,36.028963188962436],[128.31040296133548,36.028891976957546],[128.3107593752627,36.028095244623245],[128.31062374905736,36.027927426071734],[128.31030494813547,36.02681317260255],[128.3108659491459,36.026100031172675],[128.31113051839853,36.02479089873924],[128.31138934583504,36.02425243489979],[128.31173730000828,36.02400126862871],[128.31169417768186,36.02299947894507],[128.31280415964846,36.02215913313345],[128.31310008113869,36.022026780919845],[128.31417006052175,36.02226076158028],[128.31474053486565,36.02171082503017],[128.3152332669855,36.02079354417526],[128.3155590784609,36.019449511081305],[128.3167996907043,36.01901001068986],[128.31744453270764,36.018641410797386],[128.31761136772073,36.01840289194241],[128.31592248444974,36.017026973014104],[128.31487218127452,36.015299438978715],[128.31426648530118,36.015061335129325],[128.3122556729947,36.01476073587118],[128.3121101533587,36.013898291632664],[128.31228131767406,36.01142682107669],[128.31242190549816,36.01081348475651],[128.31279392056697,36.01008529490778],[128.31228484210894,36.00972120647015],[128.31195293643853,36.0079642411119],[128.31099822735035,36.0076705476689],[128.31061245634262,36.00712780411804],[128.3113702863389,36.00637260118997],[128.31146535888763,36.00612469111548],[128.31196281898707,36.004243756868505],[128.31190433269933,36.00372740421881],[128.31376285838513,36.00337288191448],[128.3139669136843,36.00315030004749],[128.31407860618677,36.00286998097884],[128.31392433410866,36.00243802576579],[128.31415189982928,36.00204556067925],[128.31391996346684,36.00125744421773],[128.3141910306541,36.00053305180418],[128.31415749481135,35.999526684564884],[128.3135288969329,35.99851781619762],[128.31306776963135,35.99739244119851],[128.3131622258107,35.996380268486575],[128.31305210173787,35.99461921823266],[128.31319038068278,35.99441948001707],[128.3131178036362,35.994038508189064],[128.31325660058366,35.993667147682665],[128.31321695751646,35.9934581987827],[128.31336324953563,35.99340163618156],[128.31324839572702,35.993264071200784],[128.31312590546216,35.99325062251691],[128.31352908894834,35.992359969732085],[128.31416691349364,35.9912665583696],[128.31539295522694,35.98950763439712],[128.31521672021924,35.98883929379006],[128.31597011427888,35.9885354338068],[128.31649754464354,35.98803249581674],[128.3175168518049,35.98752942143964],[128.31850439468442,35.98434949730876],[128.31883497608837,35.98276006864826],[128.32027472883357,35.98177005763605],[128.32140016552853,35.9815017594501],[128.32402163259582,35.97993270555902],[128.3246435472008,35.97968652738747],[128.32686604131635,35.980069489727654],[128.32719059490637,35.9803591748471],[128.32786400249236,35.98041976036679],[128.32825462594138,35.98039854435873],[128.32961503725463,35.97987395141396],[128.32980287018248,35.97879661304031],[128.32934673962907,35.97807708786721],[128.3294126112582,35.977446019797924],[128.3309771541343,35.97757351636216],[128.33151813817338,35.97771183384382],[128.33296688847514,35.977764250705285],[128.3332516696107,35.97707953565319],[128.3354350074883,35.976322299374694],[128.33729862677387,35.97618574873262],[128.33767334167752,35.97639026482046],[128.3383420752066,35.97573741732061],[128.3391799050198,35.97555076896268],[128.3392133337978,35.97488805403567],[128.33880021026144,35.97402584863002],[128.33878893497769,35.97375309670578],[128.33881403692067,35.973079047672655],[128.33914736002882,35.97201965699961],[128.33917212031008,35.970102668002006],[128.34254959002632,35.9676139579065],[128.34026493327252,35.96377600573711],[128.34176010987645,35.96177718732031],[128.34368773422625,35.961630903365226],[128.3440243384444,35.960782878483755],[128.34380331005246,35.95988399724367],[128.3440910873895,35.95961524218029],[128.34452009426678,35.959452956152056],[128.3447075245814,35.959124172395356],[128.34554916801787,35.95851895549738],[128.3456272300499,35.95810543233278],[128.3461880197333,35.95765706134536],[128.34661679195995,35.956709240553174],[128.3471618170115,35.95590295730437],[128.3473948416078,35.95525491695053],[128.34802120267543,35.954691461342],[128.3483886992463,35.954671827924855],[128.34926167559178,35.954414093771646],[128.34984275097034,35.95459469952061],[128.35064389130434,35.954697635872016],[128.35154872141896,35.95525510778514],[128.35193689513736,35.95570649342914],[128.35304872847388,35.95609256528879],[128.35395548818653,35.95574130574262],[128.35478938551088,35.95585386780571],[128.35564640637398,35.95578989595699],[128.3581330236308,35.95593359782129],[128.35937470515705,35.956190910080714],[128.3596937700544,35.955986127011705],[128.36000599201657,35.95562979686938],[128.36085173263044,35.95514987384174],[128.36185983139669,35.95510269889309],[128.36285131235533,35.955621046816574],[128.36326203698,35.95617486963979],[128.36361571709105,35.95718746448602],[128.36441809076925,35.95730802991121],[128.364683352099,35.95743448789459],[128.36485376553395,35.95705647992968],[128.36471252769513,35.95689413704497],[128.36470526551025,35.956476121112004],[128.36494563536368,35.956345569171724],[128.36421165899122,35.9558057268998],[128.36399784827177,35.95548084432912],[128.36347716718598,35.95517257674297],[128.36319759886874,35.95486421191497],[128.36293826881095,35.95481411225604],[128.36290358132757,35.9546974894526],[128.36188341261513,35.95462664883424],[128.36198497443516,35.95393989006118],[128.36314469583058,35.95304703773711],[128.36382089853868,35.952906307849496],[128.36462723609324,35.95164099447212],[128.36453603037177,35.95087505049661],[128.36499777126687,35.95059584316924],[128.36528221312332,35.94978196714012],[128.36483952444925,35.94918236834299],[128.36481156328898,35.9486309713205],[128.36382450879594,35.94748925745111],[128.3641229719978,35.94669540227898],[128.36510596322424,35.9449431404977],[128.36594056227648,35.94447263293966],[128.3666623517914,35.94424325323371],[128.36686347497758,35.94426168406168],[128.3673862387666,35.94405359887854],[128.36813802166552,35.94359410213489],[128.36827523293988,35.942834385764584],[128.36861152703722,35.94198211769647],[128.3702555114982,35.94176271115701],[128.37115489561515,35.941565578680205],[128.37346044459866,35.94180535601502],[128.37407370634642,35.94172262096499],[128.37486748017415,35.94183161863462],[128.37574065744744,35.94166021861725],[128.37748702108894,35.940960053190224],[128.3782426619037,35.94047442433676],[128.37908046462252,35.939038732820244],[128.3797083684101,35.93864627166643],[128.38047327627294,35.93898754966022],[128.38100642143849,35.939527632486715],[128.38194703030334,35.93938021886298],[128.3826596860504,35.939747803049215],[128.383431939703,35.939510407467466],[128.3838484610473,35.93966008692093],[128.3853471773838,35.93924441550562],[128.38578573140094,35.93950293631111],[128.38729516639862,35.938919873489986],[128.38806514611187,35.93946007961712],[128.38873695432943,35.940270268522106],[128.38947780853238,35.94100166758342],[128.3898868447816,35.94168528339905],[128.39011679497855,35.94164504347409],[128.3902410394132,35.94153346704906],[128.39095090186441,35.94145132318668],[128.39178328101536,35.9411440573435],[128.39277392478377,35.941094243588054],[128.39332283166044,35.940981868537655],[128.39437933376934,35.94103830614378],[128.3945320168097,35.941098435364744],[128.3947874292528,35.941460256898445],[128.3957555162559,35.94165041294717],[128.39655411286017,35.94003495563379],[128.3968423280836,35.93596121914803],[128.39802253581416,35.932362262591326],[128.39876852933273,35.928761120891096],[128.39908329772382,35.92662955924075],[128.39911152650726,35.925725507024765],[128.39887229325745,35.92380398278896],[128.39887960711002,35.922179547489264],[128.39851937020535,35.92155007493685],[128.39821176176582,35.92032940764538],[128.39769824408322,35.919492576126096],[128.3976043067331,35.918442927470544],[128.39759595252156,35.9179405402839],[128.39826408116568,35.91645381695954],[128.39838092339886,35.91599140810942],[128.39845629474993,35.914590008134375],[128.39791126065683,35.91218860133335],[128.3974761057321,35.91073242637742],[128.39689262711826,35.90711482527633],[128.3987225220724,35.90352468304198],[128.39887793578012,35.902680649013085],[128.39896189402776,35.89992446412556],[128.40247377578234,35.90047722096376],[128.40414746358925,35.90051825841918],[128.40655625619917,35.90091298255222],[128.40782975222365,35.90204307694992],[128.4083584101799,35.901194805977745],[128.40860898622003,35.90213967242485],[128.40916447199163,35.90315323249356],[128.4096690986553,35.903560245033766],[128.40964386044942,35.90434889253685],[128.40989456150595,35.905107453674105],[128.41056458194183,35.90616448872666],[128.4108412415168,35.90708556832412],[128.41155258407568,35.90769666188716],[128.41174395872338,35.908229006436734],[128.41232021421405,35.90874422171984],[128.41275296584354,35.90932518404464],[128.41360066462315,35.90971086139484],[128.41381613066633,35.91025259732637],[128.41420082403087,35.91065461171141],[128.4145291031658,35.911664484776644],[128.41564020133043,35.9127291553694],[128.41646548044423,35.912972738400455],[128.41719962855694,35.91306904965533],[128.4175283123359,35.91352949512217],[128.4170175013958,35.914886484338396],[128.41835708246575,35.91657700630914],[128.41913789053024,35.91705050094764],[128.41885041589165,35.91819948804723],[128.41878662009054,35.91962837175497],[128.41870924784655,35.91987435498757],[128.41890534249202,35.92154391225863],[128.41908087054617,35.92152745652445],[128.4203959744997,35.92194749159743],[128.4211753195803,35.92257590722095],[128.42216128978617,35.92224877654277],[128.42377480197436,35.92311905333538],[128.4242853475869,35.923115401429875],[128.4245789237583,35.923331991320204],[128.42508492047335,35.92387619860694],[128.42499878996028,35.92451280372727],[128.42548891256305,35.925324623273866],[128.42509014388656,35.926922923270574],[128.42544791230156,35.92734417520781],[128.42570820996337,35.92824381593533],[128.42696984325545,35.92760947045943],[128.4274411059204,35.92746018493307],[128.42792861612418,35.92761894240779],[128.4284326527251,35.92751841251354],[128.4285374551905,35.927562802053245],[128.42865956794023,35.927958874700415],[128.42840526124087,35.92832786374592],[128.42847615025417,35.928544306675775],[128.42884477172814,35.92886035586378],[128.42876400246405,35.92910698801013],[128.428963921669,35.92918686710987],[128.42953480152255,35.92965498311886],[128.43019076335835,35.929776666054025],[128.43099301148442,35.93026544000002],[128.43112626462178,35.93027929046228],[128.43148985747922,35.930581999163536],[128.43196234360732,35.93072585267604],[128.4321266791438,35.93063154489302],[128.43215423676608,35.93069554774711],[128.4320467611657,35.930721998501525],[128.43192449888673,35.93095803411593],[128.43233060996542,35.9314229275188],[128.43287430051257,35.931726900727924],[128.43304032830073,35.93171161894373],[128.433262827664,35.9315394489575],[128.43356295010318,35.931524938713856],[128.43374230187734,35.93117274939326],[128.43399605836984,35.931172071742495],[128.43455303822967,35.93123230525692],[128.43452897256614,35.931279065764215],[128.43461704008612,35.931269957683966],[128.4347534453756,35.93139374279175],[128.4351891382001,35.93133970467413],[128.4355572384292,35.93148414254116],[128.43670469114176,35.931606024228344],[128.43687096121917,35.93186164798184],[128.4374345039002,35.93185371790162],[128.4381201300771,35.9320546699045],[128.43850863857685,35.93183674555903],[128.43935158259296,35.93164734790718],[128.43972726236282,35.93179922455164],[128.44071945079796,35.93244154755359],[128.4409249508573,35.932692992193076],[128.4408658175748,35.93272489872033],[128.44199656765906,35.93537450648614],[128.4424923117183,35.93564938011105],[128.4433405964912,35.93571805321438],[128.4437304832773,35.935300220504075],[128.4448702574018,35.935189897409195],[128.44529166439006,35.93523112951196],[128.44639601081587,35.935738237615716],[128.44717781677005,35.935502834540074],[128.44876849828375,35.935275894444054],[128.44929492884552,35.9351226594425],[128.45116537640345,35.93535532233548],[128.45362222715946,35.93686970280537],[128.45362276804985,35.937631059048925],[128.45460467941976,35.93913874236744],[128.45442527676374,35.94033936665924],[128.45452580537008,35.941078945201546],[128.45478800881415,35.94195355854722],[128.45476230405933,35.94257483952913],[128.45499500885776,35.94279859643911],[128.45509686361356,35.94337658355718],[128.45584086289043,35.94310493132268],[128.45637408545142,35.94304446222708],[128.4570709379538,35.9423524498861],[128.45880752387401,35.94172530145425],[128.45927600969586,35.941363334489466],[128.46089067141094,35.94158046016294],[128.46178953335212,35.94109936578367],[128.46271248196334,35.940380227368045],[128.46286931229096,35.940091060496684],[128.4631888285567,35.940069209777356],[128.46357097160154,35.93978245305386],[128.46354885122912,35.93943095865643],[128.46371000953843,35.9391454676718],[128.46361609316145,35.93877474592504],[128.4639912704856,35.93873810236457],[128.46430062925555,35.93884064238971],[128.4649451595998,35.93888423002042],[128.46623131763087,35.93887740862618],[128.46656626066027,35.938685522445596],[128.46724957357543,35.93806224787244],[128.4676858904062,35.938263856618335],[128.4688160720443,35.93860602404847],[128.46914456745915,35.93850084552068],[128.47004012137387,35.93879006245887],[128.47018754474007,35.93877262478586],[128.47030292387765,35.93866374168437],[128.47050464801416,35.938671725091005],[128.47069931281993,35.93841918377232],[128.47067601636604,35.93817296235331],[128.47142334184056,35.93798420395247],[128.47155502371336,35.937880393339576],[128.47166986449287,35.93791128261334],[128.4725119872369,35.937426242907726],[128.47330784675358,35.93732894886896],[128.47358958063003,35.936590456675304],[128.4750262267609,35.93648011851176],[128.47620869002003,35.93579139631145],[128.47678554229108,35.935256021031485],[128.47726536505624,35.93431759132213],[128.47733105222792,35.933902265344926],[128.4771653660524,35.93335388424508],[128.4773865317427,35.9328067388298],[128.47744132443276,35.93188297906464],[128.4770107255875,35.93144949575335],[128.47685648489394,35.930057545730754],[128.4770745921919,35.929694975654314],[128.47678320073618,35.928526616699315],[128.4768851399348,35.92813702647138],[128.47602952249667,35.92630997812912],[128.47519457730908,35.92560063830456],[128.47506023942663,35.9250256531446],[128.4746851731541,35.92430170774319],[128.47430871775026,35.92411487960004],[128.47387845045583,35.92308883318185],[128.47399699935696,35.922221998394],[128.47398352044476,35.92168266612257],[128.47384399792753,35.92134941191514],[128.47400724051246,35.921094087831854],[128.4743959816546,35.91979294873414],[128.47413360867154,35.91852013341229],[128.47408896196904,35.91784237937409],[128.47456639599525,35.91725850949473],[128.4741945478822,35.91624452307461],[128.47340081253287,35.914656154320355],[128.47202853436522,35.91350013469298],[128.4715550723034,35.912998289801294],[128.47076209087254,35.91243009115521],[128.46997402019443,35.91219424169042],[128.46943218173132,35.91119730490255],[128.46859336115025,35.911047855549235],[128.46725678124824,35.910558292852016],[128.46664713509398,35.909908365154514],[128.4660830010712,35.90900818050814],[128.46648705688327,35.90830218289316],[128.46746082429163,35.907461392303546],[128.46799279429877,35.90673125441454],[128.4682332093346,35.905670540735855],[128.46775146501722,35.90420429923394],[128.4681287351371,35.903423954701296],[128.4681290408367,35.90208581450768],[128.4684108192628,35.90110596699305],[128.46826479945008,35.900609244121426],[128.46893932520246,35.89989027652004],[128.46963204561388,35.89944592937129],[128.46980617964573,35.89909468561008],[128.47025574270347,35.898555977456965],[128.47133192458526,35.898332136924836],[128.47251379538852,35.89693049040725],[128.47329578626378,35.89644986663305],[128.47391614962856,35.89587551160358],[128.47577561833057,35.89491885988864],[128.4761963566096,35.895105594023775],[128.47677012822666,35.89561268066333],[128.47728147714724,35.895782002987325],[128.47792571868175,35.8964642216696],[128.47875562897042,35.89691346394372],[128.4790012967128,35.897237981547924],[128.47959980316594,35.89709584961727],[128.48218148972998,35.89598291601479],[128.48310388849015,35.895700202517986],[128.4837603828067,35.89583240927909],[128.48438970562339,35.89510314514077],[128.48496828370048,35.89477531599387],[128.48541143406985,35.8955428548568],[128.48544169968088,35.89595326084076],[128.48567150569687,35.89628645701452],[128.48595225676073,35.89636624367908],[128.48550839072965,35.89693320117105],[128.48620180869065,35.89696433220596],[128.4871406366561,35.896793369854734],[128.48780578685464,35.8972437519129],[128.4877885477099,35.89735593242878],[128.48830839112142,35.89782609707745],[128.48860238407562,35.89799937823298],[128.48901282134034,35.89811610272953],[128.48970059144747,35.898101003260024],[128.49008064989602,35.89793746350068],[128.49048460999472,35.89810620539874],[128.4908622786399,35.89797295571456],[128.49113188758673,35.89799714941736],[128.49153241384641,35.89745095886036],[128.49217197312828,35.89709778416457],[128.492614923238,35.89672249851296],[128.49317076678312,35.896562371581595],[128.49334567918484,35.89598109446721],[128.49312347140102,35.89547612160483],[128.49370356428463,35.89446952276687],[128.493833119726,35.894100245073844],[128.4947680469793,35.892685978578776],[128.49510340566098,35.89176788176523],[128.49521960252252,35.891187268471285],[128.49648968956637,35.89028722994912],[128.49684689812761,35.88954605716937],[128.49949458896793,35.89020987111995],[128.4997580847659,35.88992739133288],[128.49989277990284,35.88947710172844],[128.5007237942168,35.88946206236664],[128.5008804154403,35.8889532908916],[128.50084864165396,35.887148869261196],[128.50171347486176,35.88667776273442],[128.50283141845628,35.88707282246935],[128.50327825023848,35.88773903208925],[128.5048516677453,35.891010605900675],[128.50516939171132,35.89128446846876],[128.5048264878258,35.89145055591288],[128.50494909576184,35.89169061351538],[128.50465933826862,35.89173596417051],[128.5046321318986,35.89339276861113],[128.50471988558004,35.8937279402025],[128.5050152600779,35.89398825549299],[128.50512628378948,35.894603862615014],[128.50544092904437,35.89519957852393],[128.5053977109864,35.89560993128201],[128.50573316863333,35.89613623895908],[128.5058448256515,35.896680684624926],[128.50547576470984,35.897326788504884],[128.50544314949752,35.897528404735915],[128.50465044918147,35.89800541504328],[128.5047079436133,35.89872992473591],[128.50485229155484,35.89931908213288],[128.50596866785253,35.90039370835355],[128.5058736945635,35.9012307051004],[128.50561280980563,35.90213844053175],[128.505175317398,35.90258058256912],[128.5051201003131,35.90281460880432],[128.5057404657944,35.9032531900955],[128.5059997325969,35.90407787882321],[128.5065936997418,35.9046469735363],[128.50696931089,35.90519091181619],[128.50701097853377,35.90551003547393],[128.5068262557946,35.90610935530028],[128.5073969684964,35.906475303602576],[128.50768528739343,35.90696203717583],[128.50818715714843,35.9075504586646],[128.508941777059,35.90789962135425],[128.50965542854703,35.908863596469025],[128.51012046071764,35.90993381838165],[128.51067089791016,35.90995401184689],[128.510821268812,35.910200847355924],[128.51118125524323,35.91034598639597],[128.51188282136764,35.91040271480191],[128.5123315538342,35.91066053173889],[128.51273914533198,35.91109847385751],[128.5134754675295,35.91154859892222],[128.5140900196192,35.91157450757896],[128.51461452151756,35.91114832426474],[128.5150417373414,35.911020962088536],[128.51573386367673,35.91147038569218],[128.51602560228827,35.91147521004952],[128.51690079692477,35.91187423263585],[128.51714188905754,35.91260967253482],[128.51815203953248,35.91349903832414],[128.51880412348837,35.91392255954849],[128.5188670962476,35.91389942300106],[128.51915477848334,35.91429492743053],[128.5192558961247,35.914741734448754],[128.5197313355508,35.91515071472153],[128.5199813774922,35.915512705589556],[128.5200076426836,35.915447150746324],[128.52117502873753,35.915957245569395],[128.5218028255767,35.91635263586042],[128.52233047208045,35.91656508955534],[128.52320183787324,35.91769744605827],[128.52320677867138,35.91879902826349],[128.52307597255842,35.91919841497739],[128.52331225825645,35.9195537837191],[128.5238395077687,35.91995996583814],[128.52460203212968,35.92037735203604],[128.52482315598579,35.920832307261556],[128.52489548553746,35.9213191313544],[128.52567538806153,35.922023365889515],[128.52588196972673,35.92261426241077],[128.52583718129486,35.92291169312982],[128.52674238954793,35.92269417508914],[128.52718832463472,35.922802583932125],[128.5276711826564,35.923184667363955],[128.5286288982368,35.923628363263774],[128.52946735904308,35.9236222994607],[128.52972513563748,35.92448042491242],[128.52966400385702,35.9252191104999],[128.53000525622878,35.92568253742515],[128.52994293709963,35.92619208555122],[128.53008686733025,35.926625971272436],[128.53005761954097,35.927264421875286],[128.53054728352913,35.92908289200523],[128.53129038730228,35.93018228696438],[128.531853839331,35.930706300327024],[128.533318684495,35.93179911168351],[128.53355758091467,35.93213837423727],[128.5335744993105,35.93376993755239],[128.53372021333706,35.93459843913638],[128.53382103669307,35.93485036772918],[128.5343733098998,35.9353243967308],[128.53425355471205,35.93597875616283],[128.5343904668581,35.936996285381326],[128.53536549688587,35.93835547240641],[128.53513070849004,35.938521540335486],[128.53471750813563,35.93960985156537],[128.53482005234105,35.94064354959068],[128.53470011333712,35.94098367728824],[128.53477736757327,35.9418377009419],[128.5342804549686,35.94231812960466],[128.5343862838034,35.94311651635747],[128.53410009766267,35.94341713450614],[128.53408214704677,35.94446469441134],[128.5333573822055,35.94552339051819],[128.53401799973227,35.946082996647924],[128.53353092345407,35.94777491825474],[128.5337503947341,35.9480071550152],[128.53380555532647,35.94832715426452],[128.53364514146762,35.94918096989049],[128.5330105111581,35.949529207479316],[128.53254838335275,35.95054234736541],[128.53284401590733,35.95152567557661],[128.53299816920457,35.95284184262892],[128.5332192174619,35.953685791739986],[128.53407799977617,35.95563810468545],[128.5348756332401,35.958403875145436],[128.53356626196316,35.9609425137474],[128.53286467942561,35.96131042491878],[128.53193748388912,35.96130464787133],[128.53157222535927,35.96146269707884],[128.5308742725823,35.9615706193738],[128.53057986779584,35.96193766468689],[128.53027901453726,35.96304231368083],[128.5298921913038,35.96508335242122],[128.5295713652227,35.965485423746784],[128.5294213167803,35.96598563381486],[128.52926466158735,35.968852204009174],[128.52778002006147,35.97154576985381],[128.5282777862597,35.973236213092996],[128.52780839510714,35.973627573707375],[128.52712799148227,35.97519697719541],[128.52733703079213,35.97566808256498],[128.52934555771355,35.977054764160734],[128.5294690273362,35.97775062998696],[128.52874809404068,35.97880014693312],[128.52886187187306,35.98012937350737],[128.52894783857425,35.98022943065944],[128.53122807128537,35.98029406656658],[128.53418460939938,35.97893032608388],[128.53594316979834,35.97913884193419],[128.53709447091484,35.97705788981051],[128.53896060905836,35.976287754089796],[128.53972823611,35.97620206438207],[128.54041653796554,35.976033592040565],[128.5403798073622,35.975735430262155],[128.5415200804999,35.9751641608217],[128.54195565255574,35.975146953912734],[128.54303631507676,35.974524287306],[128.54331399477073,35.97424024273374],[128.5429572419488,35.97359463382569],[128.54293816509954,35.973307978188245],[128.54319799785074,35.97284811780759],[128.54317303722598,35.97275714466699],[128.54473373804785,35.97074501333499],[128.54472346908673,35.970505715459005],[128.54542710377987,35.96956215576566],[128.54570358526988,35.9687068376663],[128.5456662405539,35.96846220328189],[128.54592742649822,35.96787809118719],[128.54578055695666,35.96709482607776],[128.5458224131477,35.966109612590415],[128.5463200347031,35.9654603830618],[128.54857316582576,35.96320630080751],[128.54874899362096,35.96243505185393],[128.5491781672394,35.96196189410998],[128.55017978408767,35.962125725703494],[128.55050436857394,35.96188472863324],[128.5511707764014,35.96162836753021],[128.5514699040353,35.96133153592402],[128.5534071356944,35.96074148895384],[128.55408942744396,35.96332995157832],[128.55449903416712,35.964177418788225],[128.55497903515533,35.96490250734334],[128.55557841925383,35.96549500275915],[128.55617642852275,35.96692240066463],[128.5562068609984,35.967397815664626],[128.5559038849845,35.96840845719546],[128.5559543251135,35.968837338320284],[128.55611664395906,35.96910190338079],[128.5562045950974,35.96976906678387],[128.55664502304427,35.969757815241394],[128.55629626678868,35.971389911893134],[128.5563933497514,35.97175730369919],[128.55706547269438,35.97222999844633],[128.55851310169862,35.972748214901166],[128.55961133157066,35.97274131134149],[128.56028587337775,35.97287086162178],[128.56156568621526,35.972020757212526],[128.5621811789579,35.97239697314243],[128.56323755678463,35.97259430417575],[128.5642958479168,35.97249830134684],[128.56523623462172,35.97287223480131],[128.5661468644836,35.97359876612396],[128.5660348387238,35.9745544258442],[128.5677921692557,35.975493095067016],[128.56946104040915,35.97590562626846],[128.5706341607146,35.97669714980443],[128.57079853039846,35.97665594444703],[128.5711101872497,35.97686074137084],[128.57301413480857,35.977705806206544],[128.57412775561033,35.97727097309068],[128.5751002469808,35.97724897465745],[128.5771771124025,35.977828315717325],[128.57939349827726,35.977871932372956],[128.58172479830492,35.97738403387949],[128.58271814683397,35.97768446840663],[128.58321185212222,35.97718165994806],[128.58441372645393,35.97748222782182],[128.58478136174736,35.97743957163389],[128.58719944496374,35.97876703719682],[128.58785465595733,35.978605618029256],[128.58921827387664,35.978811003557894],[128.59020057937096,35.97887256607749],[128.5907731201148,35.979076735386435],[128.59103638260547,35.97985876719633],[128.5919617504644,35.9802499865799],[128.592305695161,35.98029272712903],[128.5930413828435,35.980569433976434],[128.5934824173636,35.98130408043242],[128.59338452714954,35.98289952771411],[128.59591923210158,35.98409119153954],[128.59716278219028,35.98421387843397],[128.59862401286705,35.984811595415984],[128.60044349945554,35.98508219986107],[128.60289256075572,35.98590571969118],[128.6029738269681,35.98645309165802],[128.60370752136282,35.98767717493944],[128.6046353043575,35.98761601122574],[128.60374859842187,35.98773966166708],[128.60615648815096,35.990684311281164],[128.60669568130055,35.99196640638787],[128.6078564869737,35.992972028619924],[128.6087509214098,35.99347393049323],[128.6090013763168,35.99380262473738],[128.60895181011446,35.99396041118999],[128.60914188345228,35.99451549340401],[128.6097235561168,35.99499053647745],[128.61038094782796,35.99600321995917],[128.61007397956064,35.996625332319375],[128.61010789145544,35.9967424948243],[128.6107634903567,35.99706753851482],[128.6109425295893,35.99696275032077],[128.6111886319087,35.99738897630774],[128.61148652463152,35.99755264902746],[128.61171523683242,35.997515525298326],[128.61197251075197,35.99785681547256],[128.61266272099118,35.99917967490008],[128.6136842964198,35.99936070232291],[128.61459901089552,35.999810825221886],[128.61508248413156,36.00029179701022],[128.61584707653532,36.0008223924986],[128.61670996445443,36.003038878456984],[128.6176701111954,36.00654847626146],[128.61810422227344,36.00631376110733],[128.61998681799437,36.005931455297905],[128.6202034139459,36.00595935910221],[128.6207914934083,36.00583266469399],[128.62174445535712,36.00587119459886],[128.62220426980497,36.00581082368881],[128.62229286793368,36.006035831251076],[128.62390438527908,36.006186897178274],[128.6243088928504,36.007261520923336],[128.62476530123467,36.00747787880035],[128.6253398196616,36.00754681325675],[128.62569550529432,36.00736378146078],[128.62603003643352,36.00757639021278],[128.62637721635195,36.00763940315223],[128.63083540215476,36.006978133124086],[128.63263282107982,36.00811264497667],[128.63407149670007,36.008545931291614],[128.63498453635626,36.009017801299315],[128.63883879038855,36.009232326223405],[128.63961269307026,36.00950025578115],[128.6400347714254,36.009563519768115],[128.64070498905784,36.01041622631623],[128.6403198012791,36.01127344856267],[128.63920335001006,36.012961218173075],[128.63731574834125,36.015267342199124],[128.6369514848434,36.016929005361725],[128.63450666399748,36.01864901561507],[128.63216430790055,36.0198285232532],[128.6318301213992,36.0198274974911],[128.62881758101943,36.02128834706468],[128.6264929683075,36.02182478554509],[128.62464903797178,36.02329483019054],[128.622644942612,36.024060790914184],[128.62135193366842,36.02523582709308],[128.62175159821842,36.02614616431549],[128.62160195120893,36.02701498312217],[128.62124252900549,36.02805912079437],[128.62164347727216,36.028646777867976],[128.62151046986773,36.02899470150415],[128.6219635216292,36.02987322667723],[128.62187532364499,36.03098760770702],[128.62171818387003,36.03119039089054],[128.62128094766894,36.03264474539736],[128.6217130072851,36.03391537553076],[128.62226726499955,36.03475017927084],[128.62258151730245,36.03497234356375],[128.62307270597694,36.035919130190614],[128.622868370098,36.03642526186013],[128.62312417604372,36.03660907072261],[128.6225902771927,36.03781053412162],[128.62269273207,36.03817394454],[128.62319088749854,36.03850705135939],[128.62340187138716,36.03850452106434],[128.62395495590965,36.039211465003724],[128.62428037466526,36.03922352445449],[128.62447486896943,36.03933646668164],[128.6243886846948,36.03996480613294],[128.6257438088326,36.041572352972615],[128.62611662704,36.04187993048825],[128.62612986164172,36.042478132658445],[128.62625389864618,36.042637463061475],[128.62601931354232,36.04366108374863],[128.6269997929032,36.044275459649874],[128.62695446459853,36.04433099831314],[128.62772865365918,36.04504887204397],[128.62790900908297,36.04566934334429],[128.62744768641744,36.04662483829003],[128.6273115891003,36.04758555502176],[128.6274735925737,36.04793560955007],[128.62777616726223,36.048307959830886],[128.62824341155113,36.049633981395154],[128.62890544761424,36.050735653823054],[128.6288891711528,36.051576094840385],[128.62934275601341,36.052650742013505],[128.62879827312298,36.05307315001888],[128.6287500059316,36.053185452211416],[128.62880135550608,36.05392724874364],[128.6292131788691,36.055209178088894],[128.62899512616772,36.05599897607172],[128.6286766504409,36.05650270219054],[128.62860136979202,36.056964820323],[128.62872400223878,36.05794968690506],[128.6282877098202,36.05921218539484],[128.62836886983993,36.05975178393305],[128.6284371237777,36.059947018879974],[128.62911649654583,36.0599407689498],[128.6295886219574,36.060226206104474],[128.63058893435556,36.05995816001158],[128.6305868840668,36.06050678979179],[128.63048413133183,36.06086230220546],[128.6303606841216,36.06108606703379],[128.63019529701043,36.06116126004271],[128.63043634746228,36.0613663371865],[128.63185588895894,36.06361971308799],[128.63193992088657,36.06521180623807],[128.63269441010638,36.06684292140962],[128.63158742681648,36.067659613402704],[128.63074956518608,36.06793140069743],[128.6292163322205,36.06883818416],[128.6286527637711,36.06876826900274],[128.62758585106295,36.069013703641716],[128.62767697226906,36.06937361155906],[128.62822344725024,36.06971452707169],[128.6287512139692,36.07018416354799],[128.62913665121562,36.07111610511557],[128.62881348096775,36.07161176765363],[128.62830562874657,36.072048642167324],[128.6291924059435,36.07242768197303],[128.63031777052225,36.073538850763086],[128.63149832446604,36.07535558189874],[128.63135494455244,36.07671305272456],[128.63033167379533,36.07758401625204],[128.6284971132808,36.078828410594625],[128.62817194147348,36.079812614649214],[128.62775741782508,36.08016240754474],[128.6260891564403,36.08021372942109],[128.6253549576754,36.08054363681594],[128.62473338797395,36.08013855909726],[128.62454946562832,36.07955079177929],[128.624636957303,36.07919204758297],[128.6239450462284,36.078041255249495],[128.62345159920528,36.07773758625066],[128.62230158627338,36.077316795992786],[128.62118292446925,36.07711106942985],[128.62066599170123,36.077084399685354],[128.61964878212925,36.077245928911125],[128.6182081252911,36.076937463617945],[128.6172685727454,36.07737463723192],[128.6155715476867,36.07789645900621],[128.61436670506058,36.077181154469976],[128.61302792908165,36.077101838153695],[128.6121107562842,36.076508714857944],[128.6118845571233,36.07647395285952],[128.6113663677831,36.07659552027662],[128.60897202714838,36.07658391389302],[128.60713722363968,36.076106378852266],[128.60772586738932,36.075346184904475],[128.60716947200714,36.075344962526366],[128.60603784876687,36.07561578283345],[128.60526320583415,36.07554544835052],[128.6038302770804,36.0756830772048],[128.60280531984887,36.075564172214584],[128.60244148237632,36.07540603199827],[128.6022713635145,36.07553694582867],[128.60020758034622,36.0754102350173],[128.5988114324463,36.07498386821731],[128.59787917169334,36.07496133637255],[128.59758137193455,36.07467150706832],[128.59733241629155,36.07409113928699],[128.59692063459778,36.07190774560836],[128.59695512029694,36.070922951942705],[128.59671425565287,36.07032248619769],[128.59697471250288,36.06873052533117],[128.5975919054207,36.06688535078169],[128.59661777516934,36.06607958080612],[128.59615360294575,36.0660290154011],[128.59580804571524,36.06546665229854],[128.59543604558624,36.065194634280296],[128.59495426587105,36.06381637771421],[128.59445661972316,36.062834834043414],[128.5938996589046,36.06295535262785],[128.59344406164792,36.06296758749202],[128.592260468646,36.06279523968796],[128.591140816225,36.06286389305841],[128.58945033571976,36.06328530516548],[128.58846772944028,36.063439011617376],[128.5881086109816,36.0637814025205],[128.58743947817192,36.06382100504913],[128.58697823187973,36.06364825550472],[128.58478628245516,36.066635996162155],[128.58346564966754,36.06789435617952],[128.5831183665558,36.067523338483596],[128.5825698085396,36.067197753217826],[128.58035436833788,36.0667105137474],[128.58007751897944,36.0656564443046],[128.5800949409207,36.065265249226606],[128.57900058029225,36.06384477088381],[128.57818019877223,36.06359003551169],[128.5779320034343,36.06326681986879],[128.577669060417,36.06315676371145],[128.5773863917956,36.06278321126741],[128.57716879073212,36.06278127056776],[128.5769143053331,36.062625478443586],[128.57563201359906,36.06263887766527],[128.57526748196338,36.06229082259918],[128.57304174611986,36.06120143216475],[128.5719913693512,36.05985346311379],[128.57139409191478,36.05933521785297],[128.57080942361972,36.059060455704],[128.5700768490971,36.05851901398458],[128.56939484001057,36.05822614451181],[128.56909019367592,36.05870716164617],[128.56895239680466,36.059248460771826],[128.56892206113326,36.06199632028842],[128.56676305717,36.065760338514835],[128.56673666242926,36.06696068829305],[128.5656067018757,36.06768174248626],[128.56384157491794,36.0697561523826],[128.56384874943518,36.071825854095906],[128.56457467105358,36.0728059556687],[128.5648722814293,36.073422317520645],[128.5655875281725,36.07410744484905],[128.56522904217834,36.07491804284661],[128.5649998638622,36.07604184777041],[128.56529165047064,36.07721093668062],[128.56697773718733,36.07893879934835],[128.5677223992515,36.07984419314248],[128.56676330158507,36.08074571660993],[128.5665092585995,36.08144075700092],[128.5667600980539,36.08219847675614],[128.56799872444378,36.08370395344625],[128.56821377356016,36.084596458681055],[128.56831893143394,36.08581997274411],[128.56859947775757,36.08729512522421],[128.5690048699665,36.08849979757721],[128.568622923019,36.089520743487974],[128.56809347100992,36.090568844541615],[128.5678395460941,36.09253571152383],[128.5679049655538,36.093480102676004],[128.5674609236097,36.09470654932901],[128.56755572805508,36.09555463388565],[128.56710995418445,36.09627777830745],[128.56571674342925,36.097797694415014],[128.56489221608754,36.0982244549707],[128.56386371351363,36.09820671077979],[128.56335654992918,36.09833487425352],[128.56296167573157,36.098820512775276],[128.56300166611183,36.099204079732026],[128.56278700153115,36.09964009498068],[128.56283531893087,36.100339555928954],[128.56401457657353,36.10142184049722],[128.56462355966107,36.10260180153866],[128.56492942281653,36.103911995206374],[128.56462716823725,36.10684976926115],[128.56516098472827,36.108658445011024],[128.5652154930865,36.10961546810702],[128.5636732901232,36.11074812558515],[128.5628440787812,36.111116054808846],[128.56218626312614,36.11087248811766],[128.56092126410414,36.11092934024246],[128.55998534892075,36.11051433315287],[128.56027452353266,36.11004731840229],[128.5600262964244,36.10952202246869],[128.55879222008812,36.10959616629783],[128.55763351429474,36.109434589507444],[128.5569713556992,36.1097200260516],[128.55553396755903,36.10939483893961],[128.5544951304225,36.1093654794664],[128.55301469241542,36.11031655603141],[128.5525414529324,36.11012032072133],[128.55194550460706,36.1102742591228],[128.55120872682542,36.10980797980448],[128.550388880101,36.10966523370003],[128.5472038277519,36.10887468381247],[128.54620210887538,36.109422937664014],[128.54445650330146,36.11179403530621],[128.5432987603767,36.112433015711005],[128.54275821472717,36.11215860072625],[128.54229394394133,36.11163393603486],[128.54146452296231,36.11094979008665],[128.54034105391435,36.11063447552906],[128.53727025431866,36.1115670583807],[128.5368753069009,36.111467275415464],[128.53655538801897,36.11149301951288],[128.53447889450462,36.112704205072816],[128.53172381403766,36.11268290590763],[128.53114993202178,36.11251538384674],[128.5305523751569,36.112079106662144],[128.5294659459417,36.11188194628413],[128.52926503891015,36.111890493592],[128.5287242689814,36.11214027430495],[128.52818846589733,36.11168821355127],[128.52788789991124,36.11160432863777],[128.52747502510204,36.11164734500541],[128.52639115185636,36.11156446711434],[128.5257377557287,36.11190271652914],[128.52546651526595,36.11219508438253],[128.52537733203823,36.11258098356304],[128.523732370563,36.11266799512132],[128.52214811006323,36.113361014120535],[128.52036224734132,36.114603924899264],[128.51763895199386,36.114025900739826],[128.5169821442016,36.113557444004],[128.5162238794143,36.11262957704832],[128.5154390455339,36.11190713648326],[128.51409024583242,36.111429078318785],[128.5130722401559,36.11157319290969],[128.51250957066387,36.11097063395658],[128.5118503463932,36.11123356566678],[128.51146849287807,36.11128762602286],[128.5109570111916,36.11117893698764],[128.50855399830328,36.11110422112651],[128.50805471521335,36.11013040517464],[128.50782291959976,36.10986596716847],[128.50722598780226,36.11013771550966],[128.50586341190183,36.11121845626816],[128.50468687377256,36.112027992308704],[128.50297912183856,36.11261452634338],[128.5019946264976,36.11276960865466],[128.50081847854636,36.112614557703],[128.49929187481467,36.11261479469831],[128.49904696238627,36.11265147618696],[128.49824647705987,36.11306700262802],[128.4977486969523,36.11383225801417],[128.49742069171765,36.114829457505145],[128.4972022225648,36.115955082928465],[128.49731221028293,36.116667871848186],[128.49630776827775,36.118413940028326],[128.49633887395024,36.11905821901897],[128.4968256830594,36.11963355271399],[128.49685754873755,36.120270757054364],[128.49672995531336,36.12057232182306],[128.49595177050574,36.12120054121693],[128.49554329578876,36.122648638043486],[128.49520532870554,36.12317653596177],[128.4945624062513,36.12344088302621],[128.4938508036365,36.123862850968514],[128.49232086580898,36.125323570302776]]]}}
