{"type":"Feature","bbox":[128.5892561478216,35.150969164999594,128.75139367226913,35.24599741797111],"properties":{"regionCode":"48123","version":"vworld-20260909-3f8952dfda77-p3","name":"경상남도 창원시 성산구","attribution":"국토교통부/K-Geo플랫폼 · VWorld 법정구역정보, CC BY 2.0 KR; 공공주택 복덕방 가공"},"geometry":{"type":"MultiPolygon","coordinates":[[[[128.59531416658461,35.16956250103785],[128.59553055634132,35.169610000284884],[128.59561555631785,35.169728056211994],[128.5955402787691,35.16991861198169],[128.5952988881165,35.16995166708997],[128.59511305517125,35.169866111494535],[128.59520833320605,35.16960777926778],[128.59531416658461,35.16956250103785]]],[[[128.6694492548347,35.24596220974897],[128.66587421185343,35.24599741797111],[128.66477630991935,35.24585258872671],[128.65546511750279,35.24344986360589],[128.65326964719358,35.24251753728568],[128.65145205058343,35.24145836293718],[128.6511764742566,35.24138969327186],[128.65089793531158,35.24142205453411],[128.64403221721244,35.23300655977004],[128.64494416110728,35.232518648545344],[128.64639694772166,35.23168769348728],[128.64611150526764,35.23184705289886],[128.64562763257447,35.23179292944616],[128.6448839352835,35.23240713881276],[128.6445715752872,35.23217170803763],[128.64372440899098,35.23265502986989],[128.636264034513,35.22439563567416],[128.63636524419388,35.22440145063014],[128.63699311995055,35.22397236639408],[128.63699658182185,35.22386056523546],[128.6338467604524,35.22038363413414],[128.633653425593,35.21992867355998],[128.6337211870038,35.219514512569624],[128.63396379478897,35.21919141076193],[128.63434955081263,35.218966275066066],[128.6349143364361,35.2188832173506],[128.6438609533925,35.22103862837039],[128.6447929112292,35.22112944501106],[128.64644623491932,35.22109833783763],[128.647911944753,35.220821681008914],[128.65124130437175,35.22001478233798],[128.650779488323,35.21923287077055],[128.64536786416141,35.21988666303008],[128.64381450274473,35.21991885295936],[128.6427629327516,35.2197324008265],[128.63194126518388,35.21705775207255],[128.6300608314268,35.21656663650003],[128.62914933313965,35.216178852140295],[128.62841284857154,35.21571542458456],[128.62678614629837,35.21437410275335],[128.62590098199627,35.214146364079966],[128.6258165173752,35.21435347586788],[128.6244641711082,35.21398919339963],[128.6244970195517,35.213898574145645],[128.62533969347314,35.21411528698996],[128.6254655569998,35.21377916796723],[128.62463065205577,35.21355707214339],[128.62465513657565,35.21349094371791],[128.62601439960858,35.21384102098755],[128.62594802287404,35.21401574764798],[128.62634109186672,35.214113881474766],[128.62606123456345,35.2139542198286],[128.62601425572697,35.21382901140017],[128.62537996900792,35.213353716835606],[128.62512285828836,35.213348428212264],[128.62503106486386,35.21309215673482],[128.624923638734,35.21301549558882],[128.6242760253646,35.21277305377087],[128.62371018648884,35.2126770164629],[128.62358874125843,35.212588640112266],[128.6236786426024,35.21252510467269],[128.62361270692332,35.2124502951222],[128.623178832457,35.21248903769512],[128.62250624842505,35.21227125008749],[128.6221471795132,35.21230716651398],[128.62209781917494,35.2121944078432],[128.6220486476825,35.21228482072498],[128.6205559004945,35.21194863924546],[128.6197830707843,35.211847112863296],[128.61953341000864,35.211957416648964],[128.61870893242437,35.21196689663362],[128.6177496739237,35.21151333099604],[128.6164493160886,35.21140656497197],[128.61569853937138,35.21146909144401],[128.61392691962573,35.21194202801678],[128.61185418909935,35.21225252594983],[128.6086662351367,35.21206441884033],[128.6084806779153,35.211865389648246],[128.60806278920109,35.211667965717325],[128.60380251255717,35.208702782092075],[128.60359085290636,35.20891131093266],[128.60336552524072,35.208759460064776],[128.60358036086967,35.20854409244926],[128.60003225049115,35.20608540667103],[128.60014859233985,35.20596223450012],[128.59999412293274,35.205850110368644],[128.59978899721756,35.2060620690372],[128.58932618844275,35.19940766127715],[128.59034037099588,35.19896878573253],[128.5902836773804,35.198987650421884],[128.59026288725903,35.198359148456994],[128.59072650536484,35.196091818552254],[128.5892561478216,35.195283044512976],[128.5924110400896,35.19133384714984],[128.59208346799363,35.18185615792784],[128.59271474383058,35.18184046071549],[128.59270871731798,35.18158813372478],[128.59429549826484,35.18064038662616],[128.5950622423689,35.18025982660636],[128.5952044328836,35.18029109984117],[128.5952324108837,35.18022445298863],[128.59501567541025,35.18026340076282],[128.59413419056187,35.18060877289624],[128.59269882992393,35.1813925344301],[128.59259283701914,35.179602188284676],[128.59376251190122,35.1795258713671],[128.59374895093134,35.17916672581638],[128.5926449249031,35.17919411762072],[128.5925919348959,35.17901755887332],[128.5920664267053,35.17907283850333],[128.59170219298258,35.178933058268036],[128.59146593698244,35.17861569903738],[128.59140355569355,35.17840995460539],[128.5914719122392,35.17813284480217],[128.59290413272277,35.17583550399336],[128.59290804981183,35.17556984523149],[128.5926206213512,35.17475067058832],[128.5927303227603,35.174333829637945],[128.59315737174146,35.17348499828682],[128.5942243355307,35.17217836265356],[128.59433079259844,35.17214352900065],[128.59445868563424,35.17222397028869],[128.59506886911845,35.172059847235374],[128.59503964233147,35.17198052531712],[128.59516041576794,35.171936758574226],[128.59521905180065,35.17202735582091],[128.59533712596672,35.171964178873495],[128.59573677773153,35.17141813012411],[128.5958667548745,35.17103113275011],[128.59666116762054,35.17047917790865],[128.59730168933396,35.1696754108185],[128.5976948580068,35.169485875020456],[128.59797428369328,35.16943903650879],[128.5987152371532,35.16867469016863],[128.59877249609482,35.16871440115929],[128.59802483988673,35.16943943930589],[128.5984786235243,35.1695718131067],[128.59911485728517,35.169420681730074],[128.59972134762359,35.16897354156893],[128.59952294244874,35.16883077918351],[128.59956202316602,35.168795269497075],[128.59975968638952,35.168940423453584],[128.60044625006321,35.16837398581703],[128.60068386462808,35.16807925174499],[128.600804774252,35.16766822106622],[128.6006089735292,35.16671627103512],[128.60045359912422,35.16656668753136],[128.5997688987775,35.166213522114816],[128.59930501814586,35.165806377975024],[128.5986335221647,35.165753985596346],[128.59819830065743,35.165557652942475],[128.5980952978888,35.16536164003538],[128.59825894987202,35.164994343447766],[128.5992837916548,35.16490453594421],[128.5996582661012,35.164551168119075],[128.59992765230274,35.16455782098086],[128.60009751083197,35.163911405316696],[128.6003112398143,35.163678329033836],[128.60153302446136,35.16275176798304],[128.60260727419433,35.16254459169596],[128.60296228802818,35.1623763698073],[128.60332544941545,35.161929130531945],[128.6031966426556,35.161786303515626],[128.60338484629236,35.16182491808556],[128.60375840365796,35.16141690706535],[128.60487991440272,35.16049942953018],[128.60518627485718,35.1603715696885],[128.60551860114617,35.160354572358564],[128.60602831867504,35.16055609298461],[128.60780642017463,35.16230848684677],[128.60798465144296,35.162719929181165],[128.6080189550091,35.16308561650614],[128.60845826089684,35.1630710767797],[128.60892851661688,35.16295624603864],[128.60896032842166,35.16301989711308],[128.60798265870866,35.16320654046622],[128.60797272248539,35.1636081840689],[128.60813809582982,35.16378766656302],[128.60845983946103,35.16393151615679],[128.608882908356,35.16393607276609],[128.6093113424793,35.16382018700166],[128.6092589191354,35.16357230416436],[128.60938481402596,35.163799196085236],[128.61027427598788,35.16355083585776],[128.6107737411426,35.16329167615538],[128.61090803393068,35.16314604433268],[128.6109915361741,35.16268945755439],[128.6106832051846,35.16227081374171],[128.61028058700657,35.16194174158182],[128.6096085427346,35.16116281267163],[128.60950978419416,35.16113957162418],[128.60939145043665,35.1605747069114],[128.60953589027255,35.15996102692267],[128.60939984215548,35.15909263883005],[128.60888783515992,35.15824620084803],[128.60806624468466,35.15759836713373],[128.6077802825733,35.15700119949628],[128.607858939427,35.15660020651929],[128.60800866689513,35.15642408215737],[128.60823957680483,35.15635646774803],[128.60795311954587,35.15584771482667],[128.6080311225561,35.1558328443934],[128.6083191934595,35.15632349679718],[128.60874296829974,35.15614154772981],[128.60927836422053,35.155712829487555],[128.60939204269533,35.155179623989966],[128.6094875871051,35.15510001754791],[128.60948565257385,35.154876438015464],[128.60987265180322,35.15455965975579],[128.60985291162328,35.15403291375579],[128.60975740526766,35.15382013673406],[128.6094710962481,35.15348476137685],[128.60927188280291,35.15348483996913],[128.60921822206953,35.153150733738734],[128.60928302094544,35.15305816350514],[128.6091678805529,35.15256037572869],[128.60925370685283,35.15230392400482],[128.60980697100803,35.15148617736047],[128.6098083440748,35.150969164999594],[128.61154789049593,35.15151683327056],[128.61293148320667,35.15181512759399],[128.61349141224738,35.15414105055541],[128.61456573560986,35.15476475668631],[128.61487115089255,35.15417400437621],[128.61562203280124,35.153862998907435],[128.61592063417496,35.15405877427593],[128.6169440068099,35.15397339005979],[128.6181370777578,35.15474764262041],[128.61900828269083,35.15577499580293],[128.61835089636847,35.15706832649491],[128.61919524897186,35.158448639582986],[128.62651052007027,35.16413147849831],[128.629001937019,35.16884938962108],[128.6305309540122,35.169858632306926],[128.63315839430152,35.17126254589266],[128.6346710972517,35.17311686960977],[128.6376864477106,35.176357782962135],[128.6382057669143,35.17663869568841],[128.63940370630667,35.17639414049244],[128.63980124955629,35.17666859181948],[128.64210996298897,35.176212900136974],[128.64262186583966,35.17618846616137],[128.64358828700685,35.17650523973411],[128.64390992102798,35.176358862340514],[128.6454210059566,35.176454213287144],[128.64672323920703,35.176433510536754],[128.6470976754165,35.17714850474822],[128.6474484483616,35.17761284137926],[128.64913096367445,35.177719769466314],[128.6502044914364,35.17895977808373],[128.6506159370464,35.1787949963609],[128.65445578815056,35.18020893139038],[128.65612463056567,35.180095775415005],[128.65817133790128,35.18036437422745],[128.66177384714553,35.18038578621568],[128.66380360810317,35.18094224568656],[128.66592719310046,35.18119956718784],[128.66740931387625,35.1807683122574],[128.6697674340154,35.18068891266066],[128.6717019354417,35.17944981496564],[128.67328787633411,35.17794927718372],[128.67437833853913,35.176525447408004],[128.6750475650648,35.17594395201921],[128.67602861483792,35.175437203992395],[128.67742892374662,35.17446130186093],[128.67835186023356,35.17392876104024],[128.67840176354352,35.173735204437655],[128.67930814318765,35.17337493233969],[128.6807865845745,35.173368500278976],[128.68158652779124,35.173015996831595],[128.68214654612044,35.1730312287227],[128.68354303038123,35.172740492700456],[128.68510430377864,35.17236552612266],[128.6859323882751,35.172081193968346],[128.6865432700069,35.171594848173896],[128.6868090924811,35.1711990437156],[128.68914038310157,35.16974826992334],[128.69482669743365,35.16881787400633],[128.69574877670175,35.168954731402614],[128.6978855636958,35.16881407682212],[128.69881312651734,35.16859153744309],[128.69981429029474,35.16864359851404],[128.7011149800641,35.168527936123745],[128.7015091694237,35.16846807904309],[128.7017788700591,35.168278551403816],[128.70231176045826,35.168221038392595],[128.70359407930468,35.1675537814309],[128.70467958833402,35.16753037961084],[128.70554925530064,35.16766116470254],[128.70631560984066,35.167276535427426],[128.7083273331306,35.16779993753167],[128.70865929315596,35.16774392938417],[128.70895968671869,35.16750938750511],[128.71013856632467,35.16717971749197],[128.71067897894008,35.16693257641328],[128.71207182988573,35.166873466652945],[128.71218630280578,35.16665276191588],[128.71290953428328,35.16644476217518],[128.7134766623412,35.16578277929977],[128.71359041780389,35.165481920073525],[128.71410241989102,35.16521439079067],[128.7147011871918,35.16518029136805],[128.71515457335255,35.16529681301712],[128.7155064081515,35.16467617875157],[128.71618409425042,35.164150783902514],[128.71636888724737,35.163865587341775],[128.71756715064564,35.16325304392416],[128.71900223715306,35.16288797838798],[128.7202169177496,35.162783694428356],[128.72103904776003,35.16248129609463],[128.7219284542684,35.16242926099994],[128.7223397130761,35.16209174905062],[128.7225612408333,35.16167048316278],[128.7227719534825,35.16154201888128],[128.72564134403805,35.16042999947471],[128.72593952554084,35.160171180359576],[128.72636111032736,35.1599463333299],[128.72695700286036,35.159909329265204],[128.72825658438416,35.1595507785136],[128.7298602338818,35.15845827681435],[128.73030841279427,35.15833044323047],[128.73116959282854,35.15839191972394],[128.7320323798185,35.158013101759956],[128.73221925011924,35.1578113945692],[128.73303323654878,35.15744353950152],[128.73395986439044,35.157445201666626],[128.7361376962642,35.157030996084536],[128.737392943819,35.15709276701176],[128.7384490311424,35.15656568155683],[128.73834892052733,35.15769595657049],[128.7385504896836,35.15817179509975],[128.73878725030963,35.15845495524705],[128.73895044525426,35.15950040985948],[128.73944260449974,35.160029557852305],[128.73936602315905,35.16069777055932],[128.73947414403577,35.16190680006786],[128.73972281033346,35.16301517801516],[128.73977552075246,35.16409324771982],[128.73997470085197,35.16505217989583],[128.74050245700474,35.16632902923061],[128.7409866938122,35.167118258163086],[128.74120701648215,35.1679244735924],[128.74115408850372,35.16816749056135],[128.74126566801993,35.16905319293652],[128.7404813602825,35.17015521549288],[128.74102162453806,35.170556856718086],[128.74125668608366,35.171900888060954],[128.74118234811596,35.172386672708164],[128.74137835167278,35.17306007841656],[128.7420069510708,35.173499646001865],[128.7422408942284,35.17409747093507],[128.74275322957172,35.17472699553305],[128.74270648305665,35.176685895500036],[128.74299697631042,35.17715589438551],[128.74324239596135,35.17867416482882],[128.7431014952687,35.17911696307097],[128.74330800965444,35.18095981692376],[128.74338206479786,35.18116348843994],[128.74395692224923,35.18156922201865],[128.74406104675847,35.181891803315104],[128.7439731268528,35.18365470453678],[128.74388987770894,35.18403678949697],[128.74357864942985,35.184516056145796],[128.7436268130405,35.18493337826459],[128.74391014250352,35.185439574646885],[128.74424156795283,35.185750326169405],[128.7449387063329,35.186906385140276],[128.7451795879449,35.187583986179796],[128.7456591767631,35.18844175028625],[128.7463103520046,35.18991203078667],[128.74623087504963,35.19169072744991],[128.74733425360196,35.192160214626554],[128.7478121130164,35.19282068755095],[128.74866440532992,35.19354778278493],[128.74892874277813,35.19401573573143],[128.75043962748268,35.19446975732221],[128.750534103821,35.19456540703776],[128.75085477439617,35.19638505500109],[128.75139367226913,35.19770913444878],[128.75091413027988,35.19957708555564],[128.75056071032176,35.20002674614841],[128.75045667531617,35.20035181116802],[128.7506910768651,35.201446731088886],[128.7501963084115,35.20169160196058],[128.749840082476,35.20197209097793],[128.74922384210495,35.20213487850375],[128.74888087743514,35.202060875554096],[128.74829729227176,35.20228551677721],[128.74712538755657,35.20294034720789],[128.74593548300828,35.20407019223154],[128.7450007842296,35.20526515812004],[128.74542636708426,35.20610705436052],[128.74460722406386,35.20610842558515],[128.7432342976171,35.20623178931871],[128.7428113073806,35.20582561841113],[128.7412512741276,35.205695684908356],[128.7396460726551,35.20542395608049],[128.73693394267158,35.20560674422784],[128.73514943637784,35.205967789377276],[128.73344666907346,35.20555220212984],[128.73187026695862,35.20636148362745],[128.7305180395203,35.206186295893886],[128.7296372651956,35.206402961804464],[128.7279973861591,35.20695295556364],[128.72752100984962,35.207768665091855],[128.72723969567062,35.20848894921864],[128.72682555336453,35.208776381718344],[128.72647290002107,35.209208120016086],[128.7256235920142,35.209884700064045],[128.7250473557786,35.21104087585787],[128.7242513995018,35.21179459566544],[128.72341787446027,35.21343525566192],[128.7225178178632,35.214403527035465],[128.72309498828105,35.215248117290784],[128.72318428149524,35.21553413938884],[128.7223008597716,35.216886443519314],[128.72201971536208,35.217921022502786],[128.72144179376372,35.21879286486962],[128.7216491317,35.22150651866212],[128.72147749079144,35.22257640434725],[128.72000287555343,35.223589941941306],[128.71991519083883,35.22496720527368],[128.72019159860713,35.224980902942285],[128.72060994146437,35.22524796361172],[128.7212234724399,35.22536084749847],[128.72196835476393,35.22611453674584],[128.72246636625553,35.226391494372116],[128.7227771656084,35.22689277080786],[128.72354727235756,35.22769567346755],[128.72408152205278,35.22865256382263],[128.72417952595345,35.2298482984825],[128.72446217694412,35.23007215314621],[128.7249049864989,35.23087118545808],[128.7249719636282,35.23129237241555],[128.72464897918812,35.23194463797956],[128.72481556721343,35.23285238963226],[128.724442108452,35.23365963250736],[128.725251192492,35.23458686833464],[128.72489341857212,35.23519351192424],[128.72550959658875,35.235875122114486],[128.7259502338225,35.23672751422058],[128.725654895809,35.23714384955296],[128.7253094850265,35.23747363608383],[128.72473585753298,35.23738745375039],[128.7239922742272,35.23702374457376],[128.7233759278668,35.236981978777614],[128.72192261157198,35.236604745561074],[128.72113056290172,35.2367311307844],[128.71987627302963,35.235869945946696],[128.71899577887243,35.23570835107133],[128.71802344538978,35.23531084742323],[128.7173167349621,35.235212198205595],[128.71664967710186,35.235809750983265],[128.71631106655403,35.235936935389134],[128.715722043359,35.236662683897336],[128.71340070183192,35.23637991506077],[128.71301885712174,35.23624589467434],[128.71171303318803,35.23669018217912],[128.7061906152083,35.23488958968104],[128.70489258886636,35.23435236369597],[128.7029672260869,35.23340775035065],[128.70236315777433,35.233583238403],[128.7019598557137,35.23348787980625],[128.70159355330762,35.23353098742702],[128.70109453466623,35.233945526349274],[128.70039569669228,35.23410946639255],[128.69980162680176,35.23409393868926],[128.69935404308848,35.234186426732286],[128.69720936278256,35.23359069406891],[128.69505163014566,35.23262600027119],[128.69428116763217,35.232209714032685],[128.69181842689704,35.235374167963606],[128.68842869918817,35.23736570371715],[128.68195701802745,35.24196833399788],[128.6817250323342,35.2419550128766],[128.68122535416282,35.24218046842527],[128.6694492548347,35.24596220974897]]]]}}
