{"type":"Feature","bbox":[127.67942765506882,35.514304592411406,128.0951626919699,35.910042327076084],"properties":{"regionCode":"48880","version":"vworld-20260909-3f8952dfda77-p3","name":"경상남도 거창군","attribution":"국토교통부/K-Geo플랫폼 · VWorld 법정구역정보, CC BY 2.0 KR; 공공주택 복덕방 가공"},"geometry":{"type":"Polygon","coordinates":[[[127.88312904158701,35.90585996273012],[127.88469603654035,35.9076094625475],[127.88500130452528,35.90956027893894],[127.88204246614268,35.910042327076084],[127.88116500055686,35.910041037648384],[127.8795436322088,35.90989606929066],[127.87896323651664,35.909546556271266],[127.87796292138043,35.90920426656097],[127.87769088882553,35.90882068032451],[127.87763875990116,35.908426771165644],[127.87740887397392,35.90813775505994],[127.87737646038813,35.90761899211556],[127.87700231051268,35.907438967846176],[127.87646033355722,35.90730596788826],[127.8760982895966,35.90698880428344],[127.87542473219595,35.90671232223553],[127.87510601356892,35.90667442401154],[127.87397083177366,35.906223766134794],[127.87345383994312,35.90578350775805],[127.8731008093052,35.90564084459495],[127.87283610093462,35.90568080981707],[127.87249139216385,35.905498863238805],[127.87234685198251,35.90526850842715],[127.87202760398729,35.90536433746947],[127.87165991472405,35.90520879819717],[127.87170106249857,35.90495596151177],[127.87146402080559,35.904852924114365],[127.8710388147464,35.904839282862326],[127.8709720644421,35.90464527572659],[127.87063479409771,35.90445294226842],[127.8699543216159,35.90439921418498],[127.86928281866795,35.90412842170294],[127.86908746477589,35.90425734021302],[127.86850798374806,35.904367669229075],[127.8683155736415,35.90434951338792],[127.86801765965946,35.904103598496846],[127.86768656270365,35.90399085204774],[127.8670581204824,35.90404738196428],[127.86631421132556,35.90509913467323],[127.86576255610665,35.90556322035557],[127.8654828581211,35.905770254090065],[127.86492961121084,35.905941389278865],[127.86451824522001,35.90635930720355],[127.86410854875115,35.90648387497455],[127.86306120819728,35.906632032790874],[127.86290539211514,35.90674014523464],[127.8623472700335,35.906731655142465],[127.86213588703376,35.90678255083592],[127.86213647198824,35.906846721551155],[127.86136146574349,35.906728105309284],[127.86067295949321,35.90641866240518],[127.85984979757183,35.90680212407071],[127.85963354410588,35.90667222071701],[127.85932407374199,35.906627293412186],[127.85917034448892,35.90628750820361],[127.85931059678748,35.90603653497128],[127.85914743550029,35.90569107618046],[127.85903444859504,35.90566773253811],[127.85917506465793,35.90530390559556],[127.85912692417054,35.90507139359382],[127.85849912810195,35.90472875331955],[127.85856839346975,35.90471023405728],[127.858218903989,35.90431187136057],[127.85814781200905,35.904030938252184],[127.85844809977816,35.90365529177992],[127.85830095895825,35.902785102035594],[127.85832641522104,35.90110485346352],[127.85896482132542,35.89992080365396],[127.85870117076408,35.89821279119675],[127.85825662790229,35.89695747380218],[127.85757923523276,35.895957645021696],[127.85710686256729,35.89501112414709],[127.85491611445616,35.893256468208705],[127.85376933458178,35.89223037899562],[127.85272308509764,35.891138515110605],[127.85150854816264,35.890548605688465],[127.85054122191508,35.890296873485525],[127.85124856456473,35.889448591459036],[127.85110453435314,35.88847285300331],[127.85124472754498,35.88746459372909],[127.85201119044284,35.885369672428524],[127.85269299980301,35.88438874062283],[127.85268494445374,35.88383456571068],[127.85352856043856,35.88162656920727],[127.85200922275153,35.87922119430245],[127.85099564766472,35.87791675203543],[127.84978017656422,35.87726895270337],[127.84675616079494,35.87813596929624],[127.84488108195269,35.87576928148835],[127.84437563177524,35.875341240668575],[127.8446174120718,35.873712727140514],[127.84433770893025,35.87259919716162],[127.84494131697686,35.87051534742226],[127.84445441553821,35.86956260972051],[127.84256104311083,35.86775230722404],[127.84144558006969,35.86626578957381],[127.8368721046525,35.867145527004425],[127.83568646210645,35.866812829372904],[127.83444472108602,35.86684485735788],[127.8334402393904,35.86735259499858],[127.8322395559496,35.86885336316518],[127.82956809041694,35.869052590250135],[127.8282666059319,35.86868108310296],[127.82645589796978,35.86828253329931],[127.82523305878405,35.86765108788817],[127.82425503417721,35.866833930210554],[127.82310188883629,35.86640272427705],[127.82084851417125,35.864211124479965],[127.82087539461489,35.86341430314744],[127.81933405870039,35.8624534475062],[127.81957266310212,35.86157747887584],[127.81940483960058,35.86066919694013],[127.81938435420662,35.85960275373331],[127.81725928542434,35.85911177550756],[127.81653184073888,35.85831332384942],[127.81597633355322,35.85783080550814],[127.81446829002839,35.85677478765149],[127.81458583356326,35.855775639297455],[127.8148675544665,35.85516869903016],[127.81472811563798,35.85474391464755],[127.81447853876473,35.854364315952736],[127.81342091607,35.85354369470015],[127.81192489891008,35.85388279712283],[127.80931584818153,35.855107855175284],[127.80788478645573,35.856238729586],[127.80714626024904,35.85703059043539],[127.80613282126274,35.85768123104127],[127.80513720681287,35.85788146364444],[127.80424476860537,35.85849838343953],[127.80300008940739,35.857581193190335],[127.8014698499972,35.856593617257225],[127.80042901599333,35.85577652717231],[127.7999305025446,35.85561570689897],[127.79889702876545,35.855055008037425],[127.7977022393572,35.85497680658023],[127.79714869492449,35.85450418199579],[127.79494268846739,35.8540268623099],[127.7939114318562,35.85363622121532],[127.79350457322509,35.85316446590368],[127.79309929252923,35.852906191008444],[127.79213051368211,35.852486372691736],[127.79087130556991,35.85265321177581],[127.79006882851259,35.852588609929576],[127.78890202672689,35.85278778776653],[127.78770053141942,35.85271682214324],[127.78679655949001,35.851862837526575],[127.78575139621051,35.85161989222718],[127.78384654834758,35.85091200808574],[127.782533221135,35.84955177260891],[127.78135509732297,35.8490761280635],[127.77920358689698,35.84724672280923],[127.779251105261,35.845798308150094],[127.7784789773826,35.84506518783143],[127.77728152600912,35.843258563431824],[127.77553115217542,35.842805513153934],[127.77518420418144,35.84209685176535],[127.77315390179812,35.840122535150016],[127.77280697352307,35.83962474527716],[127.77060406396669,35.839033561449526],[127.76888280219883,35.83837919775125],[127.76664270707091,35.83832130288026],[127.76528980388855,35.838919719434784],[127.7643572134434,35.83893026049174],[127.76079347915362,35.837427358003765],[127.75952107737407,35.83701791071228],[127.75778458358839,35.83687874545541],[127.75663449390301,35.837413276645954],[127.75601878703675,35.83866304302314],[127.75402883395988,35.839127054712804],[127.75264771357713,35.840450188574316],[127.75252853651735,35.841579423144964],[127.74974816343493,35.842705183277886],[127.7458977679916,35.843561046036314],[127.74545864782982,35.84371491002389],[127.74447793420438,35.84448669750456],[127.74301059410281,35.84217563266702],[127.74174432000375,35.84058899508624],[127.74113693835328,35.8388643329753],[127.74012578549734,35.838099749390736],[127.7395157230348,35.8371169408877],[127.738023429708,35.83524992402124],[127.737737146961,35.834423682802296],[127.7381163986791,35.8332528874535],[127.7383492485243,35.83154523543363],[127.7389900923161,35.830813660018634],[127.73902854863853,35.828802933151486],[127.73861753932877,35.82707836706971],[127.73803929329979,35.82637756254339],[127.73566611583308,35.82525827997787],[127.7353556486818,35.82494275206346],[127.73432108743421,35.82303897002091],[127.73336651992469,35.82218297292559],[127.73253584404249,35.82089412087606],[127.73225492355247,35.818276715233665],[127.73162801295007,35.81587095576938],[127.73122386307023,35.814907898589674],[127.7296725465722,35.81302360129207],[127.72867893336452,35.81304082666708],[127.72714347222626,35.81332023219934],[127.7253067368029,35.813200040472],[127.72461469912278,35.81252704609005],[127.72348981146273,35.81071970551805],[127.72359777908792,35.80973369241532],[127.72412061674432,35.80794025844332],[127.72423442439917,35.80576841021556],[127.72385743104475,35.80469897456353],[127.72335893951885,35.80397281415386],[127.72174019853249,35.802915777388016],[127.72087616429356,35.80218159561344],[127.72010251544484,35.801084598810114],[127.7194695839085,35.7988148845443],[127.71931725395346,35.7972703546257],[127.71889046048265,35.79682902520295],[127.71736907669994,35.79596330954098],[127.71445621014921,35.79466220721841],[127.71180635539324,35.793049130261736],[127.71044723601617,35.791750915452326],[127.7093990191928,35.79134575784658],[127.7083173194319,35.79139918435069],[127.70742028310796,35.791782873941735],[127.70653892164859,35.79192372981944],[127.70486498283951,35.791303033946555],[127.70387472414568,35.79075018216539],[127.70022705811122,35.78901810246087],[127.69978916292844,35.78811884007669],[127.69485510060882,35.78460954103316],[127.69374086030284,35.783168641713544],[127.69085629198275,35.781723563114724],[127.68779229909192,35.77930121533891],[127.68481084400477,35.77767938505406],[127.68462342649691,35.77586160257017],[127.68434197115128,35.77496842125383],[127.68255493538268,35.77358072839864],[127.68123283107037,35.772142319065146],[127.67942765506882,35.7685112123726],[127.67957547295491,35.76839369178835],[127.68055585488106,35.7680983835367],[127.68128920130631,35.7676568856833],[127.68274350861057,35.765244744788994],[127.68324605473504,35.764147971620176],[127.68428875987846,35.763304378393755],[127.68627322743006,35.76224415664565],[127.68780834799725,35.76209403769868],[127.68938837215055,35.76154398860889],[127.69060484754897,35.76037779027395],[127.691788964313,35.75950913256572],[127.69282300036181,35.75898700688747],[127.69406837108967,35.75881772668201],[127.6951048300103,35.75798381934796],[127.69647195034133,35.75757934495224],[127.69739909293891,35.75775090019789],[127.6993895184139,35.757667096516144],[127.70030457588749,35.756498801367755],[127.70187581311662,35.75564489242348],[127.70174467467905,35.75390613055961],[127.70278660956933,35.753445699803855],[127.70342498347465,35.75211571525496],[127.70374202937673,35.75212702973488],[127.70478090934675,35.75107828586268],[127.7058381352896,35.750705428335344],[127.70584482258174,35.750525889723455],[127.70671237168949,35.75026335679125],[127.70816889180293,35.749111457929814],[127.70981390754717,35.748972623526264],[127.71014008258365,35.74791867411132],[127.70968686995012,35.747351639686165],[127.7100954270665,35.746196937143786],[127.71048625597855,35.74471759397537],[127.71099162430761,35.744391879990964],[127.71166681510041,35.74253284717104],[127.71258279661508,35.74109146409718],[127.71265243942187,35.73970157708709],[127.71287203387047,35.739080043918996],[127.7129846445464,35.73760037868209],[127.71268309159991,35.737174286925985],[127.713010665204,35.73639260199168],[127.71294358866619,35.73574746228668],[127.71435289687884,35.734362108442],[127.7150629710392,35.732607391624875],[127.71580545842019,35.73185214048255],[127.7162149938514,35.73114306817556],[127.71807512650062,35.730900158341186],[127.7193306076711,35.73034666501447],[127.71978946871303,35.72981651694552],[127.72038097872566,35.7294398688741],[127.72090258821751,35.72850673026816],[127.72085158458397,35.727703374971334],[127.72259048974314,35.726576827821226],[127.72314906230977,35.726331593108306],[127.72495354036162,35.72486444404018],[127.72555219677731,35.72427294277321],[127.72660102121212,35.723974035541374],[127.7274268283113,35.72351465694205],[127.72832755630743,35.72258037704988],[127.7287591823625,35.721797220415596],[127.72975299429687,35.721725867068365],[127.73063339827718,35.72131364200198],[127.73111380946594,35.72089655312841],[127.73128368950331,35.720544171115286],[127.73177255952695,35.720438547247994],[127.73369771552036,35.719663535635156],[127.73457918363269,35.72034422604124],[127.73476167573853,35.7210674999812],[127.73608532007772,35.72185427114498],[127.73644755098226,35.72335764542793],[127.73764059861774,35.72420774471261],[127.7379402641755,35.72477644386573],[127.73901885797878,35.72518293374372],[127.7395088819078,35.72487092841726],[127.74143512928919,35.72474854321236],[127.74210808612494,35.725571628295356],[127.74307776680186,35.72615343034729],[127.74324549979865,35.72654809861298],[127.74424159720687,35.72730608172087],[127.74467428340857,35.72780326825335],[127.74536882207819,35.72827596854859],[127.74634786416007,35.72947000898011],[127.74814771772226,35.73111068241833],[127.74874913806768,35.73130897181231],[127.75087067572657,35.73135776450461],[127.75168059922419,35.73175483614747],[127.75271651671169,35.73255825858311],[127.75350832046603,35.733059624158756],[127.75422212636153,35.73267667201489],[127.7552437917149,35.73348040465249],[127.75649519222797,35.732676830447446],[127.75726032421913,35.73169387448672],[127.75881681356431,35.731328786592655],[127.75961703490542,35.73082695994635],[127.76030719835754,35.73073415250321],[127.76096278918259,35.73081600538769],[127.76148092323552,35.730130347162564],[127.76276030793699,35.72957742941887],[127.76224857555033,35.72907169149954],[127.76184446957922,35.72808514810557],[127.76124900189947,35.72725719937305],[127.76150146378838,35.726490431994286],[127.76271557921419,35.7249773769675],[127.76274519601122,35.724266327963704],[127.76339731597652,35.723178791737865],[127.76338631123953,35.722461962552764],[127.763665261261,35.72144946772069],[127.7640716251661,35.72096194357993],[127.76504871398944,35.72045643438932],[127.76552059745312,35.71999278590616],[127.76628431465663,35.71981984219102],[127.76682296528412,35.71923654643195],[127.76728059394217,35.71920022024858],[127.76816552131216,35.71851341945581],[127.76932832874496,35.717440055265556],[127.76984272922239,35.716671956161484],[127.77077540724403,35.716412481813094],[127.77119837399623,35.715888894647115],[127.77255317479067,35.71480471634587],[127.77418365611301,35.71385070131626],[127.77482294959842,35.71337264658349],[127.77641725306427,35.712977167770134],[127.77704487924083,35.71294883701331],[127.77820736719832,35.712010874891504],[127.77865310747461,35.71144559371811],[127.77883238555752,35.71078515054784],[127.77974253747139,35.710107492474904],[127.7806022848418,35.708713596237075],[127.78080104343788,35.707697228281695],[127.78157246919298,35.70699593318032],[127.78341188230505,35.70632244685889],[127.7843773059494,35.70523783885865],[127.78533624767363,35.70530875060527],[127.78641301536547,35.70510869901782],[127.78681795430248,35.70518437103839],[127.78708214532983,35.70534011988933],[127.78807802566077,35.70526022328989],[127.79027196891516,35.70570073416469],[127.79044149853951,35.70586357702521],[127.79091647952293,35.70550541765927],[127.79220856963026,35.70555091382403],[127.79363230420896,35.7052116584788],[127.79467705942514,35.70477216480304],[127.796140559905,35.70366726633099],[127.79615336247898,35.70302783485233],[127.79630883793118,35.70241343320428],[127.7965110990409,35.70178299497949],[127.79696950535909,35.70102356785217],[127.79818394301167,35.69981791174241],[127.79869709851265,35.69943476520195],[127.79860377079615,35.69883990095045],[127.79901537830885,35.698405569255044],[127.79967400218942,35.69793542877741],[127.80041526263604,35.696981124469225],[127.80123141867477,35.69571142871861],[127.80137468322307,35.69481384740991],[127.80133000165056,35.69432867695256],[127.80146154777273,35.69385574315619],[127.80165251585086,35.69373232483812],[127.80189372567912,35.69291995247381],[127.80213916566137,35.692784157036535],[127.80207671115402,35.691965326557025],[127.80320308377046,35.69034849557272],[127.80311144348713,35.689823750032275],[127.80273866974088,35.689006997898915],[127.80272325650608,35.6883473754576],[127.80276410897102,35.6879603756701],[127.80302587199242,35.68767478977025],[127.80318747299148,35.68712507386534],[127.80311050864204,35.68640332385561],[127.80339609661294,35.68599789185129],[127.80379460135507,35.686031669389074],[127.80442798684501,35.686526497503955],[127.80549235575313,35.68647687741988],[127.80651111459997,35.685971240102674],[127.80747562849788,35.686007746671365],[127.80819897540023,35.68596203872578],[127.80889398522736,35.685820065497545],[127.80998396267456,35.685901806865544],[127.81023882428221,35.68581422982195],[127.81132687178494,35.685774105006445],[127.8114934177462,35.68528022338124],[127.81112671805332,35.68399150621354],[127.81124888602108,35.68343955858295],[127.81203865938564,35.68222597900812],[127.81266169935309,35.681039629268085],[127.81300773236772,35.68087603226917],[127.81318655688476,35.680934541572014],[127.8135226948958,35.68088773005969],[127.81386468967051,35.68043008808369],[127.81402779975234,35.68033243371538],[127.81441055084159,35.68027494987533],[127.81489605561323,35.67962028460862],[127.81512110258389,35.67900492729419],[127.81499320799259,35.6788308057715],[127.81493709450318,35.678081216815116],[127.81531396382123,35.6777854433558],[127.81566562466233,35.67731386029332],[127.81602727111779,35.67722574479551],[127.816264631031,35.6769196932965],[127.81662252498896,35.676851555358674],[127.8171420255908,35.67657743883784],[127.81755266857104,35.67593081390338],[127.81861225202825,35.674943826455234],[127.81903936382622,35.67471647341616],[127.81963417772877,35.67580510421021],[127.81999376155348,35.67563409463904],[127.8216390691039,35.67557481357205],[127.82184158299974,35.67534376580361],[127.82230667407276,35.67509284445476],[127.82263591091653,35.674713475505655],[127.82292655763348,35.67466268605431],[127.82343552310627,35.674247081864365],[127.82329107324726,35.673956856289514],[127.82388217793363,35.67310614032221],[127.82502696444837,35.67070314031217],[127.82544522070599,35.6705507831438],[127.82592262198527,35.67025589921269],[127.82593536835039,35.67004162980315],[127.82639920704385,35.669807248221574],[127.8268530131258,35.669841660853876],[127.82721083604447,35.669535129774864],[127.82754478184239,35.669609964059916],[127.82798460359331,35.66956291399564],[127.82823028165159,35.66962715086977],[127.82851158779935,35.66998181444882],[127.82877401634917,35.669941767794896],[127.82860114848661,35.67001586933301],[127.82900513538866,35.67029605508302],[127.82931518989987,35.67023466244213],[127.83008595679328,35.6704743743298],[127.8319689590495,35.669973863333084],[127.83290531001981,35.66990589767891],[127.83310356652329,35.66963103199515],[127.83278141927796,35.66870740348822],[127.83347066508082,35.6685193108769],[127.83366423467771,35.66805007637417],[127.83401859648527,35.667525607498014],[127.83383503684631,35.667054937760525],[127.83389517902714,35.666882445153306],[127.83381692092924,35.66666481157637],[127.83385361008266,35.66583225031443],[127.83392950708318,35.665624220027176],[127.83323388007871,35.6643794748564],[127.83362141163936,35.664052224560436],[127.83392420540643,35.66358947872792],[127.83365455111444,35.66273772363004],[127.83387820102689,35.66202759133753],[127.83335816256294,35.66176455568549],[127.83305674452771,35.661405734365715],[127.83313224112699,35.66104247551621],[127.83345537907228,35.66077735274221],[127.83345060155018,35.66046955311518],[127.83388756110965,35.65993997924328],[127.83473789091317,35.65950422617717],[127.83505096479061,35.65988046493106],[127.83674465616215,35.66085303883287],[127.83694030661272,35.66093062051821],[127.83746239191126,35.660622267301406],[127.83799318790558,35.66082356483891],[127.83965471092368,35.660318401217054],[127.83996019318229,35.65995043454817],[127.84066204073454,35.66005255190377],[127.84143898866405,35.65958660275243],[127.84157895124449,35.65925079109115],[127.8427049598932,35.65851680339814],[127.84379364419254,35.65860564067674],[127.84493934877993,35.65781732054414],[127.84559666605436,35.657158720686034],[127.84598619049886,35.656968776150435],[127.84624465445133,35.65659648252761],[127.84648709175966,35.65640839907685],[127.84705348382289,35.65610346978453],[127.84758461755655,35.65704166851914],[127.84812322922906,35.657342798032346],[127.84839120144667,35.65780139633326],[127.84858318768892,35.65913049164039],[127.84958542890558,35.65973856578419],[127.85021466232132,35.65920484648474],[127.8505786373389,35.65857711322752],[127.85083677746502,35.65845073593781],[127.85096055060602,35.658296837670186],[127.85154662340258,35.658142302947795],[127.85213896099874,35.65809011208643],[127.85263085893145,35.65770320077524],[127.85297509607827,35.657652699477374],[127.85540009977343,35.65772025212789],[127.85677709883369,35.65825998322641],[127.85778944538193,35.6581385791608],[127.8583007365207,35.65841486518293],[127.85861590523734,35.658854168148835],[127.85889954681713,35.659008612626856],[127.85927420571944,35.65904955067486],[127.85977248385933,35.65930280615017],[127.86046857770316,35.65934243714623],[127.86170957058464,35.659215787478004],[127.86204821117737,35.659393578579156],[127.8621546999932,35.66014756929891],[127.86250337395872,35.66102057508705],[127.86213312129885,35.6616361410562],[127.86224905700014,35.66198233748294],[127.86245557613081,35.662124383373566],[127.86248985126134,35.66265893159987],[127.86224734373383,35.66299899779387],[127.86246977990392,35.663062114936224],[127.86348647933913,35.66367347419543],[127.86374682221401,35.66499265243252],[127.86412395632122,35.66526347578377],[127.86441547212367,35.6662651333136],[127.86497003463293,35.66677096183265],[127.86561640684594,35.66699673057282],[127.86573767213848,35.66721351023793],[127.86537999723609,35.667380839274955],[127.86559403644597,35.667813541413224],[127.8677636133762,35.66911504781917],[127.86855753490163,35.66990961529634],[127.86895741745886,35.67080114838622],[127.86892547331863,35.67097719548348],[127.87026982595917,35.67053340787521],[127.87127281444454,35.670412632285476],[127.87226077156899,35.670129814593956],[127.87264698262219,35.670010006813314],[127.87291932183746,35.6697522581936],[127.8742705179435,35.66973342333684],[127.87503939907344,35.669585296586405],[127.87595777908665,35.6696203555685],[127.87690811443157,35.669398201895845],[127.87688682970457,35.66869927555598],[127.87710674692094,35.66827104924606],[127.87741203956455,35.66819655426666],[127.87784180078003,35.66712223198108],[127.87771297555044,35.667104660180584],[127.87739362795396,35.66642215478891],[127.87699982461888,35.6662656918109],[127.87688215571819,35.66595421140531],[127.87684513676825,35.6653876664709],[127.87662208742246,35.66529044184563],[127.87637341990079,35.66498419519077],[127.87623299338242,35.66405017038475],[127.87589802270949,35.66398052530115],[127.87534886893162,35.66333919672431],[127.87532613854296,35.663100233207636],[127.87545423895253,35.6626241535676],[127.87538418117086,35.662220821836705],[127.87552798682465,35.66203322659099],[127.87494044578614,35.661122258699855],[127.87528717674968,35.66027318520638],[127.87541565456779,35.65968530274881],[127.87625208812732,35.658523355422965],[127.87656619849521,35.65817780129313],[127.87704963335507,35.65784685664743],[127.87684650827318,35.65764376968149],[127.87686430635974,35.65738796391347],[127.87622804216912,35.656801464809874],[127.8755256042802,35.656423956845046],[127.8754070961062,35.65627860779581],[127.87531741920596,35.6550603083143],[127.87486782666433,35.65462669339902],[127.87513090103157,35.65419714707973],[127.87509347347569,35.65346693688587],[127.87485239651694,35.65246656824386],[127.87437722963939,35.65193610810731],[127.87386235923394,35.651674102033574],[127.8738614269526,35.65134411528785],[127.87427284201843,35.65094258657842],[127.8740801216804,35.65061995794536],[127.87401834849047,35.650129026070665],[127.87429339187672,35.64989082009507],[127.87454101796736,35.64934683782111],[127.87439789785246,35.648876124919866],[127.87424820931135,35.64876311321104],[127.87461449542916,35.648532869321414],[127.87475343739047,35.648295218937854],[127.87503989876316,35.64823616061466],[127.87516494418551,35.64837664898285],[127.87568929976314,35.64807476626657],[127.87558094177638,35.64752481732239],[127.87507542140408,35.64661932533243],[127.87510122678843,35.64638661429952],[127.87531670119034,35.64616804520025],[127.87551045723636,35.64566019587972],[127.87615178714343,35.64523790899964],[127.87631261384176,35.64499921369657],[127.87607293245584,35.64460706478431],[127.8761801358124,35.644011845825055],[127.87549470982307,35.64372290397576],[127.87508592809516,35.643402225718056],[127.87492493777336,35.64315911955946],[127.87507281217404,35.64265601999887],[127.87533593469684,35.64241060746643],[127.87564216096213,35.64234451913907],[127.87612848802911,35.64164347520285],[127.87607465033273,35.64134891366105],[127.87623143292076,35.64110254175789],[127.87708656302732,35.64095343295846],[127.87787906244228,35.64091390721571],[127.8778929446217,35.64081941846253],[127.87740228189227,35.639958619042126],[127.8774680628247,35.63950026686144],[127.87716753284484,35.639474219394224],[127.87663411999554,35.63929712251203],[127.87607496995942,35.638977911001376],[127.87567600732727,35.638166826567215],[127.87456368585477,35.63724168603538],[127.87451304406976,35.63684545700265],[127.87366197749225,35.635698730745304],[127.87361347632208,35.63539723381578],[127.87341083460363,35.63499299466135],[127.8731278658248,35.63491936781551],[127.87264205488734,35.63500858888002],[127.87229538494083,35.6349795558273],[127.87198357464118,35.63478541163561],[127.87166985436103,35.634446765260165],[127.87144534090547,35.634321979674034],[127.87081345934737,35.634194948153755],[127.87063676613673,35.634023734289556],[127.87078932159987,35.63353087016784],[127.87067712644607,35.63338847177971],[127.87073267060528,35.63257756288032],[127.87088793720052,35.63212839014207],[127.8716883790517,35.63121554072554],[127.87173423061711,35.631028937522714],[127.8719431950229,35.63092840392364],[127.87199975645566,35.630734909643444],[127.87170003051533,35.63045543711938],[127.87108882160072,35.6302388432126],[127.87037978657034,35.63011995609344],[127.87051510707987,35.62978415277695],[127.87048125911527,35.62943575524651],[127.87080281446866,35.62919011925528],[127.87067795288026,35.628696565755845],[127.87046750852377,35.628332258198434],[127.87053863469531,35.627821326533095],[127.87033381346541,35.62748577285526],[127.87051431966891,35.62724634791604],[127.87026391598187,35.62679924125954],[127.86998168978653,35.62660279606665],[127.8696268410969,35.626182985036905],[127.86955552847589,35.625677155799764],[127.87043669591745,35.62464041285952],[127.87080531836834,35.62439648216812],[127.87170813918611,35.624013146468236],[127.87178454527462,35.623295049046106],[127.87171615726905,35.62267211792611],[127.87149503763334,35.621897781033894],[127.87155333457885,35.62157877413825],[127.87135091732456,35.62107606560122],[127.87109640227706,35.620912994717735],[127.87054941506744,35.619820136693704],[127.87015359964512,35.61924337968881],[127.86936331353012,35.61845736642905],[127.8685222571982,35.61824586863355],[127.86866084183235,35.61780267708846],[127.86845862043194,35.61754003943471],[127.86862367882834,35.617361769665536],[127.86869386149027,35.61706428137132],[127.86840370699093,35.61631867185334],[127.86806598508949,35.615878263487616],[127.86821402729119,35.61521642124444],[127.86805553339238,35.614883457782376],[127.86792278960334,35.6147863844143],[127.86770962164375,35.61478144043024],[127.86727334931851,35.61488702750865],[127.8664526276816,35.6139882938849],[127.86604801982377,35.61342488836401],[127.86563832136186,35.61325416937302],[127.86521105985729,35.612782527153335],[127.86444236631284,35.61226140358216],[127.86412920843343,35.611886743219166],[127.86369517033808,35.611677554706056],[127.86325382633754,35.611257622159414],[127.86319612343802,35.61084537555369],[127.86301580036027,35.6106863517639],[127.86288664985676,35.61036156176418],[127.86298760342248,35.60993947257097],[127.86293557617199,35.60960430669702],[127.86308632939834,35.60933787832531],[127.86383633458857,35.6088878129487],[127.8642501736518,35.60841787648761],[127.86409805291274,35.608017915526425],[127.86378172192357,35.607820680704656],[127.8635756839274,35.607239024896245],[127.8628164928269,35.60680858720829],[127.86256651604968,35.606050750929725],[127.86227061464535,35.60612013815029],[127.8620021838844,35.60524823359554],[127.86173510845501,35.605205261510434],[127.86125435406704,35.604752913305695],[127.86076544077716,35.60449144481549],[127.86064064764393,35.60432641462365],[127.86029960754803,35.604261057257915],[127.86012341336034,35.60393328303045],[127.85970300921136,35.60381851546381],[127.8594399534571,35.603476948161855],[127.85819820155713,35.603344833024195],[127.85807386403259,35.60260270052852],[127.85774424724197,35.6024992758202],[127.85768909154262,35.602002821478436],[127.85787110654847,35.60169041889282],[127.85784828500086,35.60117446595547],[127.8580543777287,35.60098620267806],[127.85732510074065,35.59993361945345],[127.85627260271339,35.599750693872664],[127.85598871985744,35.59961854859248],[127.85576033257907,35.59920851110169],[127.85578632549964,35.5986410185094],[127.85557526337814,35.598348831788094],[127.85439588897059,35.59791672624727],[127.85405147376053,35.596597890740725],[127.85374333318529,35.596402697661844],[127.85372403649028,35.59621076697467],[127.85321440588157,35.59578037336102],[127.8525040927036,35.595886530484314],[127.85182931095862,35.59586052409881],[127.8514122220806,35.595768289520976],[127.85062977452186,35.59523419330941],[127.84977487961059,35.59514939506808],[127.84939335809302,35.59478632537146],[127.84877253352109,35.59450226901801],[127.84822731957635,35.59451308299502],[127.8471712824976,35.5941783562637],[127.84688955879804,35.59366229927799],[127.84696726973634,35.59304399169679],[127.84619070034029,35.59254507321547],[127.84603664360839,35.592167696195936],[127.84553191763527,35.59158666188085],[127.845167305127,35.59144739630984],[127.84509799974802,35.59119012125689],[127.84466909019659,35.591050403486044],[127.84395985912776,35.59023704350376],[127.84409022144287,35.58907330203895],[127.843846703732,35.58894448657883],[127.84395484910816,35.58851393452518],[127.84375632890571,35.588215816372646],[127.84404704417479,35.58791358747821],[127.84412830711355,35.5873429601851],[127.84403295187398,35.58703450343599],[127.84254575422487,35.586660015950606],[127.84188992881838,35.5861006325119],[127.84034268822617,35.5853349279681],[127.8396622494362,35.58511245244882],[127.83948522528406,35.584854590114304],[127.83906708852113,35.584729143635],[127.83827693022562,35.584162059095725],[127.83700337648268,35.58407174389088],[127.83678834408018,35.58295292871165],[127.83554908199584,35.58241375540714],[127.83608560318329,35.58171552876696],[127.83651848884368,35.58079042226072],[127.83626279624875,35.58063083466227],[127.83580466993777,35.580002973001534],[127.83586173986974,35.57939346549934],[127.83541962830355,35.57901598891884],[127.83545045633409,35.577290085626515],[127.83619802306255,35.57680785295456],[127.83685619462041,35.57699415531583],[127.838838666041,35.57784677053812],[127.83921210789477,35.57787918597786],[127.83984170436187,35.57776582859453],[127.84002977125708,35.57792567339712],[127.84060523702527,35.57803234623341],[127.84127475638978,35.57805278380775],[127.84192794784208,35.57783604729312],[127.84307208071621,35.57796639431219],[127.84336838798464,35.57787042809523],[127.84346510715459,35.57773894136123],[127.84373764544078,35.57765408179391],[127.84416153348171,35.57765023947336],[127.84425307594313,35.57751978034396],[127.84452483913991,35.577443206497335],[127.84517499178747,35.5775989842642],[127.84630524435283,35.57769548328838],[127.84695621996752,35.57784299984341],[127.8483402923469,35.57763409590338],[127.8494325452243,35.57769937904036],[127.84964583778648,35.57796255879571],[127.8498805384507,35.5780736439142],[127.85043591424225,35.577881515094205],[127.85049561657677,35.57771327892481],[127.85107332303734,35.57714318888906],[127.85108602755476,35.576912320742885],[127.8514455082731,35.57626453950509],[127.85222462019343,35.57584064825636],[127.85283615158993,35.5753678635795],[127.85319801966627,35.574977308836715],[127.85360506425987,35.57473177936],[127.85362724255603,35.574444172733145],[127.85377172779975,35.57439370616745],[127.85422508958841,35.57385521427657],[127.85466413472876,35.5735190305632],[127.85493269480727,35.573151455857946],[127.85500431786673,35.57273587057638],[127.85489560893096,35.57204795709906],[127.85617665574505,35.57086187636871],[127.85572571084128,35.570071973732176],[127.85639889109379,35.56941317154202],[127.85736625923452,35.56955539104658],[127.85775616039157,35.5698536763895],[127.8578600248656,35.56974991331558],[127.85848314069669,35.570115005142966],[127.85893476621223,35.57061889458311],[127.85818075777442,35.57118123783921],[127.85833630516417,35.57146328963943],[127.85913394150879,35.57152794223089],[127.85977432759225,35.5718938503728],[127.86061672038727,35.57306275443236],[127.86046870560087,35.57352432125457],[127.86112964869746,35.574014378513624],[127.86124670853151,35.57443629781595],[127.86175275284586,35.57507831128052],[127.86221406194574,35.57509463268658],[127.86296619083174,35.57586305768112],[127.86391620739262,35.576240587843074],[127.86436143719371,35.576171486448935],[127.86511808165653,35.57558328269946],[127.8660461043584,35.575048369915955],[127.86670155261409,35.57500257015224],[127.86757395204997,35.57479244658807],[127.86814992437384,35.574787379881286],[127.86910197090792,35.57491880032436],[127.86972899228587,35.57535313959757],[127.87022515023254,35.57555375727844],[127.87083455347957,35.57543557189993],[127.87085554012542,35.57560719180477],[127.87138235556819,35.57406673916252],[127.87119438054006,35.57379284345408],[127.87095118379423,35.57288405384457],[127.87111150893406,35.572619726063486],[127.87139333629155,35.57148189771376],[127.87214086777439,35.57098981830276],[127.87200366943777,35.57065352135066],[127.87227563244342,35.57028142268774],[127.87245586688555,35.57010326382181],[127.87289648654551,35.569935331263885],[127.87324079739001,35.569675364258146],[127.87344570455477,35.56932038642028],[127.87370441567903,35.56915522061659],[127.87383398247123,35.56876397941264],[127.87376860745017,35.56867191146234],[127.87430820083095,35.56819890902677],[127.8746028910921,35.56781779005398],[127.87453121636506,35.56750742751696],[127.87468696416828,35.56727257325423],[127.87491837574298,35.56717631464818],[127.87488306713414,35.565383297532236],[127.8746931536489,35.5650723062414],[127.87333944528143,35.563774583857885],[127.87348785669182,35.56353280738789],[127.87293220914388,35.56323809883004],[127.87278888615384,35.56234719951111],[127.86975770767158,35.55988223418922],[127.86935857506198,35.559482436848036],[127.8694293353552,35.55900194836349],[127.87033389986706,35.558712856551324],[127.86987745696727,35.55793383319376],[127.86993062481456,35.557300634508564],[127.87009783150405,35.55683764638994],[127.8700631689341,35.556384739723185],[127.87037697274694,35.555405690607344],[127.87113458342937,35.55495402031387],[127.87119655802522,35.553915691712895],[127.87173642393628,35.55356916431476],[127.87209308600764,35.55309716029031],[127.87222511844207,35.552671402261545],[127.87202619215273,35.55221076171328],[127.87411104174815,35.55170359130546],[127.87554105153653,35.551183954554766],[127.8766947411587,35.550921684493936],[127.87748944266447,35.55045714134062],[127.87727820601158,35.548977996127604],[127.87673244205119,35.54731301671465],[127.87652687531718,35.547009342624456],[127.87659509597125,35.54592341381275],[127.87639988430412,35.54578248670515],[127.87615916938626,35.54542732521726],[127.87679399049716,35.54371100493809],[127.87627675604135,35.542640886471084],[127.8758086518527,35.54233661236476],[127.87530028373794,35.54175669627193],[127.87562962814998,35.5411448857325],[127.87561038051388,35.54050923507567],[127.8756994682922,35.54005396965202],[127.87550597765218,35.53955960485177],[127.8745145101962,35.53832681591492],[127.8770878720443,35.536392849289584],[127.87724161742858,35.53590713686887],[127.87749771777757,35.5357678841696],[127.8776753688863,35.53555489289523],[127.87748440143825,35.53536012136205],[127.87755109217117,35.53490193533583],[127.8774696054049,35.53485497689151],[127.87764158314032,35.53417913458228],[127.87755403213684,35.53409470153114],[127.87739145779858,35.53331239263153],[127.87786196957255,35.53333179821708],[127.87820093890512,35.5331627938021],[127.87821170047438,35.53284928056867],[127.87855449229775,35.532891576676754],[127.87883054293881,35.53277086871739],[127.87904780058724,35.53248125786064],[127.88005558173882,35.53206737204217],[127.88064779242667,35.53150702903724],[127.88019160137277,35.531103895652784],[127.87970560648256,35.530443684211804],[127.87895410486199,35.52968838407083],[127.87896326344868,35.529144202494614],[127.87872697649101,35.5287575848746],[127.8781969157364,35.528540255935226],[127.87826558046298,35.52774296154749],[127.87896764625135,35.527583855531184],[127.87969491820164,35.52713421829615],[127.88008316452016,35.52711192730974],[127.88032100620484,35.52686041360248],[127.88046385307233,35.526827709852725],[127.88090397944636,35.52693025946931],[127.88141124665037,35.527411607495885],[127.88196470595122,35.527659358579264],[127.8825042785984,35.528211332929075],[127.88293846455967,35.52910508041129],[127.88353577933228,35.52972922380919],[127.88396408160156,35.529862646384274],[127.88415858528451,35.5300379144303],[127.8847321003267,35.53018988041641],[127.88570541095268,35.53073188818698],[127.88643270548796,35.53074328156428],[127.88703312043657,35.53088624198867],[127.88707714863625,35.53105677195778],[127.88783862448136,35.531581483701665],[127.8886775660925,35.531133430666834],[127.88883701404986,35.53133999871896],[127.88911390023189,35.5310740750744],[127.88979599277418,35.530898749697286],[127.88997674298005,35.53060592719576],[127.89051123686646,35.53083329287328],[127.89102696120884,35.53069101288657],[127.89193291357171,35.530647669911346],[127.89260495139803,35.53050411953807],[127.8930216021137,35.530635180043866],[127.89392955375881,35.53016491296242],[127.89543054988063,35.53118493642849],[127.89551945991788,35.531332760220366],[127.8959148080805,35.53147870469658],[127.89617903382226,35.53185113686682],[127.89650315338884,35.532092656427906],[127.89713393960511,35.53238910634275],[127.89728247576049,35.53269586507663],[127.89744146703141,35.53279176720818],[127.89807177171352,35.53358536328751],[127.89881594387607,35.53384125032555],[127.89932905052243,35.53420602477416],[127.89975717238111,35.534190547836076],[127.90041076474483,35.534586490147895],[127.9013824201087,35.53490925710969],[127.90192051099962,35.534913679299436],[127.90276425177726,35.534281967743105],[127.90392749088545,35.53401299566837],[127.90415678368079,35.534172828859795],[127.90488927067751,35.5335313649272],[127.90502190949579,35.53319936039832],[127.90578358613448,35.53315893501721],[127.9064113149799,35.532946638772145],[127.90703576191056,35.532258855102825],[127.90719326435305,35.531781837254506],[127.90762352082875,35.531270970920545],[127.90842925777598,35.530856035266204],[127.90863824146415,35.529994976665854],[127.90836129499756,35.52940524510436],[127.90838975752546,35.52908402697317],[127.90869931948555,35.528976886657865],[127.90874579612266,35.528654630886706],[127.90911093371132,35.52867933991427],[127.90984459922426,35.52841188168551],[127.9106381115032,35.527665933609065],[127.91103064460512,35.52761668968167],[127.9115373065478,35.527220277533324],[127.9123671240698,35.526945101197455],[127.91264806922307,35.52643059570872],[127.91290441794871,35.52630666014928],[127.91320997211946,35.52563419146191],[127.91372691931754,35.52554897364767],[127.91508126933537,35.52562618201596],[127.91604352186995,35.52526095749144],[127.91682251570509,35.52515676385784],[127.91707291241451,35.52522384362444],[127.91731435246525,35.525425999667426],[127.91811880979563,35.52514439764014],[127.91866660003129,35.525113693122755],[127.91937335876611,35.524572973358985],[127.91994244205301,35.524007811523894],[127.92069076865226,35.523794476467366],[127.92120317017798,35.52356203872155],[127.92128218981709,35.522854615790386],[127.92105865526122,35.52244627343057],[127.92109435928096,35.522161299639],[127.9210026791255,35.52204250970947],[127.92106592988665,35.521434968880115],[127.92040203943706,35.52106713755035],[127.9199050373616,35.52005583103533],[127.92020934416122,35.51949551667921],[127.9203503107324,35.51902065387973],[127.92066104725002,35.518856117049815],[127.9219539933716,35.51772407332772],[127.9228821471691,35.51762482077182],[127.92364523697015,35.517235616502994],[127.92415006007813,35.517156160099084],[127.92433667745235,35.51641464492657],[127.9254085928049,35.51540482005299],[127.92614377073043,35.51592054295985],[127.92661441442297,35.51595660213123],[127.92692565183283,35.51557595760924],[127.92722081731702,35.515474477734216],[127.92761718366197,35.515799987813125],[127.928242998301,35.51610455990536],[127.92967637830492,35.51610397561826],[127.93001598863086,35.51591361458741],[127.93066322569688,35.51588718173716],[127.93118460640771,35.515728086164984],[127.93137111946899,35.515756342754706],[127.9315880957395,35.515681114890754],[127.9316859244955,35.51554814345865],[127.93212293379786,35.51547150308151],[127.93315699647594,35.51594295505831],[127.93459882196053,35.51555480948367],[127.93506991772242,35.51509552315626],[127.93523279486782,35.51508941114986],[127.9353832313011,35.51486620907331],[127.9355467999581,35.51480384326573],[127.93615183085888,35.51515653750028],[127.93629177394384,35.51507502282176],[127.93674188556629,35.515076403785166],[127.93721945338574,35.514860446035264],[127.93728911029118,35.51475611418585],[127.93906399913998,35.5145253570507],[127.93935823847065,35.514354582771986],[127.93983357245578,35.514556080861254],[127.94102530850152,35.514304592411406],[127.94196378556295,35.515162429168996],[127.94242005885836,35.51548818756984],[127.94262480015264,35.515550749143564],[127.94290423776734,35.51586221482623],[127.94288671855261,35.51611365246258],[127.94314230870691,35.516598996118475],[127.94312631444518,35.51674792855706],[127.94329412256825,35.51694357052162],[127.94365420939656,35.51695870738449],[127.94426881285631,35.51721315556691],[127.94428404944607,35.517387431425185],[127.94449870554408,35.51771516333228],[127.9448626151958,35.51790759983092],[127.94524624406598,35.5183525862299],[127.94530862545903,35.51855353024447],[127.94578391931587,35.518721855304804],[127.9460303017323,35.51893979669632],[127.94626788098337,35.519490435831386],[127.94651527773715,35.519269550100574],[127.9467461504918,35.51933796421129],[127.94769521934174,35.5193779270537],[127.94792836913454,35.51957427384921],[127.94833217090714,35.51949318528647],[127.94896562210735,35.51981748984116],[127.94990311017312,35.51961603165344],[127.9507308197739,35.519194162327096],[127.95110047340506,35.51923338214317],[127.95130033982937,35.51940926562919],[127.95165279046593,35.51941433471687],[127.9521263937997,35.51962094342987],[127.95254830537063,35.51952221310963],[127.95293226576939,35.51929897419903],[127.9539484355451,35.5191551666163],[127.95480244120796,35.51919002039972],[127.95509929804382,35.519119759886934],[127.95544653401947,35.51860485718185],[127.95684664782398,35.51793235603926],[127.95748053102491,35.51796180834611],[127.95778709468507,35.51805680977295],[127.95959691572595,35.51809272497143],[127.95968874027022,35.51801742391393],[127.9600866178564,35.51870039018743],[127.9598458179465,35.51907019347487],[127.96010581279559,35.521648795661335],[127.96034750201797,35.52215810480326],[127.96036024982598,35.52263598826102],[127.9611540042745,35.52340702379785],[127.96061017971785,35.523768860848016],[127.96066343218362,35.52428351769283],[127.95997358090364,35.52493629779306],[127.95914716165066,35.52533394006578],[127.95881690373982,35.52583615428347],[127.95862328349233,35.526629426547984],[127.95779736953287,35.5270503446985],[127.9567725566421,35.526618734685265],[127.95648028666622,35.52684076225122],[127.95591245566173,35.527794394237056],[127.9556412070009,35.52793397762119],[127.95500571552341,35.52784424363827],[127.95478106603659,35.528247057272324],[127.95457904752725,35.52831461080463],[127.95427616380528,35.52908172131256],[127.95382569992069,35.529152131415394],[127.95347374372513,35.52982710394056],[127.95380723049597,35.53045428834901],[127.95380346553556,35.53081622890336],[127.95390302031842,35.53110171877944],[127.95409485464864,35.531259147957904],[127.95409925536185,35.531688565573496],[127.95461335889554,35.53205910720096],[127.95460748062891,35.53229626653308],[127.95396797525798,35.53259586006723],[127.95380440409383,35.532776199003514],[127.95321853796828,35.534017553184626],[127.95328104873884,35.53466106486267],[127.9534947997551,35.534899616457345],[127.95354540267988,35.535316455135984],[127.95346724015845,35.53569108824074],[127.95406161770167,35.53684862884658],[127.95413129124836,35.53739406234825],[127.95477564688012,35.53704562605987],[127.95474096300485,35.537142813659386],[127.95415296426951,35.53745884486723],[127.95424742787615,35.5380192325978],[127.95389781295835,35.53887621456752],[127.95423202520905,35.53954233373041],[127.95457333265698,35.53993310591121],[127.95446354131523,35.5404404026608],[127.95414932643597,35.54061686884842],[127.95400947486199,35.541273382172974],[127.95399168038641,35.542270885870465],[127.95419798021355,35.54278518964027],[127.95414725258286,35.5434496137137],[127.95385890982666,35.543954042053834],[127.95387332208323,35.544471702905724],[127.95437188762834,35.544925598621965],[127.95427141556843,35.54565144933679],[127.9549390005759,35.546562052238045],[127.95486229014381,35.546977645800396],[127.9555908752033,35.54855163941729],[127.9554080192782,35.549019013067046],[127.95532418553842,35.54996819119009],[127.95676658773024,35.55058096668726],[127.95835477396672,35.550282013903924],[127.95992237173718,35.55086203245702],[127.96041612946465,35.55078261053281],[127.9607858518523,35.55119680407047],[127.96134675322662,35.55142987876191],[127.96175821490372,35.55212935458002],[127.96329153971061,35.55303098115076],[127.96353800890937,35.55294471688076],[127.96400358794648,35.553013709423674],[127.96449101277815,35.55336886342884],[127.9650951422682,35.55405482675954],[127.96535411478874,35.554951407326115],[127.96612373943056,35.5553753412563],[127.96764296846378,35.55581352542481],[127.96808198423402,35.55571895631922],[127.96882036946651,35.55511862720182],[127.96980516676557,35.55508126524078],[127.97039973180893,35.555602149207914],[127.97186924132501,35.55585883363753],[127.97286566367282,35.55672535052406],[127.97308247681615,35.557223050774546],[127.97367738277318,35.557716994524675],[127.97405982122594,35.55769898042249],[127.97431808344544,35.55804921357798],[127.97452986276747,35.55863293211368],[127.97447600011627,35.55924557312594],[127.97468603069125,35.561047183427725],[127.97505117837001,35.56178665013002],[127.97440123168346,35.562984835198414],[127.97486573688941,35.56364357599623],[127.97462079011908,35.564303636651964],[127.97420621346659,35.56458426823411],[127.97463394609518,35.56526253892296],[127.975197359218,35.56524084024775],[127.97661500903723,35.564837677936104],[127.97744532071573,35.56447497068534],[127.97939792148156,35.564401613618394],[127.97995088500228,35.56498804640097],[127.98111878465956,35.56577922308756],[127.98090763361606,35.566930475277104],[127.98111305933996,35.568298990912204],[127.98106034063946,35.56898367991398],[127.98026517559431,35.570365005113175],[127.9803130327001,35.57138130418793],[127.98017093426958,35.57195207095076],[127.97973814067765,35.57223842102793],[127.97968871953331,35.57294043190796],[127.97959033940008,35.573140354501184],[127.97934978091082,35.57332885143576],[127.9792743911905,35.573957719908194],[127.97954528310261,35.57441485203529],[127.97974216252047,35.575493811063176],[127.98017465428015,35.57612390345654],[127.9802787524949,35.576450924836074],[127.98014792372152,35.577524526663204],[127.98028948733902,35.57788510229545],[127.9802740492428,35.578143572375154],[127.98046687012761,35.57829875020073],[127.98053433609141,35.57880969010479],[127.98063924953654,35.578978777015266],[127.98057527263593,35.5790455754767],[127.98070190327853,35.579511945325464],[127.98071251035142,35.58007610697044],[127.98122277196792,35.58088009024837],[127.98220088783472,35.58168961382831],[127.98219679880525,35.58212178951848],[127.98236265861932,35.58238441486403],[127.98328884585705,35.58316368308494],[127.98337709242938,35.583347513079],[127.98319625855163,35.58368702101954],[127.9830615969665,35.58448345765403],[127.98324337043422,35.584703376314195],[127.98455588603345,35.58508572468176],[127.98509495287148,35.58643409151787],[127.98511906771543,35.58772347800168],[127.98547059100106,35.5882477284276],[127.98581251488024,35.588573601211905],[127.98609024062131,35.58932254060422],[127.98638871402035,35.58973954039201],[127.98694234105515,35.59147515416674],[127.9870226608769,35.59257297748972],[127.9865791226795,35.59430693082167],[127.98702903057904,35.5952605197077],[127.98711478864129,35.595994715909875],[127.98660773422364,35.59599362299134],[127.98610974266495,35.596229455295436],[127.98536006518857,35.59640521212444],[127.98509188530701,35.59665924105318],[127.98489600732911,35.597291087606244],[127.98495287052108,35.597674907020846],[127.98475749141255,35.59808743799252],[127.98420886367859,35.598310554556484],[127.98360486382242,35.598790012821254],[127.98278586354195,35.60096697041425],[127.98273016640195,35.6021201688681],[127.98298014676413,35.603178486798754],[127.98342492127777,35.60366306521972],[127.98341595824348,35.604482735683696],[127.98357135168152,35.605715440360974],[127.98413350704976,35.606848651177344],[127.98437652547221,35.60766456760084],[127.98435283819344,35.60887058755482],[127.98673079765227,35.60897181477345],[127.98756221988181,35.60966233504291],[127.98794178529417,35.60955872547163],[127.98921291040675,35.60985467490501],[127.98972823070085,35.60985400349199],[127.99006468924478,35.61004975711496],[127.99108947235774,35.61035258685378],[127.99125537853189,35.61058215843243],[127.99175495997393,35.61052469305905],[127.99204792465399,35.61021753291727],[127.99242794207395,35.610348202717034],[127.99274083986393,35.61019416106218],[127.9934009154036,35.61026041489485],[127.99445203727042,35.610179130307756],[127.99510508670784,35.61040958633654],[127.99594805987586,35.61016328583492],[127.99700303937952,35.610578165555125],[127.99746346254878,35.61119042974696],[127.9980656219316,35.61132617290376],[127.99817374674505,35.61117078508854],[127.99879651345582,35.61095860763311],[128.00003210453693,35.61092462940872],[128.00085892172132,35.61104793016387],[127.99931939027908,35.61281779909838],[127.99911780308153,35.612961426373175],[127.99864227314261,35.61360056813393],[127.99853785681441,35.61387690878647],[127.99876849155841,35.61410843800578],[127.999154775515,35.614786812915945],[127.99852080071243,35.61541988680716],[127.99847034439597,35.61573640839658],[127.99861524526236,35.61655370184057],[127.99825637743278,35.61667947944249],[127.99828410666098,35.617041289751654],[127.99757232355411,35.61857527695814],[127.99749897708178,35.61899104324717],[127.99765293813886,35.61952139618773],[127.99779136016654,35.62064351822564],[127.99716194033483,35.62119809329612],[127.99735445802577,35.62165280017919],[127.99683619953109,35.62222322612716],[127.9968542942749,35.62293762017578],[127.99674983127173,35.62312717896608],[127.99683212731564,35.62337579144939],[127.99729853753897,35.62381260423307],[127.99977572732487,35.62566524746983],[128.00183907435482,35.627909653059646],[128.00159028924864,35.62819492638624],[128.00074006202868,35.62993668908048],[127.99956711639778,35.63167676908456],[127.99955536681114,35.63224127064292],[127.99965160699534,35.63259052513391],[128.00005875894482,35.63332737586258],[128.00063635662914,35.6341078522023],[128.00150690099952,35.634891259315786],[128.0017827289021,35.63537508013098],[128.00336304433864,35.6355429736245],[128.0034979830503,35.63577431275332],[128.00353064849418,35.63621553515588],[128.00388268755174,35.63728856639228],[128.00393842482484,35.63789384328226],[128.0045929202338,35.637740526287104],[128.00527852881618,35.63742559104804],[128.0055364273864,35.63789509702878],[128.0060805353674,35.638017696254956],[128.00655570137826,35.63802501377968],[128.00670600061213,35.63835521672927],[128.00748872263912,35.63895487709949],[128.00851152021397,35.63913974690374],[128.00887694290418,35.63952423239219],[128.0089627262796,35.63999190073123],[128.0094100920222,35.64010674002967],[128.01011438024554,35.64013488124732],[128.0108080317034,35.64027538847584],[128.01121286118735,35.64049610122295],[128.0114214301875,35.640834680304685],[128.01222092859015,35.64128526528716],[128.0127181203041,35.64128620558765],[128.01314631149293,35.64114776888622],[128.01348527003853,35.64155630395302],[128.01539292815778,35.64274351351489],[128.01599881973897,35.64267482497293],[128.01640086765747,35.64293723448289],[128.01764339747604,35.64343485884812],[128.01787027205654,35.643363969841204],[128.01798177321407,35.64377730617944],[128.01793678165708,35.64411021055986],[128.0175921233413,35.64441521076347],[128.01778791922513,35.644855930079935],[128.0180817635031,35.64506650404898],[128.01814581673048,35.64544698210554],[128.0180985403877,35.646226388990065],[128.0186868922888,35.64685799055403],[128.01944935455728,35.64731171387579],[128.01944860972546,35.648167763081254],[128.01980327320607,35.64849427850783],[128.01976397782238,35.6490246375522],[128.02013662633934,35.649378849182774],[128.0201398309255,35.65110007905931],[128.0206088805591,35.652296915570226],[128.0209484949456,35.65236912681098],[128.0209660883152,35.65267194403353],[128.02173311737343,35.65271508307131],[128.02266282595204,35.65266707919631],[128.0236059257293,35.652907853932376],[128.02402120893444,35.652745689328555],[128.02463228451325,35.65265222353459],[128.025621304103,35.653183771369626],[128.02632641349655,35.65372831029187],[128.02874252291792,35.65433132230488],[128.0289210473573,35.65431930673044],[128.02947303811303,35.65461676013737],[128.030022579713,35.65518095930214],[128.03052276741107,35.65586498492311],[128.03241965116274,35.65648847223738],[128.03258783912847,35.656670937771686],[128.03332968378973,35.656771525610935],[128.03368253248573,35.6566826735428],[128.03428426153556,35.65685443816291],[128.0361006544888,35.6569704082006],[128.0366309239213,35.65716859945788],[128.03691666438283,35.65763614352224],[128.03809314569423,35.65856856466898],[128.03932419900676,35.65864707639626],[128.03996475121423,35.659318690411624],[128.04020522997027,35.65996617790292],[128.04134497752767,35.660425455511565],[128.04176677205194,35.660751088362154],[128.0422499859354,35.66078885579643],[128.0433094456541,35.66050885274537],[128.04372659768006,35.66089581694246],[128.04411821457234,35.66113504267796],[128.0442177862237,35.661477486160486],[128.04443003223813,35.66161538444304],[128.04446352191167,35.662186822697485],[128.04500320257569,35.66348556071487],[128.04486372584097,35.66459494919852],[128.0443731090568,35.665090137947566],[128.04466247062072,35.66555923320835],[128.044630731707,35.6660327468303],[128.04489274490598,35.6666703465987],[128.04523553933532,35.667098334785656],[128.04477154349254,35.66850423587678],[128.0452834747435,35.66932218111928],[128.04659483424697,35.67055183752458],[128.04626535891802,35.6709354014287],[128.04617932230008,35.67123598694382],[128.04584222926525,35.671485205198074],[128.04489601223005,35.67278930768818],[128.04501537803296,35.67325168162738],[128.04455599771475,35.673775669771835],[128.04419386387295,35.67480923280945],[128.0455081127223,35.674544456391104],[128.04642858989712,35.67471526276266],[128.0469882769611,35.67472910314422],[128.04761016614697,35.67511793537832],[128.0479197979827,35.67517016018718],[128.04914329220748,35.676190383057666],[128.0494894690181,35.67670170563526],[128.05024531735103,35.677297128674205],[128.05030213428316,35.678400994493515],[128.05209305977573,35.67892988964529],[128.05284719360378,35.679468260450136],[128.05491578296247,35.6802234911901],[128.05610810593535,35.68029074127413],[128.05659880894842,35.680036921985476],[128.05704919768468,35.6803167899991],[128.05829351158337,35.680434407914944],[128.05854292243336,35.68050479893563],[128.05940711547458,35.681289461851414],[128.06026318482623,35.68162274874289],[128.06205642681724,35.68171834990966],[128.06340244517193,35.68151229645602],[128.06407310108727,35.68161006997772],[128.0653824718718,35.682315218024875],[128.06622829049016,35.68264976188008],[128.06720130410625,35.68205626625194],[128.06778922230927,35.681800747928705],[128.06781458636362,35.6809487926662],[128.06846110481908,35.68012304846233],[128.06917200061667,35.678586573684434],[128.06902624316626,35.677433819247895],[128.06991627918737,35.67650864097763],[128.0700115063412,35.67550968955396],[128.070928701146,35.674001535076535],[128.07202691676426,35.67270464162425],[128.07251097832471,35.6730270608711],[128.07337915795236,35.67318040548682],[128.07519498899657,35.67399150920954],[128.07566542488325,35.67630861748496],[128.07659969714234,35.67737005363308],[128.0776430412516,35.68010422521316],[128.07788360005108,35.68163462325082],[128.07853073915558,35.68205681833868],[128.07869638306272,35.68231871679142],[128.08049426407163,35.68319276254002],[128.08087748359043,35.683430067127475],[128.08129549248918,35.683841665525684],[128.08232525330044,35.68427762783257],[128.08258692336594,35.684536405456555],[128.0836512155973,35.68488099054695],[128.08444302209136,35.68499502969484],[128.0847058584763,35.68495423693891],[128.085011831419,35.68517667397409],[128.08590756091044,35.68515397165836],[128.08702105511802,35.68533390190925],[128.0881256433715,35.6848767445392],[128.09286348565004,35.68443688962519],[128.09338462681177,35.6870412756588],[128.09389850348532,35.688416406878325],[128.09408211154164,35.689469288441366],[128.0951626919699,35.69075398297703],[128.09300645568496,35.69149679167607],[128.0890916430364,35.69269166933539],[128.08915468614234,35.69300032614],[128.08795802782885,35.69377860015971],[128.08764661643298,35.69387103256484],[128.08714406956932,35.693795294987815],[128.08635792607,35.694086362156],[128.08589648595,35.694448384483145],[128.08506864562932,35.694363352910116],[128.08461580843698,35.694629246840144],[128.0837557888575,35.69445885778791],[128.08298624130447,35.69461405847329],[128.08206040050368,35.69532097437212],[128.08146851209807,35.69564144687475],[128.08125033274774,35.695737720338755],[128.0801689739239,35.69590556411578],[128.0801505721498,35.69613419497046],[128.07976402924513,35.696335876421124],[128.0797100575067,35.696664822021404],[128.07942178528305,35.69668399544734],[128.07952788986825,35.69706406784659],[128.07910711966795,35.69750350280239],[128.0783287410066,35.69813952678995],[128.07813307481598,35.698004806418176],[128.077777364,35.69794661038416],[128.07747591174248,35.698097691576095],[128.07724076045363,35.69858529939429],[128.07727419432572,35.69908383414035],[128.07706282461547,35.69932334909088],[128.0766659273007,35.699148511086456],[128.07646823058158,35.69958670016619],[128.07608039339271,35.69974035995414],[128.0760048247095,35.699940981506074],[128.07493382105216,35.70105261918767],[128.0742300686282,35.701204799016566],[128.07416913134395,35.70186532786696],[128.0740282378707,35.70219082639419],[128.07439183018278,35.703022403919384],[128.07512617845705,35.7040214143206],[128.07538125784978,35.70463810174785],[128.0755150942561,35.70514667215372],[128.0753543980095,35.70543215799876],[128.07534829230178,35.70562978080721],[128.0755599255305,35.706499643066],[128.07507183512124,35.70734742976554],[128.0747730323015,35.70879355132868],[128.07441013339394,35.709904656807865],[128.07456502086214,35.71040759498343],[128.07443559754898,35.710736678683915],[128.07438456456885,35.71159228415097],[128.07405823617168,35.71229342499062],[128.07374639365713,35.713395322263516],[128.07381553808432,35.71392336799876],[128.0736079648375,35.7148158172813],[128.07364033123844,35.715734482376256],[128.07391411257646,35.7178847368012],[128.07251746811525,35.71887731960426],[128.07222636024528,35.71898063798769],[128.07202984636552,35.719702789768355],[128.07134004687902,35.7205321860893],[128.07090490120208,35.72137066346712],[128.07033317305763,35.72166654949508],[128.06647658390062,35.72311393678836],[128.06523628294363,35.7233301219986],[128.0643491273104,35.72321296901558],[128.06314831323394,35.723574115897065],[128.06162126126347,35.72372724141642],[128.06143841416866,35.724406708582876],[128.0613335515353,35.72566813582947],[128.06164695495855,35.726807984934986],[128.0615053700964,35.72747904100605],[128.06117808760834,35.72832430696104],[128.0605350283244,35.72941729959227],[128.05959398047133,35.73048718505114],[128.0592751291211,35.73252903677526],[128.05836319419817,35.734859083964594],[128.0570454119501,35.73703946524882],[128.05664471124663,35.738078484193544],[128.05616979788354,35.74007151524652],[128.05406594285276,35.74180221278477],[128.05260443771328,35.7434831639555],[128.05238602172955,35.74418328819145],[128.0524535921874,35.74521372183489],[128.05227828207236,35.746473651531204],[128.05156424610485,35.747345319994345],[128.05060689761382,35.74813685494799],[128.04534076923477,35.75071204730961],[128.04442669105504,35.751591456615614],[128.04422781536164,35.75213065083572],[128.045068415247,35.752741079823934],[128.04562325090302,35.75297259312578],[128.04586243744816,35.75332819727522],[128.04619051300878,35.753410115919515],[128.04614905032082,35.75377338859686],[128.04641542480312,35.754587149873814],[128.04696747735827,35.75489587954527],[128.0471737683711,35.75541039552048],[128.04756501168782,35.75563854042844],[128.04820389670442,35.75648426484074],[128.0490658373559,35.75670972135237],[128.0493546322404,35.75748887371747],[128.04967051575557,35.75773020562793],[128.04965693656482,35.758396008545844],[128.04941971494998,35.75918863127997],[128.05028081179265,35.76020597403023],[128.05037056389477,35.76048588428571],[128.0507783899326,35.76075993221154],[128.05106455287327,35.761132937759946],[128.05064355123196,35.76181960603629],[128.05047502492806,35.76302461746168],[128.05008596443446,35.76415865396849],[128.05020313493765,35.7644810752959],[128.05023887447615,35.76540921794068],[128.05047279284076,35.766320829465606],[128.04987404402726,35.7669173646599],[128.048976027218,35.76715948364677],[128.04894504289715,35.7677093395491],[128.0486964619389,35.768086791288184],[128.04927855874968,35.768792396957444],[128.04893296455066,35.769466793942684],[128.04895352548613,35.7699021237487],[128.04985313698583,35.77118051657869],[128.0501997364882,35.77138038935025],[128.0510468121373,35.772397092059954],[128.051161776575,35.77321832446125],[128.05176780261348,35.7738750175647],[128.05211234742313,35.774041585726614],[128.05220975531435,35.77423448624149],[128.05180769925468,35.774570296169934],[128.05184814078467,35.775011910041975],[128.05166836468257,35.775488693730175],[128.05132464467817,35.77595140355876],[128.05088262667672,35.77610506269372],[128.0501300022953,35.7768699675375],[128.05003064306675,35.778112039125155],[128.04903089191515,35.77860616530945],[128.0484653788419,35.77850793716635],[128.0476749048304,35.77865995357081],[128.047231673061,35.77864196897879],[128.04670894817698,35.77887283906541],[128.0460484118704,35.77877367457566],[128.0449665271498,35.77889459381022],[128.04471755003362,35.77936901361324],[128.0443034548711,35.77980577426758],[128.0438019269089,35.7799581773784],[128.0430602606998,35.77973077417848],[128.04244415524332,35.780009259569155],[128.0407584783917,35.779933369968596],[128.03986769999813,35.78050183803941],[128.03915970940082,35.78178331452345],[128.03836103387346,35.78221732260122],[128.03779248829295,35.78314055105562],[128.03747096284187,35.78330416373292],[128.0370895146756,35.78372343267748],[128.03729130465524,35.78412287682797],[128.03659793428494,35.784511131654824],[128.03640089790807,35.78554613332133],[128.03568970681548,35.785739981522354],[128.0350076198398,35.78606857570149],[128.0351604782113,35.7862425038877],[128.03501562167241,35.786442458375134],[128.03525665144878,35.786790625897936],[128.0358707245749,35.78714292842537],[128.03552294546478,35.78764874498728],[128.0355529053274,35.78783672876509],[128.03587169748357,35.78802307226875],[128.0360397336866,35.7884270423629],[128.03671053922773,35.7892371667069],[128.0371557123312,35.789506926949585],[128.03751433155182,35.790235617694876],[128.0376957053124,35.790360131923265],[128.03800631387605,35.79083840080218],[128.03806331876493,35.79122979026519],[128.03834478135389,35.79108705289796],[128.03894722546497,35.791212048688955],[128.0393164521374,35.79143820554703],[128.03999677675358,35.7912621236006],[128.04068419217953,35.79163059641509],[128.0407452506532,35.792611742802016],[128.0426571942834,35.79267739585861],[128.0429625994774,35.79280135752435],[128.04310964443894,35.79306771322616],[128.04339313683732,35.793255523080305],[128.0436340959988,35.79361706424671],[128.04391610136636,35.79368282557131],[128.04427330515702,35.794249066327794],[128.0451914300995,35.794333506411064],[128.04569104630446,35.79459441157196],[128.04616618481472,35.79459263109731],[128.04661941833098,35.7949057967299],[128.04789941041568,35.795251708604496],[128.04810879149213,35.79554650829528],[128.048219366999,35.796022257263246],[128.04793210765683,35.79649889381283],[128.04831879211983,35.797084335445305],[128.04834725365475,35.797653125363546],[128.04811874935544,35.79867151161259],[128.04890386826847,35.79946605338118],[128.04953585854622,35.79983192002495],[128.05002462348182,35.80050660031682],[128.04991884822925,35.800914857665994],[128.0493584284007,35.801150197679405],[128.04917708236036,35.80178653306888],[128.04957679048823,35.8022343481145],[128.04966971844328,35.80269968196699],[128.04992177364278,35.80293222503787],[128.05084048692135,35.803117501751565],[128.0513745417885,35.80347024680176],[128.05141228800537,35.803950410368294],[128.05183216407687,35.80413031796457],[128.05218450781325,35.804639331793354],[128.05280090787488,35.804832113374],[128.05316523192647,35.80507915223576],[128.05315345997863,35.80535786170177],[128.0535314218482,35.805761153346445],[128.05457656523754,35.80560375896699],[128.05536366241293,35.80538665939702],[128.05563657044098,35.80551396529453],[128.05601167022854,35.80584613788601],[128.05624227608027,35.80586755908895],[128.05679077930708,35.80568124571436],[128.05775052554543,35.80587352371937],[128.05913478915727,35.80512503880875],[128.05973907701744,35.80502381879467],[128.0602694856485,35.80512230678502],[128.06052705002188,35.80536756938478],[128.0612820211747,35.805776738185244],[128.0618610539557,35.806301003616575],[128.06232207512647,35.80648683643292],[128.0635244092036,35.80599516409947],[128.06436866767206,35.80590116177563],[128.0650859946457,35.805984490966345],[128.06525948872556,35.80616125457601],[128.066982231354,35.80657594377833],[128.06756927722915,35.806444918858],[128.06815957890007,35.80619133073483],[128.0690122586462,35.8061925750675],[128.0695444802272,35.806800300112336],[128.07057441138383,35.80776481031763],[128.0703981316826,35.80887945137511],[128.07173595881795,35.809210454849435],[128.07261634608577,35.809749874253086],[128.0726130827105,35.81014947014579],[128.07351286451916,35.811605739777704],[128.07444089064296,35.81346838427467],[128.07478102747353,35.81343174535117],[128.07605652188718,35.81448774298155],[128.0787804949309,35.81471223657124],[128.0797744819736,35.815043615491305],[128.0803279515106,35.816066153607146],[128.0809666720743,35.816442343862924],[128.0837708268143,35.816900872327814],[128.0847030980552,35.817476936411936],[128.08397443620214,35.819006981993354],[128.08385586436154,35.82057447823027],[128.08424882395815,35.82152026180203],[128.08386510111922,35.822360963754164],[128.08438711021986,35.82342511448888],[128.08536934601457,35.82403705322741],[128.0857462668231,35.82505370791004],[128.0864879471552,35.825631434785166],[128.0866252561866,35.82664935629844],[128.0874753780787,35.82727708969599],[128.08891430108173,35.82789070926396],[128.08902418651306,35.828496362302175],[128.08924282181866,35.82883690606406],[128.08937519235644,35.82946631391253],[128.09012216301576,35.830354205947785],[128.0907729663603,35.83064176450074],[128.09007716967764,35.83125239448614],[128.08931754104384,35.83177850597589],[128.08818293470208,35.83212111816925],[128.08703667105368,35.83262457148437],[128.08658515196325,35.83298388272768],[128.0863063702267,35.833082268348555],[128.08583552570667,35.83374701564555],[128.08565982722232,35.83481907087641],[128.0852953826594,35.835226353687865],[128.08519661331567,35.83559292206627],[128.08431564723384,35.83619666450415],[128.08424137151158,35.83712990819237],[128.08305599669944,35.83707555600377],[128.08221121041913,35.837738039021595],[128.081280260002,35.83787332681942],[128.08025678926157,35.838178446655874],[128.07964755582972,35.83846396659529],[128.0791445359575,35.83850631932075],[128.07833060455516,35.83870667513354],[128.07778322420114,35.83919354163871],[128.07762802793516,35.83951575372906],[128.0773996459922,35.839623967222394],[128.07595038711602,35.83945315336317],[128.07420599469748,35.83895841207682],[128.07359074641656,35.83919148471374],[128.07315455649197,35.839778339164184],[128.07216208057903,35.83978281070868],[128.07156799686797,35.840114368979144],[128.07095325194896,35.84077277105938],[128.06978554120533,35.841201955502044],[128.06894674191577,35.84027075415614],[128.06842858522623,35.84015613106484],[128.06590149144773,35.83872367099617],[128.06475601240612,35.83766747211848],[128.06422408450572,35.83757959829794],[128.06381459614352,35.837158639412735],[128.06244408054005,35.83648089002057],[128.0621067286953,35.83595517083264],[128.06209375617286,35.83567793556644],[128.06159279838332,35.83468136631265],[128.0608942406489,35.834346531877465],[128.06013093014667,35.8343169254093],[128.05942391652334,35.83391071189486],[128.05877785041156,35.83368784628133],[128.05705038280172,35.83357547595548],[128.05486647373033,35.83436182981915],[128.0543292125464,35.83371056360881],[128.05365758690826,35.83360036552355],[128.05329516055568,35.833356858145486],[128.0530777540446,35.83235484534244],[128.05279865030647,35.83205896538858],[128.0525567693721,35.83108896820345],[128.05231607264548,35.83070758511459],[128.05196460450748,35.83048677161241],[128.05165330119124,35.82988265207209],[128.0503967690927,35.82995265058849],[128.0496559489345,35.8301856269421],[128.04793067839344,35.83018324541132],[128.045302322197,35.831313829309394],[128.04343082609543,35.83127794876856],[128.04276305119484,35.83177793656601],[128.0419786849371,35.831991863520514],[128.04054649586726,35.832948355625234],[128.03946978496722,35.83335593767015],[128.0384484621473,35.83405278411138],[128.0380808482496,35.83417576068474],[128.0352841816409,35.83478458212657],[128.0339954695533,35.83528681556695],[128.03338583000638,35.83536795269676],[128.03209149560112,35.83538741001336],[128.03145610969486,35.83558152351436],[128.029781486759,35.83564861991918],[128.02922476634666,35.83532989603861],[128.02865023779114,35.835446512200654],[128.02760935003792,35.83487439141793],[128.02727861599593,35.83456850938325],[128.02689037145808,35.83453876225992],[128.02565122006058,35.833454894404106],[128.02529108857868,35.83322453407647],[128.0242764306642,35.832916059000624],[128.02356370085286,35.83308640431453],[128.02233923092584,35.83304854711625],[128.02160946348795,35.833518108318884],[128.02036026856035,35.83322778895782],[128.0200323717153,35.832988293212416],[128.01939847269045,35.83288452928246],[128.01909252987468,35.83273916219632],[128.0175069023093,35.83252011955755],[128.0165969109838,35.83182785963646],[128.0149749113548,35.83112154931267],[128.01425181914527,35.8303221166293],[128.01300011078692,35.83014802052159],[128.0122318543599,35.829881373663746],[128.01178019488677,35.82893394259128],[128.01121511929432,35.82907889627189],[128.01031141233938,35.82945573677016],[128.00795036491846,35.83079050095764],[128.00726461840415,35.83178042959574],[128.00682402127657,35.83304750381265],[128.00649847617927,35.83346162530074],[128.00588505854003,35.833941343628084],[128.0050734482061,35.83406579901652],[128.0047638965513,35.83445836505206],[128.00425006457863,35.83464241700187],[128.00403943799773,35.83512441761746],[128.0033711019639,35.83513298905575],[128.00286171152547,35.83540025474491],[128.00219351962187,35.83542892760766],[128.00174129994312,35.83575162845828],[127.99912200314405,35.83617305371004],[127.99842951354434,35.83664529593754],[127.99799500361947,35.8366209857614],[127.99699330340715,35.83705151104813],[127.99647575835903,35.837637546992944],[127.99634161096581,35.8380176555723],[127.99630886803027,35.83872445312703],[127.99599535064121,35.83958086309282],[127.99591724243248,35.84003678590279],[127.99531221423007,35.84058945750527],[127.99468773026096,35.84082740349645],[127.99460413100485,35.84108085863462],[127.99429846959752,35.84141777489628],[127.99350250146384,35.84207166527086],[127.99337406110052,35.84245395944873],[127.99290229876559,35.84316945731596],[127.99250888651798,35.84315763908768],[127.9917585411562,35.8444460191481],[127.99076547314043,35.84584273933636],[127.99091536265571,35.84668579688299],[127.9904592379823,35.8472578365961],[127.99032978216516,35.84773214942136],[127.98937395778295,35.848293467927334],[127.98918020807051,35.848741388892186],[127.98873900724847,35.849152441547155],[127.9873545534588,35.850991100356474],[127.98702553091175,35.85114748816971],[127.9864991553862,35.851987218320275],[127.98650826373084,35.85388771243514],[127.98595532726438,35.854615493152146],[127.9852963685355,35.855027148389944],[127.98485285460708,35.856137150543],[127.98433588843976,35.856904371607655],[127.98422139475795,35.857644746625525],[127.98264096141625,35.857816017384664],[127.98219265507437,35.858146958462015],[127.98174908308054,35.8587354450626],[127.98019875085993,35.85782276447752],[127.97950289133017,35.857213938333594],[127.97785114352834,35.85564589895092],[127.97671899299529,35.854343345576275],[127.9765772732678,35.85393261562528],[127.97635301954146,35.85363400921655],[127.9757200950679,35.85317900908679],[127.97539140940924,35.85279517422599],[127.97397968468364,35.85206813532831],[127.97318732536037,35.852048618934745],[127.97205999242085,35.85215870794395],[127.97110743698983,35.85233762326859],[127.97079937564939,35.85246032585179],[127.97038618187189,35.85274098606137],[127.96949050555183,35.853102889570124],[127.96857901774061,35.85394105338807],[127.9667428848082,35.85496431889226],[127.96459780554048,35.85493375959942],[127.96333333275943,35.85513407006138],[127.96254833158125,35.85537127165597],[127.96213633381684,35.85586906805101],[127.96126684590459,35.85624584208647],[127.96114689895462,35.85765633785081],[127.96072149920028,35.85796537889374],[127.96025103168716,35.85932486432805],[127.96028473913712,35.859784448950506],[127.9596318860704,35.8603040248771],[127.95834268323682,35.86034068555367],[127.95749887359686,35.86021060000372],[127.95662521532563,35.860625666455405],[127.95612622948619,35.86052850416269],[127.95534920976083,35.8607985614444],[127.9542255334478,35.860619444359216],[127.95338173686169,35.86078139533121],[127.95285698822717,35.86065618924997],[127.95238153575083,35.86112286851599],[127.95154500124042,35.861140095770274],[127.95118234140682,35.86164472770946],[127.95011195620935,35.86166658085403],[127.94864302402111,35.85990319050788],[127.94704669892786,35.85971714807435],[127.94655762266297,35.85883831595503],[127.94579660898307,35.85812927542807],[127.94544119425538,35.857391686837055],[127.94542926225698,35.8571821308233],[127.94505622932952,35.85693403210808],[127.94475298102158,35.855900775051374],[127.94434582381159,35.855578645840325],[127.94410741132734,35.85556263026132],[127.9436931489806,35.855207633518404],[127.94223838894874,35.854542039149],[127.93872310021881,35.85517027967823],[127.93761916743827,35.8552346410352],[127.93653655299487,35.85470495892432],[127.93576417302276,35.85453054431537],[127.93516232583835,35.85494297701309],[127.9347580966782,35.85507879074021],[127.9341560302617,35.85502310070021],[127.93335475940958,35.8553352015583],[127.93305025316964,35.855693610284504],[127.93246091314874,35.85574093051342],[127.9319497010881,35.85588137810723],[127.93114049055698,35.855847331179106],[127.93034628460298,35.85637445080921],[127.92889032611906,35.85634243115],[127.92816681416954,35.85589866598091],[127.92578251218433,35.85562272467261],[127.9255385009908,35.85644660594375],[127.92579144922702,35.85698359388946],[127.92720145532755,35.85843017939142],[127.9277310974657,35.85843178606773],[127.92806363087807,35.858053932600285],[127.92858378829648,35.857952564231596],[127.92925230323212,35.85800487467703],[127.92997756789907,35.85837105157135],[127.93036764753677,35.85880610429948],[127.93133571959828,35.858986787069206],[127.93149448043812,35.85930334303354],[127.93190568965223,35.85966791365799],[127.93185245729339,35.860619994109484],[127.9319722764044,35.8613384968691],[127.93194267632798,35.86161782471607],[127.93171189245915,35.86181601690408],[127.93222229081512,35.86247541593185],[127.93249023768041,35.862506591270645],[127.93297627626643,35.86327253821251],[127.9329971819632,35.86384891960944],[127.93322064930695,35.86439768298214],[127.93299193609656,35.86460193609686],[127.93278807997797,35.86504445697257],[127.93284241254544,35.86546802984389],[127.93225562057081,35.86620800464788],[127.93233996715324,35.86665042414876],[127.93182848219674,35.86710833499538],[127.93170239208847,35.86804728994163],[127.93149447870914,35.86807165806465],[127.93079780795152,35.86862123938125],[127.9303639915286,35.86863180939062],[127.93009348651995,35.868715933255345],[127.92942519137229,35.86982977253171],[127.92917966900282,35.869877732679655],[127.92897855801439,35.870226391552],[127.92879276858164,35.870347284890244],[127.92875756949641,35.8706575115698],[127.92896424032513,35.87126025103512],[127.9292255967093,35.87151157057622],[127.92953544168572,35.8720861672103],[127.9295262810011,35.872302962191306],[127.92941316519358,35.872398916042236],[127.92944972297862,35.87252371273412],[127.9293681116967,35.87262654225681],[127.92924753074041,35.872638000713096],[127.9292306532547,35.872916526407344],[127.92931309892417,35.8730452758922],[127.92970206800254,35.87324380448481],[127.92989911425269,35.8737067032061],[127.92956779234586,35.874168301339495],[127.92924945810752,35.874274530372965],[127.92911658786119,35.87445517017029],[127.92913538437158,35.87479611719697],[127.92944403262003,35.87515817087607],[127.92936340644547,35.875268734413645],[127.92915325066741,35.87527347858953],[127.9290850632232,35.87544894102467],[127.92899841639874,35.87547461985764],[127.92865796109626,35.876438298681165],[127.92841774416353,35.87676997345747],[127.9287301427024,35.8776758752586],[127.92996187452283,35.87799738759695],[127.93017207429045,35.8781908370899],[127.93022023172217,35.878629310633855],[127.92925753075305,35.87943221024888],[127.92924564321243,35.87976067841584],[127.92890771226874,35.88005320385969],[127.92878588113004,35.88063953835678],[127.92827590328257,35.880914151663134],[127.92807855367435,35.88126805143715],[127.92720988760784,35.881503065542724],[127.92677914567484,35.881338718664686],[127.9265764863862,35.88135900064993],[127.92605140400626,35.88122097308939],[127.92571144304156,35.88138054974958],[127.92562428369362,35.88152554178358],[127.92579729340933,35.88153419350659],[127.92559722096338,35.881604723706594],[127.92550143913756,35.8818823875265],[127.92488489372082,35.88182513261011],[127.92433472164119,35.88202576039054],[127.92402938925851,35.88196288874155],[127.92349614308381,35.88231013675267],[127.92313496576811,35.88224550233021],[127.9230156728,35.88249042318122],[127.92287360739984,35.88258151030261],[127.92277694777648,35.88335620692149],[127.92264845081733,35.88344283626483],[127.92239214428444,35.88407265365311],[127.92233512031355,35.88402467875443],[127.92224563441664,35.884181816582355],[127.92227983944984,35.88433050699486],[127.92201978527237,35.88556999678682],[127.92147913024252,35.88641519504224],[127.92098496221558,35.886892781055174],[127.91984027159668,35.88881175692019],[127.91907040110476,35.88948493741295],[127.91851547642597,35.89038070842287],[127.91870066194468,35.89144840153038],[127.91977879107583,35.89242997041661],[127.92009253487085,35.89296098595089],[127.9200672013041,35.89311000583108],[127.92022205725814,35.89321888533807],[127.91950382804319,35.89317479232806],[127.91697491162432,35.892086879955116],[127.91636783044272,35.89199421856912],[127.91608120914819,35.89221236298724],[127.915854159009,35.89212746098951],[127.9154701380253,35.89156256066711],[127.91475835823881,35.89112160414365],[127.91412320729943,35.89090627408967],[127.91384344041401,35.890657126391595],[127.91306798496746,35.89074185347952],[127.91210254428066,35.890477248540236],[127.91200155341426,35.88983538637461],[127.91082058549179,35.8897439355694],[127.90926332367657,35.88986570135118],[127.90748499578314,35.88938755770901],[127.90693142329968,35.88936363061631],[127.90666538485966,35.889277716233785],[127.90574594310561,35.88983078164147],[127.90522999167682,35.89045000314288],[127.90332649935033,35.890678427553574],[127.90277409424307,35.890676957998124],[127.90236153142415,35.89037835826913],[127.90217478788722,35.88923191082125],[127.90158709539409,35.88872720095628],[127.9011419910044,35.887560078467615],[127.89969351257737,35.88714163470189],[127.89921264903366,35.88771581405312],[127.89892883093313,35.88779785817214],[127.89853603893425,35.887717462348625],[127.89805624525344,35.887821490982745],[127.89715474103303,35.88764273164761],[127.89639353772709,35.88763217566135],[127.89515227277472,35.887421672121654],[127.89425364691834,35.88691098638685],[127.89352055475969,35.88679845568776],[127.89313818114984,35.887079848163395],[127.89115497614134,35.889364373192414],[127.8910994226397,35.889804119611796],[127.89083161728183,35.890352054219655],[127.8894924260528,35.89110164360372],[127.88824220001605,35.892348924316764],[127.8874577039395,35.89258532747642],[127.88715170122813,35.89254288759851],[127.8869188131365,35.89264595842873],[127.88647823070728,35.893081227057735],[127.88579358729567,35.89299921298755],[127.88478308367947,35.893106588139794],[127.88453886433582,35.89448932008218],[127.88503933786848,35.89535821691322],[127.88439697546318,35.89540269326238],[127.88428544425915,35.895820263707435],[127.8845323371367,35.89642939751469],[127.88462886660534,35.897162149796266],[127.88444329065177,35.89787548585694],[127.88308806018208,35.89816812580659],[127.88273221025507,35.899038882058],[127.88296871638032,35.899388131379915],[127.88379957786586,35.89995142428147],[127.88381426600617,35.90048642195815],[127.88401860960501,35.90130938481022],[127.88313986696204,35.902131576360475],[127.8821917688967,35.903185874381734],[127.88298820682311,35.90516823476082],[127.88312904158701,35.90585996273012]]]}}
