{"type":"Feature","bbox":[128.8671296073139,37.06180169531284,129.0956601445159,37.34559280307059],"properties":{"regionCode":"51190","version":"vworld-20260909-3f8952dfda77-p3","name":"강원특별자치도 태백시","attribution":"국토교통부/K-Geo플랫폼 · VWorld 법정구역정보, CC BY 2.0 KR; 두꺼비집 가공"},"geometry":{"type":"Polygon","coordinates":[[[129.01246901520864,37.33629462756993],[129.01258774278668,37.33645197572006],[129.0126694811185,37.33702376924393],[129.0140333277277,37.33768286585001],[129.01435474338754,37.33817718333741],[129.01428374969942,37.33839268360469],[129.01253638873763,37.338836369492135],[129.01147161414417,37.33921754086772],[129.01035955191873,37.33966008083144],[129.00983125907922,37.340084465311556],[129.0094302652185,37.34115262323205],[129.01000664340592,37.342649855739964],[129.00830797883475,37.345542118224024],[129.00744654475724,37.34559280307059],[129.00500084707951,37.34462593811343],[129.0023690728983,37.343719016949635],[129.0022855520756,37.34274795581849],[129.00134041271875,37.34099788245746],[129.0000993528872,37.34010440927164],[128.99928592199575,37.33997801129115],[128.99932422919414,37.33850110241411],[128.99783014355162,37.33760809397108],[128.99714065092442,37.337075662330896],[128.9964776406632,37.336847915394344],[128.99528934425874,37.33603137027275],[128.99300379364595,37.33596900338857],[128.99255370222448,37.33571885115144],[128.9915957384451,37.33548717732745],[128.99032665455846,37.33412377095989],[128.98925850709577,37.33528257416122],[128.98837428338302,37.335375681138345],[128.98792959208888,37.335714972453374],[128.98694120357158,37.33581421633705],[128.98498571064061,37.335396269684075],[128.9836489432729,37.335600622058095],[128.9819942688417,37.336184381277505],[128.97956277078143,37.33622182046223],[128.97810757933502,37.336412485648545],[128.97739351509745,37.336083793043976],[128.97674956615316,37.33591872726669],[128.97598235642843,37.335904392016744],[128.97474970023657,37.33534410301701],[128.97393889875687,37.33506223503425],[128.971027631998,37.33441860144603],[128.97093694057276,37.33499296497524],[128.97008012713684,37.33658427715933],[128.96965241385888,37.336676277563605],[128.96932820311326,37.33690562978368],[128.96905186684307,37.33669582681046],[128.96875466428756,37.33586643872804],[128.9690161368567,37.33514257964555],[128.9687564627124,37.3339868717656],[128.96888356268988,37.33378233138955],[128.968820067149,37.33350093945803],[128.9681919164611,37.3327653173392],[128.96777552107937,37.331937499097656],[128.96741827241306,37.33157056222751],[128.9661564711549,37.33082999060413],[128.96616567279406,37.330251634213546],[128.96588546183875,37.33023142395213],[128.96519676828353,37.32977564154818],[128.96478397962812,37.32964225499444],[128.96418112057574,37.329575242746344],[128.96384759871174,37.32925099910944],[128.96367009013946,37.32887915555625],[128.96367187190165,37.32802045947267],[128.96333261311128,37.327742930029295],[128.9631001953192,37.32698503224026],[128.9622180161975,37.32654815298367],[128.96207683654367,37.32621970396788],[128.96101868099063,37.325005981065104],[128.96086380297723,37.324514167701906],[128.95799743295103,37.322311587402005],[128.95780806417457,37.321624072829344],[128.95782358458737,37.32102019456785],[128.95725251355077,37.320059913447096],[128.9570648047076,37.319408943283996],[128.95700503066774,37.31813196698761],[128.95605885886954,37.316469204382734],[128.95513777722343,37.31581415786316],[128.9542776595295,37.31490312139635],[128.95378129534032,37.314245881773125],[128.95401861979568,37.31344833779542],[128.95339698182602,37.313192487318226],[128.95295052467756,37.31123682323977],[128.95097353729847,37.30779275017233],[128.94851571951415,37.3080858519572],[128.94753358948674,37.30756993739952],[128.94673397364605,37.30733739394723],[128.94577160927736,37.30691091580809],[128.94480169349256,37.306676000028105],[128.94457528369128,37.30635728001822],[128.9438742754495,37.30593087762436],[128.94367945712548,37.3057057346792],[128.94328284444285,37.30552780624875],[128.94323784109517,37.30520310762548],[128.9434903986622,37.30413083791587],[128.94359780631459,37.302665560284886],[128.94360492454413,37.30034810862374],[128.94335935791477,37.299490545028284],[128.94231263871944,37.29765326945145],[128.94260834094888,37.2966452398986],[128.94377691111794,37.29566995620485],[128.9443858922174,37.294541049404344],[128.9449366489444,37.29391785890083],[128.9453139799134,37.29291214705388],[128.94535278421372,37.292347597340196],[128.94574669297307,37.29163461910843],[128.9458152954139,37.29125486450427],[128.94625307201147,37.29082536042504],[128.94644667341785,37.29022884934505],[128.94575591729574,37.289731637996226],[128.94521659678432,37.28983210997628],[128.94487673809934,37.29000480804608],[128.9430301670937,37.28936841433384],[128.94239887672416,37.288955226368756],[128.94154731710097,37.2888870819829],[128.94158082126265,37.28766498630211],[128.9418592443066,37.28721608781183],[128.9416259363958,37.286317460585344],[128.94062382745074,37.285824637117564],[128.93959298641897,37.28389096042615],[128.94035405672145,37.28239947769444],[128.9413878928778,37.28105873421893],[128.94103142376932,37.27932588196988],[128.93740366484363,37.27665710547261],[128.9366038673851,37.27407085472309],[128.93401403866858,37.273106588553325],[128.93049659393063,37.274490418963495],[128.92994967453222,37.2741363326476],[128.9284549119708,37.27376475611526],[128.9276643627471,37.273749209657566],[128.9261794417119,37.27414185238588],[128.92540922416154,37.27355452307147],[128.92500168527695,37.27340872501632],[128.92436082654376,37.27295490665683],[128.9243267456156,37.27253832620969],[128.92462116250994,37.27238628215028],[128.92516175006278,37.271724958785526],[128.92659829523643,37.27052023561293],[128.92755309501848,37.270110396092015],[128.92787847204727,37.269174979219684],[128.9278713211257,37.26857971940705],[128.9284364250235,37.26821686801155],[128.92902920459582,37.267701803569736],[128.92917405144192,37.26680429640888],[128.9288181754718,37.266021508137094],[128.928928125157,37.26580848712419],[128.92895699731767,37.2650092771143],[128.92969733499004,37.263432617694434],[128.9309849815079,37.262602657883846],[128.9308563510009,37.26221812568159],[128.93084214785102,37.26134738891705],[128.9309684979515,37.260815913504075],[128.93098780339676,37.259667566390505],[128.93123745628662,37.259357678566424],[128.9310889608036,37.258877519539794],[128.931297422609,37.25855731090494],[128.93219581522638,37.25723854447424],[128.9334668021387,37.25693577765],[128.9340590424504,37.25729201811255],[128.93499084798256,37.25718211655911],[128.9348181844958,37.256624853672896],[128.93398331917714,37.255550893254366],[128.9333952177388,37.25447943070039],[128.9332115766493,37.25371392892905],[128.933302086221,37.25354518066012],[128.93326418969016,37.25312043605715],[128.93391941082032,37.25160739482746],[128.93442258190427,37.25070014550377],[128.9346467379979,37.249803085991694],[128.93469130555383,37.24799998568135],[128.9348502521488,37.246454980517186],[128.9352259470361,37.24590165598654],[128.93539012509186,37.24541869559794],[128.9341421006263,37.24475468658099],[128.93269330522924,37.24412289724146],[128.93217395500614,37.243583342767465],[128.93201268123502,37.24280938822584],[128.93184291538353,37.242432878374565],[128.93041991630108,37.241492720604406],[128.92964380223387,37.24058444940685],[128.9273899023779,37.24168399569443],[128.92531275459442,37.24236495693537],[128.9239387293414,37.24263456692179],[128.9238742220378,37.242731037029785],[128.9227046632489,37.24164493415004],[128.92160212330953,37.241313057074414],[128.92099329979865,37.2412440464219],[128.91810995566257,37.24004922961058],[128.91784307061795,37.239447236557524],[128.91802905447022,37.23839892694226],[128.91838857868134,37.23745113943964],[128.9184717644568,37.23668224390963],[128.91844869156867,37.23561903921892],[128.91766027537741,37.23469902037684],[128.91791158522892,37.23345548986629],[128.91777474773218,37.232374715094885],[128.91730524532494,37.231556427355514],[128.91731636521286,37.228967843522405],[128.9169470667468,37.228331788270324],[128.9170864567387,37.22552067179938],[128.91534617455218,37.22360963474803],[128.91390080352593,37.222871321566565],[128.91314069009138,37.22192800840567],[128.91240034037733,37.22142334593913],[128.910883013309,37.21980577041707],[128.91006388442048,37.21774379047836],[128.9095100589978,37.2170506602471],[128.90813785157633,37.216510704249295],[128.90941845683923,37.2157230855235],[128.9113256319797,37.215063664930874],[128.91196488257486,37.21312055542657],[128.91642131242938,37.21182563775341],[128.91585410490816,37.21036158195418],[128.91626541220356,37.20809933010326],[128.91636430896705,37.206692134345616],[128.91593788909236,37.20586780669428],[128.915860998421,37.20465047158842],[128.9145846288036,37.20280798014019],[128.91430112855073,37.20188739738555],[128.9128917418858,37.20004133674591],[128.91174365502619,37.19805689460958],[128.91153348908037,37.1969119881363],[128.91202917607143,37.19599655895997],[128.91298494977144,37.19483299436624],[128.91285117920086,37.19445098382978],[128.91208688884296,37.19347293496475],[128.9126031243413,37.19220446229566],[128.9130914097347,37.19163548420329],[128.9133307871329,37.19110343127684],[128.91309199888855,37.19083413964934],[128.9130921512381,37.18977311167223],[128.91289987676254,37.189218097942295],[128.91277080224023,37.18835759613451],[128.91291320019224,37.187133016634974],[128.91275442902918,37.186111416153274],[128.91280574178774,37.18574186584572],[128.91377262560744,37.18502431611585],[128.91416952913022,37.18305497955033],[128.9148555572135,37.180783500438146],[128.9147894696862,37.18071589869217],[128.9148328980346,37.18058041418734],[128.91397637605675,37.17976295908056],[128.913757574204,37.179281168175315],[128.9136957397011,37.17881634001427],[128.91286176837303,37.17820839620109],[128.9120104909225,37.17739243372838],[128.91191173283656,37.177192198807276],[128.91225158625124,37.176778967796544],[128.91246794269676,37.17613795926829],[128.912375219565,37.1750959510648],[128.91247350273773,37.17455710014298],[128.9127059096358,37.17409025883615],[128.91275481810064,37.173518006768624],[128.91309953861693,37.1726707821777],[128.9135801665053,37.17180608495113],[128.91404070253986,37.171269977271514],[128.91424383448395,37.17113665436982],[128.9149672518925,37.17100476818012],[128.91509869609862,37.17050928175673],[128.91551253612113,37.16985069383802],[128.91591566227228,37.16938789225985],[128.9161462113684,37.16860643301875],[128.9165680499206,37.16780694529887],[128.91661867634878,37.16712377505949],[128.91696519567853,37.16628616185435],[128.9170091138957,37.1647175222343],[128.91764835759494,37.16315238583351],[128.91782008106807,37.16233579651615],[128.91766706040832,37.161167379533595],[128.91726677303868,37.1606120067849],[128.91679832840222,37.15939408403707],[128.9169901886959,37.15800055877539],[128.91674022417251,37.15747320249104],[128.91632230325106,37.157151606566416],[128.9159871742438,37.15646659838976],[128.91570951800517,37.155378957984226],[128.91492477360646,37.15392240174684],[128.91419852387588,37.153390773042936],[128.9125501237742,37.150025951366835],[128.9119407396314,37.14925976928165],[128.91089232085722,37.1488587533901],[128.9091739237534,37.147922133178035],[128.90708359437127,37.147866594209646],[128.90637873158295,37.14801790329465],[128.90606005432218,37.14817107040051],[128.90500565460098,37.148385108372416],[128.90458818526938,37.148187562605685],[128.90365116000714,37.14791455900891],[128.90183114160385,37.14777092200306],[128.9005724233592,37.14706700630823],[128.89874150816456,37.14706248045579],[128.89745692185906,37.14727099012032],[128.89606512134628,37.14663424766552],[128.89488372213594,37.14664352646816],[128.89403060992748,37.14630231888344],[128.89280931818246,37.14528631133447],[128.89250999966882,37.14470051122435],[128.8915442535879,37.14432105760978],[128.89067821653916,37.14412018280572],[128.8892446958093,37.142518974453594],[128.88848121247045,37.14088137999438],[128.8880248037865,37.14024902811723],[128.88812009106724,37.139558261782405],[128.88790140961157,37.13850596196795],[128.88745014502982,37.1378412239282],[128.8874287875014,37.13735793589637],[128.88709198843276,37.13675562401715],[128.88702671666442,37.1364435735445],[128.887205172011,37.13589849729888],[128.88701793273967,37.13452151762381],[128.88746798367947,37.13305491686922],[128.88814379433376,37.13191324271444],[128.8880251607618,37.13130160469865],[128.88822726424712,37.13098228047601],[128.8882589551798,37.13033989347115],[128.88840820984728,37.130346644011574],[128.88842055866394,37.129876976776906],[128.88886473370238,37.129281160045224],[128.88905911601034,37.128783232962824],[128.8886605397718,37.12705243142944],[128.8887431988577,37.12603562130183],[128.88929204982787,37.12462120754947],[128.88908918392914,37.12460127760916],[128.888767857369,37.12420052895784],[128.88799982933696,37.1239493661347],[128.88735343696416,37.12347955430266],[128.8867009321318,37.12280883591768],[128.8861444587016,37.12188293570981],[128.88568828251968,37.121515609839214],[128.88448278663384,37.12131913845327],[128.8840494931363,37.12116682779703],[128.8829739310142,37.12019477097117],[128.8828971780883,37.11950192318454],[128.88163456333893,37.11945362671792],[128.88008139823813,37.11885744765892],[128.8795469274803,37.11889443764865],[128.8794534420858,37.11872916824174],[128.8792677746492,37.117580253665615],[128.87832237326367,37.11664077278946],[128.87737549792868,37.116617258708665],[128.87738626153427,37.11592628110118],[128.8768050199909,37.11523588657909],[128.8761416838561,37.11488884670135],[128.87586593906613,37.11451969083453],[128.87442764705077,37.113877247586835],[128.8739980129775,37.11379418018866],[128.87375290989272,37.11381144431133],[128.8729796973171,37.11409486469156],[128.87218654088258,37.114162773494805],[128.87165907668452,37.113968495054685],[128.87079438875372,37.113804949373275],[128.87037295718105,37.11357334061634],[128.87003413955793,37.11321617857241],[128.87015156826644,37.112777400092156],[128.86943832424163,37.11245347967194],[128.86921379177318,37.11212009670557],[128.86927856239993,37.11054829250919],[128.86939962373097,37.10993559934269],[128.8693613293878,37.109606723319835],[128.86906949947002,37.10955315706629],[128.86802893738428,37.108959194318196],[128.8671296073139,37.108857796282145],[128.86746898234267,37.10806629798149],[128.8681674719057,37.10724606128163],[128.86879388565458,37.107101011239976],[128.86995269846872,37.10778395309687],[128.87048437740398,37.10796383512076],[128.8715287434251,37.107839927917084],[128.8724876781678,37.1078522769613],[128.87284296463136,37.1078768235995],[128.874200159222,37.108346800833495],[128.87490430413513,37.108308259013114],[128.87527522733302,37.10819906138116],[128.876122417694,37.107696481063485],[128.87715000749597,37.10668687092478],[128.878139910187,37.1049160051655],[128.87837775799434,37.104713038205915],[128.87845280860637,37.10476623159922],[128.87880373693835,37.10447305726485],[128.88004563223637,37.104476147721606],[128.88008048095259,37.10441363417426],[128.8808665543094,37.10437596929895],[128.8818996984022,37.104127619356554],[128.88249149523475,37.103794831243746],[128.88249169037783,37.103670601507545],[128.88351205906656,37.10298738362638],[128.88602926714566,37.10273962412992],[128.88673886764997,37.10243939534008],[128.88697513737515,37.10214836199648],[128.88734751199982,37.10187388705597],[128.8874053500863,37.101714003918985],[128.88716635825702,37.100568185805216],[128.887017302554,37.10030863768107],[128.88687684862794,37.10033245680348],[128.88664572042347,37.09956768787413],[128.88690534614065,37.098042677459134],[128.8877500165886,37.09694573201452],[128.88847176348557,37.09567765292851],[128.8885414977235,37.09483454464473],[128.88818616052615,37.093841378749495],[128.88835790664842,37.09386723232158],[128.88845514480803,37.09360655004255],[128.88875216660014,37.09332737371893],[128.888927714786,37.09277658996064],[128.8889821158166,37.09194934701079],[128.88871328224678,37.09142559381999],[128.8881355133439,37.090930982662215],[128.8876589206563,37.09072625866269],[128.88710947810287,37.09035540418434],[128.88683773685202,37.08992758750486],[128.8865321638161,37.08973942008164],[128.8863216654599,37.08935558784811],[128.885553623269,37.08713048071466],[128.88460825121888,37.08512195139077],[128.88480462997623,37.08437456622917],[128.88433655585246,37.083867543147356],[128.88441632442394,37.083815995220014],[128.8841781092573,37.0836896296349],[128.8837864240566,37.08318140877646],[128.8830272757338,37.08257982521163],[128.8825255025402,37.08204555743121],[128.88214007126436,37.08144293707518],[128.88157288775582,37.080955105564264],[128.87920328703527,37.079603751356075],[128.87802776200303,37.07939276836833],[128.87685880267153,37.07889626490468],[128.8756995275621,37.07857879879866],[128.87487150612424,37.07879528812065],[128.87491961737317,37.07861052127741],[128.87453956027875,37.07860247042445],[128.87455349732787,37.07823118400203],[128.87489617102668,37.07768446772608],[128.87487923347686,37.07749546150554],[128.87508374234065,37.07748665094835],[128.87486894819926,37.07708141139401],[128.8749129877638,37.076471591533085],[128.8748287340423,37.07647150114169],[128.87496189472404,37.07599833337922],[128.87482225693438,37.075471531890834],[128.87551708753585,37.07443469563129],[128.87556791641825,37.07327960259625],[128.87596344743886,37.072848022623994],[128.87640557653398,37.072024890452184],[128.87755016437538,37.0713098844729],[128.87812631698367,37.07080498447507],[128.879246762817,37.070294239565534],[128.88046969341173,37.06908394440315],[128.8823188051834,37.06795065579684],[128.88308925727938,37.067713040478615],[128.88376199592736,37.06730175504016],[128.88532966756887,37.06598873715346],[128.8857479618962,37.06607299582159],[128.8857409559501,37.065649051718104],[128.88559408157514,37.06547438146005],[128.88541856284317,37.06471292384141],[128.88583029738976,37.06410766687021],[128.88619201292227,37.0639404809942],[128.88630893488548,37.06332057380336],[128.88665065166043,37.06269979791788],[128.88723311952043,37.0622248171763],[128.88847233992328,37.06180169531284],[128.88884995207752,37.06191819517522],[128.889756297655,37.061942958572864],[128.8917139934732,37.06220787193757],[128.89260756812962,37.062829601527866],[128.8942219594807,37.063615846251615],[128.8953338266463,37.06376466001191],[128.8957045726967,37.06394116711269],[128.89600605579963,37.06431452676526],[128.89626832725224,37.06441860106813],[128.89628272954275,37.06494188416444],[128.89666366606252,37.065505427157866],[128.89768225760292,37.06587164310864],[128.89814962136182,37.06638411277904],[128.89880566141915,37.06668816049442],[128.89884983581823,37.06683351264988],[128.89946043587875,37.066942024595726],[128.90141307036058,37.067024742522676],[128.90272859933134,37.0666541965274],[128.9034726382933,37.066553731245754],[128.90484078573445,37.06619943520955],[128.90537106458714,37.06590422953724],[128.90643737930603,37.066256359625996],[128.9074764109721,37.06689266659445],[128.91060094587087,37.068267890074765],[128.91018852203695,37.07023536108857],[128.910914522043,37.071182403987606],[128.91218237757258,37.0719905474236],[128.91320737846948,37.07303139725117],[128.91433891886265,37.07491722141128],[128.91421632538967,37.07593253385495],[128.91476628216407,37.07692023860633],[128.91530214044244,37.07748245364423],[128.91622779857371,37.078076102621836],[128.91687488533762,37.0786077364642],[128.91683036262845,37.07912181184051],[128.91714640455854,37.08007694982332],[128.916408692261,37.08211021645402],[128.91501133506208,37.083679546777404],[128.9161551058193,37.084419976223415],[128.91741855366192,37.08553363144334],[128.91791925481846,37.0857825642334],[128.91938068440783,37.08905536856452],[128.91975727666355,37.089371372069884],[128.92006768466806,37.08985036190077],[128.92097383366345,37.09053544043966],[128.92120331591846,37.09062575560633],[128.9216636542278,37.09148782683643],[128.92319795285218,37.09212083758241],[128.92354096478473,37.09214271841857],[128.92449866254535,37.09180812650381],[128.92487728454896,37.091879634952214],[128.92522837112477,37.09179477488863],[128.9263385862104,37.09188907295001],[128.92668269325608,37.09161940360314],[128.92750246663985,37.09131774382577],[128.9286075225325,37.09115354800369],[128.92940185962163,37.091185157276335],[128.93205796296127,37.09087318570506],[128.9330639069425,37.091629880048664],[128.9331259735755,37.09179528859041],[128.93438599008755,37.0920122148787],[128.93674470768207,37.0921092019505],[128.93739724564426,37.092365295025836],[128.93782079487684,37.0928030346253],[128.9392984925393,37.09299405861681],[128.93988758794703,37.09295472054933],[128.94045463779315,37.09340555387663],[128.94235131435826,37.09333530387369],[128.94290897973642,37.0934025139684],[128.94373787402324,37.09332725060324],[128.9442148532079,37.093585647089625],[128.94517700015527,37.09366555648331],[128.94569947338343,37.09383573972409],[128.9458128261604,37.092859663076815],[128.9474444028465,37.09180606110567],[128.9479682844807,37.09111423119329],[128.94865724280726,37.090499104296946],[128.949068172328,37.08997357494783],[128.94959044695986,37.08956499055353],[128.94957035442675,37.08935353433172],[128.95024960855528,37.08871268241711],[128.9503282425748,37.0885861283031],[128.95033192550108,37.087924906948174],[128.95076936597167,37.087342345311484],[128.95076949969325,37.08714067199108],[128.9512645605204,37.08646368292257],[128.95240370102115,37.08588860129959],[128.95346934400888,37.084881550797235],[128.95364777660356,37.084843363537004],[128.9532026320405,37.08368041392565],[128.95333660874542,37.08185607716779],[128.95325801039655,37.08172945609226],[128.95349413569394,37.08120195967063],[128.95388688134096,37.08093305996191],[128.95407430397404,37.080641491365746],[128.9543196160728,37.08048343083535],[128.95492336541227,37.079552237484776],[128.95568284668073,37.079300325278155],[128.95630784016402,37.07939064974711],[128.95727655592884,37.07901589936667],[128.95745678983602,37.07884474955472],[128.95781026633165,37.07884712680181],[128.95849569062958,37.07850337796842],[128.9590124277341,37.07779386687774],[128.9592740237202,37.07757656459578],[128.9601324933205,37.077861852874555],[128.96100644382267,37.07798311649779],[128.96107536826636,37.078145539683675],[128.96136106008535,37.07830410187437],[128.9628526203117,37.07841992566449],[128.9637616752204,37.07866415944505],[128.96393630600622,37.07880580504664],[128.9647935429076,37.07891398624346],[128.9655917122366,37.07922677295746],[128.96598403532172,37.079176686477446],[128.96622671438263,37.07933810122247],[128.96687546104368,37.079329637953485],[128.96851499409505,37.07971760045253],[128.96996998288367,37.07980697925258],[128.97095772303618,37.080591085038144],[128.9708721536391,37.081113037773996],[128.97096086226458,37.081134384568706],[128.97097154689902,37.08123832896483],[128.97122267562827,37.081231507080496],[128.9718540254009,37.08165162703885],[128.97378562347433,37.08154441369446],[128.97428772014578,37.08136755050251],[128.97551043744468,37.08114368354515],[128.97670993133912,37.08180561006846],[128.9775226586346,37.08154222698091],[128.9777480399138,37.08170618402254],[128.97947311116445,37.0823613382468],[128.98065236083542,37.08305784339133],[128.98187722689556,37.082975287254456],[128.982658230711,37.08414158574134],[128.98339637404993,37.08462051595429],[128.98417368307884,37.08469376339845],[128.98570451246292,37.0843007876084],[128.98861365148696,37.08437435548726],[128.99124268353503,37.08255950977832],[128.99208596281963,37.08237693812988],[128.99213912058477,37.08250565926635],[128.99230556318184,37.0825145953388],[128.9923433359351,37.08240657853714],[128.9943874136692,37.08220598839079],[128.99496304918767,37.081903433434476],[128.99620996750306,37.081558884466496],[128.99645529897742,37.08137779803438],[128.99724008877573,37.08189377968281],[128.99878878351782,37.08161680104234],[128.99949838117652,37.081073149751155],[129.000295414663,37.08071649162615],[129.00061374600648,37.0804790294672],[129.00334200724015,37.08026806041198],[129.00371711847464,37.080085922995146],[129.0040439120123,37.07976402807422],[129.0049646620381,37.079629305843085],[129.00583739753517,37.07964096347639],[129.00678171659942,37.079498015856515],[129.00733764929055,37.07922944761845],[129.00841109499552,37.07921508001406],[129.0088533076283,37.079138029566316],[129.00906135918046,37.07891079667057],[129.0096123792219,37.078683926107516],[129.01077301094955,37.07857487484371],[129.01149175996636,37.07871987055669],[129.0120795261584,37.078510023412456],[129.01271802942497,37.07874733388284],[129.0138609588468,37.078722818823266],[129.01456495441101,37.07936340076884],[129.01511800474663,37.07968284562722],[129.01681693366652,37.07892919656364],[129.01730195601098,37.07862142964236],[129.01859930481083,37.07816961098079],[129.01954542178814,37.077062213811686],[129.0203826799795,37.07669445692835],[129.02082098009893,37.07669749750834],[129.0219018299211,37.07700103872885],[129.02310997182383,37.07834408756744],[129.02432298045886,37.07852465732494],[129.0261349826955,37.07790640728791],[129.02883290698415,37.07728858718325],[129.029541283329,37.077205650193626],[129.03042676856927,37.0773078277587],[129.03094036864596,37.07641241113938],[129.03133108885586,37.07615422946137],[129.03229693461358,37.07521997505845],[129.0339206283601,37.07583272766558],[129.03518660673967,37.075845972846174],[129.03664260003262,37.07629762117595],[129.0369744412583,37.07485741594437],[129.03757206924453,37.07467331910502],[129.03816396216556,37.07437097268822],[129.03926900578026,37.074068159374775],[129.04024059608514,37.072753400228876],[129.0403535165025,37.0724017891554],[129.04128433806784,37.0719668481458],[129.04186616058124,37.071062401565484],[129.0437908201294,37.07110270801611],[129.04527144767601,37.070690680243864],[129.04551948934662,37.0705220606472],[129.046296834657,37.07053144304411],[129.04716124662738,37.07041751300888],[129.0483254591251,37.07008618725257],[129.04937228595355,37.068999087559796],[129.0498075318576,37.068893389221635],[129.0500213123447,37.06839952091502],[129.0509145550792,37.06799325504166],[129.0511254051912,37.06800860172484],[129.0512741817093,37.067865859838285],[129.05238125975296,37.067930967835665],[129.0524259216861,37.06822533361345],[129.05216973697517,37.068478611781906],[129.05176608544113,37.06861223358986],[129.05133163905307,37.06904186258289],[129.05167403878076,37.0690442322646],[129.0532152927812,37.07036833018199],[129.0542015195155,37.06989787836476],[129.05443591779493,37.06974549182314],[129.05487790335604,37.06925520881563],[129.05554599389322,37.06896158212025],[129.05706700833912,37.06789950898308],[129.05673510878398,37.06738897892643],[129.05632661151353,37.06577849199709],[129.05650895904037,37.065189533956755],[129.05740369003152,37.06505100213459],[129.05854912537941,37.06522921097652],[129.05943553237915,37.06524999601009],[129.05963015108435,37.06566036980275],[129.06067586767207,37.06595686511968],[129.06213111711858,37.0682692633813],[129.06314330153995,37.06831043905174],[129.063975521817,37.06813507026422],[129.06394459371234,37.068440358172616],[129.06462464141586,37.07041118133974],[129.06510045081708,37.07077057964167],[129.06520875360903,37.07175238165585],[129.0656259394002,37.07205318381371],[129.06623058632138,37.07354549981998],[129.06736509790602,37.07445379446703],[129.06720248373162,37.0747777720792],[129.06741779533212,37.0761950707061],[129.06690764182048,37.076695381319695],[129.06691868855864,37.077199838804006],[129.06580962836767,37.078170111223656],[129.0656047091135,37.07875225671683],[129.06706245739085,37.08083705159876],[129.06859855819013,37.08175506568968],[129.07019900578385,37.08371310737688],[129.07079427027963,37.08381452183878],[129.07086855600465,37.0850142526511],[129.07001506801853,37.08738134456974],[129.07026389270132,37.08756125513493],[129.07035989386043,37.08819820196319],[129.0713191706685,37.08858309752097],[129.07251080775748,37.089547420866666],[129.07288141623215,37.090053396516446],[129.0741528700304,37.09102173995516],[129.07499659948724,37.0911385713072],[129.07567671285767,37.091479771940975],[129.0768579177772,37.09291999807124],[129.07819408076497,37.092861679326894],[129.07877709385755,37.092916698811386],[129.0799270333123,37.09347138795504],[129.08075205926838,37.093298030738296],[129.08256712417761,37.094016538583425],[129.08376977594654,37.09480185684445],[129.08389999552483,37.095133280836166],[129.0849279253293,37.09580292924198],[129.0873953826012,37.097067008817795],[129.08845613487944,37.09715150882969],[129.0904449071212,37.0970626231019],[129.0912037709306,37.09715414852984],[129.092345739672,37.09856048208541],[129.09431697757347,37.099312934631165],[129.0956601445159,37.100312683667525],[129.0944817300582,37.102491493159995],[129.0945782740517,37.103649888999605],[129.09358674478074,37.10522607624686],[129.09371413220575,37.10553451899243],[129.0906920771278,37.10896998363116],[129.09033042436752,37.110147692958655],[129.0900411090371,37.11049196886824],[129.0900302636275,37.11083914654673],[129.08863969558993,37.11327052538482],[129.08799182914686,37.11364788488459],[129.0879147819905,37.1140768796416],[129.088152003328,37.114923083009195],[129.0894688568908,37.11742558373984],[129.08990553474212,37.117535330014455],[129.0910076482864,37.11810100001204],[129.09195503088466,37.11946846216343],[129.09179711174073,37.11992277458452],[129.09104902874864,37.120253874022346],[129.09040312566984,37.12092543416183],[129.0903654390335,37.12178704641097],[129.090128774177,37.12283649723424],[129.08906089515037,37.12357422310022],[129.0893108025328,37.12436569764091],[129.09008071413618,37.12521439531362],[129.0906233549065,37.12642365809696],[129.0909772114725,37.12759242381111],[129.0907222125503,37.12963375781389],[129.0915440204839,37.13040882518618],[129.09192742386884,37.13058729530562],[129.09279800882163,37.1313999174339],[129.09355548280533,37.1342180206608],[129.09357536293896,37.135267487476035],[129.09414435298686,37.136272401881556],[129.09485015005154,37.13691781142572],[129.09505022797052,37.13776150932561],[129.09536888613778,37.13842870446765],[129.09424155883127,37.139345378422874],[129.0938046660187,37.14036163279561],[129.09344784077575,37.1421581540617],[129.09238109877413,37.14227944181182],[129.09113702332039,37.14319772836384],[129.08869951694354,37.143937151073715],[129.08956087817404,37.145151338662984],[129.08897637326464,37.14609708685648],[129.08889943761375,37.146614778344926],[129.0884461976316,37.147710173849426],[129.08899329711923,37.14856692887158],[129.0891890415333,37.14913978939993],[129.0891473214175,37.15037174334926],[129.08893308221334,37.15083146573765],[129.08900622026596,37.15124462411145],[129.08890467204674,37.1516417054789],[129.08840626458814,37.15212352314207],[129.08787407937203,37.15236880414552],[129.08875104062707,37.15448757212442],[129.08913311018475,37.15470000132428],[129.08842271760204,37.15580042893556],[129.0887991181964,37.15650393347361],[129.08856418058676,37.15821604876537],[129.08724609375818,37.158894784429876],[129.08692818671787,37.159543752889086],[129.08663453510192,37.159663936610826],[129.08618877497713,37.159495792594484],[129.0857438447519,37.15955420531061],[129.0849639835252,37.160021828003366],[129.08474834986512,37.16035144430414],[129.08259579252146,37.160304368609644],[129.0819381271429,37.159868141124676],[129.07955607652943,37.15984178582238],[129.07614036730413,37.160197963464945],[129.075477571564,37.15989248270707],[129.0740566060726,37.159718342657555],[129.07192149104506,37.16018860857837],[129.07295255408766,37.1610730330467],[129.07407300704784,37.1618478969624],[129.0742492504457,37.163494729364736],[129.07465837043443,37.1647316206243],[129.07452502708995,37.165958658468256],[129.0742655230835,37.166582542926236],[129.07374749878988,37.167210309954996],[129.0737057773866,37.16775712284568],[129.07280314263662,37.16840405463347],[129.07282153077463,37.16907215721022],[129.07228671223322,37.1696548150329],[129.07183249159678,37.16992069778295],[129.0686410111458,37.16962204099796],[129.0681693556206,37.16948683106506],[129.06745541278036,37.1695667428482],[129.06665044341943,37.17008550518887],[129.06599137436547,37.17013163996857],[129.06538715662464,37.17033385892874],[129.0649381377228,37.17027756532842],[129.06448694304075,37.17060785199742],[129.06227481425748,37.17079075316421],[129.06162684072999,37.17110771360246],[129.06020538402214,37.170701862525725],[129.0594500347201,37.170901625992364],[129.05910264527648,37.17089332636254],[129.05840698759826,37.17130604261338],[129.05788708550116,37.1710009026243],[129.05755128841488,37.171055181011795],[129.0548554296364,37.170650486052715],[129.05394759501866,37.17067690317311],[129.0533344721372,37.170300322310354],[129.05228499548306,37.17030826957792],[129.05198305683064,37.17005842790279],[129.0512832200366,37.16994176477936],[129.05065410314103,37.17030641343681],[129.0502286843081,37.17072221718593],[129.0495575789819,37.171195431753695],[129.04936594046399,37.171680972842495],[129.04858295249485,37.17247204063829],[129.04819289683633,37.17267431111242],[129.04776173304916,37.17263857036189],[129.04671218648068,37.17215294502943],[129.04506286695886,37.17170598082459],[129.04349064962636,37.1725772343085],[129.0424971667476,37.17290361044904],[129.04165099338042,37.173513091920135],[129.04157055600447,37.17392841044784],[129.04038830933573,37.17474076046861],[129.03845616803267,37.17464695806981],[129.03655071845,37.1758886451476],[129.03589561735143,37.175730723515414],[129.03556507315471,37.17544362264059],[129.0345047526824,37.1754951039275],[129.03413618237445,37.175087856856365],[129.03276617052052,37.17575519937502],[129.03200142413448,37.17514883874762],[129.031032621823,37.174852794187004],[129.03039577966453,37.17451803020672],[129.02895777557336,37.17459820910696],[129.02845796711156,37.17478201581311],[129.0272242165665,37.1749802370802],[129.026665829614,37.17615141687324],[129.0259960539339,37.17651088142095],[129.0259551110421,37.17718544245635],[129.02570141699573,37.177510588105115],[129.02517264532378,37.1778336200769],[129.0243309738997,37.17795522109437],[129.02314007116644,37.178798097819],[129.02196065855082,37.178750419999446],[129.02160450766993,37.179300004515355],[129.02125109586876,37.17962157871338],[129.01995458347378,37.1802066676004],[129.01926521864888,37.18029035881408],[129.0184960887917,37.18049708687335],[129.0165477214919,37.1814216772059],[129.0162928823512,37.182479583086625],[129.0154431861521,37.18447077208386],[129.01331298177874,37.18491033962743],[129.01227343119177,37.18548199086077],[129.01134090364366,37.1865323354562],[129.010802866154,37.188408337548665],[129.01012436665135,37.189116950830666],[129.01026260778528,37.189765315135446],[129.00997820563455,37.19032491125582],[129.00923268169194,37.19091206171088],[129.00896440932027,37.19152278597306],[129.00854645152856,37.19305348247148],[129.00826574388168,37.19375174004054],[129.0077473953209,37.194292221549546],[129.0070331403462,37.194588904624545],[129.0081436973362,37.19558642855031],[129.00804452247823,37.196607976879065],[129.009005806344,37.19850566668268],[129.00749125264343,37.199253236043106],[129.0071313441735,37.20096684383755],[129.00651010759125,37.200937850660374],[129.00590217590442,37.20053650424241],[129.00513779585668,37.20131623666206],[129.00429399858317,37.20117933005635],[129.00298252691044,37.20173276034654],[129.00214080273054,37.20249043792646],[129.00074871081358,37.20281934308122],[129.0008160011303,37.20287706051369],[129.00066956484096,37.20290782343665],[129.0011430890805,37.20350869043159],[129.0011736413066,37.20466968945076],[129.00134418088123,37.20590745904793],[129.00009143885492,37.207131825981975],[128.99955779611338,37.20751175710326],[128.99876004158054,37.20781159259628],[128.9997442125447,37.2084571100401],[129.00017249859374,37.20892451120665],[128.99992456807513,37.20939888167468],[129.0002711631352,37.210736969655954],[128.99989797070782,37.21190541269596],[128.99999183687382,37.212801696630954],[129.00039401353882,37.21349935376845],[129.00034327758888,37.21387833382922],[129.0011786009835,37.21502795164164],[129.00098387293482,37.216314851361695],[128.99998221999698,37.21792293000574],[129.001282714867,37.218423266646404],[129.00229953799962,37.21908763287154],[129.00373236783676,37.2196699747402],[129.004824340991,37.21969153074713],[129.00591504111685,37.21996594340896],[129.006410275441,37.220292745375566],[129.00770348797155,37.220419848287136],[129.00869604594703,37.22085287032907],[129.01048040849338,37.2208447749513],[129.00998332459883,37.22182218352418],[129.0091336578944,37.222431525176724],[129.00845608324744,37.22309471662683],[129.00821010804634,37.22369018758449],[129.00852015789775,37.223893569749336],[129.00820059866547,37.22407692095587],[129.00760267413415,37.22415271127429],[129.0075234096915,37.224311718977624],[129.00664056180372,37.2246121128205],[129.00596654316314,37.22514264839693],[129.00587434939123,37.22542661772255],[129.0054740735175,37.22577363119847],[129.00503711885398,37.22598136009935],[129.0047283285156,37.22627964625079],[129.00437908994144,37.22706238185705],[129.00603329912676,37.22761993170152],[129.00649304161584,37.22750472663481],[129.00733130440042,37.227996946857594],[129.00809427247555,37.229133343315674],[129.00762839211842,37.23002334834437],[129.00667316350732,37.23058316306127],[129.0054493048962,37.23075283919507],[129.0055272793197,37.23131283609174],[129.00647890947022,37.2318246823059],[129.00662758413955,37.2320200569267],[129.00710484291727,37.232280674729324],[129.00730982450506,37.23229088044528],[129.00737471987662,37.23250937146337],[129.00791914468914,37.2326391320731],[129.0074338560349,37.233511890363374],[129.0071970157399,37.233638952745984],[129.00673831826543,37.23373812195338],[129.0059323785133,37.23419026520374],[129.00548056612087,37.23468069920586],[129.00491253744312,37.2351307161149],[129.00425385555843,37.23527297162621],[129.00372445343768,37.23517471298458],[129.003462918175,37.235224386635096],[129.00209981491304,37.23509732540356],[129.0016341588014,37.23515490045289],[129.0013665671268,37.23562630433012],[129.00082288819723,37.23563641942254],[129.00069483562905,37.235730056844986],[128.99954861928612,37.23538731812476],[128.9992944279487,37.23543562231953],[128.99930242971988,37.23533012741246],[128.9978935622901,37.234572862427115],[128.99698331865423,37.23450128135949],[128.9967044942144,37.23479728595592],[128.99645383517134,37.235249883281185],[128.99618222805907,37.23535829750822],[128.99567653605044,37.23523908986721],[128.99398412777083,37.23533231043888],[128.9931860422553,37.23525649805339],[128.99274809367657,37.23574377643388],[128.99216542908928,37.236983390039555],[128.99218943879308,37.23868156605664],[128.9920336590457,37.238975666427855],[128.99103834426106,37.23960323630113],[128.9907786677893,37.24048217768348],[128.98997428148238,37.24079440562282],[128.98994636778892,37.241282139703785],[128.99065016035925,37.242634072111514],[128.9928736875281,37.24416319217413],[128.9928969154341,37.24429335858699],[128.99395290269047,37.24462309136265],[128.99544952628676,37.24462159075092],[128.99679116391957,37.243365532808554],[128.99850597532145,37.243157939042376],[128.99971503537606,37.243559480368106],[129.0000133555255,37.244186158015275],[129.00177031084442,37.24465950862036],[129.0018060298299,37.24474222411359],[129.00131340376842,37.245073157262325],[129.00110056120369,37.24546323988733],[129.00091865161366,37.24552199876174],[129.000770803275,37.245763768053564],[129.00109285226912,37.24622880426446],[129.0010109761703,37.24682562968128],[129.0008072286801,37.24667741892914],[129.0005264376327,37.24712598697534],[129.00089022312355,37.247225865756064],[129.00081064114354,37.24749740549916],[129.00163612350352,37.248393692600324],[129.00241285580915,37.2490010824935],[129.00228567049453,37.248991210087034],[129.00227673661652,37.249157191831976],[129.0015538996152,37.2494990139007],[129.00162409722518,37.25056300763674],[129.00315841225157,37.25100843712361],[129.00455535234025,37.25073080798305],[129.0061409294318,37.25072283620902],[129.00652990188516,37.25061587893281],[129.00706280630035,37.25092709366152],[129.00697920750875,37.25104568828932],[129.00721737330707,37.25179814851906],[129.00747056005957,37.25226338327974],[129.00734006241166,37.252358006258866],[129.00764392364658,37.253144980460156],[129.00793123684394,37.25336148646934],[129.00797732209293,37.253511946257284],[129.00774513744764,37.2544322925529],[129.00745679902528,37.25505641354737],[129.00704056544322,37.25537310309961],[129.0070246286004,37.25561148609759],[129.00728573389353,37.25596438049682],[129.00756853289525,37.25595039968715],[129.00761040960478,37.25587677112833],[129.00792259641977,37.25598999160761],[129.00819017896552,37.25669684070295],[129.0084149710704,37.25673423662441],[129.00841140275867,37.25665369510506],[129.00873924754475,37.25662131657706],[129.00866690758735,37.25623633313703],[129.00891471411646,37.25630602111864],[129.0089712786889,37.25595312926197],[129.0099216141374,37.255200270787725],[129.0101395622857,37.25510294940146],[129.01030310104534,37.25516503157745],[129.01044980350687,37.25547935713992],[129.0104794151543,37.25679048387996],[129.01029310684018,37.258428476157825],[129.0099294770089,37.25955853997696],[129.00831546356886,37.260763403434794],[129.00809318763672,37.26114659036861],[129.00659410563708,37.26261804559624],[129.00608361032167,37.26331989073386],[129.0051086587716,37.26373508578639],[129.0055946907263,37.26425431678458],[129.00648756624028,37.26683941544169],[129.00707499987882,37.26722230196156],[129.00744661645814,37.268648179769336],[129.00799016367165,37.26938572926288],[129.00794535312093,37.270409920499304],[129.01025585709377,37.26995885932605],[129.0108788793822,37.27039993449562],[129.0110492845778,37.27063472899248],[129.0112024437886,37.271688190864765],[129.0121701064198,37.27255209942361],[129.0126841392085,37.272727894328746],[129.013468988995,37.2734696112807],[129.01513013495335,37.27417612049763],[129.01494918323655,37.27467812752023],[129.0143788279174,37.27485556370179],[129.01406774483408,37.27520532649989],[129.0134483539138,37.27652511267505],[129.01325054734957,37.277344876210464],[129.01326719861328,37.2778149538395],[129.01415611417647,37.27869144214025],[129.01319412609234,37.27890340884509],[129.01201939387022,37.27937052653226],[129.0112321698163,37.27993166402521],[129.01052246780665,37.280502766927754],[129.010097572471,37.28114030199538],[129.00962466898778,37.28138479097591],[129.00931883671853,37.281897854144894],[129.00926949107594,37.28229964836158],[129.00864274781486,37.28223812823289],[129.00763188248587,37.28238770095449],[129.00603389458362,37.28280711478114],[129.00666729882553,37.28344794970503],[129.0064363121778,37.28434965726209],[129.00591884252714,37.285348089015834],[129.00575688294828,37.2865219649047],[129.0050484290718,37.28696662073569],[129.00385453379383,37.28837330018228],[129.00458686070843,37.28932603951235],[129.00534387346787,37.290101477716775],[129.005354395249,37.290818554611405],[129.00561007850305,37.29214593840179],[129.0061707456727,37.292385517797285],[129.00627739173123,37.29295472685724],[129.00744730379893,37.29369584656064],[129.00829649366227,37.295165010854326],[129.0088818495666,37.29525043953121],[129.01010649705043,37.29582939258886],[129.01200069839055,37.29757342643716],[129.0119540473413,37.29786016069773],[129.0126309161552,37.29879157977448],[129.01366138349482,37.29985172922699],[129.01590763033244,37.300798465880156],[129.01622310379216,37.30109158294959],[129.01748924173083,37.30270226726004],[129.01830049965002,37.30353121411694],[129.0180745279155,37.30398584835211],[129.01801213668566,37.30470222909701],[129.0177333540101,37.3051705803569],[129.01591150041125,37.30521711119677],[129.0155095319447,37.30600863889637],[129.01438891169772,37.30761656598885],[129.01309572538204,37.30793950996818],[129.01256406208918,37.30884628398815],[129.01210393195404,37.31011623888262],[129.01101822753415,37.31167041416477],[129.00947535873564,37.311482978085415],[129.00910290406077,37.312172040374406],[129.00832214475668,37.312155729577015],[129.0068718054558,37.31305165644095],[129.00637127696157,37.312996743809364],[129.00614015215086,37.31401392527958],[129.0058413471061,37.31441911445626],[129.00507630628076,37.314681302231214],[129.00390188525202,37.31598442126837],[129.00329488703284,37.31653092448836],[129.003046952919,37.31756599805267],[129.00280157058575,37.31792391478451],[129.00166513226128,37.318480988695974],[129.0007052778518,37.318557167695424],[128.9984372529486,37.31899082913009],[128.99831102081143,37.319258555547776],[128.99942581317055,37.321517969458284],[128.99924571698844,37.322776072478916],[128.99872746939792,37.32399559855278],[128.99799588679227,37.32456242110065],[128.99823054815442,37.32487913725097],[128.99857082585703,37.32499654477843],[128.99972209413107,37.32582947682985],[129.0006108242111,37.32624143958513],[129.0026821364888,37.32748512362858],[129.004262994495,37.32755942879091],[129.00438480390028,37.32918389241827],[129.00524722284598,37.330127594182514],[129.00560439898038,37.33110718575621],[129.00648855830585,37.33210499422663],[129.00854124497064,37.332027673514105],[129.00880404638565,37.33385929446949],[129.01134905772318,37.33448414790129],[129.01243072292291,37.33589638127377],[129.01246901520864,37.33629462756993]]]}}
