{"type":"Feature","bbox":[126.99799022715749,35.8016511928583,127.23428937478553,35.90310765875126],"properties":{"regionCode":"52113","version":"vworld-20260909-3f8952dfda77-p3","name":"전북특별자치도 전주시 덕진구","attribution":"국토교통부/K-Geo플랫폼 · VWorld 법정구역정보, CC BY 2.0 KR; 두꺼비집 가공"},"geometry":{"type":"Polygon","coordinates":[[[127.12517761459819,35.90144002503825],[127.12327161885582,35.901509068098875],[127.12250533271043,35.901621535050246],[127.12173319725196,35.902388049260736],[127.12126024313311,35.90310765875126],[127.12002099693352,35.90297169435216],[127.11879828029674,35.90273632015454],[127.1176657512143,35.90231067234632],[127.11681556909785,35.9017626569791],[127.1165073131373,35.90142173806802],[127.11596468067484,35.90051314924843],[127.11506230061752,35.8997331423948],[127.11274343704609,35.89871122966468],[127.11156947161594,35.89827170438412],[127.11016522469963,35.897880058243395],[127.10506056025075,35.897757568672084],[127.1042011314865,35.89760512192725],[127.10331566220862,35.897165997673994],[127.1015307384959,35.89584499600701],[127.10049111619814,35.8952496757446],[127.09989191417674,35.8946493824761],[127.09925087364142,35.89439006101735],[127.09801344699858,35.89444374905889],[127.09679876904603,35.8946967838875],[127.095116568717,35.894566672726924],[127.09187536835046,35.89425395552059],[127.09127396815447,35.893613441879786],[127.0902618853406,35.893267892624806],[127.08941049729462,35.893143136966216],[127.0880762843317,35.89337507686937],[127.08673978950168,35.89337257456526],[127.08650529727508,35.89292511960593],[127.08657544524524,35.892318865256435],[127.0868164425323,35.891749944424674],[127.08524902308763,35.8917694099727],[127.08387123219,35.89189667317298],[127.08318420323803,35.89227295784252],[127.08259331562597,35.89295241755111],[127.08159562824703,35.89497551470781],[127.08124851014301,35.896373456804454],[127.08101794183199,35.896848060373266],[127.08008783844706,35.89767669959223],[127.07852265953628,35.897773814611455],[127.07694399317144,35.897553624903416],[127.07432710545605,35.89762995269001],[127.0734412082758,35.89785686938161],[127.07300236648712,35.8978747249882],[127.0718015645848,35.89843998241415],[127.07073520384135,35.899254512528096],[127.06843266364746,35.89858933168687],[127.06726310338513,35.898568611180174],[127.06532415650959,35.899044613071084],[127.06378136859094,35.89970234703848],[127.06297047982987,35.89993915268268],[127.06205156658429,35.90014176331789],[127.06110111542425,35.900061792637864],[127.06041919619162,35.89959299401206],[127.05999945476192,35.89917782750806],[127.05978012758094,35.89864060164663],[127.05966767250352,35.897802600823454],[127.05893011814288,35.89544557551558],[127.05825572430419,35.89475649738076],[127.05751819000203,35.894198651691674],[127.05618450834656,35.89333276577774],[127.05518879419954,35.892978384253524],[127.05463083178853,35.89267996983927],[127.05368410597532,35.89243303912327],[127.05174080842443,35.89223198092503],[127.0503744824887,35.89218794247147],[127.04957338383952,35.89225145193127],[127.04843130759156,35.89259850312844],[127.04776658820957,35.892917631319754],[127.0469996701091,35.89344475393548],[127.04635211987902,35.89399955267849],[127.04510794129429,35.8953513797996],[127.04428635918768,35.89600172669613],[127.04359588739649,35.89688971337785],[127.04324763366537,35.897828881697414],[127.04257113120067,35.898253214826504],[127.04041422168076,35.898393140944854],[127.04003630396824,35.898204497490184],[127.03957099695307,35.897810658853594],[127.03918732974417,35.89632326006745],[127.03878413471274,35.89639066406222],[127.03783329198082,35.89420622361006],[127.03715268200847,35.892960323429314],[127.03754044217708,35.89260112703943],[127.0372692049166,35.89237629135012],[127.03712271396624,35.89180661262798],[127.03707576083366,35.892618386801885],[127.03403174828526,35.89254408751813],[127.03325094222826,35.89306373725945],[127.03266321613424,35.89366918493556],[127.03183143720857,35.894791687869535],[127.02899391456354,35.89781153941773],[127.02849449372798,35.89807516584669],[127.02749579752015,35.8979591177206],[127.02674038188447,35.897817170588084],[127.02569215856904,35.897338726911116],[127.02474682166012,35.89673732615107],[127.0240005294565,35.896008164056],[127.02355390199514,35.895345579537285],[127.02295535048532,35.895008334725794],[127.02131865997792,35.89495481485525],[127.02050533998703,35.89538532490736],[127.01979717174395,35.89588660714197],[127.01940849440896,35.89559904322056],[127.0194625230741,35.89485806290992],[127.01937400119945,35.89431458647809],[127.01954272375507,35.89420658266184],[127.01770457411382,35.894726846917365],[127.01653930321672,35.89523835397845],[127.01521013940788,35.895593405225654],[127.01339702020842,35.89553583012926],[127.00753385599656,35.894638937439936],[127.00070977561757,35.89320934035955],[127.00054248981628,35.89274282608453],[127.00067933105333,35.89196391694759],[127.00094571715786,35.89128674328369],[127.0013895907299,35.8906067544956],[127.00159701945957,35.89002179442696],[127.00156454627003,35.88930549513667],[126.99993475638585,35.88759382128785],[126.99912720811582,35.88655583732017],[126.99830361524774,35.885112888131104],[126.99799022715749,35.88418945383438],[126.99939036986265,35.88365180519666],[126.99953453437331,35.88339678220997],[126.99944053169459,35.88301612039067],[126.99906442579854,35.882518282302094],[126.99899741297594,35.882203969688135],[126.99913892163772,35.882015805998165],[126.99995299020293,35.88205690630795],[127.00020500022295,35.88200963113581],[127.000803054788,35.88157008637177],[127.00190572019622,35.880541361781],[127.00263357938334,35.88038755859055],[127.00309083267229,35.88040549954148],[127.00336504493087,35.880174694741505],[127.00339732813487,35.87979179892144],[127.00316997302987,35.87942558921],[127.00357747765246,35.87930559200696],[127.00390391241662,35.87907941776972],[127.00420389506846,35.87906260444285],[127.00523737939999,35.8777649792965],[127.00511102269706,35.876186773756075],[127.00540821482487,35.87598531031356],[127.00633987433315,35.875929218522224],[127.00659930287502,35.87571247523353],[127.0066676171108,35.87538635583342],[127.00743053657825,35.87542727273338],[127.0074775726951,35.874342044104466],[127.00754636158678,35.87422806960097],[127.00747970468608,35.8742839517573],[127.00750524381806,35.87375834265892],[127.00743049213949,35.873655244426075],[127.00748131722646,35.87217845756993],[127.00720153187666,35.86875142290617],[127.0072911930062,35.86839568787549],[127.00777371960822,35.86741303160762],[127.0084639127742,35.86661456961466],[127.00887791648222,35.86625958820953],[127.00881515041253,35.86615863505423],[127.00839053392427,35.866455415756846],[127.00789720809587,35.86695320921],[127.00729478426013,35.867801594432336],[127.00704544561384,35.867427100241635],[127.00700972957425,35.86596332773425],[127.00754641376786,35.86592491336379],[127.00752009034682,35.86567302711021],[127.0080357348989,35.86563566752912],[127.00793279869848,35.86466631898273],[127.01099082075407,35.86446800087157],[127.0108993346754,35.86354932985719],[127.01314804536804,35.86340401306598],[127.0131033783171,35.86281638428385],[127.01414944810739,35.86167831993131],[127.01470275163047,35.86150273259216],[127.015142254363,35.860890339075794],[127.01503238801224,35.860805002314315],[127.01394849173808,35.86071336314359],[127.01399396732431,35.86012323915901],[127.01285590818678,35.86047035718594],[127.0126462575217,35.86007729249654],[127.01354119754518,35.85985653503175],[127.01595171907489,35.858564570664015],[127.01609001769656,35.85886327426757],[127.01637680487715,35.85896699562856],[127.01642505960054,35.85906389425441],[127.01613601367252,35.859089391022934],[127.01614804568953,35.859303435528055],[127.01631764936299,35.85961509294787],[127.01633219929882,35.85991794846783],[127.01660283134362,35.860300550114474],[127.01678236320521,35.86052399946665],[127.0170816617305,35.86041555862703],[127.01740655518155,35.86061743157564],[127.0174520358217,35.860778406533115],[127.01734583526276,35.86076033192662],[127.01732076535632,35.86085438224163],[127.01762318035145,35.86127655807586],[127.01839417686278,35.862005336879356],[127.01861339746843,35.8618668272857],[127.01914642735309,35.86265700073495],[127.0195654564172,35.862942778254755],[127.0201376461452,35.86319128250902],[127.02148036436331,35.86354246299874],[127.02273106052941,35.86374570629975],[127.02277228039377,35.86445172756311],[127.02301137099263,35.86507407756452],[127.02402844313124,35.8669335174071],[127.02412633366285,35.86685434129564],[127.02554451048361,35.86687068492561],[127.02607808679299,35.86706121733816],[127.02693772751465,35.86753378784968],[127.02698065971539,35.86644325861556],[127.0274545776169,35.86564346345485],[127.02742656949286,35.865593476501424],[127.02712580012886,35.86608504535926],[127.02695646940047,35.866036027477634],[127.02638697686052,35.86425039470306],[127.02656749451971,35.86355228645348],[127.02758891243856,35.86300413697566],[127.02733475874507,35.86238939654333],[127.02754150158516,35.862259202847845],[127.02805213438873,35.861685031574964],[127.02828827754664,35.861547539052424],[127.02823629836581,35.860463788876714],[127.02803494585473,35.86041508675406],[127.027919368342,35.85959985873011],[127.02757464208642,35.85862002510015],[127.02735307697878,35.85841840030736],[127.02734037039781,35.85809053808538],[127.02722023118028,35.85782967255505],[127.0269612800527,35.857625574666294],[127.02686552544624,35.85740883200062],[127.02692273595272,35.856838097119],[127.02784665420211,35.856132264541976],[127.02841971344846,35.85616991034376],[127.02948413544375,35.85606729345217],[127.0297983451507,35.855475648677995],[127.02945428972916,35.854698979606674],[127.0295420493216,35.85416202877401],[127.03152136746965,35.852365637794094],[127.03162902686007,35.85201945176773],[127.03207327287217,35.85184316116117],[127.03392312097166,35.85043624714784],[127.0343546749976,35.85031339836666],[127.03596354372371,35.85065257602552],[127.03606586884258,35.850738559843876],[127.03668948637846,35.85063029186459],[127.0374640867185,35.85092238373361],[127.03774469965221,35.850841574172456],[127.03785714779966,35.85105754320837],[127.03902074695633,35.85169094453529],[127.04035645046503,35.85180297766029],[127.04100727377792,35.85210484608351],[127.04108708198208,35.85224436903349],[127.0424286461682,35.85210218878079],[127.04297245812444,35.85218531385084],[127.04339318037734,35.85232764528188],[127.04426828457885,35.85284120349556],[127.04509786102294,35.85320189213889],[127.04805944674129,35.8531702018981],[127.04951793189223,35.85237252479775],[127.05028654998785,35.85090713180106],[127.05058160023658,35.850567999460424],[127.05131562700038,35.84877474790605],[127.05162822831048,35.84844212937534],[127.05171647939247,35.84807648402334],[127.05330914383427,35.84596103785354],[127.05357429182494,35.845273450883916],[127.05356319171511,35.84432437320237],[127.05372233014056,35.84380145393283],[127.05429336564991,35.842823565357016],[127.05499626342481,35.841318523135165],[127.05608765741928,35.83958756385611],[127.05859272348827,35.83958608360582],[127.058602276914,35.833894444556016],[127.05834156101989,35.83394499577276],[127.05736311344239,35.83336747208547],[127.05606093408416,35.83329481568222],[127.05490647387336,35.8327387130027],[127.0539554016412,35.83304839764207],[127.05338420010222,35.83311798868913],[127.05189934751849,35.83225294884047],[127.05178341074992,35.83266498005859],[127.05167124272839,35.83270365373072],[127.05077515044567,35.831274599365905],[127.05086274394432,35.83121398143534],[127.0499675503744,35.82962457621444],[127.05043037209855,35.829767536682034],[127.05029333154326,35.82935613811542],[127.05007916271221,35.82917179737446],[127.05139015854351,35.82844239124293],[127.05188127563149,35.82829958139972],[127.0538079681063,35.82729932101487],[127.05530633036284,35.82621227015585],[127.05613107442008,35.82534640633923],[127.05613193400248,35.82521270404307],[127.05588956557419,35.82519422191272],[127.05597516318844,35.824819604547365],[127.0577884202255,35.82519627134848],[127.0577772477322,35.8253548869387],[127.05796462494716,35.825362913512066],[127.06556360727198,35.82487170201499],[127.06753927216901,35.82496995081051],[127.06764999321115,35.82474312020982],[127.07116772999477,35.82496187682734],[127.07114272863716,35.825237439484084],[127.07223199616062,35.82532881355365],[127.07222916925842,35.82599715814707],[127.07280179862506,35.82626754894383],[127.07294664474999,35.82614949440214],[127.07485060188603,35.826870467408995],[127.07645886439751,35.826977364062486],[127.07727688034899,35.827369473615654],[127.07751920324446,35.82772192028033],[127.07782273215811,35.82917606062298],[127.07819700892504,35.82928032352143],[127.07870525997163,35.82981325047079],[127.07946240018413,35.83035936238592],[127.08134065267022,35.830340220129045],[127.08276351067433,35.830788153605496],[127.08330384992908,35.83106107268802],[127.08367116376589,35.83223092158581],[127.08424720541537,35.83229620700462],[127.08455555036532,35.832481103847726],[127.08491875899,35.83249876002487],[127.08565490888782,35.832828401458684],[127.08632675207862,35.83328473157935],[127.08641914176765,35.83346816695287],[127.08638707645552,35.834369839867726],[127.08675127796046,35.83521368595459],[127.08681459988573,35.83603295209963],[127.08742439016383,35.83674906573542],[127.08765658591705,35.83698343322583],[127.08801261242782,35.83712350332827],[127.08847160145442,35.83747248667217],[127.08871372452222,35.83745737684254],[127.08893984107439,35.83755127791861],[127.08946487678125,35.837906176128925],[127.09010623549061,35.838212978375246],[127.09089217091044,35.83800364698381],[127.09119927242796,35.83802468976394],[127.0918194069968,35.8381137986345],[127.09208380415735,35.83832557608151],[127.0923553663136,35.83838507883804],[127.09478266920698,35.83851510632807],[127.09492584007845,35.838592627190565],[127.0952670726815,35.8386072875272],[127.09572893930343,35.83826656690326],[127.09842160954041,35.83899063590031],[127.09903294331275,35.83949832078206],[127.09999016119687,35.83919898576185],[127.10020670004093,35.83925851484218],[127.10042680461962,35.839225539213444],[127.10169358520574,35.8385238257111],[127.10193279799894,35.839035121709436],[127.1024425081114,35.83953203362966],[127.10276613929624,35.84015855451206],[127.10308221963794,35.840163081811674],[127.1036161651445,35.8399722770378],[127.1038285410749,35.84041436763217],[127.10327981319656,35.84150394913424],[127.10319639756129,35.841858620102585],[127.10344556129276,35.84236527808224],[127.10372842200846,35.84237842167921],[127.10423012467142,35.843318809204156],[127.1044109833704,35.84329323003238],[127.10538128691292,35.84215198787991],[127.1059572986149,35.842042700284374],[127.10674763734848,35.841693044003],[127.10759261664121,35.840861070665305],[127.10822327258562,35.840090652607884],[127.10833416204696,35.83984644103503],[127.11044780987463,35.838949836349755],[127.11246460606918,35.8382990960075],[127.11359486146081,35.83785448623769],[127.1143551437707,35.83784184346241],[127.1152306249514,35.83843385058657],[127.11719355774484,35.8385862345146],[127.11782250111997,35.838536689287004],[127.11822441896605,35.83840345520554],[127.11847743920647,35.83825243260302],[127.119124494138,35.83750331018542],[127.11973177504319,35.83658767109653],[127.12499441817754,35.833302092844974],[127.12616611901107,35.83286630574317],[127.12682632472138,35.83226434132336],[127.12695484706659,35.83150178401922],[127.1271853046755,35.83080203536974],[127.12754884979348,35.83007198970935],[127.12847331440776,35.829025123348906],[127.12876564341083,35.82843832204104],[127.12845998665775,35.82835576886412],[127.12848448116031,35.82823267505846],[127.12832359266636,35.8279766538478],[127.12826447990584,35.827675329154054],[127.1280779337888,35.82749824842549],[127.12739554130698,35.827265390160235],[127.12722556766278,35.82711236135548],[127.12705487076482,35.826766676704075],[127.12708180537476,35.82623167192739],[127.1266830235535,35.825797585094335],[127.1265633274936,35.825501387215354],[127.12671638455971,35.824780054303595],[127.12734947859542,35.82406148250575],[127.12742608916166,35.823850462621685],[127.1276182736187,35.82374313667814],[127.12786388439321,35.822846105225764],[127.12756518475936,35.82225067313798],[127.12737736121824,35.82130533536599],[127.12716616530398,35.820924092440976],[127.12749963311724,35.82039742166022],[127.12789683315046,35.82012099582543],[127.12836212740815,35.819870010014604],[127.12897216145406,35.819698847465915],[127.12955258251898,35.81927963183321],[127.13009069361019,35.81948340055696],[127.13098529951417,35.819286325163745],[127.13142108266663,35.81906558882717],[127.13135786699671,35.81878879188984],[127.13195324619139,35.81833896089002],[127.13208236973271,35.81805535799391],[127.13263516899434,35.818095962433205],[127.13271626413832,35.817905594212476],[127.13292658839671,35.817752093695965],[127.13299965663275,35.817526412409876],[127.13400427126749,35.81775109259444],[127.13520180731234,35.81856228137607],[127.13525897036168,35.81884403309038],[127.13547622580636,35.81918903363846],[127.13523288568095,35.82028683488898],[127.13557123341096,35.82054960469138],[127.13282853913383,35.822703087467985],[127.13202355308107,35.82358144336426],[127.13177783143387,35.82397663239009],[127.13201063905383,35.82408152877914],[127.13306707844097,35.82367452271531],[127.13235331038412,35.824492516470265],[127.13325814076595,35.82461367172828],[127.13315099882902,35.82513825595121],[127.13693843615647,35.825640469712006],[127.13671751945819,35.826784363448255],[127.13786398900297,35.82722663002335],[127.13814958040602,35.8271884249932],[127.13997914583513,35.82754380332423],[127.14343637759383,35.82837241931679],[127.1436397010318,35.82836772714532],[127.14382833778349,35.828485297848644],[127.14605805632486,35.82889893483572],[127.14620845857473,35.82923467643031],[127.14652038500842,35.830567963251895],[127.14736052423429,35.83045974539225],[127.14778352462027,35.830213503376115],[127.14900783989798,35.83012166623809],[127.14934184160181,35.82973112041434],[127.15007328056504,35.82988706314367],[127.15070661038368,35.829639254579924],[127.15131233736699,35.82951162356811],[127.15146624971182,35.829513063568704],[127.1518347893781,35.8297271291872],[127.15203095400034,35.82975025206967],[127.15399519705363,35.82945920317248],[127.15417323977277,35.82867187004132],[127.15434672702378,35.82869578132711],[127.15493414241203,35.82846121181589],[127.15563556943434,35.82833221075383],[127.15601916857267,35.828702033696395],[127.15600241058978,35.82884345273901],[127.15609061939672,35.82884514955498],[127.15612908487637,35.82916877079335],[127.15600066862652,35.829462831992245],[127.15672964878956,35.829413502518946],[127.1571967967967,35.82902563927174],[127.1577079966956,35.82880768457458],[127.15810468587365,35.82834780160886],[127.15846176537626,35.82768216433286],[127.15866273865602,35.82763156858061],[127.15922619921798,35.82720237292988],[127.15987215716689,35.826513417336166],[127.15981796991515,35.826474164527234],[127.15996978099847,35.82630452236426],[127.16025941207967,35.82611325489406],[127.16065090901134,35.82619028229225],[127.16088017352328,35.82562182869197],[127.16124014102462,35.82527671079931],[127.16158434300705,35.82474217113305],[127.16195571612832,35.824460033959454],[127.1617434471424,35.8242865546489],[127.16170901506032,35.823342536183915],[127.16210673667467,35.82334390192701],[127.16283893478966,35.82364519893942],[127.16291634634715,35.82389221720257],[127.16366607703338,35.82298337684247],[127.1641985428956,35.82291040289936],[127.16474183453225,35.82253211364481],[127.16484505603866,35.82200604694457],[127.16595361501682,35.82053464461363],[127.16701881614671,35.81953498345176],[127.16938685091607,35.81768878452971],[127.16942600178182,35.81651784747881],[127.16954921503547,35.81602031859064],[127.16968826966581,35.81591936438671],[127.16954791356318,35.81540314348915],[127.17005746490511,35.814885999489135],[127.17089066499653,35.81375122103843],[127.17127728995465,35.813649916429476],[127.17186370936149,35.812905940148376],[127.17237366146762,35.81259032579021],[127.17204132781602,35.81189016256844],[127.17228500012502,35.81171678414746],[127.17363670568388,35.8112028893091],[127.17382620658069,35.81103840027714],[127.17390846219527,35.810661557665355],[127.17387106297451,35.809830880002394],[127.17529788731069,35.8092925521853],[127.17533229210981,35.808741896823726],[127.17548574791991,35.80837460222701],[127.17573431071258,35.808084454018214],[127.17617278406665,35.807823001574434],[127.1767658375039,35.807706229447824],[127.17706140379133,35.80721315303453],[127.17809376904526,35.807221300801366],[127.17855555364721,35.80677626747673],[127.17919608268994,35.806669073634886],[127.17972860009247,35.80602108426914],[127.18018766560101,35.80510947729768],[127.18183150446563,35.80492216633948],[127.18278913583372,35.80549358078155],[127.18341928117502,35.80562379735578],[127.18438578774519,35.80552693410956],[127.1850590640666,35.80531127421731],[127.18566010760813,35.80552498924305],[127.18634946434719,35.80592935009362],[127.18699356160313,35.805761419730025],[127.18715422283151,35.805558461429776],[127.18740305480122,35.805486533729606],[127.18767807477441,35.80585028014174],[127.18832489862505,35.80620518075959],[127.18831312343185,35.80674701621371],[127.18859020662359,35.80734938295682],[127.19080193619457,35.80911767766077],[127.19129462938325,35.809751364601794],[127.1918555846542,35.80982256201372],[127.19305296565183,35.80954554268537],[127.19366880772895,35.80993698435878],[127.1947317928711,35.81012349052461],[127.19503151729602,35.809982852146945],[127.19559703921921,35.80990985678924],[127.1963232621414,35.81021002655767],[127.19692350041656,35.81025309511496],[127.19784417951367,35.81057594904795],[127.19806313170679,35.810880602606154],[127.19850042597146,35.81067166078367],[127.19989729512571,35.81059727953366],[127.20024382829709,35.81044807322413],[127.20076744349645,35.809922659951575],[127.20147872819521,35.80959685292958],[127.20189015232538,35.80959102245434],[127.20244997306474,35.80944580697839],[127.2037075795061,35.80905183092624],[127.20399185543003,35.808829780751],[127.20474853709732,35.80862635989379],[127.20477576918677,35.80813680684038],[127.20511738045391,35.80806151430136],[127.20543034487845,35.80754940428646],[127.20731652802269,35.805765291231],[127.20964262243464,35.805129991567625],[127.21078730750642,35.805290645993054],[127.21128614475745,35.80504580546655],[127.21232108306577,35.80491092634412],[127.21287143484476,35.8049528239136],[127.2135977838791,35.80488501266628],[127.2139392855182,35.80353886268802],[127.21518215316303,35.80306350021028],[127.21531898258498,35.80263746055004],[127.21551838675086,35.802496635974144],[127.21627186852469,35.80239918231941],[127.2168059561434,35.80176981646497],[127.21701155436354,35.8016511928583],[127.21779698357942,35.80229086352787],[127.21866273011666,35.80235152670972],[127.21946906790504,35.80299086929219],[127.21989508360639,35.80320839758518],[127.22044053813681,35.80323444458261],[127.22047355166134,35.80348080351567],[127.22103632697755,35.803886180915725],[127.22118689497336,35.80416138379017],[127.22219447234049,35.804524104746086],[127.22235875416227,35.80466391984383],[127.22265889789807,35.80507433236423],[127.22391650984234,35.806364933683525],[127.22414476803273,35.80676114449022],[127.22478590492587,35.807178228329924],[127.22577703433001,35.8074879384084],[127.22604808389728,35.80820029703611],[127.2280589202622,35.808488674363375],[127.22818727222399,35.80943001781736],[127.22814564358818,35.81170243809708],[127.22823917302561,35.81265556215357],[127.22846890578187,35.81272773477265],[127.22868704256187,35.81315010940755],[127.2290447690395,35.81348754662403],[127.22997608587549,35.813904493421575],[127.22992219910596,35.815001763695314],[127.23016585728827,35.815489934402606],[127.23011885606526,35.81600076283361],[127.22997963091166,35.81628113676707],[127.23013755971078,35.81671967456725],[127.23016662356517,35.81723881526721],[127.23024896400015,35.817374755901675],[127.23072309305884,35.81769411197604],[127.23071004988805,35.81909594637623],[127.23095627743437,35.81975949112866],[127.23214650341818,35.820390298621746],[127.23264073061492,35.82031614082656],[127.23307463268746,35.82075060142026],[127.23385304410054,35.82081351127447],[127.23428937478553,35.821205658096424],[127.23412164014661,35.821608103164856],[127.23416386070961,35.82207193392178],[127.23195198834607,35.82192516212329],[127.23155624797963,35.82204838309416],[127.23108900913962,35.821857605810365],[127.2306772154876,35.821828776970726],[127.23021096138035,35.82184756607575],[127.22909806596192,35.82206971831708],[127.22800930355307,35.82189893293374],[127.22698761283701,35.82218857052719],[127.2266180337998,35.82208820544004],[127.22518358829421,35.82124027166564],[127.22466589833408,35.82130665602173],[127.22324804039528,35.82075681204082],[127.22292576125,35.820523134773225],[127.22266910806766,35.82050125840353],[127.22185859885887,35.82002752475274],[127.22168080581582,35.81999122341263],[127.22105252907421,35.82015389401668],[127.21918595754846,35.81976139592789],[127.21877498118141,35.82003529970663],[127.21875130368264,35.8201578337075],[127.2183528641822,35.8205304636661],[127.21681497983735,35.820936177736],[127.2164960378584,35.820898932033934],[127.21614152564575,35.82105303118996],[127.21563991754624,35.821105290793625],[127.21433812514707,35.82212101499668],[127.2138228863677,35.82222739025758],[127.21324254879285,35.82288174098431],[127.21274148562635,35.823947228269446],[127.21216325699312,35.82459871325119],[127.21144327185415,35.82500030915234],[127.2107904814371,35.8250958173398],[127.21060340868307,35.825330469132844],[127.21028319282968,35.82553919835833],[127.20963667387772,35.82631343005871],[127.20915071902216,35.82778439332512],[127.20881569156498,35.827920068867385],[127.20823441110635,35.82843009761808],[127.20795235705039,35.828732924666305],[127.20777960068762,35.82917740559787],[127.20798687627226,35.829532385257416],[127.20883857429097,35.8304919770404],[127.20862506288499,35.83160755400968],[127.20917702305681,35.83176349999752],[127.20928668521064,35.832173037665775],[127.20993681799136,35.83288745940771],[127.20965759616985,35.83448905289875],[127.20980454686291,35.83512244115093],[127.20952498211982,35.83551536514163],[127.21006117106614,35.836159965223835],[127.21010453613455,35.836637587879466],[127.20984933754318,35.83717394164156],[127.20980832256217,35.83747185079024],[127.21010222170315,35.8382902979916],[127.21034028574527,35.83868550532963],[127.21001305227531,35.83938448840729],[127.20987187162885,35.84000052134075],[127.21012333293683,35.84086581729336],[127.20986179213095,35.84128912806455],[127.20946651006517,35.84148931338514],[127.20919694371754,35.84189795652214],[127.2088184428454,35.84214756171272],[127.20851093555007,35.84255082515057],[127.20803290575944,35.842884839844444],[127.20803273174675,35.843718522485595],[127.20779355125376,35.844051549208494],[127.20650164001506,35.844325016973976],[127.20590881430871,35.84453801021714],[127.20558214403385,35.84454734445757],[127.20494635955356,35.844956445026604],[127.20485460014905,35.845106035474004],[127.20489748446937,35.845809343725946],[127.20474697001772,35.84605918987203],[127.20403760213956,35.84652097079482],[127.2039029152365,35.84674154426721],[127.20413557444412,35.84720305287305],[127.2039394603097,35.84783233790726],[127.20310866591525,35.84820082152465],[127.20256245677987,35.849213595533215],[127.20217308450817,35.84926492376726],[127.20183088115019,35.849471979920565],[127.20173478977836,35.84970221090535],[127.20125785174169,35.84982471842382],[127.20125524986753,35.85010711160933],[127.20145656164308,35.8505505690278],[127.20138682415595,35.851147041745435],[127.20153385381353,35.85147167032493],[127.20150481132089,35.851694588687174],[127.20102124334191,35.85267864546412],[127.20061522338915,35.85287576390714],[127.20040254867982,35.853158341994174],[127.20007021679142,35.85324285956083],[127.1995245367465,35.85357313097192],[127.19845348926592,35.85351147157622],[127.19839632733228,35.853563531473796],[127.19827140150852,35.85394088166228],[127.19843666345872,35.85395097444886],[127.19846388592832,35.85418782151849],[127.19811845016035,35.85419148023723],[127.19811970528635,35.854480039023215],[127.19800239273195,35.854615364759354],[127.19817261485878,35.85505514634478],[127.19808462865919,35.85560316864255],[127.1981594251107,35.856030850557346],[127.19842853918773,35.85615856795644],[127.19888023127358,35.85619133476043],[127.1994162343097,35.85643618875893],[127.20015171431018,35.85653034339528],[127.20045265350687,35.85668080491104],[127.20045259791095,35.85684043338755],[127.20008398835212,35.857490824851],[127.19881889041986,35.85771556348433],[127.1980765236261,35.85800101516818],[127.1970488251738,35.85926023840814],[127.1965355885996,35.860314631127466],[127.19554479856201,35.860771851691545],[127.19455324315432,35.860754099562605],[127.19334641380031,35.86015235189311],[127.19211332554377,35.859892298636],[127.1923101094733,35.859669706211754],[127.19170933765912,35.85951166448327],[127.1909994268317,35.859455897418506],[127.1900774618583,35.85926578022574],[127.189357624011,35.85886281417633],[127.18877671192764,35.858015873341515],[127.18760441460068,35.856876903195094],[127.18793969561746,35.85605867276456],[127.18754270017479,35.85544373531561],[127.18667792240126,35.855222849710714],[127.18588993874084,35.85462708447409],[127.18549435543372,35.85442201850304],[127.184671134608,35.854207814401704],[127.18380800391694,35.85441763416817],[127.18346791219862,35.8546674048895],[127.1824274669926,35.855071365793634],[127.18131226572437,35.85505175133852],[127.18051135238385,35.8546631683364],[127.1795626841478,35.853738500529126],[127.17869331137439,35.85343084623039],[127.1785551525456,35.85349556948686],[127.17842584948792,35.853399993445954],[127.17792966356977,35.8533307172131],[127.1769151587636,35.853494981204065],[127.17615616977857,35.85349857127533],[127.1760592324251,35.85349723164666],[127.17610275693998,35.85331173233016],[127.17587385544427,35.85331306617361],[127.17512709505166,35.8534930578565],[127.17421041373952,35.85359125258923],[127.17425663362658,35.85390317059264],[127.17239609252753,35.85408610915866],[127.1711807894281,35.853984098205316],[127.17004299905926,35.853744553135265],[127.16840444317114,35.85363531120315],[127.16811014216056,35.85438314194219],[127.16811694057795,35.85505053445117],[127.16783916601715,35.85707509598757],[127.1673239716806,35.85849469794697],[127.16655674824548,35.85992681754996],[127.1645847054913,35.86252703304016],[127.16277516121212,35.86526357237535],[127.16135238412282,35.86887045939245],[127.16055888289274,35.8706391460169],[127.1585772076154,35.872478899798054],[127.15798992777957,35.87318854155959],[127.15757781502818,35.873893480195484],[127.15635632648853,35.87560057367062],[127.15498557368005,35.876918727215205],[127.15318893428763,35.87830976063791],[127.15205636919272,35.8786342260651],[127.15129943552755,35.8791266430627],[127.15113612760499,35.87969856599875],[127.15055577409811,35.88430859652251],[127.14990653411444,35.886910046453536],[127.14948374038944,35.887729016128624],[127.14857264475965,35.888481536244676],[127.1476478424707,35.88913832709387],[127.14653259276136,35.88946441306397],[127.14585087169989,35.88990431334054],[127.14563587408217,35.89051587385254],[127.14662670304942,35.89105731033636],[127.14648965983108,35.89196938845497],[127.14613818678029,35.892877924303455],[127.14580344895928,35.89412261312152],[127.1457452179502,35.895065390221376],[127.14519161848733,35.89594077215388],[127.14373289963595,35.89673994663484],[127.14159295101452,35.89716517208179],[127.14085462991198,35.89773581604196],[127.13980787689864,35.89833800109579],[127.13926252132468,35.89909292270967],[127.13841868757237,35.90067118238924],[127.13775116738273,35.900982803483224],[127.13578348117771,35.90214337274359],[127.13437003821834,35.90229531290709],[127.13371789106709,35.90226324450052],[127.13245154174483,35.90250209240143],[127.13123665904155,35.902382221647976],[127.12993267516964,35.901967086544076],[127.12818781765041,35.90154606961198],[127.12517761459819,35.90144002503825]]]}}
