{"type":"Feature","bbox":[127.05043583682887,35.72857476421832,127.21702012263354,35.843318809204156],"properties":{"regionCode":"52111","version":"vworld-20260909-3f8952dfda77-p3","name":"전북특별자치도 전주시 완산구","attribution":"국토교통부/K-Geo플랫폼 · VWorld 법정구역정보, CC BY 2.0 KR; 공공주택 복덕방 가공"},"geometry":{"type":"Polygon","coordinates":[[[127.10759261664121,35.840861070665305],[127.10674763734848,35.841693044003],[127.1059572986149,35.842042700284374],[127.10538128691292,35.84215198787991],[127.1044109833704,35.84329323003238],[127.10423012467142,35.843318809204156],[127.10372842200846,35.84237842167921],[127.10344556129276,35.84236527808224],[127.10319639756129,35.841858620102585],[127.10327981319656,35.84150394913424],[127.1038285410749,35.84041436763217],[127.1036161651445,35.8399722770378],[127.10308221963794,35.840163081811674],[127.10276613929624,35.84015855451206],[127.1024425081114,35.83953203362966],[127.10193279799894,35.839035121709436],[127.10169358520574,35.8385238257111],[127.10042680461962,35.839225539213444],[127.10020670004093,35.83925851484218],[127.09999016119687,35.83919898576185],[127.09903294331275,35.83949832078206],[127.09842160954041,35.83899063590031],[127.09572893930343,35.83826656690326],[127.0952670726815,35.8386072875272],[127.09492584007845,35.838592627190565],[127.09478266920698,35.83851510632807],[127.0923553663136,35.83838507883804],[127.09208380415735,35.83832557608151],[127.0918194069968,35.8381137986345],[127.09119927242796,35.83802468976394],[127.09089217091044,35.83800364698381],[127.09010623549061,35.838212978375246],[127.08946487678125,35.837906176128925],[127.08893984107439,35.83755127791861],[127.08871372452222,35.83745737684254],[127.08847160145442,35.83747248667217],[127.08801261242782,35.83712350332827],[127.08765658591705,35.83698343322583],[127.08742439016383,35.83674906573542],[127.08681459988573,35.83603295209963],[127.08675127796046,35.83521368595459],[127.08638707645552,35.834369839867726],[127.08641914176765,35.83346816695287],[127.08632675207862,35.83328473157935],[127.08565490888782,35.832828401458684],[127.08491875899,35.83249876002487],[127.08455555036532,35.832481103847726],[127.08424720541537,35.83229620700462],[127.08367116376589,35.83223092158581],[127.08330384992908,35.83106107268802],[127.08276351067433,35.830788153605496],[127.08134065267022,35.830340220129045],[127.07946240018413,35.83035936238592],[127.07870525997163,35.82981325047079],[127.07819700892504,35.82928032352143],[127.07782273215811,35.82917606062298],[127.07751920324446,35.82772192028033],[127.07735905638134,35.82745612446925],[127.07645886439751,35.826977364062486],[127.07485060188603,35.826870467408995],[127.07294664474999,35.82614949440214],[127.07280179862506,35.82626754894383],[127.07222916925842,35.82599715814707],[127.07223199616062,35.82532881355365],[127.07114272863716,35.825237439484084],[127.07116772999477,35.82496187682734],[127.06764999321115,35.82474312020982],[127.06670575731101,35.823761341363856],[127.06639105452592,35.82327251512886],[127.0661853997195,35.822636956471754],[127.06548736063658,35.82222043792318],[127.06541936721034,35.822056266257114],[127.06546407083671,35.821771896850706],[127.06578347575963,35.82113218995564],[127.06597159935946,35.82099310492967],[127.06604178566009,35.82076947697581],[127.06685049469836,35.81972132740155],[127.067063087513,35.819321567766266],[127.06763214889683,35.818738811464456],[127.06782671165226,35.81835527949852],[127.06804191506171,35.81821728387281],[127.06799271391922,35.8180214893561],[127.06812012507613,35.81762600895089],[127.06810842038799,35.81726659267454],[127.06830457546559,35.81657289594918],[127.06849925131277,35.816121248905326],[127.0688091209546,35.81589163870203],[127.0692259038713,35.81517335464243],[127.06922397574554,35.81474420103189],[127.06745177510462,35.814749518542264],[127.06758390343714,35.81455575916901],[127.06755491834329,35.81364096727016],[127.06773620693275,35.81334929970376],[127.06750419185619,35.81253958543963],[127.06752393871744,35.812120788029915],[127.06794792302688,35.81150720588181],[127.06761290822455,35.8101833722536],[127.06771078073307,35.80894040809675],[127.06783257880903,35.808213736737756],[127.06835619207571,35.80771658292101],[127.06818432783761,35.807232740531006],[127.06650848193469,35.80532684268365],[127.06628310744728,35.80474958374586],[127.06796295703943,35.8040968847391],[127.06776892800534,35.803822074496786],[127.06660161554281,35.803429672445176],[127.06657238303933,35.803236947666456],[127.06603639477618,35.80319849873286],[127.06564486527131,35.80286226981182],[127.06512916788735,35.80198790649264],[127.06522474131275,35.80125434393827],[127.06548610982439,35.80071800136265],[127.06521417920747,35.80030080882081],[127.06464958629597,35.799802341285705],[127.06505186183055,35.79908015998005],[127.06519523442779,35.79850973176167],[127.06438087213711,35.79764378370158],[127.06478434014618,35.79728233693723],[127.06368454468443,35.79578490401108],[127.06452271158172,35.795308563773766],[127.06486862923327,35.79424782670173],[127.06461424107368,35.79384335913657],[127.06505528223583,35.79307157604643],[127.06445300068808,35.79259574027395],[127.06439479074209,35.79224287440439],[127.0646371040931,35.792022614110145],[127.0651508998302,35.79184671585004],[127.06521651031328,35.791034150323874],[127.06509974457225,35.79053737493585],[127.06621202299144,35.79015912664078],[127.0658227841499,35.7896627047952],[127.0644665540523,35.788519590510106],[127.0645652464076,35.78797838568938],[127.06504844005589,35.78738378802169],[127.06461925879248,35.78639933218682],[127.06544343696231,35.78616840118519],[127.06668485976601,35.786091585703],[127.06697464552971,35.785926154766145],[127.06719081272566,35.78559155257807],[127.06744262792563,35.78543044142108],[127.06798744404153,35.78530979607458],[127.06816242842424,35.78457904781411],[127.06862532848093,35.78386076489264],[127.06862200057012,35.783639082759635],[127.06933572562696,35.78333840308991],[127.06970946129377,35.78329157829328],[127.07013116961235,35.782903713348496],[127.07086443860533,35.782631048186055],[127.07132012128326,35.7818932844651],[127.0711295867599,35.78156890397968],[127.0711464224776,35.780976504591095],[127.07216124184806,35.77991047769416],[127.07212079026064,35.779605779319944],[127.0723927036601,35.778994714467316],[127.07229278454479,35.77844399425466],[127.07227592722664,35.77726890368185],[127.07269257728683,35.77686459633632],[127.0733061627727,35.77677646685511],[127.07359958046351,35.77642315103217],[127.07358003466408,35.776185661715466],[127.07372528457054,35.775829052115384],[127.07426073803182,35.77561717648833],[127.07416012174023,35.77523517522769],[127.07390798767007,35.7750044681972],[127.07378131214313,35.7749914218872],[127.07358771066886,35.77453246723992],[127.07348422624165,35.773762507748785],[127.07266320535425,35.773381174134315],[127.07214297723138,35.77373438806441],[127.07144866696969,35.77342438229194],[127.07103357316566,35.77354607643203],[127.07067924668043,35.773756105037386],[127.0701657002941,35.77308337316882],[127.06995385664983,35.77288278430437],[127.06943085554462,35.77265159850833],[127.06910981687707,35.77222016657815],[127.0685452324397,35.77196381337872],[127.06817583964177,35.772008793074946],[127.06820288660651,35.771622810847106],[127.0683464316214,35.77143551133603],[127.06791220591728,35.77137743491053],[127.06737807959834,35.771435930587685],[127.06696506244313,35.770900455799655],[127.06635623469481,35.77039967495501],[127.06603180481363,35.770255260681516],[127.06548136552195,35.77027505826398],[127.06415639915558,35.7696102741496],[127.06446669309956,35.76914249227084],[127.06450712363464,35.768680137825214],[127.06503704735404,35.768004552194306],[127.0651148986093,35.76762836905658],[127.06421911879926,35.76688675862984],[127.0638982833419,35.76679184338997],[127.06358743871775,35.76679913164864],[127.06319618077474,35.766581623431506],[127.06302326152017,35.76633920216382],[127.06247705791777,35.766442024565904],[127.06206737977107,35.76628567296268],[127.06193288466936,35.765956006703355],[127.0611911866504,35.76541412274136],[127.06047730010397,35.765290480722825],[127.05972728903728,35.76533802831027],[127.05947322975585,35.7654825241579],[127.05863541246121,35.76521084169566],[127.0578985237002,35.76520478137483],[127.05760835518795,35.765029065037425],[127.05685191141784,35.764296481166916],[127.05632407239958,35.76422295557266],[127.05496111964587,35.7645647216928],[127.05458082390675,35.764204501218636],[127.0534918179527,35.7637634945907],[127.052796500333,35.76134700234915],[127.05247770629012,35.76110336163115],[127.05197280865605,35.760341629655514],[127.0516537281262,35.76002954717322],[127.05133246201085,35.760070532543885],[127.0513868675104,35.75955487440754],[127.0511135948124,35.758396556581985],[127.05096235019535,35.757427199262516],[127.05102979989816,35.757286999954154],[127.05045014769433,35.75639461665164],[127.05043583682887,35.75562842950585],[127.05059018545843,35.75529518599488],[127.05079477369318,35.755123906185595],[127.05142580815665,35.755093355379],[127.05201114051675,35.75485898881477],[127.05308703311752,35.75409658456158],[127.05347467679303,35.753939607199214],[127.05370134797501,35.75395821214802],[127.05410682068833,35.754148903282],[127.0545931219083,35.75416074895086],[127.05640618828001,35.752898360210445],[127.05666198860267,35.75283214492411],[127.05688068230876,35.75291024864035],[127.05739653525414,35.75240358185589],[127.05771255005256,35.752435768998005],[127.0579995832243,35.75225038815997],[127.05834922499126,35.75214358574803],[127.05932948724123,35.752471873166485],[127.05986500158441,35.752343175862755],[127.0605660444136,35.75248264573741],[127.0613073964889,35.75292179848425],[127.06180371532302,35.752883516759],[127.0627306241427,35.753116195820084],[127.06322147018832,35.75311604414559],[127.06359378094433,35.75288089421282],[127.0640603153076,35.75273646692712],[127.06440852508427,35.7523262905386],[127.06430120724183,35.751281520846256],[127.06484565403375,35.75062774520778],[127.06507565096756,35.7504709397822],[127.06566549252182,35.7503022338797],[127.06601962671608,35.74965459439976],[127.06670821035624,35.74935802949308],[127.0669584705905,35.749437818186934],[127.0673283232222,35.74925722831327],[127.06812309422327,35.74921844896086],[127.0682476706171,35.748977372702555],[127.0686531779903,35.74874036674061],[127.06929500322852,35.74858979326116],[127.0697056473528,35.748368010705434],[127.07000878800231,35.747838651057435],[127.07041631251548,35.74748890086932],[127.07052802563442,35.7472528938345],[127.07052218263375,35.746822578161364],[127.0703538822831,35.7463993966791],[127.0708227241011,35.74421833971642],[127.07064909062181,35.74391164200416],[127.07066425510287,35.74315354139515],[127.07036949427209,35.74223285148628],[127.07068771836957,35.741231956415724],[127.07099053967632,35.74081885790158],[127.07190926483693,35.74078735469038],[127.07342788781044,35.73978305790988],[127.07433241017023,35.73928202375361],[127.0762867365349,35.73795243682258],[127.07736005556305,35.737361344298165],[127.0781683731958,35.73675418761265],[127.0785833997667,35.73639486705427],[127.07917301257275,35.735556787200494],[127.08092873030613,35.733875379427346],[127.08149423827135,35.73046478694584],[127.08302378729728,35.729417477800155],[127.08513922323918,35.72857476421832],[127.08590436671525,35.72988821480982],[127.08598374676096,35.73019779126481],[127.0864351851088,35.73089307927501],[127.08715741876864,35.731535074695174],[127.08753806511088,35.73240335420455],[127.08891264195344,35.73353698743161],[127.0895666196685,35.734191740097124],[127.08992335451512,35.73474418951529],[127.09080850964123,35.735009453845585],[127.0911205033134,35.735517275669686],[127.09150631329139,35.73644106393873],[127.09218263496692,35.73669841939728],[127.0924221175537,35.7366031715715],[127.09305723203545,35.73685928253941],[127.09403653590697,35.73680845891081],[127.09468899138062,35.73669170154829],[127.09572946649955,35.737488411803554],[127.09585060606013,35.73831786988986],[127.09582605226743,35.738776264511564],[127.09597759801731,35.73896174398301],[127.09582451903027,35.73987439347559],[127.09577811035663,35.74092289383799],[127.09553527722352,35.741540169498975],[127.09586648204842,35.74223420375218],[127.09565455972322,35.74282596994936],[127.09558722754011,35.74356240802014],[127.09569467666498,35.74476655308298],[127.09606296582518,35.74548915918046],[127.09705479024653,35.74555931550656],[127.09764934553394,35.74574638568564],[127.09797946855596,35.74629968623379],[127.09847593741823,35.74677187552235],[127.09912683948295,35.74701696211213],[127.09937385282225,35.747348948346335],[127.09929729977489,35.74773542934725],[127.09897876683983,35.74815700119733],[127.09933445273897,35.749012844047314],[127.10027728715194,35.750278709969386],[127.1008524040729,35.7507942915085],[127.10098917104328,35.75126618142098],[127.10131224690018,35.7518870186481],[127.10164327511744,35.75188082294083],[127.10211161857377,35.752114950632176],[127.10252239058528,35.752757558501564],[127.10340485069399,35.7526622354363],[127.10442376204382,35.75282079146227],[127.10474133125813,35.752107177764806],[127.10567927224962,35.75252870178222],[127.10611567656318,35.75226316217077],[127.10658064254173,35.752146592474915],[127.10690128322909,35.752226983662396],[127.10797724693694,35.751927664240704],[127.1088014153236,35.751300184321934],[127.10936802153432,35.75068836051658],[127.11008875307242,35.75060957586873],[127.1104532115643,35.7508321668999],[127.11204158371419,35.75073318102746],[127.11271144469784,35.750565748214356],[127.11301295119084,35.750293683795206],[127.11355306214108,35.75022831927686],[127.11399074337307,35.75006621379649],[127.11435200602799,35.75028125062722],[127.1156141546273,35.749525331581005],[127.11587443835185,35.74926457972679],[127.11625334334042,35.74950760678672],[127.11682319613053,35.74949589611729],[127.11728507862091,35.75049204425113],[127.11766443410272,35.75106942526313],[127.1179404385751,35.751120693995645],[127.11814535797397,35.75105218995845],[127.11832200271236,35.75284566766428],[127.12123409800913,35.752653833871086],[127.12042925140103,35.751350486020364],[127.12038072827863,35.751151796776234],[127.12097945305814,35.75133459130107],[127.12155840084974,35.75122485315092],[127.12166435027092,35.7512586529429],[127.12191237072898,35.75161448652558],[127.12202749699381,35.752030700511234],[127.121903314716,35.75211292981262],[127.12212388771253,35.752434678158494],[127.12219815104085,35.753326566555735],[127.12242636672781,35.753558043237575],[127.12290414505722,35.75251870113024],[127.12340066961343,35.7518970575612],[127.1239465969314,35.75258915894067],[127.12427057549327,35.75354179987721],[127.12490245744155,35.7542147658585],[127.12516808010307,35.754862756021794],[127.12552479335865,35.75477153067257],[127.12558045796217,35.754325639312775],[127.1259345103153,35.754478808899826],[127.12640281091537,35.75452437081744],[127.12759471204991,35.75487602541696],[127.12760694822971,35.7549642737977],[127.12828427470376,35.75500012644594],[127.12908367141931,35.75541819000855],[127.1297729739036,35.75530410930283],[127.12983003451104,35.755434482288706],[127.13040799185342,35.75561023160383],[127.13086493155761,35.75585151654475],[127.13166450634338,35.75737721257042],[127.13195568236071,35.75772159406697],[127.13305647803676,35.7579373925416],[127.1333526981731,35.75819214378392],[127.13405147318518,35.75833408302716],[127.13419259034168,35.75888378752813],[127.13444553345667,35.759020166268286],[127.1349687915892,35.759664144926354],[127.13583862658406,35.760055331208754],[127.13662064135598,35.76106711725778],[127.13749013262618,35.761274894691454],[127.13819740671727,35.76090376420664],[127.13852528946681,35.76087924753684],[127.13917430281279,35.76115588603479],[127.14001938253608,35.76120128494656],[127.14081812695035,35.76077480411556],[127.14087855332262,35.76083629051245],[127.14152617318605,35.76088749788697],[127.14186471308115,35.76074353047441],[127.14301120745708,35.7598519270992],[127.14340047945153,35.759881084425565],[127.14389350114952,35.760056683059496],[127.14639372739997,35.759607299322845],[127.14631757566376,35.75991843452093],[127.14643402907669,35.7603548288784],[127.14608110106565,35.7606997886411],[127.1460222458256,35.76096522783775],[127.14566012685746,35.761556773486575],[127.1461378013784,35.762543568954534],[127.14605528357887,35.76318890019191],[127.14631463771893,35.76397612038385],[127.14632064938459,35.76423095425101],[127.14662764407127,35.76407814492748],[127.14685320597277,35.764182366171525],[127.14722182031547,35.76504734736666],[127.14777600025069,35.76543992209562],[127.14813602546555,35.765472002546694],[127.14872847102316,35.76605428466671],[127.14915269480605,35.7663328597576],[127.1492833297904,35.76685520538208],[127.14956081667319,35.76707465352106],[127.15007065226243,35.76705877352403],[127.15023321331961,35.767519688639645],[127.15023069482098,35.76851917383842],[127.14999477832708,35.7685895823857],[127.149819975162,35.768738452806716],[127.14948705762451,35.768728379357306],[127.1491727454231,35.76894165450498],[127.14862997595596,35.76949504472136],[127.14898552600154,35.76986624450456],[127.14890400550213,35.77012697069525],[127.14897489735459,35.770470266124995],[127.1491939777008,35.77061041444414],[127.14922570992239,35.771443761256876],[127.14956085803126,35.77189262959617],[127.14962979940626,35.772232616221814],[127.14906049523255,35.772787799786805],[127.1487664112739,35.77320310801076],[127.14906000159245,35.773585316470914],[127.1494201922141,35.77442729994289],[127.1502594992385,35.77460306710886],[127.1509436387936,35.7750759110329],[127.15107142193825,35.77530161904211],[127.15128368546229,35.775359285790024],[127.1514838606516,35.77571615313684],[127.15222188433276,35.7759993344522],[127.15248057876613,35.776448855087125],[127.15305245437958,35.77707800771205],[127.15309675903572,35.77757850362691],[127.15298579736397,35.778342831547434],[127.15320226604706,35.77872864171435],[127.15385676038133,35.77935069295874],[127.15431935204937,35.77965853277008],[127.15532558361906,35.78006050151941],[127.15586577430282,35.780219654835],[127.15615172598427,35.78015640890918],[127.1565968191413,35.78049638414733],[127.15732042301568,35.78048266896675],[127.15855572207076,35.78157739983176],[127.15909843801151,35.78168028818344],[127.15955545323037,35.78199752568751],[127.16011379977785,35.78183255381593],[127.16107229688643,35.78276977596298],[127.16126374044518,35.78304403791415],[127.16135109367309,35.783456517242406],[127.16150174947273,35.783521901471644],[127.16185007486735,35.78341298184966],[127.16259333956849,35.78287948895267],[127.16272042599451,35.7824908279698],[127.16373712546222,35.781805666206644],[127.1652794975602,35.782211071133595],[127.16603201690155,35.78177896186669],[127.16861204484164,35.78088002004655],[127.16904418175052,35.78085776249102],[127.17004603764978,35.78063250683778],[127.17070211977499,35.78081827404171],[127.17199023268844,35.77953889332732],[127.1730843291524,35.77932280699833],[127.17358228025553,35.77880557401126],[127.17397669306847,35.77851863393927],[127.17422726778975,35.77792030883035],[127.17425025607429,35.7775951258578],[127.17456444694247,35.77699964555177],[127.1751532395597,35.77621203922609],[127.17547904052878,35.77630583110667],[127.17575302103667,35.77653777971588],[127.17664660229734,35.77694615057168],[127.17760278027907,35.77551350521763],[127.17875706147147,35.775181263903015],[127.17962947647642,35.77552479792841],[127.18089177026451,35.77555790837217],[127.18110652593421,35.77571527217427],[127.18108771823036,35.77595325095479],[127.18188730554506,35.77679893127611],[127.18360633132521,35.77792700796666],[127.18423645164107,35.778619525803606],[127.1854081024226,35.77916508427819],[127.1864510132471,35.779150758238046],[127.18684247860779,35.779290644473775],[127.18811403433314,35.7789959650647],[127.1891056037878,35.7775825985885],[127.18952920323616,35.77724362299246],[127.19020365203177,35.7770552666154],[127.19119926750585,35.77662273779803],[127.19180907368806,35.77615679563355],[127.1924454964867,35.77633407472073],[127.19312549300925,35.77631178439399],[127.19353768839075,35.77546180608918],[127.19385771908078,35.775066139178],[127.19432864392067,35.774859931898895],[127.19448810321043,35.77446456912469],[127.1952466808683,35.774147495452574],[127.19625790991965,35.77411449536275],[127.19707773447274,35.77482304615051],[127.19735746433473,35.774967937249635],[127.1988152190432,35.77477137756674],[127.19938281760427,35.77562969777716],[127.1996877055591,35.77651954926787],[127.19988368540561,35.77867888863027],[127.19954111214706,35.77953548638558],[127.19936934729907,35.78066404758015],[127.19947125667615,35.78151174804507],[127.19989360472569,35.78229745486282],[127.20059881813509,35.78276925051779],[127.20136138623357,35.783435053270814],[127.20168611970853,35.784274368698746],[127.20174653118801,35.78525493878514],[127.20113418125017,35.78600196369795],[127.200597112682,35.786458006439894],[127.20007905787537,35.78654873595805],[127.19918658218914,35.78700000658956],[127.19948041892825,35.78748046214626],[127.19965681521916,35.78770460349595],[127.20120004944918,35.78807514336049],[127.2022409383644,35.78776065536574],[127.20411518767587,35.788058550720976],[127.20438889845126,35.788005823513345],[127.20534855072674,35.788254552595504],[127.20557122650655,35.78848426521217],[127.20617664664269,35.78868977782423],[127.20609677133429,35.78946689651387],[127.20677962805209,35.7900029010348],[127.20691155483296,35.790430447341436],[127.2076439842539,35.790997835073334],[127.20772971940015,35.791227299850476],[127.20836951676928,35.791848646309035],[127.20910186474043,35.79238345018259],[127.21025768628942,35.79301620411893],[127.21123229017351,35.79382294500936],[127.21162456192023,35.793969165667235],[127.21187529276307,35.79540226686984],[127.21227139872703,35.79604252727982],[127.21246259580997,35.797382740852214],[127.21301524459739,35.79755193498846],[127.21350700338633,35.79797725382709],[127.21431551289334,35.79788349666714],[127.21462185765122,35.79799826573576],[127.21494735901574,35.79824360534421],[127.21513786589651,35.79867569807865],[127.21513970295875,35.79935716299365],[127.215924558437,35.79952197533326],[127.2164857513649,35.800180817012645],[127.21702012263354,35.80114511343492],[127.21701155436354,35.8016511928583],[127.2168059561434,35.80176981646497],[127.21627186852469,35.80239918231941],[127.21551838675086,35.802496635974144],[127.21531898258498,35.80263746055004],[127.21518215316303,35.80306350021028],[127.2139392855182,35.80353886268802],[127.2135977838791,35.80488501266628],[127.21287143484476,35.8049528239136],[127.21232108306577,35.80491092634412],[127.21128614475745,35.80504580546655],[127.21078730750642,35.805290645993054],[127.20964262243464,35.805129991567625],[127.20731652802269,35.805765291231],[127.20543034487845,35.80754940428646],[127.20511738045391,35.80806151430136],[127.20477576918677,35.80813680684038],[127.20474853709732,35.80862635989379],[127.20399185543003,35.808829780751],[127.2037075795061,35.80905183092624],[127.20244997306474,35.80944580697839],[127.20189015232538,35.80959102245434],[127.20147872819521,35.80959685292958],[127.20076744349645,35.809922659951575],[127.20024382829709,35.81044807322413],[127.19989729512571,35.81059727953366],[127.19850042597146,35.81067166078367],[127.19806313170679,35.810880602606154],[127.19784417951367,35.81057594904795],[127.19692350041656,35.81025309511496],[127.1963232621414,35.81021002655767],[127.19559703921921,35.80990985678924],[127.19503151729602,35.809982852146945],[127.1947317928711,35.81012349052461],[127.19366880772895,35.80993698435878],[127.19305296565183,35.80954554268537],[127.1918555846542,35.80982256201372],[127.19129462938325,35.809751364601794],[127.19080193619457,35.80911767766077],[127.18859020662359,35.80734938295682],[127.18831312343185,35.80674701621371],[127.18832489862505,35.80620518075959],[127.18767807477441,35.80585028014174],[127.18740305480122,35.805486533729606],[127.18715422283151,35.805558461429776],[127.18699356160313,35.805761419730025],[127.18634946434719,35.80592935009362],[127.18566010760813,35.80552498924305],[127.1850590640666,35.80531127421731],[127.18438578774519,35.80552693410956],[127.18341928117502,35.80562379735578],[127.18278913583372,35.80549358078155],[127.18183150446563,35.80492216633948],[127.18018766560101,35.80510947729768],[127.17972860009247,35.80602108426914],[127.17919608268994,35.806669073634886],[127.17855555364721,35.80677626747673],[127.17809376904526,35.807221300801366],[127.17706140379133,35.80721315303453],[127.1767658375039,35.807706229447824],[127.17617278406665,35.807823001574434],[127.17573431071258,35.808084454018214],[127.17548574791991,35.80837460222701],[127.17533229210981,35.808741896823726],[127.17529788731069,35.8092925521853],[127.17387106297451,35.809830880002394],[127.17390846219527,35.810661557665355],[127.17382620658069,35.81103840027714],[127.17363670568388,35.8112028893091],[127.17228500012502,35.81171678414746],[127.17204132781602,35.81189016256844],[127.17237366146762,35.81259032579021],[127.17186370936149,35.812905940148376],[127.17127728995465,35.813649916429476],[127.17089066499653,35.81375122103843],[127.17005746490511,35.814885999489135],[127.16954791356318,35.81540314348915],[127.16968826966581,35.81591936438671],[127.16954921503547,35.81602031859064],[127.16942600178182,35.81651784747881],[127.16938685091607,35.81768878452971],[127.16701881614671,35.81953498345176],[127.16595361501682,35.82053464461363],[127.16484505603866,35.82200604694457],[127.16474183453225,35.82253211364481],[127.1641985428956,35.82291040289936],[127.16366607703338,35.82298337684247],[127.16291634634715,35.82389221720257],[127.16283893478966,35.82364519893942],[127.16210673667467,35.82334390192701],[127.16170901506032,35.823342536183915],[127.1617434471424,35.8242865546489],[127.16195571612832,35.824460033959454],[127.16158434300705,35.82474217113305],[127.16124014102462,35.82527671079931],[127.16088017352328,35.82562182869197],[127.16065090901134,35.82619028229225],[127.16025941207967,35.82611325489406],[127.15996978099847,35.82630452236426],[127.15981796991515,35.826474164527234],[127.15987215716689,35.826513417336166],[127.15922619921798,35.82720237292988],[127.15866273865602,35.82763156858061],[127.15846176537626,35.82768216433286],[127.15810468587365,35.82834780160886],[127.1577079966956,35.82880768457458],[127.1571967967967,35.82902563927174],[127.15672964878956,35.829413502518946],[127.15600066862652,35.829462831992245],[127.15612908487637,35.82916877079335],[127.15609061939672,35.82884514955498],[127.15600241058978,35.82884345273901],[127.15601916857267,35.828702033696395],[127.15563556943434,35.82833221075383],[127.15493414241203,35.82846121181589],[127.15434672702378,35.82869578132711],[127.15417323977277,35.82867187004132],[127.15399519705363,35.82945920317248],[127.15203095400034,35.82975025206967],[127.1518347893781,35.8297271291872],[127.15146624971182,35.829513063568704],[127.15131233736699,35.82951162356811],[127.15070661038368,35.829639254579924],[127.15007328056504,35.82988706314367],[127.14934184160181,35.82973112041434],[127.14900783989798,35.83012166623809],[127.14778352462027,35.830213503376115],[127.14736052423429,35.83045974539225],[127.14652038500842,35.830567963251895],[127.14620845857473,35.82923467643031],[127.14605805632486,35.82889893483572],[127.14382833778349,35.828485297848644],[127.1436397010318,35.82836772714532],[127.14343637759383,35.82837241931679],[127.13997914583513,35.82754380332423],[127.13814958040602,35.8271884249932],[127.13786398900297,35.82722663002335],[127.13671751945819,35.826784363448255],[127.13693843615647,35.825640469712006],[127.13315099882902,35.82513825595121],[127.13325814076595,35.82461367172828],[127.13235331038412,35.824492516470265],[127.13306707844097,35.82367452271531],[127.13201063905383,35.82408152877914],[127.13177783143387,35.82397663239009],[127.13202355308107,35.82358144336426],[127.13282853913383,35.822703087467985],[127.13557123341096,35.82054960469138],[127.13523288568095,35.82028683488898],[127.13547622580636,35.81918903363846],[127.13525897036168,35.81884403309038],[127.13520180731234,35.81856228137607],[127.13400427126749,35.81775109259444],[127.13299965663275,35.817526412409876],[127.13292658839671,35.817752093695965],[127.13271626413832,35.817905594212476],[127.13263516899434,35.818095962433205],[127.13208236973271,35.81805535799391],[127.13195324619139,35.81833896089002],[127.13135786699671,35.81878879188984],[127.13142108266663,35.81906558882717],[127.13098529951417,35.819286325163745],[127.13009069361019,35.81948340055696],[127.12955258251898,35.81927963183321],[127.12897216145406,35.819698847465915],[127.12836212740815,35.819870010014604],[127.12789683315046,35.82012099582543],[127.12749963311724,35.82039742166022],[127.12716616530398,35.820924092440976],[127.12737736121824,35.82130533536599],[127.12756518475936,35.82225067313798],[127.12786388439321,35.822846105225764],[127.1276182736187,35.82374313667814],[127.12742608916166,35.823850462621685],[127.12734947859542,35.82406148250575],[127.12671638455971,35.824780054303595],[127.1265633274936,35.825501387215354],[127.1266830235535,35.825797585094335],[127.12708180537476,35.82623167192739],[127.12705487076482,35.826766676704075],[127.12722556766278,35.82711236135548],[127.12739554130698,35.827265390160235],[127.1280779337888,35.82749824842549],[127.12826447990584,35.827675329154054],[127.12832359266636,35.8279766538478],[127.12848448116031,35.82823267505846],[127.12845998665775,35.82835576886412],[127.12876564341083,35.82843832204104],[127.12847331440776,35.829025123348906],[127.12754884979348,35.83007198970935],[127.1271853046755,35.83080203536974],[127.12695484706659,35.83150178401922],[127.12682632472138,35.83226434132336],[127.12616611901107,35.83286630574317],[127.12499441817754,35.833302092844974],[127.11973177504319,35.83658767109653],[127.119124494138,35.83750331018542],[127.11847743920647,35.83825243260302],[127.11822441896605,35.83840345520554],[127.11782250111997,35.838536689287004],[127.11719355774484,35.8385862345146],[127.1152306249514,35.83843385058657],[127.1143551437707,35.83784184346241],[127.11359486146081,35.83785448623769],[127.11246460606918,35.8382990960075],[127.11044780987463,35.838949836349755],[127.10833416204696,35.83984644103503],[127.10759261664121,35.840861070665305]]]}}
