{"type":"Feature","bbox":[127.1839070228047,35.30245764493063,127.67417123720944,35.560785549336586],"properties":{"regionCode":"52190","version":"vworld-20260909-3f8952dfda77-p3","name":"전북특별자치도 남원시","attribution":"국토교통부/K-Geo플랫폼 · VWorld 법정구역정보, CC BY 2.0 KR; 두꺼비집 가공"},"geometry":{"type":"Polygon","coordinates":[[[127.41187668297104,35.560492244417],[127.41110834445465,35.56073953592977],[127.41049637256853,35.560785549336586],[127.40986745086573,35.56063848171209],[127.4094378083481,35.560082518933484],[127.40877597050904,35.56004959629771],[127.40837015645376,35.55993071665472],[127.40825850691701,35.55981374593747],[127.40651461231181,35.560314901586274],[127.40561059554895,35.56000793757622],[127.40524995352493,35.55957304008031],[127.40501878993967,35.55941835150998],[127.40487786547237,35.558468225891914],[127.40460010487725,35.55826068767117],[127.40430317444874,35.55766743391146],[127.40363936853736,35.557414678334716],[127.40310220220408,35.55698386723767],[127.40270008469336,35.55609934975578],[127.40229034376294,35.55584873723749],[127.40227978433025,35.555499666950666],[127.40208810848063,35.55535375618618],[127.40143467559582,35.55414408935107],[127.40137376753573,35.55363452173052],[127.40030834913179,35.553011295649405],[127.40005494425249,35.55341822733755],[127.39986814345048,35.553540040049135],[127.40024621726691,35.55304362291564],[127.40019797775452,35.55300369531306],[127.3999641308007,35.553083401333],[127.39973714708576,35.55292136283182],[127.39937770810099,35.55294835129228],[127.39909705622865,35.55312698288703],[127.39864323906787,35.55299538533259],[127.39812669312967,35.5526533809514],[127.39846856344988,35.55242718463327],[127.39862228619332,35.552420748076585],[127.39916224452173,35.551974173422686],[127.39915164611583,35.55160575296367],[127.39963849262287,35.55134385504703],[127.400140308993,35.55137299319143],[127.40063668196551,35.55068673215799],[127.4014254901358,35.550371940509386],[127.40188298227457,35.54927724018223],[127.40256973690985,35.54895554131563],[127.40264460488113,35.54837058917954],[127.40158533443018,35.548258076536435],[127.40060175051038,35.5475351413949],[127.39970801402414,35.54737557543874],[127.39928900458504,35.547101678205834],[127.39821093991094,35.54704027330578],[127.39683902700803,35.54824030325344],[127.39581813951536,35.547579378433376],[127.39489998119639,35.547448634176845],[127.39451133860365,35.54751164919448],[127.39337626891866,35.54701320221432],[127.39312498733163,35.54707499788246],[127.3929776699596,35.547203503730294],[127.39143517308747,35.545771198074476],[127.39061694293399,35.54614938936962],[127.38967899966731,35.54682560376207],[127.38931365656282,35.546707412736694],[127.38738894256953,35.54719885059713],[127.38696555719753,35.5471884802909],[127.38685490571993,35.54703501284927],[127.38641030626614,35.54682699082349],[127.38593007156136,35.54646950101278],[127.38529848882492,35.546300799665424],[127.38486513183813,35.54628187196004],[127.38453177341354,35.546686493209656],[127.38409227135081,35.54633807153252],[127.3841783314227,35.54627228240349],[127.38409146923301,35.54610887549671],[127.38305654993349,35.54658329560978],[127.37996924817467,35.547317787230085],[127.37926497504074,35.5475818571266],[127.37892473456174,35.54781728429735],[127.37825254040713,35.54795059623565],[127.37802717804949,35.548268752432875],[127.37719831764373,35.54854066202008],[127.37638843630499,35.54936797095024],[127.37579508898864,35.54971280937253],[127.37523792214887,35.550211868177236],[127.37471800583175,35.550167162145826],[127.3739255847971,35.55046502776886],[127.37401991527636,35.55082066580384],[127.3737891525157,35.55115447552594],[127.37378716579013,35.55154777802311],[127.37319206259046,35.551577860628356],[127.3728707423588,35.55168766198938],[127.37262213464713,35.551870200579685],[127.37258140089169,35.55212051453978],[127.37227315348828,35.55241869049089],[127.37188164516272,35.552714461734126],[127.37149300473202,35.552895543485704],[127.37024442342044,35.553056579237115],[127.36968491745338,35.55367416709543],[127.3703073961562,35.55413458960765],[127.36868048905048,35.555592622543294],[127.36811951261812,35.55525213117831],[127.36781063903555,35.55551646996285],[127.36719305567415,35.55566653630902],[127.36699215343671,35.55587682730942],[127.3664689697118,35.55603326417566],[127.36653913346714,35.55617071341389],[127.36545868107623,35.55646917042463],[127.3655983743956,35.55680920162984],[127.36456515920577,35.55710274049713],[127.36470116790548,35.557670538719194],[127.36365608077512,35.55795125464758],[127.36372805661415,35.558129707806174],[127.36365318536444,35.55823406243671],[127.3630014971954,35.55783582331407],[127.36294664935785,35.55756848550502],[127.36228748593562,35.557175912647025],[127.36141157883729,35.55706227367108],[127.36115180618495,35.55729987962339],[127.36060392915516,35.55755736207518],[127.3604091204594,35.55786544490658],[127.36027368140995,35.55840576282874],[127.36010587618857,35.55856176278914],[127.359599921667,35.558873697202046],[127.35927270708859,35.55892207568866],[127.35882083250335,35.55884529225231],[127.35850614890559,35.558411010394835],[127.35753132246793,35.557597082776326],[127.35689933255762,35.557232274710046],[127.35475261014624,35.55481691203864],[127.35373583959682,35.55389044771448],[127.35336452446948,35.5533757238311],[127.35268835640157,35.55277771721477],[127.35116121842066,35.55193107595289],[127.35015480268459,35.551536638670115],[127.34770257698288,35.55138411250088],[127.34557471839987,35.55096718322633],[127.34428492456495,35.55091356182338],[127.34333935669419,35.55110660887816],[127.34294321087872,35.55170834339793],[127.34128076921093,35.55328295987705],[127.34008068304783,35.554021581449675],[127.33880360278846,35.55453921196787],[127.33776598949348,35.55459854895962],[127.33617839908558,35.55417871918274],[127.33532992981638,35.55360845533271],[127.33462183576343,35.55274476140267],[127.33418173034173,35.55186959684062],[127.33400281802741,35.55127062642496],[127.33405382447357,35.5506559660415],[127.33429768984051,35.550056240769166],[127.33427531466705,35.548636562976185],[127.33442963126599,35.54751045058743],[127.33519875783082,35.547651350017425],[127.33524335027043,35.54779135056589],[127.33541177360384,35.54763477267234],[127.33555209348471,35.54768694668182],[127.3363748260612,35.54766011256092],[127.33645637323697,35.54754707191968],[127.3366051031399,35.54753488832156],[127.33654435958472,35.54751630210787],[127.33708243431434,35.54700810019964],[127.33719647176517,35.546700288186614],[127.3383991696971,35.54651345689678],[127.33839463471821,35.546407081825635],[127.33917419365956,35.54542343935741],[127.33896496699572,35.54509868640191],[127.3396253447671,35.54444433794443],[127.33992482009816,35.54437987571121],[127.34018079597301,35.5444482762592],[127.34039660352161,35.544289631571836],[127.34076324008942,35.54366353524969],[127.34185615837137,35.54361744504393],[127.34223758474937,35.543411990638454],[127.34241655484563,35.54311853892376],[127.34349559126964,35.5426565836179],[127.34379551135486,35.542567105622815],[127.34447567668828,35.54275901444323],[127.34481422086054,35.54270989522723],[127.34513868871139,35.54235727736718],[127.34538966223103,35.5423340660127],[127.34571091239629,35.54243709561294],[127.34606663904995,35.54274415859196],[127.3467979665215,35.54297226544039],[127.3473961827001,35.54235710577568],[127.34766484408068,35.54238765473644],[127.34817578630421,35.54213577236173],[127.34814362941513,35.54189750731293],[127.34837465399912,35.54147740159025],[127.34847903927803,35.54106819252929],[127.34879913868826,35.5409350184202],[127.34893870050153,35.540497984436904],[127.3496306558662,35.540148477596404],[127.34969197022562,35.5375240718287],[127.35003107149606,35.537336371033305],[127.34995888915157,35.53619670545413],[127.35000781136931,35.53596131862833],[127.35033950630665,35.53563904889639],[127.34970491360633,35.53536233097424],[127.34800603099642,35.535357343620056],[127.34840171102982,35.53499523957477],[127.3472896320032,35.5341095970314],[127.34760729947759,35.533146591294155],[127.34751340146971,35.532764243013794],[127.34676351853867,35.531918789040326],[127.3469993018376,35.53138727989887],[127.34684692950351,35.53093313124831],[127.34699465543022,35.530075567680626],[127.34541106380377,35.52837592232699],[127.34552279159777,35.52802608991696],[127.34542223551293,35.52723691465507],[127.343986687391,35.526780465213086],[127.34375313796048,35.526463611960395],[127.34252132861312,35.525916501177555],[127.34067621883577,35.525943100868744],[127.34022867472478,35.52749872026448],[127.3388768632176,35.527797421471824],[127.33847400477423,35.52771341198264],[127.33777053644711,35.527808136231265],[127.3376499179625,35.52621407673072],[127.33770756038926,35.52621474399162],[127.33771815494927,35.52571760571834],[127.33789507453079,35.52552734355071],[127.33784364007715,35.52548720805016],[127.33756283445673,35.525721021338704],[127.33801541319663,35.525098967503936],[127.3393735977782,35.52425318838331],[127.33983062781152,35.5238043252617],[127.3400985491702,35.52332235315775],[127.34110273728471,35.52240961011053],[127.34241434402999,35.52105327338002],[127.34300692652744,35.52028081938419],[127.34401231728613,35.52001523253942],[127.3445844084893,35.519769706309255],[127.34509914404504,35.519120004266135],[127.3456007661577,35.51826684934842],[127.34601846271521,35.517851845187735],[127.34629636240683,35.517682697252624],[127.34765584954357,35.51745376848287],[127.34944387782473,35.51621382238586],[127.35073873463509,35.5151717348796],[127.35098281457167,35.51501998865499],[127.35166524867522,35.51480170678412],[127.35195594069404,35.51454248856588],[127.35237890201581,35.51389787719746],[127.35277154656892,35.51355564803217],[127.35374869183624,35.51303550022659],[127.3539113652389,35.51274580069054],[127.35400939421939,35.512044269384425],[127.35390710266527,35.51190889553794],[127.35393728602655,35.51178089540306],[127.3546059168726,35.51109937211395],[127.35481695850817,35.510735441198364],[127.35490787263836,35.51015557130624],[127.35484815330773,35.50932133476441],[127.3549941374707,35.50873714520471],[127.35471578513481,35.50775960490531],[127.35480434503991,35.507486333169716],[127.35512919995188,35.50707253372089],[127.35519353797314,35.506828616120096],[127.35513244048772,35.50562427547187],[127.35556316888211,35.50535939140827],[127.35606984536669,35.50470269730893],[127.35625448510976,35.50383142831625],[127.35615012129308,35.503205847453806],[127.35632869444399,35.502422429445396],[127.35678991880657,35.50185184847924],[127.35699985950794,35.50096002826466],[127.35645101945087,35.50084268079088],[127.35639179619791,35.500754032208036],[127.35636538162296,35.50029693598138],[127.35624048200674,35.50031614064236],[127.35629512039962,35.499875911950795],[127.35573981658094,35.500292512645586],[127.3555096863667,35.50024552543208],[127.35500873083559,35.500764114208124],[127.3542647903378,35.49993086968032],[127.35382950829367,35.49970539305244],[127.35370419479916,35.4987392258219],[127.35310532802939,35.49829583114606],[127.3534468248201,35.49805245680856],[127.35344417163995,35.497815891744224],[127.35335104321807,35.4977075566852],[127.35308483147521,35.497613571078254],[127.35288843297859,35.49738094104507],[127.35261120941622,35.49736710293879],[127.35189591449691,35.49713823285811],[127.35146496152913,35.496891987498046],[127.35118535782276,35.496865272763756],[127.35137507232557,35.49677258239388],[127.35113656335002,35.49683358923883],[127.35050365130691,35.496666185509085],[127.3498941974307,35.49672668464832],[127.34950862835893,35.49686923792164],[127.34955531894869,35.496929065978996],[127.3493014885175,35.49697730589925],[127.34912285411878,35.497176223456684],[127.34839687244937,35.49702544347892],[127.34760926056842,35.49698153186911],[127.34754162545788,35.49704615920639],[127.34744691432213,35.49684186558606],[127.34689130987044,35.496436961679215],[127.34630114642431,35.49644957409792],[127.34550262094973,35.49657409725837],[127.34531558365762,35.49652309185882],[127.34480783815455,35.49656467404234],[127.3443795866338,35.49666277226284],[127.34363348296301,35.49634263129596],[127.34309249156905,35.49632035025888],[127.34220126986864,35.496425474948886],[127.34202503871116,35.49658698932293],[127.34174293208513,35.49662655996863],[127.34135575738277,35.49644589628116],[127.34033612447678,35.495365158011204],[127.34035752706913,35.495078790982284],[127.34017988832173,35.49467913082717],[127.33891125690805,35.493888452622656],[127.3377944127043,35.49399523790341],[127.33718014082991,35.49389927546771],[127.33634064474283,35.49361091121804],[127.33537502980032,35.49313238379154],[127.33520112608355,35.492714646446885],[127.33441235082906,35.4923450994001],[127.33385082669791,35.491876306978995],[127.33289788183404,35.49193032653752],[127.33238670197576,35.4921096935723],[127.33120386228114,35.49216894529128],[127.33118801180318,35.4926510854022],[127.33041075173375,35.49322847044888],[127.3304590121529,35.49295524411929],[127.32785586476413,35.49471191592671],[127.32774974131242,35.494605041134704],[127.32654799624459,35.49541981147124],[127.32636593962569,35.49539542637791],[127.32637155950523,35.495340522831825],[127.32603445637767,35.49544659289739],[127.32605690038889,35.49556815398189],[127.32578727183763,35.49567044703306],[127.32582212072575,35.49552778481116],[127.32504335522609,35.49555870163667],[127.32389972986272,35.49534547762985],[127.32154703507254,35.49445812048527],[127.32083859258788,35.49413908990489],[127.32021400035292,35.49362642407548],[127.31963631935558,35.49344933796949],[127.3191187362137,35.49349315253636],[127.31878138127281,35.49363103811958],[127.31787274396203,35.495156132332696],[127.31647320195793,35.49542778902217],[127.3143358300939,35.49623380096072],[127.31396158755337,35.49671232607035],[127.31352678631033,35.49662333105712],[127.31321649127632,35.49634822453825],[127.31261587342549,35.496248776980956],[127.31212883579003,35.496045535545676],[127.31199069776822,35.49571049118049],[127.31151689640818,35.49564286802179],[127.31101750660653,35.49466516680661],[127.3105629060696,35.494099342086685],[127.3103385093349,35.49348270795898],[127.31030889644228,35.49318018936617],[127.3094141935611,35.49077845709517],[127.30955765094654,35.49011539941404],[127.30778172446519,35.48903443038137],[127.3079393029713,35.4877257203273],[127.30745102615101,35.48655620506432],[127.30743233145638,35.48599685136232],[127.3070531900745,35.48527610357217],[127.30739168733803,35.48472244181113],[127.30710048868505,35.48411231420542],[127.3082061450152,35.48376555388916],[127.3081406625299,35.482339636605204],[127.30794641957085,35.48191135332946],[127.30728862129465,35.48143216863262],[127.30716598427901,35.480633249406885],[127.30808405335017,35.479802777264034],[127.30865202658146,35.47787770260201],[127.30889932247503,35.47767638878465],[127.30892156899505,35.477028079093536],[127.30922554449104,35.47697499348801],[127.31027483433319,35.47606914594954],[127.31047978984404,35.47472206406214],[127.3102745086682,35.47436758472942],[127.3103843351446,35.473493950794506],[127.31023182118362,35.4732712704421],[127.31054579088908,35.47254872918581],[127.31014651072181,35.47172127210302],[127.31071605224231,35.47140108659947],[127.31115830136221,35.46932564812998],[127.31253592758577,35.46845607122143],[127.31426956410364,35.46621933141293],[127.31425831665668,35.46569631488109],[127.31393463003234,35.46505636238961],[127.31377836463523,35.463693408149894],[127.31237560907823,35.462926919797034],[127.31114854072219,35.46301151641074],[127.31128027638874,35.46213760768325],[127.31091664219763,35.461251476092826],[127.31068532030942,35.460896845919116],[127.3102067449198,35.46076354295689],[127.30971798007873,35.460231083503075],[127.3095932963367,35.459089656254875],[127.30935821489754,35.45877158038186],[127.30878351265287,35.45852401485438],[127.30837994196544,35.45764260879869],[127.30773083641054,35.457085818958156],[127.30784334658213,35.456125787063705],[127.3080878651189,35.45548797986536],[127.30764233188194,35.45489878384927],[127.30706618972222,35.454482432285886],[127.3065755719997,35.45386087122156],[127.30649165945864,35.452898225945155],[127.30587322985598,35.45235373950759],[127.3051224875706,35.451901524766754],[127.30458464917123,35.45145113250193],[127.30441953914487,35.45114132909164],[127.30376437249636,35.45083344210524],[127.30342512493225,35.45046283549662],[127.3025130181569,35.44978046308676],[127.30207625166094,35.449331431266984],[127.30161456019493,35.449065584535575],[127.30155945473362,35.44870669569581],[127.30099018911504,35.448157788852605],[127.30026604203897,35.44698326063265],[127.29995456563417,35.44610319274392],[127.29789432218384,35.44478957420661],[127.29820176423951,35.44422628670408],[127.29817214554849,35.444049162449424],[127.29813922920664,35.443888342185915],[127.29770762051811,35.44351495346442],[127.2978018049914,35.44288808923341],[127.29749337001164,35.44246913321613],[127.29743905468483,35.442250742668605],[127.29777800490581,35.44182121303441],[127.29785056911234,35.441413859768026],[127.29751209967945,35.441339847454934],[127.29712648277629,35.440943169406275],[127.29725303518437,35.440559769113236],[127.2965352260979,35.43983545848955],[127.29654464196857,35.43948515854206],[127.29673517648929,35.43912681048068],[127.29683426219424,35.43863483303523],[127.2970807351702,35.438419537548256],[127.29691298613858,35.43792076704801],[127.2974686808158,35.43732806875155],[127.29742735900061,35.43651574706366],[127.2972790748166,35.436240391084354],[127.29735520082248,35.43558184363828],[127.29673046744476,35.435073888607455],[127.29653785144201,35.433334419484],[127.29526871347973,35.43181762712399],[127.29500849749535,35.4309089273313],[127.29392423332224,35.42990142411954],[127.29171948419564,35.42660382332852],[127.29116936987468,35.42614471597224],[127.28930738008822,35.425781073570526],[127.28893036276062,35.42518808987581],[127.28808113951133,35.42450847348957],[127.2867479117397,35.42453548160901],[127.28654918330213,35.42463394729482],[127.28622557142148,35.42465321541316],[127.28617175580966,35.42457430800683],[127.28493256309278,35.42406395201127],[127.28454778705265,35.42400862261994],[127.28349525189714,35.424480081897045],[127.2833575878599,35.42442035668205],[127.28287806773571,35.424421051800834],[127.28239024308981,35.42462682227359],[127.28161528747967,35.42446312300543],[127.28073527696034,35.42457419316773],[127.2802886998015,35.424389175783865],[127.2790697254172,35.424364729126694],[127.27831618305748,35.4247541844029],[127.27731384425324,35.424132753635234],[127.27696694128797,35.4234339562904],[127.27697296419544,35.42319434628955],[127.27676282944077,35.42290425225292],[127.27654360379191,35.422766571626646],[127.27635153926485,35.42243749104226],[127.27633657241805,35.422150942238154],[127.27577517945502,35.421587547518754],[127.27542972093049,35.42087865840072],[127.27432917577777,35.42073286485246],[127.27366919830605,35.420852211346656],[127.27281614151714,35.42175848673021],[127.27228870208526,35.42186646126982],[127.27181191627051,35.422209935918666],[127.27105080395222,35.422341155798044],[127.26940816801284,35.4228590998206],[127.2689175658751,35.42335223144378],[127.26748149378156,35.42406979168217],[127.2665236279482,35.42445206221423],[127.26630525173898,35.42477928447791],[127.26570326354008,35.42507744276446],[127.26437257824378,35.425523303361224],[127.26433596782725,35.42563972513075],[127.26425351146669,35.425482940895876],[127.26316005079745,35.42596508362732],[127.26277919199927,35.42635292143286],[127.2613984439287,35.42654222075433],[127.26016999589086,35.42697635268725],[127.25977027501746,35.42666104573145],[127.25931515445596,35.425977841625475],[127.25856378730315,35.42517336684555],[127.25856544560062,35.42464865481595],[127.2583342268756,35.42432915335198],[127.25746693127181,35.423936888811234],[127.25782203309444,35.42331080519575],[127.25777749645263,35.422811140976194],[127.25738972681553,35.42121643302654],[127.256629404193,35.42099113544746],[127.25509915227815,35.42072061495953],[127.25483984693255,35.41929008945725],[127.25461240802562,35.41919424255183],[127.25464179551416,35.41881015999533],[127.25393473638854,35.41844659098255],[127.25263184816029,35.418159922180465],[127.25197087909773,35.417329185965116],[127.25175900361714,35.417314004598914],[127.25155596216231,35.416823030369954],[127.25158901058778,35.416508087709005],[127.25129630797849,35.416035764616666],[127.25097849879626,35.41519645421213],[127.25105325963811,35.41506168824058],[127.25094579510268,35.414809586145],[127.25126024867433,35.414583292263536],[127.25096423277795,35.41441530530165],[127.25110155941516,35.41423687730268],[127.25074035639942,35.41419076529764],[127.25056597068955,35.413944262992665],[127.25025248605715,35.412770075505506],[127.2503037080088,35.412345502862735],[127.25009532157168,35.41150489920854],[127.25028504456151,35.41074699857737],[127.24968508507192,35.41027498052088],[127.24942299703784,35.40956423953808],[127.25063097645408,35.40894494622507],[127.24973019364879,35.407640742885675],[127.24985709491587,35.407428771803666],[127.24970690577801,35.40714723193015],[127.24973264237397,35.40671960372434],[127.24954740537244,35.406356349226776],[127.24963990945072,35.40607841938575],[127.24946116953622,35.405770113989774],[127.248840883888,35.40519932063492],[127.24877851004011,35.404371328843695],[127.24828731240616,35.40374893084527],[127.24824333812072,35.40325561424542],[127.2477070534106,35.402291101312265],[127.2476875267918,35.40212172118134],[127.247834934241,35.4019531008031],[127.2474288374453,35.4016635610806],[127.2473598562175,35.40149609182343],[127.24746222984089,35.401248428268914],[127.2470348150776,35.399230719436055],[127.24617975587229,35.39880961140195],[127.24581445761311,35.39829536620228],[127.24536481763103,35.39830137662999],[127.24416344421245,35.3984219954116],[127.24316888322093,35.39861692590609],[127.24147829555909,35.39908530321542],[127.24078474361161,35.398967507265525],[127.23884030016306,35.3991387810256],[127.23833088059176,35.399351057947136],[127.23718328893248,35.40005103777127],[127.23667480000499,35.40005325761075],[127.2361661493715,35.3997495002183],[127.23581582093576,35.39900854250882],[127.2339974908118,35.39812788521121],[127.23323645612538,35.39745546775556],[127.23264378375222,35.3975919633318],[127.23161688405843,35.39825497574246],[127.23099536235213,35.39820898353105],[127.22995382747267,35.39857291729819],[127.22773217917269,35.39897219205835],[127.2264693524313,35.39881872238735],[127.22610685991792,35.398682840016306],[127.22512139034467,35.39757487524012],[127.22460825532575,35.396596761729434],[127.22404106755798,35.39476627812104],[127.22363057239176,35.393900417645085],[127.22346120491584,35.39320594775501],[127.22285715339918,35.39242363113346],[127.22239935749907,35.39160802023529],[127.22199841077709,35.38948198800798],[127.22151044961602,35.38848007045105],[127.2207927788906,35.38804770546434],[127.21994363532303,35.386432910877296],[127.22006459638118,35.38574390505175],[127.21992333232973,35.3853114658913],[127.2186709948056,35.383611159351865],[127.21855600392891,35.38324134925123],[127.21699243982482,35.38099211193995],[127.21666492537823,35.380730636962745],[127.21632783912332,35.37996267546999],[127.21566252669021,35.379247594811936],[127.21530631992078,35.37847251431566],[127.21445581766726,35.37764630688858],[127.21368141095459,35.37667761467148],[127.21444086546931,35.375762990397725],[127.21423261069761,35.375549356104145],[127.2142516932017,35.37544841077342],[127.21390273827362,35.374984016466065],[127.21347667227136,35.37461459307485],[127.2135837033986,35.37451399700782],[127.212687232527,35.373739711197686],[127.21180789959027,35.37311843216832],[127.21226260279413,35.37303417850756],[127.2125926070969,35.37306938476874],[127.21283061452947,35.37297793549687],[127.21323275713527,35.37299399553251],[127.21351834910851,35.37313094636828],[127.21385589518324,35.37297785019644],[127.2142618342785,35.373099355209746],[127.21431917238655,35.373058875290475],[127.21368270741416,35.372566071517824],[127.2133065789141,35.37248200651666],[127.21376491071949,35.37252410528321],[127.21408886098331,35.37272786490145],[127.21423345766026,35.372697794912476],[127.21427771998775,35.37228416328007],[127.21497576327074,35.372386791465416],[127.21541468190155,35.372112346773626],[127.21593065749938,35.371956288933944],[127.2166225568325,35.37205020994021],[127.21702725469464,35.37168384248126],[127.21696550482172,35.37162015611893],[127.21658779709486,35.37159132042168],[127.21554227014937,35.37050494088852],[127.21472828819817,35.3698108488083],[127.21496506651587,35.36937046898629],[127.21413906784744,35.3685092982551],[127.21338836135604,35.36847802598265],[127.21332307814095,35.368238911860516],[127.21298937297223,35.368084748473265],[127.21202060049882,35.367875737749486],[127.21193779546994,35.36768039400945],[127.21145316994978,35.36759854238711],[127.21119684261427,35.36724283909728],[127.21047448150506,35.36703957127103],[127.21031622309718,35.366648942481454],[127.20876569084001,35.36564004001417],[127.20842619757998,35.365182120808285],[127.20836157066996,35.36462452284031],[127.20805212985776,35.36450490464326],[127.2078500600192,35.364117926684536],[127.20714170497374,35.36380887796151],[127.20714181790615,35.36334174176449],[127.20698821110341,35.36309221915115],[127.20698909688574,35.362825742399835],[127.20653746595679,35.36231626149392],[127.20660241214307,35.361644378005536],[127.2063930866544,35.36131528253624],[127.20541357980927,35.361261751692666],[127.20462130081201,35.36078696278053],[127.20409378101994,35.36015168582254],[127.20404198184066,35.35928833302207],[127.20336661284055,35.359036785679635],[127.203270074048,35.35865984386975],[127.20281788439243,35.35800850852756],[127.20222764240846,35.357373371935495],[127.20170216973031,35.35695752744565],[127.20095434834049,35.35651918906157],[127.20063289703785,35.35699366159619],[127.19999540908084,35.35764274346339],[127.1993850902013,35.35768863945721],[127.19894552929995,35.35740073684368],[127.19765910209732,35.35760757532861],[127.19621647796048,35.35771266884502],[127.19611536303216,35.35743126155368],[127.19570664747472,35.3572782232784],[127.19497048476768,35.35683066207962],[127.19437061552273,35.35660639216818],[127.19310032460301,35.35643753701851],[127.19159448163708,35.35357034500945],[127.19077867907802,35.352382599760304],[127.18937256598942,35.351053631186566],[127.18915179503308,35.3507324704678],[127.18775671308428,35.345823734730715],[127.18732192221093,35.34360547658841],[127.18793000465598,35.34353837536618],[127.18870800847843,35.343138183213114],[127.19123587187978,35.34264547900978],[127.19226837848844,35.342040811870646],[127.19462241754844,35.340038357658536],[127.19419445423142,35.34015840331147],[127.19344562827706,35.3401611630129],[127.19374333476871,35.34011614605352],[127.19430349136483,35.33979051759936],[127.19463179117477,35.339197722033944],[127.19459040182828,35.33886553251083],[127.194141908076,35.33854124757311],[127.19330194825316,35.33811856614584],[127.19168028791121,35.337776152473225],[127.19024491652367,35.337356088387345],[127.1885970915783,35.33707882340839],[127.18779920773171,35.336853777705336],[127.18723261759996,35.33652982212036],[127.1867391448114,35.33617651040564],[127.18623063150606,35.33527329648933],[127.18476583526439,35.33351995529107],[127.18422345322986,35.33221141941684],[127.1839070228047,35.32987570358167],[127.1847602976391,35.32611270375329],[127.18675950770303,35.32384335395722],[127.18810098246897,35.32313816901699],[127.18773047980716,35.322581043959865],[127.19249258856296,35.32084471150395],[127.1946015330392,35.32024609596527],[127.1967736226123,35.31930020507668],[127.1978137160557,35.318324544723644],[127.19819195723535,35.31778892822316],[127.19843372010072,35.3172249077093],[127.1990466553287,35.3166527075214],[127.20073378767648,35.316230208292275],[127.20424526961423,35.31555718049191],[127.20710491186185,35.31545073309698],[127.20974361773504,35.31557270178795],[127.21107137515824,35.31604292801942],[127.21176507916424,35.31642134703709],[127.2123018206289,35.31683740410048],[127.21270941548728,35.31735276383417],[127.21302010473926,35.31851635189807],[127.2138114765604,35.32013335223873],[127.21307989941258,35.32049293935409],[127.21318407748119,35.32067910650629],[127.21397073466213,35.32045139358719],[127.21438999637328,35.32155915453175],[127.21499384954578,35.32269097703993],[127.21567926065384,35.324407425327585],[127.21563656824814,35.3249250241964],[127.21578806408777,35.327225448379515],[127.21560271841605,35.327987452301784],[127.21576117507283,35.328709261074685],[127.21625336031758,35.32984351861626],[127.21701723330199,35.33111171260953],[127.21785960087217,35.33212550675926],[127.21979374749286,35.334133095068836],[127.22027990173471,35.33452185230798],[127.22079299167466,35.33481124757499],[127.22133993337013,35.33489400430885],[127.22205462891465,35.33488571834203],[127.22432121603016,35.33452466301058],[127.2262893282887,35.333919544992014],[127.22714413368712,35.3339905990941],[127.22872299043034,35.33399070593004],[127.2317883681395,35.33374000625294],[127.23229493302634,35.333609258500296],[127.23277284672757,35.333367789752415],[127.23370192832901,35.33258128736079],[127.23388753272522,35.33158575987008],[127.2342965436436,35.3307725438106],[127.2347853841728,35.32992430835566],[127.23552908725155,35.32922689370092],[127.23779888819388,35.328287839952154],[127.2386824022244,35.327692010251596],[127.24097475523368,35.32505134329164],[127.24344452918619,35.32283615444312],[127.2471378420417,35.32099794860041],[127.25081543366406,35.31816927536388],[127.25127588983851,35.31692528517021],[127.25271391577445,35.314898210591195],[127.25311604996591,35.31450874105426],[127.25550230117138,35.31320309166868],[127.25716763835628,35.312459939584144],[127.26022572304414,35.31220881528987],[127.2616242913394,35.312229816147756],[127.26265288893568,35.31289193238335],[127.26322200718323,35.31315364511438],[127.26510723564665,35.313640181179686],[127.26567265231213,35.31371301519448],[127.26744432279678,35.31355981813344],[127.26835853538539,35.313245169864544],[127.27021661402327,35.313046331199835],[127.27210062267544,35.31303282740744],[127.27891715512159,35.313846573023696],[127.28671442484074,35.314022315932874],[127.28768215745174,35.31380884918641],[127.29095501266706,35.31336997037235],[127.29149436191771,35.31307827972455],[127.2922072398588,35.31251959353699],[127.29517146347845,35.310893546204575],[127.297695466952,35.309814423450085],[127.29836360056613,35.30975000584591],[127.29879962643264,35.30959609659599],[127.30318079650075,35.30642712933923],[127.30459960040143,35.30527359181854],[127.30610130512562,35.304608659275004],[127.30867113863061,35.304486905865694],[127.30988775348827,35.304515572401044],[127.31120100375159,35.30468780333998],[127.31330099065583,35.305305539317764],[127.31453891914776,35.306022583541555],[127.31621210259894,35.306188898641224],[127.31971775439648,35.30638397537579],[127.32064027847711,35.30658333268569],[127.32216838115377,35.307265820505066],[127.32346678729854,35.30740918010837],[127.32496413489054,35.309744551893125],[127.32557507102318,35.310474658234604],[127.32572874186918,35.310368142365725],[127.32573229202214,35.3099684380393],[127.32583094606481,35.30974222907853],[127.32639300027735,35.309226152288026],[127.32729573830298,35.30967041235784],[127.32727315988627,35.309738351805166],[127.32822174904176,35.31039806949317],[127.3287743787704,35.310924879512406],[127.3294568280193,35.31105154035688],[127.32953455909733,35.31128039230342],[127.32990344012795,35.31155215101858],[127.33038787934593,35.31217113545069],[127.33040568262926,35.31255380965671],[127.33013714023414,35.31297700092563],[127.33006368080056,35.31391358683587],[127.3302049716374,35.314081976863356],[127.33034843117625,35.31460076881262],[127.33068686703639,35.3148963123155],[127.3316896195759,35.315124479670196],[127.33239875629866,35.315177115560864],[127.33339303348872,35.31501351346303],[127.33410499292239,35.31546818598994],[127.334617467308,35.315527561318326],[127.33513714243786,35.315388100516074],[127.33523830229774,35.31520119059402],[127.33566790177284,35.314904271415095],[127.33645680564712,35.31490537700457],[127.33669461249059,35.31531236146123],[127.33707957796953,35.31566291006932],[127.33803359774058,35.3160582399661],[127.33865300872718,35.31665779584281],[127.33857611398528,35.317149647576045],[127.33885304087734,35.31751909540035],[127.33877987831809,35.317539722448764],[127.33940675895532,35.31784520711221],[127.33971202001564,35.3179317907963],[127.34047764520547,35.31787381974933],[127.34094383315396,35.31752037225654],[127.34134665422944,35.31733574004516],[127.34255575340686,35.318055522781655],[127.34301530667851,35.31818453074257],[127.34306577818506,35.317940155596155],[127.34340584744821,35.31771866753433],[127.34389717150945,35.317972847003766],[127.34416403734014,35.31800496337029],[127.34442175641664,35.318275080756],[127.34510173596632,35.318177492171934],[127.34575198061364,35.31822863980858],[127.34631801658773,35.31838208252404],[127.34640922889977,35.31895741706428],[127.34673007567454,35.31916398783967],[127.34743277180701,35.319338043513916],[127.34771696997254,35.318943540285446],[127.34808385671435,35.318619797140535],[127.34841411339512,35.318642084938745],[127.3487534145959,35.31896866212221],[127.34915119097305,35.31955764337401],[127.3494559819396,35.31963866004948],[127.35012839720193,35.320267623591064],[127.35057447871841,35.32043218323755],[127.35131085037128,35.32055114455016],[127.35147531240497,35.32048202433679],[127.35206713942755,35.320828474267806],[127.35228243602502,35.320691748317316],[127.3526765655007,35.32142369700888],[127.3528157898372,35.32136186058581],[127.35299004424162,35.321438433535775],[127.35425588516532,35.322355197373135],[127.35499942022449,35.32207347120096],[127.35581136622832,35.32141402795632],[127.35641220927656,35.32140703887361],[127.35685877729654,35.32117025477207],[127.35749299916125,35.32119651287197],[127.35809579753086,35.32110461048454],[127.35855085595371,35.32061940036751],[127.35910676972262,35.32056462579338],[127.35936119323853,35.32022861662201],[127.35980690226404,35.319935158021146],[127.35992799107792,35.3194440185277],[127.36132681009877,35.31817051043441],[127.36173746934371,35.317657695721834],[127.36200859106853,35.317562248923025],[127.36217105201062,35.317303274168964],[127.36237658331477,35.31712014297475],[127.36266198095828,35.31703582705501],[127.36331975569802,35.316389432282115],[127.36421514310271,35.31596482241254],[127.36563532236141,35.316469674293025],[127.36585975844336,35.315793986754954],[127.36617753385815,35.31524428427155],[127.36646773233637,35.31506121446621],[127.36672753352342,35.314659656470674],[127.36768845972827,35.31415988603386],[127.36828531074389,35.31414557485834],[127.36946505073213,35.31447651795429],[127.36988970613284,35.31438102608727],[127.37029320460896,35.314571517345655],[127.370495946773,35.31453085532971],[127.37067078576699,35.31460500319921],[127.37145702314307,35.314026274274134],[127.37322271904762,35.31324496245903],[127.37423774674615,35.312891980121144],[127.37551600247994,35.31219778066963],[127.37663745762971,35.31131304508022],[127.37749601236823,35.30952604349941],[127.37774847898723,35.30870770203089],[127.37836176612916,35.308061668085095],[127.37830033884684,35.3076551715117],[127.37878380480925,35.307087794935335],[127.37901486141203,35.30652893583509],[127.37895264423862,35.30619197222464],[127.37967646849502,35.304789140372705],[127.38008547144716,35.30367907648937],[127.38120961684511,35.30394266841724],[127.38192586352687,35.30395219743484],[127.38203883912834,35.30361911756133],[127.38367325635534,35.302884592024206],[127.38389705041256,35.302656244560794],[127.38456718201587,35.30245764493063],[127.38574749644181,35.303009342770864],[127.38696350517209,35.30343581111614],[127.38890499886551,35.304374700068855],[127.38952167737999,35.3059978851279],[127.39115103943598,35.30682694997724],[127.3926983785747,35.30734637981698],[127.39307435488332,35.30820826337738],[127.39316459719599,35.30916233018773],[127.39247982437357,35.3104454825664],[127.39276550288695,35.31272749535115],[127.39384903638965,35.313331783992815],[127.39528500067175,35.313750586563906],[127.3966947465404,35.314263185652905],[127.39775408906145,35.31551341206242],[127.39911379351703,35.31685989978036],[127.39930160223635,35.318729436881746],[127.39919145831436,35.31986136502691],[127.39951593529831,35.32068668508969],[127.40115682820617,35.322723092730264],[127.40246876598685,35.32319750317509],[127.40361708760679,35.32339950750335],[127.40512664459155,35.32383583619793],[127.40608479261161,35.32441837793917],[127.40761579653103,35.326284387646155],[127.40880083312152,35.32756984204851],[127.40956382434699,35.32869965091157],[127.40956946908712,35.32981381794228],[127.4107314302844,35.33082741066396],[127.41089337114153,35.3313482063576],[127.41151816963617,35.33220101704498],[127.41159831651834,35.33329382983661],[127.413966064241,35.33505029939837],[127.41507790753288,35.335998230092294],[127.41574395913521,35.33728692958991],[127.4160145058389,35.33869173620163],[127.4164932412187,35.34022935739711],[127.41654070832581,35.34093728955311],[127.41770987446337,35.34145209575182],[127.41859707486856,35.34260207709966],[127.41899321156913,35.34386303399744],[127.42016550376484,35.34523007278222],[127.42062124107206,35.347001143209816],[127.42046232237553,35.34846869758261],[127.42140957178567,35.350870028119076],[127.42260200129792,35.35123596999733],[127.42373227954194,35.35141715661201],[127.42471703957743,35.352063165028774],[127.42438021227228,35.35270112501386],[127.42542046556554,35.35322137094627],[127.42573551801685,35.35358714661305],[127.42579696547698,35.35382110287539],[127.42610163068213,35.353845153689484],[127.42651724879855,35.35415058985259],[127.42745205721764,35.354381046119364],[127.42783004169556,35.3548616573208],[127.42867582935833,35.355404164021294],[127.42863819259568,35.35645136554936],[127.42902441557695,35.35662775809686],[127.42989693922867,35.35758215507096],[127.43177900917523,35.35852490537342],[127.432462862865,35.35864935664557],[127.4334743763896,35.359758455806386],[127.43416647770539,35.36009827248454],[127.43526883121368,35.360868767090295],[127.4359815900562,35.36119228543287],[127.43627823965146,35.36195042269525],[127.43692228050249,35.3627112115811],[127.43719321515191,35.362770227625546],[127.43746594191248,35.362632648545166],[127.43805933601148,35.362750392024275],[127.43891726020391,35.36320997817388],[127.43952117477988,35.363272036831916],[127.43972562527676,35.36347016988867],[127.44074227169486,35.36357577361549],[127.44136160304129,35.36383604728774],[127.44197072978767,35.36347493322582],[127.44186184638495,35.36283092647186],[127.44140387510485,35.362107827680916],[127.44245192685484,35.36128185839982],[127.4432712603146,35.36120569407454],[127.44373034612404,35.36094516694861],[127.44480041083013,35.36110577174234],[127.44646053478712,35.36052300959384],[127.44688277850145,35.36118716631459],[127.44693983595224,35.36148318198627],[127.4475044232119,35.361453735885725],[127.4492307891634,35.36086833874531],[127.45044195439341,35.3614153504683],[127.45176853324165,35.361088528544265],[127.45266713328168,35.36126011297985],[127.4537946190052,35.3607362002019],[127.45411029629429,35.3607539827861],[127.45553318745304,35.36197958882211],[127.45611457827025,35.36220364950251],[127.45645708918957,35.36223765709974],[127.4576358029661,35.36213585323231],[127.45820020834489,35.36292190325887],[127.45824472646875,35.363543264143594],[127.45943295500669,35.36355895789337],[127.45997179152388,35.36377620316423],[127.4603694536152,35.36365008862699],[127.46194371674228,35.36390610104988],[127.46263074671803,35.36337568178031],[127.46327785394584,35.36354159451165],[127.46366970389172,35.36334278031568],[127.464949565824,35.36352817242667],[127.46593883285634,35.36353346868551],[127.46639730599897,35.364145465723624],[127.4673562003407,35.36418130380689],[127.46853763931388,35.36501449894443],[127.46973512951955,35.365035244267666],[127.47076572470135,35.36533557487255],[127.47172947019209,35.36473855557956],[127.47287210606689,35.364744144655134],[127.47361450578498,35.36462182349004],[127.47416442021164,35.36411783098808],[127.47592114932131,35.364092517250604],[127.4766678201405,35.36414730250869],[127.47739086033289,35.36388732946968],[127.47835830462766,35.363966040166865],[127.47876782807828,35.36419026568817],[127.48027296479769,35.363642677431585],[127.48072912329205,35.361668091293296],[127.48441169679518,35.35952379134969],[127.48570553121205,35.358349654365455],[127.48793583855081,35.358765506639664],[127.48942777035147,35.35885347102285],[127.49220996774993,35.35883637712569],[127.49338122498823,35.35933882025508],[127.4947731239493,35.35942037424211],[127.49718204380657,35.35986328544975],[127.49791484610964,35.35988724200005],[127.50003266776464,35.35925595398189],[127.5020154035406,35.35836272243019],[127.50319353271412,35.35764296026062],[127.50428284769475,35.356799546233695],[127.50587206529296,35.35528296135027],[127.5068912894744,35.353974457927464],[127.50806023983262,35.353183212717724],[127.50933493203732,35.35268276335125],[127.51204590545578,35.352273781370585],[127.51398655473427,35.35113487102549],[127.51665068083108,35.347285904258406],[127.51789429573547,35.346585556992096],[127.52204088893487,35.34600635153173],[127.52330836105527,35.34549892613331],[127.524473319733,35.34486563911729],[127.52648848617108,35.34309980076342],[127.52708885768246,35.3421250168978],[127.52854275965075,35.33888276836941],[127.52937146761582,35.33782693906122],[127.53096034280597,35.336040479994395],[127.53249168461008,35.335298054250146],[127.53551306642639,35.33495392770963],[127.53980075835774,35.334759371727884],[127.54063313416052,35.33434687811595],[127.54152022693842,35.3336506923502],[127.54208689061547,35.33135468123546],[127.54201493055456,35.329149781071635],[127.54228263507542,35.328500207625936],[127.54357557423477,35.32775366795155],[127.54509142895023,35.327175935196074],[127.54655799928173,35.32689798000821],[127.55115411253547,35.32534325002587],[127.55229251012506,35.32480727489528],[127.55276415053608,35.323574702657055],[127.55412133057837,35.32266071194665],[127.55485186042665,35.32197863387948],[127.55519225452628,35.321877698222444],[127.55641609561644,35.32199896334817],[127.56046601762364,35.32103513427257],[127.56334642023413,35.31970981083853],[127.56415820278332,35.319403897138606],[127.56564625286808,35.31933178867963],[127.56697144489097,35.318997122330885],[127.56783090552399,35.31851544755442],[127.57015137445903,35.31537243023695],[127.57186522502224,35.31352596920356],[127.57259711049134,35.31207610956794],[127.57328090761763,35.31147608998244],[127.57747838018041,35.308902596533734],[127.57833597167445,35.309414168725326],[127.5795679822634,35.30967933817046],[127.58115103778033,35.309568381903745],[127.58254414131821,35.309170107747285],[127.58413364830446,35.309109723934895],[127.58566622542425,35.30923379643318],[127.58693199776583,35.30992724003108],[127.58845701450718,35.31034160032199],[127.58976312701317,35.31098318209861],[127.59264157524939,35.31182876724586],[127.59400462379487,35.31242763435061],[127.59563369965237,35.313749927452044],[127.59945930831002,35.3157262931313],[127.60352112873922,35.318180605504345],[127.60492429194854,35.318569134430696],[127.60584445381389,35.31948277132806],[127.60660341756798,35.3208447077595],[127.6070248102261,35.32392801891688],[127.60764740161189,35.32506954079352],[127.61015403190308,35.32684283418633],[127.61270074443067,35.32800045793131],[127.61504870048937,35.330809471859325],[127.61649488164521,35.33116682966855],[127.62060649361669,35.33256354353694],[127.62069291870206,35.333886918364946],[127.62090301732273,35.33497345483325],[127.62159728146403,35.33631437916482],[127.62258351860993,35.33778384280146],[127.62269470893064,35.33962881020365],[127.6232944564667,35.34225913708553],[127.6225330751254,35.34409569363985],[127.6209865627945,35.345814105502775],[127.62053070972203,35.347363981212574],[127.61968900863738,35.34782301579995],[127.61866845829246,35.348760762342806],[127.61553480192465,35.34834234393891],[127.61503506862407,35.350476846485456],[127.61394433713292,35.3521235273269],[127.61321145043213,35.35395950868077],[127.61283940807459,35.356372317178625],[127.61250958988276,35.357595879402986],[127.61206951719902,35.35983513965622],[127.61175964293115,35.361954976422076],[127.61173936793054,35.363658627427405],[127.61230592678632,35.36481503450196],[127.61320050796927,35.366271430361365],[127.61431180692071,35.36762212945657],[127.6155495164897,35.36881833172124],[127.61727973522886,35.36989839531226],[127.62115850329332,35.37168305277348],[127.62349207935316,35.37395842077775],[127.62564198181433,35.37547690237397],[127.62554415215446,35.37682916536029],[127.6247798188295,35.381230796929785],[127.62477608396948,35.38222028811576],[127.62524365156789,35.384636664336576],[127.62595536977199,35.38606704976227],[127.62729366726954,35.38802237002476],[127.62921067143039,35.38963345202516],[127.63016808600996,35.390751758231055],[127.63179280245474,35.3922309602397],[127.63248390800123,35.393433230335056],[127.63252627929444,35.39422377551503],[127.63279166432041,35.3950843835849],[127.6340544747362,35.396139798989594],[127.6350109917444,35.397078519509236],[127.63575610443795,35.398413067628226],[127.63634663294494,35.39924286597064],[127.63670309777243,35.39943240278505],[127.63701701941582,35.400570146796724],[127.63687982139524,35.400904772821725],[127.63690709585954,35.40105878010953],[127.63808165615764,35.40145846871561],[127.63971064542989,35.40129280307261],[127.64122040626799,35.40141362955277],[127.64174918737754,35.40161100725456],[127.64240661119882,35.40167916590084],[127.64343199109977,35.40160929496703],[127.64552626025954,35.40257322861641],[127.64643846728491,35.40266426920924],[127.64885643886853,35.406222764286866],[127.65010034570312,35.40563856669249],[127.65110164105776,35.405344462597526],[127.65177884059361,35.40623608816098],[127.65096395358927,35.40656391154852],[127.65072301302357,35.40682571116673],[127.65228385911178,35.40958362773268],[127.6524586228185,35.409814183753234],[127.65342336985923,35.41054580953789],[127.65433907196584,35.411421205626425],[127.655488403108,35.412245992877594],[127.65680775363886,35.413893323649695],[127.66044796559659,35.41439829736052],[127.66094581967613,35.415388935926735],[127.6614045581247,35.41811214814129],[127.66222049538796,35.41970026675654],[127.66320815404598,35.42112796398483],[127.66298658418133,35.42159769769988],[127.66327771601902,35.42252747389568],[127.6633079723071,35.42309550211697],[127.66359490603429,35.423714023150595],[127.66319351670376,35.42473710881998],[127.66392300608155,35.4256875261373],[127.66353212302003,35.42622128042518],[127.66422895299219,35.42672213915322],[127.66572340586973,35.42739078994728],[127.6658139032686,35.42874567651576],[127.66567927648924,35.42930127926747],[127.6656029852298,35.430348732505294],[127.66588712875156,35.43090377474639],[127.66582716608394,35.43148276179694],[127.6660254794071,35.43172502638831],[127.66609183822385,35.432155235927475],[127.66601765983329,35.43238427588507],[127.66603224669001,35.43297485875115],[127.66616456143393,35.43321624537539],[127.66614632233207,35.433504091576935],[127.66575057096003,35.43370126442614],[127.66530608862556,35.4343964634633],[127.6653963967751,35.4349793449901],[127.66513422740118,35.435616439938826],[127.66592436552602,35.43688439615099],[127.66684875413078,35.43740408285666],[127.66760567111939,35.43826348380408],[127.66965813046352,35.43895401446463],[127.67064105001688,35.43966279217871],[127.67164436263131,35.44236117497575],[127.67217928108519,35.44259462207915],[127.67257656658124,35.443141435759394],[127.67297856667463,35.443301937809906],[127.67390512158224,35.444715160532446],[127.67417123720944,35.44569828581242],[127.67272119912893,35.44775151084651],[127.67044185089986,35.448654393823595],[127.66890233243873,35.448956582893715],[127.66834452474136,35.44884988042291],[127.66772789290599,35.449025331986135],[127.66720761830537,35.448828357634135],[127.66598599381726,35.44872162406639],[127.66412604263287,35.447912359132026],[127.66185931859928,35.44749446641398],[127.66097292429497,35.447508675326944],[127.66011329001546,35.44798442831492],[127.65843065368517,35.448552208234474],[127.6577202165574,35.448612726602526],[127.6568103780434,35.449093875754095],[127.65618556876298,35.44967052301935],[127.65533358898475,35.44993344366623],[127.65480992056378,35.45068590118822],[127.6540185731412,35.45103476906023],[127.65325482033899,35.45148576377943],[127.65209565012056,35.45123021066018],[127.6497085705856,35.45152132491232],[127.64909849872893,35.451240583940034],[127.6474912005943,35.45084048839762],[127.64697692917409,35.45041553897619],[127.64659086837354,35.44985169984263],[127.64575953039983,35.449322899571364],[127.64499652262963,35.4489761121959],[127.64495741824965,35.44902070917206],[127.64518624102091,35.44912729365878],[127.64444782963044,35.44997404538207],[127.6425363213632,35.45295849303053],[127.63973088007762,35.45566566850575],[127.63841826382411,35.45757832806249],[127.63744499342775,35.45843504490009],[127.6366877910147,35.459352002685016],[127.63662061562994,35.46033874707488],[127.63605461697719,35.46120506243581],[127.63570398317948,35.46219343260985],[127.63569810947702,35.4628079446745],[127.63625012645667,35.463672212328795],[127.6362899446167,35.464359919269995],[127.63618952608616,35.46522753492136],[127.63693797146074,35.46594755833114],[127.63672507022932,35.466887679096295],[127.63688529025335,35.467020534034525],[127.63624689895818,35.467715874983256],[127.63597321037413,35.46789779688329],[127.63573343726556,35.46881326347606],[127.63645277881676,35.469316861067995],[127.63695637784774,35.46990037476498],[127.63754380401792,35.47020989136329],[127.6378884022049,35.470239864725194],[127.63789419182031,35.470421108830784],[127.63761924328236,35.470804750908],[127.63771718993826,35.47120624614749],[127.63764574407038,35.472009772312646],[127.63749005679081,35.472224277397494],[127.63758380087943,35.47322640507626],[127.63780054639281,35.474265602360056],[127.63666159014876,35.47781485691453],[127.63664302567281,35.47824913216917],[127.63715583600028,35.4788548634936],[127.63739438221342,35.4792693810216],[127.63844904914603,35.479366293839725],[127.64099841042555,35.4802097739347],[127.64205817531347,35.48108210654626],[127.64343009587373,35.481726367262226],[127.64479975595258,35.48194626146319],[127.64565608615669,35.482484574612464],[127.6467765071758,35.48347428709001],[127.64731709827718,35.483504346509974],[127.64811182699619,35.4843421260758],[127.64889778229225,35.48451684404164],[127.64967633605923,35.48496565053283],[127.65060231468702,35.48570911977731],[127.65160202116867,35.48607330969215],[127.65253678442156,35.486185944208735],[127.65316205480697,35.486847652808805],[127.65244431563372,35.48754656452612],[127.65189604725967,35.487911620872765],[127.65079356946616,35.48910239675263],[127.65043239062267,35.490195031461475],[127.65030382331327,35.490922060247634],[127.65004469103039,35.49141559072726],[127.65017713516498,35.49164466107808],[127.65062720107659,35.492023594856676],[127.6509852377901,35.492716098536526],[127.65037488421667,35.49479584352692],[127.65035634435584,35.49568497198258],[127.65055578622058,35.49634087330146],[127.6504609280098,35.49666855715986],[127.65045650287459,35.497869282699575],[127.64708121968881,35.498019797824504],[127.64673762288588,35.49792486469623],[127.64618048913884,35.49821006256797],[127.64584250216689,35.49821861003872],[127.64528525262658,35.49876938503513],[127.64431275053968,35.49901803494703],[127.64417396613742,35.49926391460185],[127.6441725400682,35.50009612218658],[127.64401834046106,35.50052952741818],[127.64381913141648,35.50069662961297],[127.64371238070397,35.50131887917928],[127.64329350177609,35.50154457267062],[127.64313359219544,35.50202045203401],[127.64276285707713,35.50251203899678],[127.6428196545247,35.50287692558551],[127.64254404696591,35.50356815471523],[127.64204201162394,35.50394783510517],[127.6418256729993,35.50502863945063],[127.6411114583176,35.505454954134294],[127.64046846277238,35.50617575471199],[127.6396896272561,35.50688085061895],[127.63944202802604,35.50751077511521],[127.6385157829812,35.50782610210163],[127.63769842404591,35.50797664063765],[127.6375995567235,35.50806257595326],[127.63697197079505,35.50905689872239],[127.63671186749774,35.51056398965793],[127.63625223765062,35.51089666576162],[127.6362205700649,35.511738613235956],[127.6356568708088,35.51211990875108],[127.63480037803747,35.51221897199373],[127.63425538212012,35.51204191709978],[127.63384894260649,35.51297753610019],[127.63360946944252,35.513273816953344],[127.63370826782474,35.51368663657219],[127.63362116049682,35.51417183153658],[127.63303463619239,35.51523733530939],[127.6342571540102,35.51670706574254],[127.63455071398184,35.51686947859338],[127.63422893228223,35.51764259199346],[127.6344029127333,35.51873949674919],[127.63472460282412,35.51900298336456],[127.63436782026066,35.51949453311344],[127.6344588512964,35.5201803179821],[127.63426528781426,35.52044458817998],[127.63111571292585,35.52048824361089],[127.62981536508944,35.52136278695589],[127.62929843968466,35.52186211287375],[127.62886154536437,35.522686022747415],[127.62867539488695,35.52334502504259],[127.62835972239948,35.52401516519825],[127.62810121528233,35.52411198310764],[127.62714814875503,35.52416240637369],[127.62637867137799,35.5245532898092],[127.62579501987304,35.525184495617964],[127.62572794279502,35.525496112456246],[127.62552808024554,35.525739483432204],[127.62560020691514,35.52582802938901],[127.62540629016819,35.52596207069527],[127.62538169124952,35.52627381625048],[127.62503457434102,35.5269004062479],[127.6251833240983,35.52716380315876],[127.625663383472,35.52744003208254],[127.62537232988504,35.527722314363594],[127.62543083058934,35.5279901687622],[127.62537123947881,35.52826791997077],[127.62567024215384,35.529266768484305],[127.62532517476976,35.53135151384041],[127.62596389755176,35.532310415555884],[127.62753956932556,35.53277616056501],[127.62881158489691,35.533688782048266],[127.62879089513676,35.53468653645105],[127.62891796664104,35.53549021387589],[127.62866789114885,35.535935377894276],[127.6281564812721,35.53573758171112],[127.62769463251077,35.535807405908336],[127.62722193772971,35.535586936611246],[127.62654717922747,35.535129069466336],[127.62617037362149,35.53471474769554],[127.62490057397886,35.53417682043372],[127.62426908577008,35.53375337882165],[127.62306266138074,35.53377895175049],[127.62275996189527,35.533721912613686],[127.62200768305559,35.533896594296685],[127.6208761949678,35.534011988847915],[127.62045723697209,35.53459345635131],[127.6193254868012,35.53572588791218],[127.61867432759647,35.536801964247815],[127.61761612690407,35.53681425905648],[127.61742218480703,35.53687941108334],[127.61674705034201,35.5366976095271],[127.61557905939719,35.53585482619059],[127.61495262305877,35.53587003725978],[127.61417082365942,35.536026354723596],[127.61250307234779,35.535352682345575],[127.61163058755912,35.53571487083437],[127.61119643319114,35.535991505562286],[127.61105527739971,35.536484923122366],[127.61074004531925,35.53686008859263],[127.61042703893386,35.53697469029065],[127.60996549914212,35.53775137204271],[127.60960557142715,35.537941943436685],[127.60892687868706,35.53912813366128],[127.60950371989648,35.54021869567861],[127.60919323424588,35.540856167954836],[127.6085049332942,35.54137580797165],[127.60755089964303,35.54163423517607],[127.60646538879791,35.542834829925326],[127.6057556519229,35.54312993381349],[127.60483223626906,35.54379215100728],[127.60400615673042,35.54404447520419],[127.60359998017223,35.54448271357262],[127.60043584269346,35.54503050657562],[127.60033964046809,35.545790294824506],[127.60013572033152,35.54597792711247],[127.599385152773,35.54635775468121],[127.59854354419875,35.54756205960976],[127.59670693743018,35.54739488520921],[127.59474470612757,35.547684475202836],[127.5941212251699,35.548005394279],[127.5936254218594,35.548745781365035],[127.59386598110834,35.5495076770687],[127.59349737234984,35.55027593571881],[127.59338830722417,35.55123411675457],[127.59312754023237,35.55138915534097],[127.59142266370795,35.55331673854293],[127.59076488355176,35.553589854525235],[127.59069115105595,35.55399164330038],[127.59018137332755,35.55395831794785],[127.58893531734624,35.55353974741637],[127.58759623648211,35.553892707298644],[127.58573704383559,35.55453615793204],[127.58551815038788,35.55474284604511],[127.58472937434813,35.553746685110575],[127.58424385088954,35.552777553751106],[127.58155324826167,35.550397525852304],[127.58115283280756,35.549716128914355],[127.58044376167285,35.54940430264691],[127.57956020630021,35.54845157072718],[127.57883795109001,35.54828221886044],[127.57852312797976,35.54753990737048],[127.57713773048815,35.54731463041551],[127.5755039518441,35.546875041962494],[127.5751046769369,35.54693610120431],[127.57414065826237,35.54640422110104],[127.57342141356561,35.546571109829486],[127.57281455201444,35.546139289397395],[127.57295899023069,35.54532880413486],[127.57268136955493,35.54467915801402],[127.57243694475396,35.54434832818038],[127.57257680918671,35.54403445285595],[127.57210674896973,35.54287161871138],[127.57182787529592,35.54183875170635],[127.57162196046347,35.54052627087647],[127.5717539973264,35.53992947344533],[127.57174704924724,35.53948065842185],[127.57223708857063,35.53803666741205],[127.57177134683873,35.537426753632666],[127.57189871381186,35.53632833408924],[127.57163445065832,35.535516157082],[127.57149675723518,35.534706223497196],[127.56925407018538,35.53430624651984],[127.56896029420189,35.53366525766039],[127.56862919099791,35.533278650574424],[127.56886353657201,35.53309485879254],[127.56863168068372,35.532280097314775],[127.56855043758986,35.53149631752492],[127.5687901722702,35.53092765984068],[127.56878702443059,35.52994316635875],[127.5684378399029,35.52942256698076],[127.56859858338335,35.528095626928994],[127.56837530818676,35.527564214894596],[127.56853863314424,35.52711524800832],[127.56843558276685,35.52538976244189],[127.56849665162704,35.52478984968777],[127.56868845604534,35.524624102839795],[127.56982235934842,35.52410246577686],[127.57013326335235,35.52382139309543],[127.57041878188805,35.5231309871668],[127.57052983722457,35.522022441258414],[127.5705181654542,35.520289173485146],[127.57029302935344,35.520024029261],[127.57111832163005,35.51888063829691],[127.57188961801666,35.51833768263221],[127.57291577553917,35.518355664496745],[127.57342361655844,35.517941560033485],[127.57394487476449,35.51709999025712],[127.576284188054,35.51674629750634],[127.57664975680106,35.51665916493783],[127.57721749593047,35.516322917555684],[127.57849191294804,35.51603375283078],[127.57870773846383,35.51549367965293],[127.57863320560969,35.5144382693309],[127.58000757569674,35.51392710141185],[127.58004479905223,35.51273292486506],[127.5803431740536,35.5113302910386],[127.58009611560817,35.510437995551776],[127.58006432675121,35.508751010639756],[127.58026320049488,35.50786807520771],[127.5795276738506,35.507215942143354],[127.57941858260219,35.506428111074925],[127.57935121110633,35.50427529218113],[127.57943057775057,35.50407625972692],[127.57978740731562,35.5038795290419],[127.57990457720963,35.50366347841012],[127.58020444010839,35.50258617299218],[127.58013226797149,35.50201436450797],[127.5796853970734,35.501783182217586],[127.57929004838908,35.50144191931743],[127.57926409073218,35.50106325160344],[127.57845098452597,35.50075737784233],[127.5776944153227,35.50005680698661],[127.57783988993923,35.49936120881329],[127.57737563129942,35.49887598191287],[127.57691861534897,35.498883119599455],[127.57635010802245,35.498750042623215],[127.57552194233273,35.49839547016302],[127.5747844059667,35.49769584805481],[127.57383794374674,35.49736729449174],[127.57348101709647,35.497153598467335],[127.57278175755432,35.497252987749405],[127.57210224604133,35.496861582352224],[127.57180511160726,35.496828152508556],[127.57145642562845,35.49630690222229],[127.5712712961282,35.495778330203954],[127.5708319435981,35.49537966488271],[127.56973883570863,35.49558323506721],[127.56899930502989,35.495330274731764],[127.56871920543409,35.495118235555935],[127.56807909761837,35.493668977901756],[127.56786115058262,35.493555591204384],[127.5677134010501,35.49330938657312],[127.566670712804,35.49304124598719],[127.5663458519399,35.4928027078108],[127.56568215314239,35.49262817750457],[127.56519301745224,35.492659649578044],[127.56481146823882,35.492821158544366],[127.56358824621907,35.4926212075232],[127.5634470202111,35.49184427452362],[127.56269812578945,35.49154290748201],[127.56357626498294,35.49085328129342],[127.56398932315159,35.49019662320862],[127.56370491493779,35.48957640070318],[127.56394314827715,35.48902133771429],[127.56385990977338,35.48865085452016],[127.5634505188822,35.488396184299646],[127.56322191942073,35.48801924526408],[127.5631120366936,35.48718891049958],[127.56282647697644,35.48643232644736],[127.56286118116685,35.48599855213218],[127.56248269090443,35.4855054857109],[127.56202904717453,35.4852278083445],[127.56205605571117,35.48413120846221],[127.56226888827321,35.48355440940763],[127.5619556968763,35.483331857663515],[127.5617183403989,35.48286975162592],[127.5612993099167,35.48264837210929],[127.560407444512,35.48189924205783],[127.56032370554742,35.4814529039592],[127.55991565643811,35.481210020029934],[127.55961934585926,35.48010247683906],[127.55978985016378,35.47949180339394],[127.55969198733713,35.47902745805894],[127.56012512571716,35.478510456648735],[127.56018390639133,35.47825047874875],[127.56054027458569,35.47790425297866],[127.56088233949882,35.47773796574769],[127.56102087447674,35.47749923744515],[127.56098377991597,35.47726629100982],[127.56110635729397,35.476704811459676],[127.5614036892161,35.47643143203479],[127.56193474027803,35.47634434400942],[127.56233722864052,35.47614761537977],[127.56226833878762,35.47557747263775],[127.56238250702707,35.47525507278802],[127.56210548975568,35.47478403556391],[127.5622064627256,35.47437496478555],[127.56177272383256,35.47350422169746],[127.56153754855085,35.47345530883947],[127.56135155444007,35.47331697683476],[127.56025513443842,35.472362235055364],[127.55961729844404,35.47213014725469],[127.55907999465957,35.472139480491165],[127.55851396672631,35.47113597890608],[127.55615002399624,35.471183566846044],[127.5557857821467,35.47110662100591],[127.55460275530164,35.471207774357794],[127.55442749920307,35.47130933328256],[127.5536592495616,35.47131732166485],[127.55323465293814,35.4710317855175],[127.55255310335541,35.47104131733637],[127.55208278851345,35.47016918967315],[127.55154879064492,35.46974039346155],[127.55031620610423,35.469902549457636],[127.54954352961859,35.46991036741365],[127.5477327573818,35.46943310350878],[127.54758008501956,35.46926142194142],[127.5471298274742,35.469227262847376],[127.5465544751311,35.468393686463486],[127.54615327438142,35.46815078705367],[127.54574657358025,35.46810185113121],[127.54500679680172,35.46816969890523],[127.54428813433769,35.46803227728433],[127.54399649616362,35.46804344928674],[127.54387199622234,35.468121438929025],[127.54382817385103,35.468061374493544],[127.54347109676254,35.46833079944281],[127.5426634286474,35.468316785270574],[127.54272074810363,35.469357152642154],[127.5424396268199,35.46960800735678],[127.5411453292715,35.469957114800636],[127.54105879142176,35.47020197037977],[127.54114149336526,35.47072706445317],[127.5413000764647,35.47091267034125],[127.541558235978,35.470893949541086],[127.54169162634976,35.4714096410921],[127.54163513445098,35.471596938221495],[127.54123085754864,35.47157467401826],[127.54118329023073,35.471450436014734],[127.54117970272021,35.47158279752883],[127.54014615921146,35.47150575147162],[127.53993321326028,35.47183686078844],[127.5397475060548,35.471849397645066],[127.53949526011289,35.471395260522854],[127.53920997534766,35.471119818270125],[127.53947389463895,35.470822672205784],[127.53913572517224,35.47110642906935],[127.53790497900538,35.471159259601016],[127.5378359687666,35.47051949318515],[127.53729339533493,35.47032271663661],[127.53747614369112,35.47023505700264],[127.53779057806878,35.469903976101506],[127.5381958266948,35.46982847580851],[127.53812723553122,35.46974275370996],[127.53777115250418,35.46983746569365],[127.53745802727867,35.47019608686969],[127.53669762768438,35.47057780425668],[127.53610588131578,35.47034407228877],[127.53582948881689,35.470391180553335],[127.5353326158138,35.47080728000203],[127.53484574974293,35.47093078314652],[127.5340846563084,35.47126546014081],[127.53361881276264,35.47157692070671],[127.53316390750092,35.47162794784382],[127.53260695094407,35.47194260698605],[127.53172860880814,35.472159599821886],[127.5307933199144,35.47261315306551],[127.52993201076289,35.472818195711135],[127.52841812534916,35.473049831902124],[127.52806464336483,35.47302183289368],[127.52653005302321,35.47322046518948],[127.52523093489178,35.47309533179528],[127.52484858384729,35.473182685902174],[127.52447267873505,35.47386189053193],[127.52393384575457,35.47419438605241],[127.52365275300599,35.474761777923135],[127.52253271924346,35.47510546120697],[127.52250250192881,35.47602531772965],[127.52192722878836,35.47614695291834],[127.52166445065862,35.47673833197071],[127.5202348326601,35.47702602264924],[127.52000342975647,35.47746118151986],[127.51952452578425,35.47756986824599],[127.5189658954846,35.47823655501906],[127.51850115834083,35.47823565515435],[127.51807522243018,35.47844908432362],[127.51718895370497,35.4784945228606],[127.51626867891747,35.47874542544034],[127.51536645960809,35.478756075225654],[127.51495195793638,35.47887887559929],[127.5145466958766,35.4794729218072],[127.51393255254136,35.48009069045151],[127.51532903772363,35.48106706483917],[127.51603972344316,35.48112324945301],[127.51637534664277,35.48129872391296],[127.51761673863118,35.48131783946142],[127.51900876103811,35.48168559707866],[127.51929451572856,35.482315737642445],[127.519885755674,35.48274246799961],[127.5200558921428,35.4830754579929],[127.52032519456516,35.48333792933375],[127.52079496787402,35.48315795671655],[127.52108568678831,35.48313696042997],[127.52250000827877,35.483208382541044],[127.52348227753409,35.48357154757317],[127.5240235494235,35.48388348624733],[127.5242169718068,35.48423553242291],[127.52479642900266,35.48440913264938],[127.52526777900519,35.48491114523875],[127.52672152769883,35.485771465087986],[127.52710383978724,35.48653267374671],[127.52690777888162,35.48704401042687],[127.52699670699714,35.487876732759176],[127.52715015806473,35.48818628896827],[127.52684325869801,35.489289213278425],[127.52688954305304,35.49005794064539],[127.52730702196885,35.49025747864753],[127.52826836024126,35.49103429199139],[127.52790292686089,35.49269353409093],[127.52709408559743,35.493502525889475],[127.52725267054643,35.49576570063393],[127.52664942706986,35.49566908797349],[127.52592849544337,35.49586003303314],[127.52581889455638,35.49610971635953],[127.52552135899123,35.4963284905509],[127.5249899764523,35.49645224778666],[127.52414947756334,35.4963710684614],[127.52385980767787,35.49651865733882],[127.5230109995587,35.496527826276235],[127.52250651635401,35.49621490848029],[127.5220328351413,35.4962700807321],[127.52136843047846,35.4967320374126],[127.51989253773347,35.49839080868852],[127.51938197812675,35.4981356976004],[127.5190330947601,35.49775026224514],[127.51906124502297,35.49827796365812],[127.5188121297031,35.49805459242825],[127.51833180234824,35.49788823614825],[127.51558929942874,35.49745427285609],[127.51528388611733,35.497841137315994],[127.51511077672284,35.49790897551066],[127.51501265891656,35.498072617385574],[127.5171483106131,35.49846179999899],[127.51700318305305,35.499052044501155],[127.51594079290423,35.49887406649951],[127.515521122498,35.50071160832096],[127.51541722844222,35.50073521111611],[127.51524536449428,35.501439402449584],[127.51460392340265,35.501351460837846],[127.51456049627448,35.50148129744849],[127.51433974085091,35.50155411384518],[127.51436244419607,35.501714977958194],[127.5140599470728,35.501777055645654],[127.51328759917104,35.50169115278387],[127.51320967415846,35.50177783519905],[127.51399911575453,35.50188766868086],[127.5140672362166,35.50404479038612],[127.51355293915717,35.505183123185475],[127.51295825623235,35.50596750682435],[127.51354957743601,35.5081592355708],[127.51337730011274,35.50889166186916],[127.51309163652883,35.509213650051116],[127.51130318700676,35.51002354142267],[127.50964095297572,35.51051923341334],[127.50940524621328,35.51078499880202],[127.50824676853883,35.51153069433659],[127.50618747753111,35.512279466841306],[127.50477817169256,35.514129601203855],[127.50359216930424,35.514576932480914],[127.5022029528734,35.516523643670595],[127.5018812566782,35.51744592459125],[127.50108230400153,35.518247923784294],[127.50157428668761,35.51934441180129],[127.50153717946544,35.52029197365737],[127.50172143832822,35.5208103608451],[127.50163534635219,35.52171631489837],[127.50089472644949,35.522082837368124],[127.50053225335289,35.52240212311567],[127.49978812289112,35.522213271926375],[127.49869206717234,35.52229207785938],[127.49768604414864,35.522803599597594],[127.4959809898647,35.522613658543854],[127.49584817735392,35.52282811893761],[127.49594345373141,35.523033159243404],[127.4953057868581,35.52361488742514],[127.49499570131023,35.52357689318114],[127.49444651956361,35.52431921431373],[127.49376789440882,35.524299598780715],[127.49314775835434,35.52540480002638],[127.49237130973854,35.525725594922704],[127.49192997823265,35.5268004561695],[127.49131315192416,35.52707699920884],[127.49099667328768,35.52830076492755],[127.4911322014002,35.52858630169745],[127.49110878863516,35.52994848696414],[127.49146387374459,35.530072258928],[127.4918771026763,35.53008983206343],[127.49212163459231,35.53098307724873],[127.49202973741669,35.53205804679877],[127.49242121457588,35.53412648872887],[127.49173075954046,35.53440712607738],[127.4912331303902,35.53413095621434],[127.48961487680418,35.53492905493876],[127.48947972662945,35.53584830071032],[127.48857786000924,35.53626251890142],[127.48793582255117,35.53671827821813],[127.48623272726944,35.536541876415065],[127.48446125566504,35.53747179428759],[127.48324485433865,35.53853006572558],[127.4825894443987,35.53890583320659],[127.48205625512307,35.538879100071604],[127.4816310060735,35.53867404100568],[127.47994105242196,35.53833897860872],[127.47650237498648,35.53841704043033],[127.47621465718954,35.53871558078816],[127.47548422690906,35.53897610368142],[127.47459356328636,35.53950810824961],[127.47324125359341,35.53999563017527],[127.47271977428652,35.5405143142623],[127.47094813749642,35.54081771957443],[127.47044113717426,35.54110514041897],[127.46998363658022,35.541620318964455],[127.46957456173632,35.541886704820406],[127.4693712029065,35.54257913424881],[127.46833790214059,35.54387513237186],[127.46813310862142,35.544495748874155],[127.46847865676436,35.5453206122461],[127.46752484457797,35.546397959573945],[127.46691770840391,35.54660162436666],[127.46663019620556,35.54647126393356],[127.46475188696502,35.54657023880854],[127.46427980675159,35.54617952133399],[127.4627979178029,35.54580558660453],[127.4614905194385,35.54529943361535],[127.46108284597832,35.5452766619899],[127.46054697733175,35.54537813590119],[127.46040635280248,35.545523991450075],[127.46011858125573,35.54551422719203],[127.45950624009915,35.545285491317664],[127.45900293098885,35.545520303559506],[127.45873030126135,35.54582347576443],[127.4582456154646,35.54584650148007],[127.456826022814,35.54651072883592],[127.45623923175799,35.54653123031164],[127.45525241422968,35.54581841592486],[127.45510359230741,35.544608123746876],[127.45528530549909,35.54396781591878],[127.45489454805377,35.54352815843477],[127.45438405214267,35.543389261803775],[127.45402125302209,35.543027366028646],[127.45418654734193,35.54270812482118],[127.45365990453998,35.54175646345555],[127.45340305366311,35.540519444792764],[127.45278018774889,35.540061390149056],[127.45224357189184,35.540407257090145],[127.45108465324043,35.54186573963182],[127.44993319893958,35.54244366953383],[127.44945626564127,35.54258079747116],[127.44821921900225,35.54331826936311],[127.44729279021708,35.54443741945657],[127.44716927429492,35.54488267858393],[127.44686909848163,35.545052052069906],[127.44616762199729,35.54524590139054],[127.44580639519822,35.545465649692],[127.44280412533958,35.545995194443144],[127.44248061139733,35.54636213981011],[127.44226420349162,35.54688271395959],[127.44184216790018,35.5470976784448],[127.44124691517395,35.54718832073362],[127.44093055627506,35.547744686549684],[127.44055444491813,35.54911262429421],[127.44028233044551,35.55157180490734],[127.43871862790155,35.55133333332353],[127.43775289476494,35.55096490659131],[127.43611282038188,35.55078473352942],[127.43350712102342,35.550169556450285],[127.43312961232671,35.550142177014486],[127.43176716296152,35.55005292467303],[127.43047912189776,35.5502568066662],[127.42879384294304,35.55033102726314],[127.42745914000925,35.55049541253773],[127.425401411514,35.55030195706814],[127.42425491829096,35.550419129202076],[127.4237435302028,35.550989886922885],[127.42315805552816,35.55139864960039],[127.42159200978287,35.552237782569954],[127.42131567310567,35.55227393050263],[127.42053875819079,35.55258661130445],[127.41995746749528,35.552969450933894],[127.41998038873855,35.553617506315774],[127.41975798721143,35.55384645619762],[127.41994262633813,35.55402494012823],[127.4192862303251,35.55445996697141],[127.41878408396714,35.555657425083844],[127.41817323175975,35.55598375775035],[127.41784868099106,35.556038776410276],[127.4178114782145,35.55610678136572],[127.41799784056133,35.55625170596138],[127.41777294493451,35.55610323681334],[127.4177473986629,35.556179483663364],[127.41751857404698,35.556243687896306],[127.41763997606195,35.55632730434398],[127.41724926888962,35.556777160301415],[127.41708871561215,35.55679672243905],[127.41695916566512,35.55694664618155],[127.41674424039539,35.55696455642808],[127.41634578182814,35.557354553624414],[127.41610038081912,35.55743030474071],[127.41531288502782,35.558300850237586],[127.41500885309695,35.55849390361877],[127.41489039834858,35.558473426305966],[127.41471550725983,35.55868714411734],[127.41481838593681,35.55872470968596],[127.41482658723982,35.55880960860873],[127.41469141291672,35.55892874500475],[127.41467952795975,35.559129655373994],[127.41349525469013,35.5601143081419],[127.41345379772999,35.560244234670584],[127.41250488973164,35.56049536363528],[127.41245684153083,35.56056205340903],[127.412058665523,35.56047421605215],[127.41197801237612,35.56060541366213],[127.41187668297104,35.560492244417]]]}}
