{"type":"Feature","bbox":[127.08309335522317,35.45971050554117,127.43609954877466,35.77762860653365],"properties":{"regionCode":"52750","version":"vworld-20260909-3f8952dfda77-p3","name":"전북특별자치도 임실군","attribution":"국토교통부/K-Geo플랫폼 · VWorld 법정구역정보, CC BY 2.0 KR; 공공주택 복덕방 가공"},"geometry":{"type":"Polygon","coordinates":[[[127.26855197057301,35.77751403373039],[127.26751685217589,35.77762860653365],[127.26614326412371,35.777292215708556],[127.2650116805019,35.77681388857749],[127.26461001298853,35.77624016147314],[127.2637616962563,35.77453740077363],[127.26383225383783,35.77354338311477],[127.26346678096863,35.77170673761594],[127.262015688688,35.77030956754678],[127.2614959681392,35.769538682431616],[127.26011569608822,35.76888703765319],[127.25975317176615,35.76808365801265],[127.25795634026218,35.76774786373074],[127.25637344150577,35.76693467972973],[127.25553183746398,35.76621287242627],[127.25432347010275,35.76638530611897],[127.25354874072272,35.765528455885146],[127.25176427174347,35.76316758125339],[127.2517103901512,35.76220819257435],[127.25138620243685,35.761495031632336],[127.25008577539899,35.761422336228264],[127.2472447838095,35.760308132000006],[127.24648924605557,35.759581786636815],[127.2465558237945,35.75834191273283],[127.2448118381984,35.756123094016665],[127.24527342882936,35.75504957751831],[127.24524748168606,35.75279228279191],[127.2467207970516,35.75163608660916],[127.24627297581081,35.75094319947014],[127.24662392560579,35.75047306065464],[127.24659991391631,35.74983493432298],[127.24576891910611,35.749161769312686],[127.24620334513608,35.74817048762165],[127.2469285519573,35.747562026915936],[127.24757077911525,35.747455204075756],[127.24823314104381,35.74636344538506],[127.24864591740727,35.74624443321283],[127.24877155393212,35.745204945064955],[127.25004573322599,35.744825078030885],[127.25106768032053,35.74416024396762],[127.25142399814061,35.74373126914785],[127.25218662989627,35.743375540770295],[127.25236112916446,35.74253187305258],[127.25335435338596,35.74160079243299],[127.25331042835467,35.74101336935116],[127.25230237324885,35.740142212749184],[127.25204856592048,35.739192448469026],[127.25177102574787,35.739014349559746],[127.25146281147344,35.73839779741948],[127.25138086090759,35.73760785425958],[127.25164162458356,35.73729771053119],[127.25193426340459,35.73593811231371],[127.25141624664013,35.735386975882456],[127.25245655739724,35.73451854036819],[127.25310760739171,35.73447555021175],[127.25348534757119,35.73410566571897],[127.25568257401981,35.73338154579308],[127.25617681779424,35.73280397923129],[127.256115328037,35.732131440883805],[127.25569963360228,35.7314382189685],[127.25664633151854,35.729962241148144],[127.2560928209427,35.728719837574886],[127.2560375898807,35.72840091643031],[127.25621080324585,35.72794329217747],[127.25559760935707,35.72721015512167],[127.2552039313723,35.725824371011385],[127.25511829995408,35.72506206979143],[127.25428049845142,35.72460948678522],[127.25400866349317,35.724214598522536],[127.25126834450957,35.72282668966255],[127.25218020345768,35.7211938065951],[127.25238173019477,35.71986201880251],[127.25061735955173,35.717950607320056],[127.25119846478982,35.717022854598866],[127.25185838317884,35.71628104680136],[127.25238043355525,35.715394553115196],[127.25260369207001,35.71517324082334],[127.25246150122909,35.713821455807945],[127.25304696821719,35.71254248673783],[127.25291243039918,35.711897271087466],[127.25354750005297,35.7110844309549],[127.25372211329208,35.71104660774084],[127.25441710236484,35.71053989959253],[127.25476577784633,35.710059816213395],[127.25510318941959,35.70987724764714],[127.25506761678947,35.709646661346355],[127.25588394858924,35.70831092563521],[127.25564283779043,35.70759934153499],[127.25609956800487,35.70748630296988],[127.2562509337188,35.707121456117385],[127.25656235445744,35.70506671245607],[127.25664486712827,35.702949410772405],[127.25601138451309,35.7026257644487],[127.25605366533684,35.70179645359941],[127.25658808157384,35.7010375053462],[127.25642705241839,35.69937941922029],[127.2569049795585,35.69898083662497],[127.25769020870761,35.69857669847731],[127.2578501567695,35.69776344784084],[127.25937635378472,35.696081822228265],[127.25902153413863,35.695465284951126],[127.2594629923219,35.69436507705535],[127.259502516408,35.69341995459774],[127.25921442055703,35.69302058781634],[127.25803978393748,35.69288475228489],[127.25753610741857,35.69267314327319],[127.25755796651826,35.69193857766722],[127.25663648132695,35.692000108899016],[127.25619878270693,35.69220957181511],[127.25566348821367,35.69230210090381],[127.25520547105923,35.69224379106074],[127.25348868286626,35.691096671638526],[127.25351915695965,35.691020378807245],[127.25342975649164,35.691005974190695],[127.25325019872938,35.69140450543313],[127.25289085833573,35.69113180904532],[127.25237217987114,35.691325628721025],[127.25229497881175,35.69128338503284],[127.25165843423646,35.69138745522972],[127.25096272091758,35.691245119929576],[127.25044354982505,35.69129305874663],[127.24991011682175,35.69072468432546],[127.24940993972785,35.690443653992496],[127.2486203413464,35.68974521365451],[127.24763542265673,35.68947520953906],[127.24698325530623,35.689157572966195],[127.2466696069576,35.68890305347885],[127.2435657626293,35.68957700610017],[127.24261802662755,35.689254864162734],[127.24181630444852,35.688880871829696],[127.24136792177374,35.68952568068882],[127.23993652120195,35.69013561171341],[127.24077322229749,35.69159271402344],[127.24107148213503,35.69239697483626],[127.24196911118122,35.693072147839416],[127.24209223597927,35.694349173716006],[127.24183344042122,35.695664656042226],[127.24200080137817,35.69658352706826],[127.24108119257241,35.698365515207335],[127.24066724020285,35.69873018281053],[127.23955961269296,35.699399407058195],[127.23926950851528,35.70006813959036],[127.23746720902452,35.7011989947184],[127.2364670509482,35.7026836874476],[127.2362814290673,35.70385477020393],[127.2342384320029,35.70460705386478],[127.2335354268745,35.70441453134564],[127.2323186775125,35.70494123774256],[127.23045910799348,35.70702934814884],[127.2287143639947,35.708509780230024],[127.22733805707254,35.70910509071359],[127.22627715611934,35.710534742809216],[127.2255078913846,35.71070479460075],[127.2239566805045,35.71221134925595],[127.2227233625048,35.712122911232505],[127.22187585900478,35.711852452637515],[127.21947714328716,35.7115151698186],[127.21794016216009,35.71053853560242],[127.2147283535269,35.71047389677697],[127.21379083508906,35.710682990633934],[127.21299436448908,35.71060518898531],[127.21071575670177,35.710053350586676],[127.20970936754914,35.709469468883285],[127.20870172019423,35.70986194474415],[127.20788963487108,35.710472705512906],[127.20734101406445,35.71346651777557],[127.20644281952099,35.71400525278319],[127.20579075999736,35.714775530980575],[127.20586477812749,35.715574488800144],[127.20621187158427,35.71641913645905],[127.20668607739536,35.71871706730971],[127.20708732624067,35.719467635127145],[127.20699253604141,35.721115882878415],[127.20625560898884,35.72212803698833],[127.20628499361366,35.723205759501774],[127.2056510203922,35.7236871228625],[127.20438203006599,35.724024747971015],[127.20259025705828,35.72464383494737],[127.20106966948521,35.72529488275775],[127.19912891160797,35.72521806330851],[127.19761437497947,35.72592831692297],[127.19798160589791,35.72753608264489],[127.19776776221082,35.72772455291235],[127.1977110335255,35.72815113448243],[127.19718463623163,35.72840950959767],[127.19693258698051,35.7292715936028],[127.19570423070684,35.7293520747408],[127.19418635845862,35.729322997251764],[127.1931485736703,35.72984505580025],[127.19139928613814,35.72938990562051],[127.1896567861368,35.730604495674456],[127.18818178591945,35.731076426881906],[127.18775330328171,35.7325064891021],[127.18848503290809,35.73333916052876],[127.18776920541767,35.73386222252101],[127.18740550773123,35.73454967638167],[127.18619757540542,35.735500893899975],[127.18531608569317,35.735709453167395],[127.1817621162653,35.735840990753296],[127.18117346142063,35.73595277352816],[127.18067236922337,35.73625508558794],[127.18009498108803,35.73627112818668],[127.17927469754933,35.73737627706031],[127.17824035562407,35.737695568412114],[127.17743657028988,35.73762528548899],[127.17690452402346,35.73721642787609],[127.17650988882299,35.73662185192782],[127.17643750085287,35.73637750685064],[127.17600418638132,35.736290604859626],[127.17545142494888,35.73596156124725],[127.17517575873487,35.736002471736796],[127.1748780232491,35.735705068444965],[127.17478879902808,35.735431879712266],[127.17453788265074,35.7351250709694],[127.17445600770795,35.73478334643785],[127.17411201382968,35.73445326630988],[127.17190386444894,35.734008295246575],[127.17093177465495,35.73398590215056],[127.17007480952888,35.733008374351634],[127.16967162631704,35.73268764580864],[127.16912218844406,35.73268061820325],[127.16867671843045,35.73225939879511],[127.16763705466607,35.731889543830114],[127.16725518485838,35.73098226919565],[127.16624164098128,35.73071360571352],[127.16563318105375,35.730038901924054],[127.16294668725214,35.72773436408056],[127.16302752520954,35.72639138379541],[127.16263527762437,35.72570811913578],[127.1623297175267,35.72543408242562],[127.16118258305663,35.725096903908316],[127.16031160411704,35.72448493432623],[127.15859314314265,35.72396097525441],[127.1584225443849,35.724256652491796],[127.15774249660932,35.72464258643717],[127.15701628062455,35.72479290334547],[127.15635109280022,35.724747461320604],[127.15593250332105,35.72504768932176],[127.15508191756022,35.72545076350264],[127.15421202283241,35.72516484393104],[127.15309849677391,35.72528397403476],[127.15256183904926,35.725186609495665],[127.15105448149801,35.7247726660801],[127.14934469912315,35.72316797261101],[127.14909340438733,35.72302028151413],[127.14736190273814,35.72257303958719],[127.14720636736989,35.72290772522332],[127.1465681138606,35.722844596491186],[127.14636703635335,35.72245215709487],[127.14577367624118,35.7219086906122],[127.14519112626516,35.72156974561049],[127.14475242818575,35.7219437812852],[127.14426233511406,35.72170434629031],[127.14382692529696,35.72162462192349],[127.14355184420329,35.721422558063175],[127.14270539078152,35.721032062666275],[127.1424263392355,35.72071900901792],[127.14204568102538,35.720503438897104],[127.14243952126046,35.719230142714025],[127.14166448030288,35.71928842343309],[127.14129653853304,35.71918444758179],[127.1410241246477,35.718963879876654],[127.14000547433545,35.71895243921732],[127.13948520320959,35.71929387298372],[127.13931518283383,35.719198073765746],[127.13883939745915,35.718351286661864],[127.13832675741325,35.717888024556444],[127.13874032381271,35.71668509592241],[127.1387955561108,35.716175194450194],[127.13859869200655,35.71527500430163],[127.13832866458482,35.71506816581791],[127.13825782875831,35.71414439908852],[127.13843631020205,35.71359940407977],[127.13909533926564,35.71270015067437],[127.13787232441823,35.71018323900507],[127.13782511766657,35.70891975592021],[127.13826625860473,35.70845282967942],[127.13735624398755,35.70792028204094],[127.13688097741235,35.707341902553885],[127.136555832921,35.7057934345228],[127.13708184549274,35.702140114829824],[127.13779668227289,35.70199260858055],[127.13791860239921,35.70152653785797],[127.13537346577017,35.70053368863103],[127.13353454719274,35.6980845757657],[127.1314770671484,35.69681336327777],[127.13036923601592,35.695922419682255],[127.13062015981319,35.69502402351305],[127.13049715711254,35.692951659516645],[127.12970781237445,35.69170536688822],[127.12784657978956,35.69177977999021],[127.12704584811364,35.69143911408049],[127.12523422570881,35.69116981565481],[127.12494058344609,35.69021664146002],[127.12408629814159,35.68953596193166],[127.12473536910306,35.688866148139084],[127.12490311582408,35.68854300649605],[127.12458162690756,35.687921085277296],[127.12471087676198,35.687049475410156],[127.12521813588681,35.68628125923705],[127.12504157606088,35.684568028493494],[127.12559929584698,35.68270568182639],[127.12475557986927,35.6812722768736],[127.12419230789087,35.68048137105745],[127.12419926587945,35.67966630457392],[127.12538956470219,35.678914628393095],[127.12662629786736,35.678501223264796],[127.12619200898085,35.67779261210342],[127.12608439337232,35.67685194655895],[127.12630176724504,35.67578781980847],[127.12613198731786,35.67502527240385],[127.12635421756538,35.674075377902035],[127.12656366591474,35.67363848204627],[127.12707170062824,35.67199282541323],[127.12861396504252,35.67139959904573],[127.12995206576987,35.67109322267124],[127.13057777726036,35.670435893432476],[127.13124902557065,35.669155528630576],[127.13126819830808,35.66796765193813],[127.13116500141139,35.666571035201734],[127.13123735504894,35.66571895317523],[127.13032811629643,35.66502081708607],[127.12997901322032,35.664840665901984],[127.12972047878061,35.66433779366217],[127.12894986507439,35.663878303383626],[127.12906814064712,35.66375595381572],[127.12904307797533,35.66350994108243],[127.12945724873136,35.66255867159791],[127.12839668777286,35.66172513101088],[127.12884583223253,35.65932578688601],[127.12785044043268,35.65919140923308],[127.12667168007127,35.65802028274631],[127.12723900652068,35.6575805197791],[127.12822976710984,35.656475114456896],[127.12880190146117,35.65652246709042],[127.1291190260944,35.65610548080113],[127.12972523070371,35.65574892979189],[127.13008479909718,35.65531835742348],[127.13042356770967,35.65509312637786],[127.13079242873442,35.65432128063747],[127.13134123921472,35.65397443635982],[127.1315785371147,35.65366104180351],[127.13215375426218,35.65321956531576],[127.13203529008646,35.652602749060584],[127.13168015675767,35.652214187953575],[127.13190001544965,35.6516095607503],[127.13183623255681,35.651350564228],[127.13215633919349,35.65108480180014],[127.13240912437172,35.650983979401346],[127.13254739174212,35.65081158561861],[127.13365348814263,35.65037095739837],[127.133691970278,35.650109218953126],[127.13410833966046,35.649881278402994],[127.13449022611263,35.64943595787326],[127.13449149556928,35.64926252473009],[127.13509223302182,35.648094334166295],[127.13518867244514,35.6476429733762],[127.13588491279877,35.64685360391834],[127.13535529468311,35.64693489409168],[127.1338497035967,35.64641803451738],[127.13315090411835,35.64553822131951],[127.13291146663902,35.64557934782863],[127.13213223320167,35.644696968067755],[127.13232943753614,35.64414951440881],[127.13207470642462,35.64340828024956],[127.13306396159336,35.642912364405625],[127.13220241133428,35.64184925767128],[127.1314580881869,35.64119095669558],[127.13199853441024,35.640299708977956],[127.13115561707853,35.63939241731233],[127.13024350690263,35.63864550427649],[127.12938015054918,35.63720827428849],[127.12852641964894,35.63714415250829],[127.12775247511634,35.63622141225063],[127.12732955686955,35.63598673686183],[127.12663156929551,35.63538786993609],[127.12599680736184,35.63532898730923],[127.1242754828621,35.63684839710408],[127.12414801410641,35.63598540680885],[127.12324075342396,35.63569534526825],[127.12236161266944,35.633979081265466],[127.12180803847319,35.633615689237004],[127.12087359868738,35.63338476518682],[127.11954403846546,35.633241023415],[127.11846703874514,35.63395538540842],[127.11826351018736,35.63273048607811],[127.11839665260221,35.63134348092549],[127.11906353894867,35.63111719719871],[127.11804792616037,35.63045878866066],[127.11715679957987,35.63005280633197],[127.11701420443214,35.6287816289032],[127.11605676850695,35.627827337271334],[127.11542194419614,35.627725057736036],[127.11456179181764,35.627082127294564],[127.11494766635691,35.62649110741764],[127.11440851349937,35.625465349816075],[127.11413634586808,35.624133300855654],[127.11369171225692,35.624058367606246],[127.11239828137265,35.62473540185545],[127.11148393793326,35.62414794785696],[127.110226446631,35.62392469640825],[127.10831488024337,35.622732050282956],[127.10830199647815,35.621785759689764],[127.10696026229418,35.62041098599743],[127.10592883667057,35.619568022497916],[127.10415409719025,35.61890919484109],[127.10283018787914,35.618900616408084],[127.10217558772798,35.61905706147143],[127.10013731325748,35.620006286230705],[127.09863531984735,35.62027150306561],[127.09720996756653,35.62126039698997],[127.09557513144824,35.62129544922171],[127.09511923971421,35.621485423620705],[127.09371716443584,35.62172215764239],[127.09296835624247,35.62173454337041],[127.09167038971171,35.62072685874957],[127.09172950609039,35.62025094415457],[127.09161583302249,35.61989487112901],[127.09134893717756,35.61974203913592],[127.09120245973197,35.619247884835],[127.09080821673328,35.61888347244009],[127.09088831277298,35.618559331028344],[127.0903246062088,35.61619677520311],[127.09036119592378,35.61569766977881],[127.09064450301334,35.61504686790665],[127.0904580202132,35.61459435325023],[127.09124640170434,35.6129851343189],[127.09249605762685,35.61261813995977],[127.09312109915507,35.610650961274274],[127.09385844225933,35.6106163497056],[127.09474803951282,35.61001992905358],[127.09496315883084,35.60978520559834],[127.0952549865431,35.609665710088045],[127.09582602730907,35.609121770451004],[127.09605373992953,35.607765758788695],[127.10001769403466,35.60447693240385],[127.09984403664994,35.60436346609265],[127.1000427805744,35.604280710945154],[127.10027150159223,35.60394786776059],[127.1004889571185,35.603879389297646],[127.10058346551298,35.603732589885716],[127.10040957674745,35.60300095088364],[127.10106104424409,35.60212066016514],[127.10101503946801,35.60199935894496],[127.10116692192727,35.60178361606905],[127.10115630174019,35.60172703321628],[127.1005447176887,35.60157568212429],[127.10126901798655,35.60010776996563],[127.10157610370771,35.59993319519363],[127.10153432045307,35.599717570513704],[127.10169390223277,35.59932817157292],[127.10196945186067,35.59897356594744],[127.10244090339991,35.59876502021281],[127.10313856537603,35.59794818175312],[127.10313151595426,35.59757464731676],[127.10380617631776,35.59716464816964],[127.10481560049436,35.59597809715034],[127.10464555664028,35.59525828384635],[127.10363182433821,35.5944915032133],[127.10360839517274,35.59378660580505],[127.10334272269358,35.593259883106136],[127.10310995382473,35.59299166800204],[127.10257885842258,35.59020541018026],[127.10117326263233,35.59013365740738],[127.10017591194321,35.589373889350206],[127.09978774822527,35.5892306328191],[127.09909579508238,35.589262063857255],[127.09830194451908,35.588269420879286],[127.09754687451262,35.58825572154013],[127.09703848271057,35.58803567054515],[127.0964836284291,35.587437499573845],[127.09619370820866,35.587383091466336],[127.09522166613587,35.58758275606182],[127.09471415878947,35.58753450747273],[127.09347278800624,35.58706023952069],[127.0931010322891,35.58721456100669],[127.09134027817555,35.58645201759771],[127.09021755252544,35.58703453546657],[127.08946098485337,35.58719356159792],[127.08877955514367,35.58700754568868],[127.08820600584336,35.58715121821283],[127.08733060491177,35.58688155791528],[127.08633645093924,35.58681390753754],[127.08576528784829,35.586175266395124],[127.08500279924368,35.58582809818174],[127.08399458514754,35.58499044942119],[127.08313512184714,35.584525482234426],[127.08325107736019,35.58393406777487],[127.0835091245514,35.5835262294957],[127.08309335522317,35.58293307578473],[127.0833409954019,35.5818733417114],[127.08365909418357,35.581557078269135],[127.08355308592512,35.5806138408375],[127.08445382395074,35.579770462588534],[127.08440218547062,35.57889850812177],[127.08586810896453,35.57783733051376],[127.086931357028,35.57668737123283],[127.08689873951283,35.575923864484004],[127.08733732842418,35.57588973889082],[127.08809709710054,35.576153848536215],[127.08884639795171,35.575635984689114],[127.0889458044673,35.57463859671453],[127.08866775388998,35.57418811763762],[127.08887716683624,35.57342265236715],[127.08882391180364,35.57297063719603],[127.08922136661792,35.572054275487744],[127.08920242180292,35.57153467770418],[127.09015925876677,35.57047198421929],[127.09117505803184,35.57008441593304],[127.09159901441872,35.56967296683286],[127.09198752914473,35.56956882881371],[127.09182482537844,35.56882012894119],[127.09214894967819,35.567700012847816],[127.09194434335494,35.56750053868585],[127.09231607836709,35.56706428775016],[127.0917104363351,35.56666906377073],[127.09058817737979,35.5653904605963],[127.08964390071267,35.56251258763161],[127.08904779068175,35.56251302052903],[127.08904606851651,35.56092966563138],[127.08811443803882,35.559351652365756],[127.08771671298078,35.558908805805494],[127.08576741241298,35.55891018342927],[127.08622377463959,35.558538305611386],[127.08675701167623,35.558272994440074],[127.0858468699338,35.557110875751775],[127.08517270738872,35.55601375808419],[127.08495510218846,35.555305571926624],[127.0848036154632,35.55420764780421],[127.08429096496462,35.552347863314374],[127.08393449977088,35.55055924534996],[127.08433015566172,35.54983489185771],[127.08599450167614,35.548885619592866],[127.08703677574866,35.548493666580455],[127.0890321064493,35.54809232062049],[127.09020522271646,35.54801688808355],[127.09267148818455,35.54800657635803],[127.0934845724579,35.547748125166486],[127.09454531763873,35.54728506295617],[127.09623107293588,35.54619751829724],[127.09809432625288,35.545176970002146],[127.09885399391909,35.54484076191386],[127.10005553037398,35.54411743235095],[127.10192336525773,35.54356022383795],[127.10281327989117,35.54320457504802],[127.10368345266383,35.54298123049523],[127.10378215459092,35.54242210789648],[127.10412352845071,35.54234935453669],[127.10562063120383,35.542501590481194],[127.10731474387589,35.542155925606174],[127.10899545391307,35.54149659370402],[127.10972413685396,35.54110535401812],[127.1118882865967,35.53966801415841],[127.11477198266604,35.53807600023934],[127.1155175573723,35.5371974351479],[127.11552669022493,35.53734698068247],[127.11624264799454,35.537244524518414],[127.11666089254523,35.53637908780832],[127.11693654750526,35.534855289552645],[127.11675681400926,35.53323466666962],[127.11626177053986,35.53221463290683],[127.1110838318462,35.53357097701613],[127.11074793705521,35.53392833115832],[127.1101723522302,35.53399401525734],[127.10954407392083,35.53435125010678],[127.10777818099068,35.53364578879796],[127.10701270852267,35.533449554203266],[127.10555695708663,35.53359935323302],[127.10508681863662,35.53327361294306],[127.10490263822985,35.53296568155113],[127.10493230617143,35.53283518445807],[127.10476354753838,35.53278195309886],[127.10462247375702,35.532587069886944],[127.10412861617647,35.53129395689974],[127.10323670020978,35.53089979136238],[127.10261764063925,35.53097173970891],[127.1020872408932,35.53067395329113],[127.10183285606858,35.53041308646753],[127.10179889096788,35.53016810570224],[127.10019733798126,35.53016372173724],[127.10011022247757,35.53002696882505],[127.10049295904031,35.529631514949536],[127.0998685390703,35.52886508435066],[127.10022270180653,35.52817021842097],[127.09978424404628,35.52766136163317],[127.09980844879287,35.52719425315706],[127.09787784977145,35.52719200136189],[127.09721394958308,35.52687229605531],[127.09756752272135,35.52655943592456],[127.09846715780648,35.52546855849599],[127.09897142482932,35.52501880999498],[127.09893995984793,35.52418970243139],[127.09914826120355,35.52337572636415],[127.09823122678333,35.5216457082402],[127.09846711737038,35.521091931915315],[127.09783838640502,35.521242518881124],[127.09758893432775,35.520430287516405],[127.09706772448912,35.52027613654113],[127.0969311761546,35.519775762606784],[127.09599261811333,35.51949792145864],[127.09563241261154,35.51923783369617],[127.09493011443672,35.519272800657454],[127.0939042221047,35.518735659167774],[127.09443492840046,35.51813004543707],[127.09471221383379,35.51742129385148],[127.09466874365991,35.51689306563084],[127.09420739647639,35.51637455162512],[127.09478768571233,35.51564029171603],[127.09504310023846,35.51512942860527],[127.09530047429294,35.51421339793817],[127.09553670175296,35.514090266048086],[127.09587114551444,35.51440914633928],[127.09613141038227,35.51486582331436],[127.09654940012541,35.515231925402524],[127.09610301807102,35.51563057027038],[127.09625673861959,35.516167545388],[127.09615128455077,35.51652496375779],[127.09665258236966,35.5170066665602],[127.09681729501959,35.51701753398729],[127.09674427243839,35.51720519576648],[127.09729668292528,35.51851741217092],[127.0974415917145,35.518484904131185],[127.09737513799833,35.51808727773],[127.09755899236451,35.51854351240989],[127.09778080398512,35.51875945669286],[127.0983795435365,35.51848456826234],[127.0986653286061,35.51932827164843],[127.09894637983814,35.519362183698576],[127.0992832370173,35.519722253795294],[127.10057082657387,35.52001416805717],[127.10121984351811,35.52000207822326],[127.1009090919582,35.52022010682437],[127.10097859555816,35.52043945439747],[127.10147361572987,35.52073152436702],[127.10224885247979,35.520256010767184],[127.10242425136545,35.52006143565258],[127.1050837039667,35.51907724987908],[127.10561902258739,35.51907724843715],[127.10604551532153,35.518894645796905],[127.10725166389756,35.51929906191491],[127.10869625223006,35.5196157111542],[127.10962558185645,35.51943910985842],[127.1095961541802,35.51901743637828],[127.10906857273336,35.51877651376747],[127.10910196920693,35.51866380271038],[127.10944678363748,35.51862807418015],[127.10911390867494,35.518128329366114],[127.10893688122539,35.51815216532695],[127.10863164579078,35.517772564784615],[127.10813941548813,35.517587388810455],[127.10804676431479,35.51729212235621],[127.10846830233605,35.5171992588133],[127.10865264328426,35.51735510121574],[127.10880949795582,35.5169025456427],[127.10860364692714,35.51613937097558],[127.1079371944604,35.515671239590596],[127.10801605254431,35.51476478624585],[127.10792330755041,35.51427090150387],[127.10844755249879,35.513781779935464],[127.10836407085179,35.513633211027475],[127.10910100065854,35.512711193449064],[127.10927847132531,35.51226927114756],[127.10960625296374,35.511924734754196],[127.10991040277433,35.51128950308164],[127.10983775688283,35.51084365105752],[127.1102341261295,35.50908568677389],[127.11064707949465,35.50899639786466],[127.11109247464428,35.5082753782981],[127.1129368098199,35.50673028217135],[127.11354188770778,35.506573722412455],[127.11488050852803,35.505164177198296],[127.11531501522504,35.50452660236409],[127.11604630093517,35.504098611762274],[127.11721441721187,35.50388880812349],[127.11793361861488,35.50401188352699],[127.1191075601803,35.503508648372595],[127.120189174331,35.50384266538748],[127.12058261209782,35.50384958559886],[127.12147882254871,35.503674250220385],[127.12251668822105,35.50393289785572],[127.12323919247454,35.503887041745905],[127.12404951884415,35.504136451935295],[127.12516943948442,35.50400169722285],[127.1255261130449,35.5036105725552],[127.12598254662966,35.50351207514802],[127.12651210056103,35.503571303024856],[127.12756912778099,35.503550048979136],[127.12809652619313,35.503379690896644],[127.12912091314121,35.503642620511],[127.12989296280554,35.50013940474053],[127.13023390393538,35.499279606814135],[127.13040324127189,35.498156048763235],[127.1303218069945,35.498123671206436],[127.13047661560924,35.49773870404299],[127.13062513136823,35.497582087173065],[127.13081295938098,35.49695039014859],[127.13110694783988,35.49672147685395],[127.13104974639245,35.49667860817237],[127.13145704172037,35.49605275466609],[127.1321980532323,35.49535468785867],[127.13358914398842,35.49377911244419],[127.13402607929997,35.49276689005666],[127.13423083820172,35.492556202215425],[127.13421711686244,35.49239456789759],[127.13436569888724,35.49221515415615],[127.13418238457733,35.49188206281269],[127.13422147381434,35.49152567029521],[127.13399222865249,35.49090494356698],[127.13455735812956,35.49000190778822],[127.13458074994877,35.489364497843205],[127.13392130719984,35.488853519940065],[127.13394728667603,35.48799075204224],[127.13410495612402,35.48745677172035],[127.13418148571489,35.48640919277629],[127.13411877656276,35.486191463228174],[127.13465721283701,35.486014770356995],[127.13712265240568,35.48410871400652],[127.13767867088298,35.48381812768849],[127.13751403708318,35.48353489786372],[127.1378132300335,35.48354361905055],[127.1378282776247,35.48314994810926],[127.13716728188886,35.4815905163202],[127.13789398919408,35.48107039975074],[127.13797311217029,35.48076200933193],[127.13861637271147,35.48038523015197],[127.14001071308755,35.47833845725808],[127.14026055359258,35.47808994183193],[127.14081070924856,35.47780300016164],[127.14132962558288,35.4774044900208],[127.14090510532203,35.47688415410852],[127.14113967682093,35.47558327170644],[127.14110839713383,35.47498483942544],[127.14068723180677,35.474370120591125],[127.14058532768846,35.47317628697446],[127.1402242444159,35.47292602265908],[127.14006908077712,35.472652185192544],[127.13985235475047,35.47248247597371],[127.13972684683341,35.47201806888074],[127.1398438281155,35.471718131959676],[127.1406134643841,35.471025990313464],[127.1403662626467,35.47044446254581],[127.13996801374232,35.46994765172454],[127.1408878775295,35.46943322588128],[127.14196321771436,35.46858106368162],[127.14288446258166,35.468248956516575],[127.14304539967694,35.46659246499034],[127.14273309049172,35.46551782113044],[127.14275824089005,35.46494467757071],[127.14313650616243,35.46358093457746],[127.14414470703655,35.461879645972296],[127.14464630941289,35.4618108691962],[127.14744712747003,35.462265395816495],[127.14879722863688,35.46201271273427],[127.14928483448256,35.462044779996695],[127.14945980616405,35.46195210249052],[127.15013787628872,35.46230118186962],[127.15145673924667,35.46179900007406],[127.15237457846112,35.46194607627669],[127.15297770651964,35.46125665834445],[127.154255189832,35.46098770245036],[127.1561379545686,35.4607802376724],[127.15651293815162,35.46126723869903],[127.1568668700611,35.461551732154824],[127.15782531117586,35.46194856737309],[127.15822020365259,35.46182164539612],[127.15856344231773,35.462041019258834],[127.15908242272619,35.46205943211578],[127.15957213779699,35.462238053681205],[127.1598823705586,35.46256244196969],[127.16055505965116,35.46270486438469],[127.16149359755788,35.4627318793704],[127.16215826265541,35.46251544900206],[127.16279884623344,35.462599896275954],[127.16355120807748,35.46258022936282],[127.16458064222365,35.46296733376662],[127.16496158779093,35.46303808360524],[127.16578826625572,35.46238270260602],[127.16642921496342,35.4622982416084],[127.1686190159824,35.46122095958774],[127.17024076573875,35.46082136050624],[127.17131333058609,35.460298009558386],[127.17238538768332,35.459956810340806],[127.17284587195228,35.45971050554117],[127.17349120761835,35.461426489099466],[127.17594985227608,35.46146044590835],[127.17656486692458,35.462888471292665],[127.17685555048037,35.46447660239219],[127.17792483233647,35.46538263252268],[127.17651715364694,35.46665031648761],[127.1766015485362,35.46814073750402],[127.17645887912373,35.46914543349859],[127.1761427039902,35.47038583613484],[127.17570485020006,35.470865423259575],[127.17559422148602,35.471274694720094],[127.17499123884568,35.47161248056894],[127.17514037708709,35.47231446527112],[127.17554227388703,35.47299776162139],[127.17671069644547,35.473837961226124],[127.17677607677246,35.47397925470322],[127.17808617909589,35.475209348315225],[127.1795309475454,35.47627971563311],[127.18265410339681,35.47813831801849],[127.18346493205291,35.47878605445221],[127.1845231055581,35.47993057328156],[127.18502008135727,35.48031231218278],[127.18718290578839,35.48159759751892],[127.18873727490491,35.482206118166],[127.18997612451292,35.48297942876679],[127.19007792695625,35.48327414787659],[127.19442593806161,35.48641489704235],[127.19490163001991,35.48700339084471],[127.19519774370774,35.48765879282839],[127.19553021992718,35.488085954816704],[127.19589594393565,35.489092888599366],[127.19678512271207,35.4890663233186],[127.19735855079071,35.488708612629225],[127.19882622729672,35.48824482612045],[127.19916759717134,35.48802432194294],[127.19962617851107,35.48794574249717],[127.20075156758685,35.48793584126961],[127.20114522721903,35.48823983295205],[127.20175128178778,35.48933835297351],[127.20209787765346,35.48953267442442],[127.20231157262236,35.489533095397114],[127.20302399624491,35.48979266269109],[127.20381891376373,35.4898149832834],[127.20450921172794,35.489696818834055],[127.20546747309653,35.48991504594528],[127.20636917376731,35.489965342007956],[127.20820267136818,35.489819656643895],[127.20894835988932,35.48959272800188],[127.20902235012949,35.48992270926396],[127.20913406758561,35.489877092760295],[127.20963432156766,35.489927757612044],[127.21013797434266,35.49025646665421],[127.21088559917456,35.49022788847693],[127.21166040760305,35.489808851320994],[127.21256058806277,35.48971595960852],[127.21327084362846,35.489286578435305],[127.21396134806213,35.48930723877497],[127.21464359535122,35.48886325360235],[127.21524934044128,35.48878792195891],[127.21590613557576,35.48888908265799],[127.21670113838717,35.489615028585504],[127.21738177009297,35.48936253650986],[127.21762130433896,35.48920984265521],[127.21806104078719,35.48865006790219],[127.2190471389235,35.48810834842395],[127.21893174318687,35.48728002406543],[127.21855511349818,35.486865913656295],[127.21863080834471,35.48664026203271],[127.21957436359165,35.48540939125142],[127.22019405008967,35.485037030514775],[127.22109799769495,35.48471879099238],[127.22173235972748,35.48468560251739],[127.22331704058722,35.482703353811935],[127.22497821447708,35.481874651032015],[127.22551707421042,35.48107171543529],[127.22680051677263,35.479620235481235],[127.22804087581264,35.4791154548958],[127.22876840613586,35.476841529044215],[127.22901040481487,35.4765281960362],[127.22948368014204,35.47630494038717],[127.22935399791044,35.47563917585086],[127.23002375657428,35.474964409057314],[127.23015530373284,35.474590434456395],[127.23209014471207,35.47441962255587],[127.23224526050264,35.47509172720249],[127.23196049680607,35.47561766856385],[127.23258469366607,35.47605488980165],[127.2333931747593,35.47705829117581],[127.23375707902245,35.47733209305905],[127.23497047563468,35.47721656389536],[127.2357727015826,35.47725310753407],[127.23654397856258,35.47700220890577],[127.23686425983576,35.47737472380759],[127.2374971263099,35.477620526636805],[127.2384247112734,35.47880074159927],[127.23879386582483,35.479667367522865],[127.23906412285407,35.47995831136719],[127.24049987162061,35.48069957142644],[127.2407908578532,35.48158257035754],[127.24126047660766,35.48201446961995],[127.24194459143857,35.48245755936142],[127.24218928485244,35.48286732832191],[127.24463139858067,35.48446834509077],[127.24570215204484,35.48391203489811],[127.24643380776195,35.48390653242394],[127.24664122616294,35.48424365127518],[127.24862042349082,35.48417581729107],[127.24875220761052,35.48428034270768],[127.24916004056438,35.483321816999286],[127.24946931633238,35.48294289819706],[127.25012151081626,35.48301190083403],[127.25046516692383,35.4829494986789],[127.25071808618301,35.482639776823845],[127.25051637258952,35.48235232437562],[127.2516749435233,35.482318300928334],[127.25194879447159,35.482389668613955],[127.2536442659915,35.48065770549988],[127.2540484797137,35.480080521803444],[127.25390732309737,35.47926502894704],[127.25458204359184,35.47908731323235],[127.25534395971388,35.47926831597735],[127.25553635826158,35.479733794401724],[127.25628810004557,35.480773495621186],[127.25680917593021,35.481082441738415],[127.25699954875253,35.481122733115846],[127.25731696136137,35.481371567223476],[127.25713899848752,35.48118971033175],[127.25783197006722,35.479735816855175],[127.25899365500497,35.48003137981678],[127.25909748808242,35.47993863758557],[127.25928408228091,35.478979234520324],[127.25994856495193,35.47835383241046],[127.25984363862634,35.477990136967556],[127.26039770012189,35.47752277725745],[127.26114552544863,35.477314529292244],[127.26136020265,35.477161340001544],[127.26118152705263,35.476976750063905],[127.26108923331132,35.47620108933934],[127.26267365680394,35.47539219249826],[127.26364969746051,35.47465702989493],[127.26451882723799,35.474593352243346],[127.26493453576084,35.47511418501212],[127.26592904177204,35.47561126856202],[127.26633901154953,35.47592302214468],[127.26665258614265,35.47602444282639],[127.26794703192661,35.47574481850186],[127.26865941464997,35.475285426944346],[127.26922760672113,35.47410266591734],[127.26963924901251,35.473924926856924],[127.27038910928647,35.473960967300975],[127.2706086818875,35.47365129473932],[127.27145751287564,35.473209392867815],[127.271699696065,35.47334317051257],[127.27328053455523,35.47335704262349],[127.27350113681135,35.47357573337533],[127.2742937394572,35.4729781550728],[127.27626309915453,35.47484428134322],[127.27788476167544,35.47541655749699],[127.27855507302391,35.47584715775223],[127.28177963844374,35.47698173561929],[127.28429539134734,35.478935911955816],[127.28475259041824,35.47862692686175],[127.28496291130556,35.4785782941916],[127.28533849094539,35.478006057489495],[127.2860839135489,35.47770868277069],[127.28633392359937,35.477770751242936],[127.28680676370887,35.47770710174874],[127.28729011921301,35.47732454615296],[127.28811529627296,35.4768890605912],[127.28806622060867,35.47670303183642],[127.28831902586788,35.476487885972716],[127.2887449434652,35.47633903060479],[127.28994479374163,35.47661581715003],[127.2923592580852,35.47577050208116],[127.29324414010725,35.475736235705256],[127.29372137494227,35.47600028801653],[127.29633339517922,35.476319548047265],[127.29842568868825,35.47814840007064],[127.29936857515015,35.47800632962954],[127.3007637772578,35.4783059291123],[127.30129465583228,35.47848931698252],[127.30382137749797,35.478231848882885],[127.30865202658146,35.47787770260201],[127.30808405335017,35.479802777264034],[127.30716598427901,35.480633249406885],[127.30728862129465,35.48143216863262],[127.30794641957085,35.48191135332946],[127.3081406625299,35.482339636605204],[127.3082061450152,35.48376555388916],[127.30710048868505,35.48411231420542],[127.30739168733803,35.48472244181113],[127.3070531900745,35.48527610357217],[127.30743233145638,35.48599685136232],[127.30745102615101,35.48655620506432],[127.3079393029713,35.4877257203273],[127.30778172446519,35.48903443038137],[127.30955765094654,35.49011539941404],[127.3094141935611,35.49077845709517],[127.31030889644228,35.49318018936617],[127.3103385093349,35.49348270795898],[127.3105629060696,35.494099342086685],[127.31101750660653,35.49466516680661],[127.31151689640818,35.49564286802179],[127.31199069776822,35.49571049118049],[127.31212883579003,35.496045535545676],[127.31261587342549,35.496248776980956],[127.31321649127632,35.49634822453825],[127.31352678631033,35.49662333105712],[127.31396158755337,35.49671232607035],[127.3143358300939,35.49623380096072],[127.31647320195793,35.49542778902217],[127.31787274396203,35.495156132332696],[127.31878138127281,35.49363103811958],[127.3191187362137,35.49349315253636],[127.31963631935558,35.49344933796949],[127.32021400035292,35.49362642407548],[127.32083859258788,35.49413908990489],[127.32154703507254,35.49445812048527],[127.32389972986272,35.49534547762985],[127.32504335522609,35.49555870163667],[127.32582212072575,35.49552778481116],[127.32578727183763,35.49567044703306],[127.32605690038889,35.49556815398189],[127.32603445637767,35.49544659289739],[127.32637155950523,35.495340522831825],[127.32636593962569,35.49539542637791],[127.32654799624459,35.49541981147124],[127.32774974131242,35.494605041134704],[127.32785586476413,35.49471191592671],[127.3304590121529,35.49295524411929],[127.33041075173375,35.49322847044888],[127.33118801180318,35.4926510854022],[127.33120386228114,35.49216894529128],[127.33238670197576,35.4921096935723],[127.33289788183404,35.49193032653752],[127.33385082669791,35.491876306978995],[127.33441235082906,35.4923450994001],[127.33520112608355,35.492714646446885],[127.33537502980032,35.49313238379154],[127.33634064474283,35.49361091121804],[127.33718014082991,35.49389927546771],[127.3377944127043,35.49399523790341],[127.33891125690805,35.493888452622656],[127.34017988832173,35.49467913082717],[127.34035752706913,35.495078790982284],[127.34033612447678,35.495365158011204],[127.34135575738277,35.49644589628116],[127.34174293208513,35.49662655996863],[127.34202503871116,35.49658698932293],[127.34220126986864,35.496425474948886],[127.34309249156905,35.49632035025888],[127.34363348296301,35.49634263129596],[127.3443795866338,35.49666277226284],[127.34480783815455,35.49656467404234],[127.34531558365762,35.49652309185882],[127.34550262094973,35.49657409725837],[127.34630114642431,35.49644957409792],[127.34689130987044,35.496436961679215],[127.34744691432213,35.49684186558606],[127.34754162545788,35.49704615920639],[127.34760926056842,35.49698153186911],[127.34839687244937,35.49702544347892],[127.34912285411878,35.497176223456684],[127.3493014885175,35.49697730589925],[127.34955531894869,35.496929065978996],[127.34950862835893,35.49686923792164],[127.3498941974307,35.49672668464832],[127.35050365130691,35.496666185509085],[127.35113656335002,35.49683358923883],[127.35137507232557,35.49677258239388],[127.35118535782276,35.496865272763756],[127.35146496152913,35.496891987498046],[127.35189591449691,35.49713823285811],[127.35261120941622,35.49736710293879],[127.35288843297859,35.49738094104507],[127.35308483147521,35.497613571078254],[127.35335104321807,35.4977075566852],[127.35344417163995,35.497815891744224],[127.3534468248201,35.49805245680856],[127.35310532802939,35.49829583114606],[127.35370419479916,35.4987392258219],[127.35382950829367,35.49970539305244],[127.3542647903378,35.49993086968032],[127.35500873083559,35.500764114208124],[127.3555096863667,35.50024552543208],[127.35573981658094,35.500292512645586],[127.35629512039962,35.499875911950795],[127.35624048200674,35.50031614064236],[127.35636538162296,35.50029693598138],[127.35639179619791,35.500754032208036],[127.35645101945087,35.50084268079088],[127.35699985950794,35.50096002826466],[127.35678991880657,35.50185184847924],[127.35632869444399,35.502422429445396],[127.35615012129308,35.503205847453806],[127.35625448510976,35.50383142831625],[127.35606984536669,35.50470269730893],[127.35556316888211,35.50535939140827],[127.35513244048772,35.50562427547187],[127.35519353797314,35.506828616120096],[127.35512919995188,35.50707253372089],[127.35480434503991,35.507486333169716],[127.35471578513481,35.50775960490531],[127.3549941374707,35.50873714520471],[127.35484815330773,35.50932133476441],[127.35490787263836,35.51015557130624],[127.35481695850817,35.510735441198364],[127.3546059168726,35.51109937211395],[127.35393728602655,35.51178089540306],[127.35390710266527,35.51190889553794],[127.35400939421939,35.512044269384425],[127.3539113652389,35.51274580069054],[127.35374869183624,35.51303550022659],[127.35277154656892,35.51355564803217],[127.35237890201581,35.51389787719746],[127.35195594069404,35.51454248856588],[127.35166524867522,35.51480170678412],[127.35098281457167,35.51501998865499],[127.35073873463509,35.5151717348796],[127.34944387782473,35.51621382238586],[127.34806343274622,35.517190222464826],[127.34765584954357,35.51745376848287],[127.34629636240683,35.517682697252624],[127.34601846271521,35.517851845187735],[127.3456007661577,35.51826684934842],[127.34509914404504,35.519120004266135],[127.3445844084893,35.519769706309255],[127.34401231728613,35.52001523253942],[127.34300692652744,35.52028081938419],[127.34241434402999,35.52105327338002],[127.34110273728471,35.52240961011053],[127.3400985491702,35.52332235315775],[127.33983062781152,35.5238043252617],[127.3393735977782,35.52425318838331],[127.33801541319663,35.525098967503936],[127.33756283445673,35.525721021338704],[127.33784364007715,35.52548720805016],[127.33789507453079,35.52552734355071],[127.33771815494927,35.52571760571834],[127.33770756038926,35.52621474399162],[127.3376499179625,35.52621407673072],[127.33777053644711,35.527808136231265],[127.33847400477423,35.52771341198264],[127.3388768632176,35.527797421471824],[127.34022867472478,35.52749872026448],[127.34067621883577,35.525943100868744],[127.34252132861312,35.525916501177555],[127.34375313796048,35.526463611960395],[127.343986687391,35.526780465213086],[127.34542223551293,35.52723691465507],[127.34552279159777,35.52802608991696],[127.34541106380377,35.52837592232699],[127.34699465543022,35.530075567680626],[127.34684692950351,35.53093313124831],[127.3469993018376,35.53138727989887],[127.34676351853867,35.531918789040326],[127.34751340146971,35.532764243013794],[127.34760729947759,35.533146591294155],[127.3472896320032,35.5341095970314],[127.34840171102982,35.53499523957477],[127.34800603099642,35.535357343620056],[127.34970491360633,35.53536233097424],[127.35033508893426,35.5356143937468],[127.35000781136931,35.53596131862833],[127.34995888915157,35.53619670545413],[127.35003107149606,35.537336371033305],[127.34969197022562,35.5375240718287],[127.3496306558662,35.540148477596404],[127.34893870050153,35.540497984436904],[127.34879913868826,35.5409350184202],[127.34847903927803,35.54106819252929],[127.34837465399912,35.54147740159025],[127.34814362941513,35.54189750731293],[127.34817578630421,35.54213577236173],[127.34766484408068,35.54238765473644],[127.3473961827001,35.54235710577568],[127.3467979665215,35.54297226544039],[127.34606663904995,35.54274415859196],[127.34571091239629,35.54243709561294],[127.34538966223103,35.5423340660127],[127.34513868871139,35.54235727736718],[127.34481422086054,35.54270989522723],[127.34447567668828,35.54275901444323],[127.34379551135486,35.542567105622815],[127.34349559126964,35.5426565836179],[127.34241655484563,35.54311853892376],[127.34223758474937,35.543411990638454],[127.34185615837137,35.54361744504393],[127.34076324008942,35.54366353524969],[127.34039660352161,35.544289631571836],[127.34018079597301,35.5444482762592],[127.33992482009816,35.54437987571121],[127.3396253447671,35.54444433794443],[127.33896496699572,35.54509868640191],[127.33917419365956,35.54542343935741],[127.33839463471821,35.546407081825635],[127.3383991696971,35.54651345689678],[127.33719647176517,35.546700288186614],[127.33708243431434,35.54700810019964],[127.33654435958472,35.54751630210787],[127.3366051031399,35.54753488832156],[127.33645637323697,35.54754707191968],[127.3363748260612,35.54766011256092],[127.33555209348471,35.54768694668182],[127.33541177360384,35.54763477267234],[127.33524335027043,35.54779135056589],[127.33519875783082,35.547651350017425],[127.33442963126599,35.54751045058743],[127.33427531466705,35.548636562976185],[127.33429768984051,35.550056240769166],[127.33405382447357,35.5506559660415],[127.33400281802741,35.55127062642496],[127.33418173034173,35.55186959684062],[127.33462183576343,35.55274476140267],[127.33532992981638,35.55360845533271],[127.33617839908558,35.55417871918274],[127.33776598949348,35.55459854895962],[127.33880360278846,35.55453921196787],[127.34008068304783,35.554021581449675],[127.34128076921093,35.55328295987705],[127.34294321087872,35.55170834339793],[127.34333935669419,35.55110660887816],[127.34428492456495,35.55091356182338],[127.34557471839987,35.55096718322633],[127.34770257698288,35.55138411250088],[127.35015480268459,35.551536638670115],[127.35116121842066,35.55193107595289],[127.35268835640157,35.55277771721477],[127.35336452446948,35.5533757238311],[127.35373583959682,35.55389044771448],[127.35475261014624,35.55481691203864],[127.35689933255762,35.557232274710046],[127.35753132246793,35.557597082776326],[127.35850614890559,35.558411010394835],[127.35882083250335,35.55884529225231],[127.35927270708859,35.55892207568866],[127.359599921667,35.558873697202046],[127.36010587618857,35.55856176278914],[127.36027368140995,35.55840576282874],[127.3604091204594,35.55786544490658],[127.36060392915516,35.55755736207518],[127.36115180618495,35.55729987962339],[127.36141157883729,35.55706227367108],[127.36228748593562,35.557175912647025],[127.36294664935785,35.55756848550502],[127.3630014971954,35.55783582331407],[127.36342793035405,35.55804372495474],[127.36406813877647,35.55863099084018],[127.36436121323328,35.55876900977222],[127.36363370665629,35.55964450691902],[127.36331671219698,35.5609896225319],[127.36271512856695,35.561287669655535],[127.36181161000125,35.56190532371782],[127.36189243296994,35.5631012167264],[127.36204303470444,35.563053179232256],[127.36208534533401,35.562947006771964],[127.36203735341665,35.56259509015754],[127.36217889321536,35.56233903292194],[127.36292618151366,35.5631014208622],[127.36272304283156,35.5632481367447],[127.3634973889299,35.56395859825273],[127.36307797978957,35.564258138903796],[127.36384996263553,35.56503853704293],[127.3631081277702,35.56542453032205],[127.36336590541501,35.565839899588404],[127.36325669272483,35.566252728276744],[127.36349308249676,35.56682190314175],[127.3643000341092,35.56724897588193],[127.36485649794245,35.5680114753878],[127.36581724410884,35.56880695292607],[127.36600836862476,35.56920401420529],[127.36581441149347,35.56920460095248],[127.36551638246716,35.56961402748052],[127.36598835076929,35.569818517169196],[127.36538817395329,35.57076461844492],[127.3665878200245,35.57118258477229],[127.36669312554373,35.57082777257575],[127.36748536808457,35.57109808130034],[127.36778664916466,35.57049058451613],[127.36850662884478,35.570340995225514],[127.36957397779717,35.57052074072802],[127.37136741812618,35.57140783810948],[127.37232176148441,35.57157366310883],[127.37285639246365,35.57199044793185],[127.37331694052648,35.57315927587594],[127.37437520187747,35.57376031938055],[127.37499115562946,35.57380945264959],[127.37533227333525,35.57394109268162],[127.3768907715421,35.57481323583616],[127.37782314561144,35.5755801785959],[127.37853144883852,35.57598640223281],[127.37889915780087,35.57637463276777],[127.37889494247901,35.57679505153641],[127.37927970759235,35.57752529299622],[127.37908036778587,35.57766900490925],[127.37886442605698,35.57834460900681],[127.3785932559592,35.57857404957623],[127.37737368927358,35.57844622785631],[127.37668606675726,35.57868365041398],[127.37636240191826,35.57898768943174],[127.37597888080357,35.57912272072515],[127.37618899837989,35.57935562733558],[127.37638744750349,35.579307781704635],[127.37728988261394,35.579850664479345],[127.3770780516256,35.580551252402074],[127.3773934998395,35.58144626237763],[127.3776780732028,35.58188625696707],[127.37744299371882,35.58238353422551],[127.37724235455221,35.58251952527076],[127.37720100437411,35.58311483427293],[127.37704723071204,35.58360035831585],[127.37664271905204,35.583885308410274],[127.37615153553769,35.58441596860496],[127.37593908927282,35.58447926820178],[127.37592911389177,35.58472792748809],[127.37542365518595,35.58487660497963],[127.37521941033022,35.58517618534277],[127.37411009849207,35.58595252438899],[127.37393432606092,35.58597617865501],[127.37379091732402,35.58624431088181],[127.3739153310923,35.58654421641931],[127.37399746607385,35.586573220216465],[127.37387870450269,35.58666679607946],[127.37351099991152,35.58664740024969],[127.37335120880307,35.58677064749516],[127.37305460264281,35.58676780362042],[127.37276959246527,35.58658534338681],[127.37212104513192,35.58662163395461],[127.37173421502563,35.58649529045882],[127.37193696260817,35.58741941286231],[127.37194471741344,35.58899480453134],[127.37170466425489,35.58986483062961],[127.37209351978355,35.590879319346804],[127.37208247159396,35.59252573695004],[127.3734455799689,35.59545110518477],[127.37367162601326,35.59674557527013],[127.37408158156633,35.59694761960734],[127.37482757872311,35.598046218437304],[127.37494929234067,35.59809757497699],[127.37449967554309,35.60014926660817],[127.37425683793538,35.602865968077076],[127.37278257509777,35.60522144863018],[127.37267118347862,35.60624772942203],[127.37321378693976,35.60642869342202],[127.37393548531013,35.606815367016004],[127.3746537116177,35.60743070261185],[127.37494182867111,35.608124517134804],[127.37545822915489,35.60844118398316],[127.37574362809801,35.60871038567158],[127.3767511935624,35.60892909378061],[127.377442405257,35.60957607622413],[127.37768987095812,35.609546138536814],[127.37806145368708,35.60971787237207],[127.3794276659017,35.610019641679465],[127.37938730497235,35.610289332394515],[127.37948248603756,35.6107703797892],[127.37930589408684,35.61137510708875],[127.37942973978443,35.612285831181325],[127.38000468915125,35.61303027702915],[127.38008395406591,35.61363618306037],[127.38127516544354,35.61325539408484],[127.38165843984078,35.613199118529266],[127.38274237882004,35.61328582795232],[127.38314449935717,35.61347482434733],[127.38434873717968,35.6137071210672],[127.38465730487671,35.613691080711604],[127.38609589503947,35.61427689815364],[127.38666156664814,35.61464024362658],[127.38694263393921,35.614693521196855],[127.38804247795817,35.61565124750056],[127.38933433791983,35.61457002248282],[127.38961801419367,35.61461895024882],[127.38995954342528,35.614571388533854],[127.39046126427662,35.61468686400199],[127.39166858999141,35.61447463913506],[127.39263198020559,35.61448987377459],[127.39290147513925,35.614312491804334],[127.39363782692612,35.614264826333105],[127.39436021459152,35.61399357772154],[127.39480339458042,35.61373448264506],[127.39565966510276,35.61351470292623],[127.39645288502695,35.61319376250069],[127.39693907784181,35.61332280180395],[127.39768692449684,35.613153082792046],[127.39802568471505,35.61323761672676],[127.39898779373777,35.61292089229559],[127.39920122220227,35.612986278509666],[127.40020238940902,35.61285581689203],[127.40139429178444,35.61295870470314],[127.40257742024488,35.61377821753896],[127.4028667981259,35.613850112664004],[127.40315240615222,35.613688084866745],[127.40366274360777,35.61363283679579],[127.40416521906474,35.613891970154846],[127.40441860179475,35.61411665932971],[127.40530819093179,35.61345744256967],[127.4058869764066,35.61330326629358],[127.40625910993101,35.613512447537445],[127.4066875249166,35.613463383962156],[127.40710054757831,35.613555330799066],[127.40738504571719,35.61384016711352],[127.40782926281616,35.61408926271882],[127.40806249044574,35.614409682451864],[127.40876589083003,35.61454774427992],[127.41013100373259,35.61498055688043],[127.41079801788213,35.614940025563236],[127.41125322928222,35.61504545104095],[127.4118908337987,35.6148482804758],[127.41229261952525,35.61447337638031],[127.41267554891456,35.61440709636047],[127.41439607213826,35.61382391617475],[127.41573110052406,35.61417071476918],[127.41602135315539,35.614396586502366],[127.41639234714675,35.61438348742677],[127.41670099173818,35.61457513274593],[127.417136761284,35.61459329674625],[127.41743039582263,35.61472910678883],[127.41879147274965,35.61491314831766],[127.41965930532707,35.6152289818892],[127.42048163692796,35.615099974432404],[127.42111954788828,35.614743550521126],[127.42200914106353,35.61497687305316],[127.42237601628273,35.61498168494555],[127.42277401034266,35.61485286198587],[127.42348818458895,35.61521270527605],[127.42374344001506,35.61524284882489],[127.42392870438513,35.61515921147894],[127.42437524141073,35.615206663395945],[127.42480481083285,35.61509238817621],[127.42520995139607,35.61479137854763],[127.42575406339682,35.614608432627655],[127.42645291982336,35.615026804013944],[127.42676585007995,35.61567724259248],[127.42684697813894,35.61649709180019],[127.42748592739325,35.61669387402758],[127.42791866407117,35.61663483204602],[127.42851854632376,35.61689003950204],[127.42860485847666,35.61725083973767],[127.42911536891852,35.617693774596404],[127.42920636552122,35.61814599015625],[127.43043132701528,35.61861689692781],[127.43077989084657,35.61854001188784],[127.43112786680692,35.61863026825496],[127.43185772671751,35.61900768718292],[127.43207542720452,35.61965839850186],[127.43256801523714,35.61999259636744],[127.43263975762025,35.620329048011655],[127.43347891287026,35.62055387573783],[127.43499105345808,35.621329760504665],[127.43609954877466,35.62201971447507],[127.43516492524824,35.62296284518842],[127.43514771408094,35.62423409143248],[127.43465162937827,35.626078356997475],[127.43302657256507,35.62761728674195],[127.43199207044644,35.627914540284],[127.4313016985098,35.628763528202185],[127.43049789723747,35.63000532434188],[127.43070719191056,35.63099390729473],[127.43043878724772,35.63180815680143],[127.43163950230674,35.633787474095186],[127.43264781999379,35.63453271956014],[127.43219756878592,35.636511168175346],[127.43138204468055,35.63767252770615],[127.42989981591954,35.638752521890694],[127.42901657606684,35.63992399069964],[127.42836888485759,35.642058908483236],[127.42524644010894,35.64097969139829],[127.4210496066976,35.640446572340586],[127.41852891186663,35.641161237021564],[127.41609029978875,35.64228278368326],[127.4125057566941,35.64429052536316],[127.41042153495499,35.64465237353765],[127.41018800326148,35.64528884206469],[127.40851328114007,35.64690902654164],[127.40607702747121,35.64726632613102],[127.40477768608969,35.64788699330953],[127.40403811986478,35.64851160830416],[127.40184328738943,35.64934954684821],[127.40084282766077,35.64999294486611],[127.40008550915077,35.65013734885397],[127.39984029370615,35.65075062006593],[127.39944844345189,35.65111740071584],[127.39891082920929,35.6519945014307],[127.39785851957268,35.65229256161653],[127.39623586322489,35.65158288992647],[127.39299394735303,35.65112692005852],[127.39276479565484,35.651337607721196],[127.39267577888437,35.65168314748965],[127.39178087634312,35.652568224920174],[127.39151195164258,35.6525782184659],[127.39115905901434,35.653411327589964],[127.38894834905228,35.654259853673366],[127.3887440070859,35.655106788342515],[127.38796834211865,35.655485002123164],[127.38755546382394,35.65556017524786],[127.38729217527471,35.655275081241356],[127.38603755932857,35.654624057464304],[127.38569886698282,35.65466825435655],[127.3853969339958,35.65488992194738],[127.38476188211163,35.65515360275118],[127.3843179323481,35.654574675840166],[127.38240755594074,35.654525808491506],[127.38103974031586,35.654221027139265],[127.37951709334772,35.65403577434399],[127.37819830328648,35.65415126684919],[127.37828063865088,35.65520004696251],[127.37859365586826,35.65583797058157],[127.37853116987769,35.656276356127904],[127.3782924220163,35.65658058090965],[127.37850154321369,35.65786296954389],[127.3783135761035,35.65822501390777],[127.37834171465929,35.65855891972091],[127.37823389838688,35.65872591263924],[127.37853607815394,35.65903072496601],[127.37845765145062,35.65931156957031],[127.37890199008736,35.66007003369789],[127.37892012982792,35.66056418937355],[127.37920890256044,35.66081147593799],[127.37882070124107,35.661664819037476],[127.37878356945056,35.66237272233581],[127.37838159779825,35.66271493474507],[127.3782521064995,35.66359881033548],[127.37791605285241,35.664044784043284],[127.37773527344252,35.66446406356352],[127.37705083901434,35.663944757173745],[127.37672181896264,35.66355171142901],[127.37587952991893,35.66378803277153],[127.37491959704884,35.66386361077133],[127.37426619231684,35.663461586808744],[127.37344876498199,35.663135177444644],[127.37185195167405,35.663297432971724],[127.37156795840993,35.66316646773772],[127.37106184403663,35.66313284557007],[127.36974216978484,35.66273539971557],[127.36766616073776,35.662610496419624],[127.36764423949188,35.66231520543077],[127.36744126859064,35.66184708100843],[127.36728402983428,35.661709673926694],[127.36680945629998,35.66044923151088],[127.36453942656773,35.660264765635176],[127.36425533344195,35.66063445005109],[127.36379713075927,35.66190285850533],[127.3632950138521,35.66231264234299],[127.36310330575175,35.66282509772051],[127.36282695478513,35.662869468739956],[127.36251956790466,35.66324269466081],[127.36252274450466,35.663391503842576],[127.3626392920251,35.663486861284575],[127.36249797140526,35.663790986871476],[127.36234712813095,35.663854257826245],[127.362352912796,35.66419953641979],[127.36225265771718,35.66425942980098],[127.36222352048091,35.66441350727106],[127.362310341055,35.66471108958741],[127.36262176350185,35.66513213250107],[127.36248840727441,35.66531704090124],[127.36254537421812,35.66552778585315],[127.3623354506053,35.66557607432639],[127.36231439087979,35.66576813825655],[127.36195345332764,35.666024772854925],[127.36201318554937,35.666420722433834],[127.36190354836448,35.66675559345199],[127.3620379859684,35.66698214125764],[127.36193407331332,35.66709396482434],[127.3617900436434,35.667136286850386],[127.36164319877213,35.66738080986473],[127.3614719183837,35.66746185824433],[127.36107320585765,35.66746633991139],[127.36084094372569,35.66755153671236],[127.35988081209761,35.66830522333054],[127.35925602038107,35.6686710037042],[127.35904074570176,35.66870021399253],[127.35842420830801,35.66857998327425],[127.35744998694862,35.669009150400115],[127.35685879848543,35.66913556095048],[127.35630238886286,35.66910696353041],[127.35587906868088,35.66899892223057],[127.3552383946638,35.66870157439672],[127.35503946714542,35.66868673026649],[127.35482998780218,35.66781124547998],[127.3544479446381,35.667518469688],[127.35334232160379,35.667294151779075],[127.35286914182275,35.66739305107938],[127.35249025426033,35.667380357650494],[127.35190320607197,35.66720447301226],[127.35013849633907,35.66694681266037],[127.34925606449507,35.666388645202886],[127.34881147694743,35.6663309037947],[127.34883243611225,35.6662563082819],[127.34868134749365,35.6661849752327],[127.34804128400104,35.66601005283162],[127.34662079105503,35.665439579863076],[127.34595065919734,35.665456450764076],[127.34516891898733,35.665368558575196],[127.34318095217459,35.665468044966474],[127.3401832481486,35.664951973868206],[127.33978422014818,35.66496854420872],[127.339772305745,35.6648587297982],[127.33902836237316,35.664924104017246],[127.33803693673731,35.66522068491505],[127.3369651816285,35.66502217002156],[127.33731403303854,35.66526063064441],[127.33668498260067,35.66512129752983],[127.33566283075879,35.6650756849307],[127.33475202852746,35.66479923886432],[127.33345625278956,35.66409567926979],[127.33212934910202,35.66370894318438],[127.33150498254969,35.66344122792087],[127.3308955070873,35.663038289165385],[127.33057517959028,35.662689515874064],[127.32792437824797,35.66094902512511],[127.32763289052085,35.66082423007405],[127.32715267515097,35.661006236509266],[127.32614488072896,35.661628997552086],[127.32607423222376,35.66158763090067],[127.32553613307499,35.661754336509],[127.32442067344297,35.66245395622076],[127.3244546761391,35.662530715842855],[127.32398785512653,35.662845124670696],[127.32354092765063,35.663329836225934],[127.32338436777152,35.663250175512765],[127.32266719967691,35.66597145001463],[127.32287922298404,35.66600524187689],[127.32276574525459,35.66666534822125],[127.32233216815621,35.668905979116104],[127.3219165473362,35.67027270450162],[127.32168689617596,35.67063421183359],[127.32095712026653,35.671303570435185],[127.32016177017881,35.6725154204905],[127.32001992447965,35.67311533076597],[127.31993534929217,35.674285739460174],[127.31956352867932,35.674958422618275],[127.31906177851462,35.67553544533895],[127.31881764437351,35.67609594083892],[127.31824552910977,35.67656624402602],[127.31840097414035,35.67667405884233],[127.31768956208917,35.67730122411924],[127.31753752873423,35.67718196271873],[127.31769345977541,35.67704315137519],[127.31733410076602,35.67712154182888],[127.31672393881426,35.67778571941206],[127.31641969486088,35.67756348097958],[127.31629763360962,35.677610329834],[127.31574288574919,35.678141493833316],[127.3150680943877,35.67845572355684],[127.31394273304664,35.67990600166906],[127.31323277711108,35.680611312895955],[127.3129631530962,35.6811114673118],[127.31200961163583,35.6813744893609],[127.31178612254067,35.68133631997069],[127.31160873370483,35.681423451194455],[127.3114721193699,35.681374956291315],[127.31025441554453,35.68190575070956],[127.30886035672322,35.682804939109566],[127.30695022586266,35.68438042925102],[127.30640188247303,35.68473335054412],[127.30523994858872,35.68511602959825],[127.3046003863507,35.68522030483034],[127.30365848521966,35.685195706657495],[127.30272663538985,35.68508206620636],[127.30208320175743,35.68487952967695],[127.30042815783284,35.68399747661808],[127.29906918054472,35.683156503288735],[127.2984583812167,35.682864548283085],[127.29800677105958,35.68278198741922],[127.29482689350806,35.68398520492729],[127.2935495199563,35.68418269847122],[127.2931141697881,35.684407025734316],[127.2923184242455,35.68524479931148],[127.29161460785734,35.685764718311155],[127.2907514822917,35.68617803860687],[127.28905414250676,35.686698261920995],[127.28801037202632,35.68713037678682],[127.2879562604338,35.68720701461651],[127.28856925879846,35.687692222628236],[127.28921966822348,35.68863397674979],[127.28981884655319,35.6887084772784],[127.29035803674387,35.689128769847215],[127.29088258923998,35.69023642618317],[127.29217026449516,35.69088525750314],[127.29330735354867,35.69197340338024],[127.29299204082646,35.69390052544714],[127.29246273754973,35.6955848934935],[127.29240455285743,35.69617148015541],[127.29278491755483,35.69673183461726],[127.29257658124722,35.69800515672929],[127.29377556783732,35.69852232073776],[127.29437021603653,35.698904716411825],[127.29426365370122,35.70024470339509],[127.292468501872,35.702164956892844],[127.29190498531784,35.702489098162275],[127.29161321009929,35.70338830285122],[127.29136142732318,35.70381046938764],[127.29096996032995,35.70424463348791],[127.29075454421682,35.70556541146022],[127.29088121554241,35.705778336730454],[127.29164063613806,35.70593444854978],[127.29179184667882,35.70788280604522],[127.29247618688234,35.70864306838686],[127.2920957707037,35.7100042883039],[127.292105630308,35.710708153105976],[127.29194670272263,35.71177216773395],[127.29156710871213,35.71282703610069],[127.29097773135197,35.71361205266802],[127.29086147662684,35.71365579281617],[127.29084358072488,35.71405491756517],[127.29106995510276,35.714813844035156],[127.29152881321866,35.71559804002813],[127.29165064357136,35.71554370387199],[127.29209570941131,35.7160452489814],[127.29298204429233,35.71653507003769],[127.29331746576608,35.71721146895197],[127.29347136080915,35.71781486386538],[127.29321626908973,35.71856410099656],[127.29292333747891,35.719014371440196],[127.29266243153971,35.719942236299644],[127.29157547260868,35.721949555532824],[127.29091623234468,35.722541806313046],[127.29068695178216,35.72303341147052],[127.29022752894673,35.72368580571319],[127.28954970697465,35.7254540913628],[127.28942114835316,35.72705284879826],[127.28919798440916,35.72769646238692],[127.28818317555118,35.7280803017131],[127.28806249660852,35.728274593171605],[127.28789801614862,35.72830192399789],[127.28760541235282,35.72863390679268],[127.28687166271064,35.72982881513089],[127.28696894400653,35.7304086851278],[127.28725250450462,35.73083534542454],[127.28782063233048,35.73135250273707],[127.28792569139003,35.73164467632664],[127.28794249178578,35.73228667927466],[127.28754628173961,35.7332528406927],[127.28677776693239,35.733666327820316],[127.28649751084721,35.734020673719414],[127.28617289219342,35.73467882447051],[127.28592804105814,35.734838243089115],[127.28413549756608,35.73489375842723],[127.28346300293175,35.734722556315326],[127.28278386636799,35.73526186791665],[127.28254004968565,35.735683578882494],[127.28201969175414,35.73616941040869],[127.28169641624338,35.736655846224664],[127.28121295187702,35.737145825489],[127.28105284164381,35.73752524385619],[127.28110467406792,35.73780656973688],[127.28159955106474,35.73919089478764],[127.28139113874414,35.73995797599823],[127.28086888623507,35.74100623450419],[127.28080362620007,35.74159657768054],[127.281148236831,35.74291385689328],[127.28082426578987,35.743460513836794],[127.28048261763287,35.74369508497209],[127.27950060078447,35.744102386123124],[127.27932729566521,35.74424152720597],[127.27866336948942,35.745378774973865],[127.27834831929523,35.745601346701946],[127.27795183091918,35.746088228150185],[127.27730139333353,35.74713362758276],[127.27727629529045,35.74778645156598],[127.27670138768336,35.748885181596094],[127.276422495843,35.74916267760676],[127.27617709871072,35.74969734405483],[127.27603965196812,35.75027693540881],[127.27607960952886,35.750888945889045],[127.27595169414114,35.751070030862266],[127.27584330981706,35.75161141262007],[127.27581315359625,35.75200269249928],[127.27601079197356,35.752481405749016],[127.27588434493151,35.7528850010417],[127.27528167882043,35.75353003662307],[127.27508879284149,35.75384817127149],[127.27487851232183,35.75451207666943],[127.27426341302676,35.7551938539048],[127.2726098124556,35.75603641331038],[127.27187648309622,35.756685016261166],[127.27129467432026,35.75685810436635],[127.27083624378554,35.75741675919367],[127.2705093521728,35.75765946210596],[127.27007245137904,35.75768196193916],[127.26993387165437,35.75785330212849],[127.26982912838068,35.75820919090787],[127.26955126511295,35.75835819578533],[127.2694058315297,35.75853334511666],[127.26890197826397,35.758606964484066],[127.26861589373824,35.75879850464229],[127.26836286256145,35.75928317843682],[127.26741731177391,35.760404016205165],[127.26733276083009,35.76053235452681],[127.26748269283416,35.760593237455296],[127.26737704839319,35.760795407215475],[127.26652947172612,35.761950548304945],[127.26597860206114,35.762335390739864],[127.26560994728868,35.76244201892704],[127.26545402459132,35.76263047255635],[127.26545000538057,35.762802792821034],[127.26561426330109,35.76314891246242],[127.26574244177836,35.764140900192444],[127.26538663655914,35.76437440624577],[127.26529825978301,35.76457489642551],[127.265308316114,35.76497846823668],[127.2654105886115,35.76535195047877],[127.26571818391793,35.765689976805646],[127.26571427235704,35.7658951308591],[127.26537340314006,35.76663858111584],[127.26538688912612,35.76683736209879],[127.26560996123648,35.76727692906016],[127.2658123816402,35.767990326356305],[127.26568470636784,35.76845392685449],[127.26595154682634,35.76870365606034],[127.26597696526984,35.76911914448538],[127.26609038345002,35.76930635708959],[127.26671158716057,35.769893664229954],[127.26709428238682,35.77007799152547],[127.2670467665522,35.77028853210223],[127.26735685325252,35.77083906679792],[127.26754315939442,35.77084127716399],[127.26798279023329,35.7710884738649],[127.26807052867537,35.771581279164224],[127.26866900127011,35.772243049807535],[127.26882416492258,35.77234370998328],[127.26932847488034,35.77246304197964],[127.26996979321856,35.77285709263353],[127.27010002977829,35.77285513447536],[127.26998231312976,35.77289389932392],[127.27245275294416,35.774103732161855],[127.27247685694314,35.77581642176952],[127.27209058184303,35.77658801222739],[127.27144878725024,35.77758577657125],[127.26855197057301,35.77751403373039]]]}}
